<?xml version="1.0" encoding="UTF-8"?>
<gpx version="1.1" creator="Gravel Kompass" xmlns="http://www.topografix.com/GPX/1/1">
  <metadata><name>Augsburg–Westliche Wälder-Runde: Anhausen, Straßberg und Rauher Forst</name></metadata>
  <trk>
    <name>Augsburg–Westliche Wälder-Runde: Anhausen, Straßberg und Rauher Forst (komplett)</name>
    <trkseg>
      <trkpt lat="48.334103" lon="10.826170"><ele>499.8</ele></trkpt>
      <trkpt lat="48.334345" lon="10.826608"><ele>499.0</ele></trkpt>
      <trkpt lat="48.334469" lon="10.826769"><ele>498.8</ele></trkpt>
      <trkpt lat="48.334646" lon="10.826538"><ele>499.2</ele></trkpt>
      <trkpt lat="48.334595" lon="10.826295"><ele>500.5</ele></trkpt>
      <trkpt lat="48.335147" lon="10.825984"><ele>501.0</ele></trkpt>
      <trkpt lat="48.335253" lon="10.825826"><ele>502.0</ele></trkpt>
      <trkpt lat="48.335284" lon="10.825639"><ele>502.0</ele></trkpt>
      <trkpt lat="48.335310" lon="10.825263"><ele>503.2</ele></trkpt>
      <trkpt lat="48.335324" lon="10.824761"><ele>504.2</ele></trkpt>
      <trkpt lat="48.335427" lon="10.823373"><ele>507.8</ele></trkpt>
      <trkpt lat="48.335573" lon="10.821280"><ele>514.2</ele></trkpt>
      <trkpt lat="48.335638" lon="10.820233"><ele>517.2</ele></trkpt>
      <trkpt lat="48.335651" lon="10.819836"><ele>518.8</ele></trkpt>
      <trkpt lat="48.335535" lon="10.818301"><ele>525.0</ele></trkpt>
      <trkpt lat="48.335496" lon="10.817982"><ele>527.0</ele></trkpt>
      <trkpt lat="48.335444" lon="10.816932"><ele>534.5</ele></trkpt>
      <trkpt lat="48.335488" lon="10.816080"><ele>539.0</ele></trkpt>
      <trkpt lat="48.335492" lon="10.815854"><ele>539.8</ele></trkpt>
      <trkpt lat="48.335532" lon="10.815055"><ele>538.2</ele></trkpt>
      <trkpt lat="48.335536" lon="10.814441"><ele>534.0</ele></trkpt>
      <trkpt lat="48.335536" lon="10.814004"><ele>531.2</ele></trkpt>
      <trkpt lat="48.335601" lon="10.813688"><ele>529.0</ele></trkpt>
      <trkpt lat="48.335841" lon="10.812778"><ele>528.8</ele></trkpt>
      <trkpt lat="48.335924" lon="10.812474"><ele>529.0</ele></trkpt>
      <trkpt lat="48.335921" lon="10.812399"><ele>529.0</ele></trkpt>
      <trkpt lat="48.335895" lon="10.812314"><ele>529.2</ele></trkpt>
      <trkpt lat="48.335784" lon="10.812188"><ele>529.2</ele></trkpt>
      <trkpt lat="48.335615" lon="10.812122"><ele>529.8</ele></trkpt>
      <trkpt lat="48.335369" lon="10.812061"><ele>529.8</ele></trkpt>
      <trkpt lat="48.335201" lon="10.811970"><ele>529.8</ele></trkpt>
      <trkpt lat="48.335127" lon="10.811848"><ele>530.0</ele></trkpt>
      <trkpt lat="48.335069" lon="10.811675"><ele>530.5</ele></trkpt>
      <trkpt lat="48.335027" lon="10.811414"><ele>531.8</ele></trkpt>
      <trkpt lat="48.334942" lon="10.810278"><ele>536.2</ele></trkpt>
      <trkpt lat="48.334704" lon="10.809068"><ele>536.2</ele></trkpt>
      <trkpt lat="48.334636" lon="10.808295"><ele>537.0</ele></trkpt>
      <trkpt lat="48.334699" lon="10.807566"><ele>538.5</ele></trkpt>
      <trkpt lat="48.334579" lon="10.805759"><ele>541.8</ele></trkpt>
      <trkpt lat="48.334596" lon="10.803495"><ele>547.5</ele></trkpt>
      <trkpt lat="48.334587" lon="10.803130"><ele>548.0</ele></trkpt>
      <trkpt lat="48.334609" lon="10.801308"><ele>547.2</ele></trkpt>
      <trkpt lat="48.334617" lon="10.798879"><ele>540.2</ele></trkpt>
      <trkpt lat="48.334634" lon="10.796549"><ele>535.0</ele></trkpt>
      <trkpt lat="48.334673" lon="10.791819"><ele>548.5</ele></trkpt>
      <trkpt lat="48.334661" lon="10.790304"><ele>550.0</ele></trkpt>
      <trkpt lat="48.334693" lon="10.788883"><ele>547.8</ele></trkpt>
      <trkpt lat="48.334700" lon="10.787191"><ele>540.0</ele></trkpt>
      <trkpt lat="48.334727" lon="10.785117"><ele>529.5</ele></trkpt>
      <trkpt lat="48.334685" lon="10.782790"><ele>521.5</ele></trkpt>
      <trkpt lat="48.334652" lon="10.781920"><ele>516.5</ele></trkpt>
      <trkpt lat="48.334599" lon="10.781036"><ele>509.0</ele></trkpt>
      <trkpt lat="48.334480" lon="10.780047"><ele>502.5</ele></trkpt>
      <trkpt lat="48.334440" lon="10.779849"><ele>501.2</ele></trkpt>
      <trkpt lat="48.334371" lon="10.779664"><ele>500.5</ele></trkpt>
      <trkpt lat="48.334310" lon="10.779544"><ele>500.2</ele></trkpt>
      <trkpt lat="48.334296" lon="10.779381"><ele>499.8</ele></trkpt>
      <trkpt lat="48.334334" lon="10.779125"><ele>499.0</ele></trkpt>
      <trkpt lat="48.334425" lon="10.778696"><ele>497.0</ele></trkpt>
      <trkpt lat="48.334471" lon="10.778514"><ele>496.8</ele></trkpt>
      <trkpt lat="48.334568" lon="10.778318"><ele>496.0</ele></trkpt>
      <trkpt lat="48.334718" lon="10.778040"><ele>493.8</ele></trkpt>
      <trkpt lat="48.334915" lon="10.777775"><ele>493.5</ele></trkpt>
      <trkpt lat="48.335071" lon="10.777306"><ele>492.2</ele></trkpt>
      <trkpt lat="48.335150" lon="10.776989"><ele>491.5</ele></trkpt>
      <trkpt lat="48.335394" lon="10.776282"><ele>489.0</ele></trkpt>
      <trkpt lat="48.335451" lon="10.776117"><ele>488.0</ele></trkpt>
      <trkpt lat="48.335528" lon="10.775962"><ele>487.0</ele></trkpt>
      <trkpt lat="48.335582" lon="10.775882"><ele>486.2</ele></trkpt>
      <trkpt lat="48.335685" lon="10.775809"><ele>485.8</ele></trkpt>
      <trkpt lat="48.335804" lon="10.775782"><ele>485.8</ele></trkpt>
      <trkpt lat="48.336158" lon="10.775812"><ele>484.5</ele></trkpt>
      <trkpt lat="48.336406" lon="10.775861"><ele>483.2</ele></trkpt>
      <trkpt lat="48.336666" lon="10.775956"><ele>483.2</ele></trkpt>
      <trkpt lat="48.336821" lon="10.776032"><ele>482.0</ele></trkpt>
      <trkpt lat="48.337066" lon="10.776205"><ele>481.2</ele></trkpt>
      <trkpt lat="48.337559" lon="10.776560"><ele>479.2</ele></trkpt>
      <trkpt lat="48.337987" lon="10.776905"><ele>479.0</ele></trkpt>
      <trkpt lat="48.338615" lon="10.777480"><ele>477.8</ele></trkpt>
      <trkpt lat="48.338809" lon="10.777678"><ele>477.5</ele></trkpt>
      <trkpt lat="48.338940" lon="10.777858"><ele>478.0</ele></trkpt>
      <trkpt lat="48.339087" lon="10.778124"><ele>478.8</ele></trkpt>
      <trkpt lat="48.339166" lon="10.778220"><ele>479.8</ele></trkpt>
      <trkpt lat="48.339271" lon="10.778235"><ele>479.8</ele></trkpt>
      <trkpt lat="48.339432" lon="10.778227"><ele>479.2</ele></trkpt>
      <trkpt lat="48.339621" lon="10.778198"><ele>479.0</ele></trkpt>
      <trkpt lat="48.339682" lon="10.778149"><ele>478.2</ele></trkpt>
      <trkpt lat="48.339726" lon="10.778057"><ele>477.0</ele></trkpt>
      <trkpt lat="48.339736" lon="10.778036"><ele>476.8</ele></trkpt>
      <trkpt lat="48.339792" lon="10.777858"><ele>476.8</ele></trkpt>
      <trkpt lat="48.339981" lon="10.777125"><ele>477.0</ele></trkpt>
      <trkpt lat="48.340036" lon="10.776837"><ele>477.0</ele></trkpt>
      <trkpt lat="48.340201" lon="10.775756"><ele>478.2</ele></trkpt>
      <trkpt lat="48.340175" lon="10.775743"><ele>478.2</ele></trkpt>
      <trkpt lat="48.339971" lon="10.775605"><ele>478.0</ele></trkpt>
      <trkpt lat="48.339909" lon="10.775545"><ele>478.0</ele></trkpt>
      <trkpt lat="48.339880" lon="10.775449"><ele>478.0</ele></trkpt>
      <trkpt lat="48.339858" lon="10.775357"><ele>478.2</ele></trkpt>
      <trkpt lat="48.339843" lon="10.775174"><ele>478.5</ele></trkpt>
      <trkpt lat="48.339834" lon="10.774818"><ele>479.2</ele></trkpt>
      <trkpt lat="48.339826" lon="10.774733"><ele>479.2</ele></trkpt>
      <trkpt lat="48.339784" lon="10.774680"><ele>479.5</ele></trkpt>
      <trkpt lat="48.339447" lon="10.774600"><ele>480.2</ele></trkpt>
      <trkpt lat="48.339402" lon="10.774579"><ele>480.5</ele></trkpt>
      <trkpt lat="48.339339" lon="10.774554"><ele>480.5</ele></trkpt>
      <trkpt lat="48.339270" lon="10.774648"><ele>480.2</ele></trkpt>
      <trkpt lat="48.339210" lon="10.774685"><ele>480.0</ele></trkpt>
      <trkpt lat="48.338874" lon="10.774717"><ele>477.8</ele></trkpt>
      <trkpt lat="48.338797" lon="10.774703"><ele>477.8</ele></trkpt>
      <trkpt lat="48.338722" lon="10.774642"><ele>477.5</ele></trkpt>
      <trkpt lat="48.338597" lon="10.774445"><ele>477.0</ele></trkpt>
      <trkpt lat="48.338484" lon="10.774267"><ele>477.0</ele></trkpt>
      <trkpt lat="48.338435" lon="10.774173"><ele>477.0</ele></trkpt>
      <trkpt lat="48.338404" lon="10.774114"><ele>477.2</ele></trkpt>
      <trkpt lat="48.338285" lon="10.773888"><ele>477.8</ele></trkpt>
      <trkpt lat="48.338241" lon="10.773803"><ele>477.8</ele></trkpt>
      <trkpt lat="48.338148" lon="10.773675"><ele>477.5</ele></trkpt>
      <trkpt lat="48.337897" lon="10.773398"><ele>478.0</ele></trkpt>
      <trkpt lat="48.337668" lon="10.773162"><ele>478.5</ele></trkpt>
      <trkpt lat="48.337532" lon="10.773022"><ele>478.5</ele></trkpt>
      <trkpt lat="48.337465" lon="10.772924"><ele>479.2</ele></trkpt>
      <trkpt lat="48.337422" lon="10.772837"><ele>479.8</ele></trkpt>
      <trkpt lat="48.337391" lon="10.772729"><ele>480.8</ele></trkpt>
      <trkpt lat="48.337272" lon="10.772695"><ele>480.5</ele></trkpt>
      <trkpt lat="48.337148" lon="10.772624"><ele>480.5</ele></trkpt>
      <trkpt lat="48.336869" lon="10.772414"><ele>480.2</ele></trkpt>
      <trkpt lat="48.336493" lon="10.772063"><ele>480.0</ele></trkpt>
      <trkpt lat="48.336329" lon="10.771915"><ele>479.5</ele></trkpt>
      <trkpt lat="48.336088" lon="10.771712"><ele>479.5</ele></trkpt>
      <trkpt lat="48.335838" lon="10.771434"><ele>479.8</ele></trkpt>
      <trkpt lat="48.335705" lon="10.771202"><ele>480.5</ele></trkpt>
      <trkpt lat="48.335586" lon="10.770969"><ele>479.8</ele></trkpt>
      <trkpt lat="48.335471" lon="10.770820"><ele>479.8</ele></trkpt>
      <trkpt lat="48.335153" lon="10.770513"><ele>480.8</ele></trkpt>
      <trkpt lat="48.335030" lon="10.770320"><ele>480.8</ele></trkpt>
      <trkpt lat="48.334868" lon="10.769928"><ele>482.0</ele></trkpt>
      <trkpt lat="48.334794" lon="10.769792"><ele>482.0</ele></trkpt>
      <trkpt lat="48.334721" lon="10.769686"><ele>480.2</ele></trkpt>
      <trkpt lat="48.334625" lon="10.769578"><ele>481.0</ele></trkpt>
      <trkpt lat="48.334117" lon="10.769168"><ele>481.2</ele></trkpt>
      <trkpt lat="48.333972" lon="10.769037"><ele>483.2</ele></trkpt>
      <trkpt lat="48.333774" lon="10.768928"><ele>483.0</ele></trkpt>
      <trkpt lat="48.333647" lon="10.768888"><ele>481.5</ele></trkpt>
      <trkpt lat="48.333482" lon="10.768881"><ele>481.0</ele></trkpt>
      <trkpt lat="48.333408" lon="10.768895"><ele>480.8</ele></trkpt>
      <trkpt lat="48.333189" lon="10.768892"><ele>481.0</ele></trkpt>
      <trkpt lat="48.332886" lon="10.768821"><ele>481.0</ele></trkpt>
      <trkpt lat="48.332404" lon="10.768643"><ele>481.5</ele></trkpt>
      <trkpt lat="48.332301" lon="10.768577"><ele>481.2</ele></trkpt>
      <trkpt lat="48.332211" lon="10.768464"><ele>481.2</ele></trkpt>
      <trkpt lat="48.332137" lon="10.768368"><ele>481.5</ele></trkpt>
      <trkpt lat="48.332013" lon="10.768201"><ele>481.5</ele></trkpt>
      <trkpt lat="48.331925" lon="10.768114"><ele>481.8</ele></trkpt>
      <trkpt lat="48.331803" lon="10.768011"><ele>482.5</ele></trkpt>
      <trkpt lat="48.331744" lon="10.768000"><ele>482.8</ele></trkpt>
      <trkpt lat="48.331617" lon="10.767993"><ele>482.8</ele></trkpt>
      <trkpt lat="48.331506" lon="10.768008"><ele>482.8</ele></trkpt>
      <trkpt lat="48.330435" lon="10.768155"><ele>483.0</ele></trkpt>
      <trkpt lat="48.330092" lon="10.768163"><ele>483.5</ele></trkpt>
      <trkpt lat="48.329765" lon="10.768133"><ele>483.0</ele></trkpt>
      <trkpt lat="48.329328" lon="10.768138"><ele>483.5</ele></trkpt>
      <trkpt lat="48.329073" lon="10.768088"><ele>484.0</ele></trkpt>
      <trkpt lat="48.328853" lon="10.767964"><ele>485.0</ele></trkpt>
      <trkpt lat="48.328687" lon="10.767788"><ele>485.0</ele></trkpt>
      <trkpt lat="48.328569" lon="10.767591"><ele>485.5</ele></trkpt>
      <trkpt lat="48.328434" lon="10.767308"><ele>486.8</ele></trkpt>
      <trkpt lat="48.328093" lon="10.766511"><ele>488.2</ele></trkpt>
      <trkpt lat="48.327932" lon="10.766359"><ele>488.0</ele></trkpt>
      <trkpt lat="48.327756" lon="10.766290"><ele>488.0</ele></trkpt>
      <trkpt lat="48.327249" lon="10.766201"><ele>488.2</ele></trkpt>
      <trkpt lat="48.326549" lon="10.765987"><ele>487.5</ele></trkpt>
      <trkpt lat="48.326141" lon="10.765884"><ele>486.8</ele></trkpt>
      <trkpt lat="48.325707" lon="10.765859"><ele>486.8</ele></trkpt>
      <trkpt lat="48.325440" lon="10.765804"><ele>487.0</ele></trkpt>
      <trkpt lat="48.324906" lon="10.765509"><ele>488.5</ele></trkpt>
      <trkpt lat="48.324713" lon="10.765438"><ele>489.2</ele></trkpt>
      <trkpt lat="48.324518" lon="10.765452"><ele>489.2</ele></trkpt>
      <trkpt lat="48.324146" lon="10.765566"><ele>488.8</ele></trkpt>
      <trkpt lat="48.323955" lon="10.765598"><ele>488.5</ele></trkpt>
      <trkpt lat="48.323660" lon="10.765583"><ele>488.0</ele></trkpt>
      <trkpt lat="48.322876" lon="10.765476"><ele>488.2</ele></trkpt>
      <trkpt lat="48.322111" lon="10.765415"><ele>488.5</ele></trkpt>
      <trkpt lat="48.321909" lon="10.765354"><ele>488.8</ele></trkpt>
      <trkpt lat="48.321790" lon="10.765287"><ele>488.8</ele></trkpt>
      <trkpt lat="48.321664" lon="10.765155"><ele>488.2</ele></trkpt>
      <trkpt lat="48.321568" lon="10.765004"><ele>488.5</ele></trkpt>
      <trkpt lat="48.321489" lon="10.764857"><ele>488.8</ele></trkpt>
      <trkpt lat="48.321417" lon="10.764751"><ele>488.2</ele></trkpt>
      <trkpt lat="48.321340" lon="10.764694"><ele>488.0</ele></trkpt>
      <trkpt lat="48.321235" lon="10.764680"><ele>488.0</ele></trkpt>
      <trkpt lat="48.320721" lon="10.764747"><ele>488.8</ele></trkpt>
      <trkpt lat="48.319762" lon="10.764783"><ele>488.5</ele></trkpt>
      <trkpt lat="48.319524" lon="10.764756"><ele>489.2</ele></trkpt>
      <trkpt lat="48.318908" lon="10.764716"><ele>489.0</ele></trkpt>
      <trkpt lat="48.318599" lon="10.764775"><ele>489.5</ele></trkpt>
      <trkpt lat="48.318393" lon="10.764723"><ele>489.8</ele></trkpt>
      <trkpt lat="48.318195" lon="10.764601"><ele>491.5</ele></trkpt>
      <trkpt lat="48.317965" lon="10.764484"><ele>491.8</ele></trkpt>
      <trkpt lat="48.317134" lon="10.764242"><ele>491.5</ele></trkpt>
      <trkpt lat="48.316729" lon="10.764112"><ele>491.8</ele></trkpt>
      <trkpt lat="48.316551" lon="10.764015"><ele>492.5</ele></trkpt>
      <trkpt lat="48.316407" lon="10.763982"><ele>492.8</ele></trkpt>
      <trkpt lat="48.316230" lon="10.764015"><ele>493.0</ele></trkpt>
      <trkpt lat="48.316059" lon="10.764129"><ele>492.5</ele></trkpt>
      <trkpt lat="48.315941" lon="10.764264"><ele>491.8</ele></trkpt>
      <trkpt lat="48.315801" lon="10.764384"><ele>491.2</ele></trkpt>
      <trkpt lat="48.315683" lon="10.764461"><ele>490.8</ele></trkpt>
      <trkpt lat="48.315081" lon="10.764535"><ele>492.0</ele></trkpt>
      <trkpt lat="48.314560" lon="10.764509"><ele>491.8</ele></trkpt>
      <trkpt lat="48.314370" lon="10.764461"><ele>491.8</ele></trkpt>
      <trkpt lat="48.314151" lon="10.764387"><ele>492.5</ele></trkpt>
      <trkpt lat="48.313847" lon="10.764360"><ele>492.5</ele></trkpt>
      <trkpt lat="48.313373" lon="10.764357"><ele>492.5</ele></trkpt>
      <trkpt lat="48.313133" lon="10.764316"><ele>492.8</ele></trkpt>
      <trkpt lat="48.312983" lon="10.764240"><ele>493.0</ele></trkpt>
      <trkpt lat="48.312844" lon="10.764071"><ele>493.0</ele></trkpt>
      <trkpt lat="48.312671" lon="10.763898"><ele>493.5</ele></trkpt>
      <trkpt lat="48.312515" lon="10.763845"><ele>493.5</ele></trkpt>
      <trkpt lat="48.312372" lon="10.763823"><ele>494.0</ele></trkpt>
      <trkpt lat="48.312210" lon="10.763776"><ele>494.2</ele></trkpt>
      <trkpt lat="48.311682" lon="10.763515"><ele>493.2</ele></trkpt>
      <trkpt lat="48.311411" lon="10.763400"><ele>493.8</ele></trkpt>
      <trkpt lat="48.310938" lon="10.763311"><ele>494.0</ele></trkpt>
      <trkpt lat="48.310484" lon="10.763290"><ele>494.2</ele></trkpt>
      <trkpt lat="48.310217" lon="10.763231"><ele>494.8</ele></trkpt>
      <trkpt lat="48.309923" lon="10.763136"><ele>494.5</ele></trkpt>
      <trkpt lat="48.309161" lon="10.762766"><ele>495.0</ele></trkpt>
      <trkpt lat="48.308927" lon="10.762718"><ele>495.2</ele></trkpt>
      <trkpt lat="48.308605" lon="10.762627"><ele>495.5</ele></trkpt>
      <trkpt lat="48.308362" lon="10.762538"><ele>495.8</ele></trkpt>
      <trkpt lat="48.308061" lon="10.762383"><ele>496.8</ele></trkpt>
      <trkpt lat="48.307932" lon="10.762264"><ele>497.2</ele></trkpt>
      <trkpt lat="48.307837" lon="10.762174"><ele>497.5</ele></trkpt>
      <trkpt lat="48.306908" lon="10.761620"><ele>499.2</ele></trkpt>
      <trkpt lat="48.306518" lon="10.761505"><ele>499.8</ele></trkpt>
      <trkpt lat="48.306069" lon="10.761442"><ele>499.2</ele></trkpt>
      <trkpt lat="48.305785" lon="10.761391"><ele>498.8</ele></trkpt>
      <trkpt lat="48.305584" lon="10.761401"><ele>498.8</ele></trkpt>
      <trkpt lat="48.305318" lon="10.761445"><ele>497.8</ele></trkpt>
      <trkpt lat="48.304849" lon="10.761445"><ele>497.8</ele></trkpt>
      <trkpt lat="48.304092" lon="10.761420"><ele>497.0</ele></trkpt>
      <trkpt lat="48.303878" lon="10.761428"><ele>497.0</ele></trkpt>
      <trkpt lat="48.303597" lon="10.761362"><ele>498.0</ele></trkpt>
      <trkpt lat="48.303528" lon="10.761334"><ele>498.0</ele></trkpt>
      <trkpt lat="48.303447" lon="10.761301"><ele>498.2</ele></trkpt>
      <trkpt lat="48.303328" lon="10.761289"><ele>498.5</ele></trkpt>
      <trkpt lat="48.303210" lon="10.761284"><ele>498.2</ele></trkpt>
      <trkpt lat="48.303079" lon="10.761296"><ele>498.2</ele></trkpt>
      <trkpt lat="48.302598" lon="10.761382"><ele>498.0</ele></trkpt>
      <trkpt lat="48.302228" lon="10.761556"><ele>498.5</ele></trkpt>
      <trkpt lat="48.301769" lon="10.761664"><ele>499.0</ele></trkpt>
      <trkpt lat="48.301249" lon="10.761818"><ele>499.8</ele></trkpt>
      <trkpt lat="48.300475" lon="10.762307"><ele>500.0</ele></trkpt>
      <trkpt lat="48.299605" lon="10.762609"><ele>500.2</ele></trkpt>
      <trkpt lat="48.299286" lon="10.762703"><ele>501.0</ele></trkpt>
      <trkpt lat="48.298965" lon="10.762767"><ele>501.0</ele></trkpt>
      <trkpt lat="48.298747" lon="10.762714"><ele>501.2</ele></trkpt>
      <trkpt lat="48.298503" lon="10.762679"><ele>501.8</ele></trkpt>
      <trkpt lat="48.298295" lon="10.762745"><ele>502.0</ele></trkpt>
      <trkpt lat="48.297860" lon="10.763057"><ele>502.5</ele></trkpt>
      <trkpt lat="48.297523" lon="10.763283"><ele>503.0</ele></trkpt>
      <trkpt lat="48.297308" lon="10.763373"><ele>503.2</ele></trkpt>
      <trkpt lat="48.297150" lon="10.763415"><ele>503.8</ele></trkpt>
      <trkpt lat="48.297015" lon="10.763433"><ele>504.5</ele></trkpt>
      <trkpt lat="48.296921" lon="10.763460"><ele>504.8</ele></trkpt>
      <trkpt lat="48.296830" lon="10.763427"><ele>504.2</ele></trkpt>
      <trkpt lat="48.296371" lon="10.763217"><ele>505.0</ele></trkpt>
      <trkpt lat="48.296282" lon="10.763276"><ele>505.2</ele></trkpt>
      <trkpt lat="48.295985" lon="10.763633"><ele>505.8</ele></trkpt>
      <trkpt lat="48.295786" lon="10.763826"><ele>505.5</ele></trkpt>
      <trkpt lat="48.295423" lon="10.764020"><ele>506.0</ele></trkpt>
      <trkpt lat="48.295095" lon="10.764176"><ele>506.5</ele></trkpt>
      <trkpt lat="48.294776" lon="10.764483"><ele>506.8</ele></trkpt>
      <trkpt lat="48.294399" lon="10.764767"><ele>505.8</ele></trkpt>
      <trkpt lat="48.293981" lon="10.765036"><ele>505.2</ele></trkpt>
      <trkpt lat="48.293808" lon="10.765108"><ele>505.2</ele></trkpt>
      <trkpt lat="48.293644" lon="10.765100"><ele>505.8</ele></trkpt>
      <trkpt lat="48.293407" lon="10.764961"><ele>507.5</ele></trkpt>
      <trkpt lat="48.293012" lon="10.764694"><ele>511.0</ele></trkpt>
      <trkpt lat="48.292874" lon="10.764590"><ele>510.8</ele></trkpt>
      <trkpt lat="48.292686" lon="10.764500"><ele>511.0</ele></trkpt>
      <trkpt lat="48.291690" lon="10.764490"><ele>513.2</ele></trkpt>
      <trkpt lat="48.291417" lon="10.764389"><ele>514.0</ele></trkpt>
      <trkpt lat="48.290456" lon="10.763778"><ele>512.8</ele></trkpt>
      <trkpt lat="48.289953" lon="10.763514"><ele>512.5</ele></trkpt>
      <trkpt lat="48.289482" lon="10.763279"><ele>513.0</ele></trkpt>
      <trkpt lat="48.288910" lon="10.763124"><ele>512.2</ele></trkpt>
      <trkpt lat="48.288749" lon="10.763028"><ele>512.0</ele></trkpt>
      <trkpt lat="48.288675" lon="10.762964"><ele>511.5</ele></trkpt>
      <trkpt lat="48.288609" lon="10.762705"><ele>510.8</ele></trkpt>
      <trkpt lat="48.288539" lon="10.762493"><ele>510.5</ele></trkpt>
      <trkpt lat="48.288446" lon="10.762412"><ele>510.5</ele></trkpt>
      <trkpt lat="48.288185" lon="10.762390"><ele>510.5</ele></trkpt>
      <trkpt lat="48.288066" lon="10.762367"><ele>510.8</ele></trkpt>
      <trkpt lat="48.287907" lon="10.762262"><ele>510.5</ele></trkpt>
      <trkpt lat="48.287668" lon="10.761996"><ele>511.2</ele></trkpt>
      <trkpt lat="48.287121" lon="10.761696"><ele>509.8</ele></trkpt>
      <trkpt lat="48.286040" lon="10.761176"><ele>509.2</ele></trkpt>
      <trkpt lat="48.285794" lon="10.761028"><ele>509.5</ele></trkpt>
      <trkpt lat="48.285513" lon="10.760815"><ele>510.0</ele></trkpt>
      <trkpt lat="48.285161" lon="10.760444"><ele>510.2</ele></trkpt>
      <trkpt lat="48.284624" lon="10.759939"><ele>510.8</ele></trkpt>
      <trkpt lat="48.284116" lon="10.759264"><ele>514.2</ele></trkpt>
      <trkpt lat="48.283788" lon="10.758973"><ele>515.8</ele></trkpt>
      <trkpt lat="48.283652" lon="10.758938"><ele>515.8</ele></trkpt>
      <trkpt lat="48.283448" lon="10.758869"><ele>515.5</ele></trkpt>
      <trkpt lat="48.283400" lon="10.758830"><ele>515.8</ele></trkpt>
      <trkpt lat="48.282808" lon="10.758338"><ele>516.2</ele></trkpt>
      <trkpt lat="48.282765" lon="10.758303"><ele>516.0</ele></trkpt>
      <trkpt lat="48.282622" lon="10.758186"><ele>516.2</ele></trkpt>
      <trkpt lat="48.282461" lon="10.758255"><ele>515.2</ele></trkpt>
      <trkpt lat="48.282439" lon="10.758019"><ele>515.2</ele></trkpt>
      <trkpt lat="48.282420" lon="10.757814"><ele>515.2</ele></trkpt>
      <trkpt lat="48.282348" lon="10.757606"><ele>515.0</ele></trkpt>
      <trkpt lat="48.282302" lon="10.757518"><ele>514.8</ele></trkpt>
      <trkpt lat="48.282241" lon="10.757449"><ele>514.2</ele></trkpt>
      <trkpt lat="48.282193" lon="10.757405"><ele>514.2</ele></trkpt>
      <trkpt lat="48.281713" lon="10.757146"><ele>515.5</ele></trkpt>
      <trkpt lat="48.281315" lon="10.756761"><ele>515.5</ele></trkpt>
      <trkpt lat="48.281123" lon="10.756594"><ele>515.0</ele></trkpt>
      <trkpt lat="48.280951" lon="10.756460"><ele>515.5</ele></trkpt>
      <trkpt lat="48.280332" lon="10.756136"><ele>515.0</ele></trkpt>
      <trkpt lat="48.279834" lon="10.755824"><ele>515.2</ele></trkpt>
      <trkpt lat="48.279652" lon="10.755664"><ele>515.0</ele></trkpt>
      <trkpt lat="48.279291" lon="10.755301"><ele>514.8</ele></trkpt>
      <trkpt lat="48.279011" lon="10.755098"><ele>515.8</ele></trkpt>
      <trkpt lat="48.278487" lon="10.754824"><ele>516.2</ele></trkpt>
      <trkpt lat="48.278306" lon="10.754706"><ele>517.0</ele></trkpt>
      <trkpt lat="48.278175" lon="10.754477"><ele>519.0</ele></trkpt>
      <trkpt lat="48.277874" lon="10.753826"><ele>524.2</ele></trkpt>
      <trkpt lat="48.277755" lon="10.753431"><ele>526.2</ele></trkpt>
      <trkpt lat="48.277747" lon="10.753061"><ele>527.8</ele></trkpt>
      <trkpt lat="48.277827" lon="10.751805"><ele>533.5</ele></trkpt>
      <trkpt lat="48.277203" lon="10.748517"><ele>557.5</ele></trkpt>
      <trkpt lat="48.276840" lon="10.748167"><ele>560.5</ele></trkpt>
      <trkpt lat="48.276624" lon="10.747744"><ele>561.8</ele></trkpt>
      <trkpt lat="48.276393" lon="10.747153"><ele>563.2</ele></trkpt>
      <trkpt lat="48.276202" lon="10.746618"><ele>564.2</ele></trkpt>
      <trkpt lat="48.275774" lon="10.744232"><ele>566.5</ele></trkpt>
      <trkpt lat="48.275102" lon="10.740291"><ele>569.0</ele></trkpt>
      <trkpt lat="48.275043" lon="10.740088"><ele>569.0</ele></trkpt>
      <trkpt lat="48.275176" lon="10.739718"><ele>568.8</ele></trkpt>
      <trkpt lat="48.275292" lon="10.739469"><ele>568.0</ele></trkpt>
      <trkpt lat="48.275389" lon="10.739206"><ele>567.0</ele></trkpt>
      <trkpt lat="48.275444" lon="10.738942"><ele>566.0</ele></trkpt>
      <trkpt lat="48.275561" lon="10.737213"><ele>554.8</ele></trkpt>
      <trkpt lat="48.275632" lon="10.736914"><ele>552.8</ele></trkpt>
      <trkpt lat="48.276036" lon="10.735727"><ele>548.5</ele></trkpt>
      <trkpt lat="48.276315" lon="10.735039"><ele>546.8</ele></trkpt>
      <trkpt lat="48.276363" lon="10.734786"><ele>545.2</ele></trkpt>
      <trkpt lat="48.276402" lon="10.734366"><ele>542.5</ele></trkpt>
      <trkpt lat="48.276464" lon="10.734003"><ele>540.5</ele></trkpt>
      <trkpt lat="48.276586" lon="10.733464"><ele>536.2</ele></trkpt>
      <trkpt lat="48.276686" lon="10.733115"><ele>532.5</ele></trkpt>
      <trkpt lat="48.276848" lon="10.732905"><ele>530.5</ele></trkpt>
      <trkpt lat="48.277166" lon="10.732599"><ele>529.0</ele></trkpt>
      <trkpt lat="48.277310" lon="10.732446"><ele>529.0</ele></trkpt>
      <trkpt lat="48.277412" lon="10.732253"><ele>529.0</ele></trkpt>
      <trkpt lat="48.277554" lon="10.731841"><ele>530.2</ele></trkpt>
      <trkpt lat="48.277676" lon="10.731225"><ele>532.0</ele></trkpt>
      <trkpt lat="48.277614" lon="10.731105"><ele>532.5</ele></trkpt>
      <trkpt lat="48.277499" lon="10.731020"><ele>533.2</ele></trkpt>
      <trkpt lat="48.277224" lon="10.730817"><ele>535.0</ele></trkpt>
      <trkpt lat="48.277223" lon="10.731260"><ele>534.8</ele></trkpt>
      <trkpt lat="48.277224" lon="10.730817"><ele>535.0</ele></trkpt>
      <trkpt lat="48.277499" lon="10.731020"><ele>533.2</ele></trkpt>
      <trkpt lat="48.277614" lon="10.731105"><ele>532.5</ele></trkpt>
      <trkpt lat="48.277676" lon="10.731225"><ele>532.0</ele></trkpt>
      <trkpt lat="48.277831" lon="10.730689"><ele>533.2</ele></trkpt>
      <trkpt lat="48.277859" lon="10.730379"><ele>534.2</ele></trkpt>
      <trkpt lat="48.277789" lon="10.728758"><ele>540.5</ele></trkpt>
      <trkpt lat="48.277650" lon="10.723900"><ele>562.8</ele></trkpt>
      <trkpt lat="48.277528" lon="10.723009"><ele>567.0</ele></trkpt>
      <trkpt lat="48.277216" lon="10.722166"><ele>569.0</ele></trkpt>
      <trkpt lat="48.277106" lon="10.721174"><ele>570.0</ele></trkpt>
      <trkpt lat="48.276844" lon="10.720462"><ele>569.2</ele></trkpt>
      <trkpt lat="48.276815" lon="10.720348"><ele>569.0</ele></trkpt>
      <trkpt lat="48.276692" lon="10.719883"><ele>568.5</ele></trkpt>
      <trkpt lat="48.276818" lon="10.718415"><ele>558.0</ele></trkpt>
      <trkpt lat="48.276632" lon="10.717672"><ele>550.2</ele></trkpt>
      <trkpt lat="48.276548" lon="10.716423"><ele>543.8</ele></trkpt>
      <trkpt lat="48.276444" lon="10.715138"><ele>535.2</ele></trkpt>
      <trkpt lat="48.276475" lon="10.714070"><ele>532.8</ele></trkpt>
      <trkpt lat="48.276535" lon="10.713259"><ele>530.2</ele></trkpt>
      <trkpt lat="48.276487" lon="10.712373"><ele>527.2</ele></trkpt>
      <trkpt lat="48.276409" lon="10.712012"><ele>525.2</ele></trkpt>
      <trkpt lat="48.276313" lon="10.711684"><ele>524.5</ele></trkpt>
      <trkpt lat="48.276134" lon="10.711166"><ele>524.8</ele></trkpt>
      <trkpt lat="48.276077" lon="10.710515"><ele>524.8</ele></trkpt>
      <trkpt lat="48.275993" lon="10.709789"><ele>525.8</ele></trkpt>
      <trkpt lat="48.275958" lon="10.709320"><ele>526.0</ele></trkpt>
      <trkpt lat="48.275950" lon="10.708889"><ele>524.8</ele></trkpt>
      <trkpt lat="48.275754" lon="10.707431"><ele>521.0</ele></trkpt>
      <trkpt lat="48.275607" lon="10.706679"><ele>515.8</ele></trkpt>
      <trkpt lat="48.275509" lon="10.706322"><ele>514.8</ele></trkpt>
      <trkpt lat="48.275511" lon="10.705992"><ele>512.2</ele></trkpt>
      <trkpt lat="48.275535" lon="10.705684"><ele>510.5</ele></trkpt>
      <trkpt lat="48.275737" lon="10.705093"><ele>509.5</ele></trkpt>
      <trkpt lat="48.275835" lon="10.704924"><ele>509.8</ele></trkpt>
      <trkpt lat="48.276051" lon="10.704709"><ele>510.0</ele></trkpt>
      <trkpt lat="48.276205" lon="10.704464"><ele>510.0</ele></trkpt>
      <trkpt lat="48.276304" lon="10.704207"><ele>510.5</ele></trkpt>
      <trkpt lat="48.276354" lon="10.704057"><ele>511.5</ele></trkpt>
      <trkpt lat="48.276511" lon="10.704083"><ele>511.8</ele></trkpt>
      <trkpt lat="48.276662" lon="10.703968"><ele>512.5</ele></trkpt>
      <trkpt lat="48.276801" lon="10.703778"><ele>516.5</ele></trkpt>
      <trkpt lat="48.276789" lon="10.703657"><ele>518.2</ele></trkpt>
      <trkpt lat="48.277031" lon="10.703467"><ele>520.5</ele></trkpt>
      <trkpt lat="48.277034" lon="10.703296"><ele>521.8</ele></trkpt>
      <trkpt lat="48.277037" lon="10.703207"><ele>521.8</ele></trkpt>
      <trkpt lat="48.277016" lon="10.702921"><ele>523.2</ele></trkpt>
      <trkpt lat="48.276980" lon="10.702817"><ele>523.8</ele></trkpt>
      <trkpt lat="48.276936" lon="10.702699"><ele>524.2</ele></trkpt>
      <trkpt lat="48.276881" lon="10.702562"><ele>525.0</ele></trkpt>
      <trkpt lat="48.276849" lon="10.702482"><ele>525.2</ele></trkpt>
      <trkpt lat="48.276693" lon="10.702151"><ele>527.2</ele></trkpt>
      <trkpt lat="48.276619" lon="10.701993"><ele>528.0</ele></trkpt>
      <trkpt lat="48.276583" lon="10.701917"><ele>528.8</ele></trkpt>
      <trkpt lat="48.276510" lon="10.701791"><ele>530.0</ele></trkpt>
      <trkpt lat="48.276472" lon="10.701727"><ele>530.5</ele></trkpt>
      <trkpt lat="48.276304" lon="10.701438"><ele>532.5</ele></trkpt>
      <trkpt lat="48.276182" lon="10.701229"><ele>533.0</ele></trkpt>
      <trkpt lat="48.276062" lon="10.701053"><ele>533.5</ele></trkpt>
      <trkpt lat="48.275957" lon="10.700900"><ele>534.2</ele></trkpt>
      <trkpt lat="48.275873" lon="10.700776"><ele>534.8</ele></trkpt>
      <trkpt lat="48.275756" lon="10.700606"><ele>535.5</ele></trkpt>
      <trkpt lat="48.275637" lon="10.700432"><ele>536.5</ele></trkpt>
      <trkpt lat="48.275491" lon="10.700254"><ele>537.2</ele></trkpt>
      <trkpt lat="48.275448" lon="10.700203"><ele>537.8</ele></trkpt>
      <trkpt lat="48.275385" lon="10.700130"><ele>538.0</ele></trkpt>
      <trkpt lat="48.274952" lon="10.699898"><ele>542.5</ele></trkpt>
      <trkpt lat="48.274773" lon="10.699735"><ele>542.0</ele></trkpt>
      <trkpt lat="48.274661" lon="10.699610"><ele>544.0</ele></trkpt>
      <trkpt lat="48.274599" lon="10.699526"><ele>544.8</ele></trkpt>
      <trkpt lat="48.274518" lon="10.699391"><ele>544.5</ele></trkpt>
      <trkpt lat="48.274445" lon="10.699206"><ele>544.5</ele></trkpt>
      <trkpt lat="48.274355" lon="10.698927"><ele>549.0</ele></trkpt>
      <trkpt lat="48.274191" lon="10.697889"><ele>547.8</ele></trkpt>
      <trkpt lat="48.274047" lon="10.697552"><ele>547.8</ele></trkpt>
      <trkpt lat="48.273980" lon="10.697439"><ele>547.2</ele></trkpt>
      <trkpt lat="48.273824" lon="10.697156"><ele>547.0</ele></trkpt>
      <trkpt lat="48.273488" lon="10.696764"><ele>547.5</ele></trkpt>
      <trkpt lat="48.272877" lon="10.695904"><ele>548.5</ele></trkpt>
      <trkpt lat="48.272571" lon="10.695543"><ele>549.0</ele></trkpt>
      <trkpt lat="48.272170" lon="10.694984"><ele>551.2</ele></trkpt>
      <trkpt lat="48.272115" lon="10.694918"><ele>551.2</ele></trkpt>
      <trkpt lat="48.271836" lon="10.694549"><ele>553.2</ele></trkpt>
      <trkpt lat="48.271725" lon="10.694271"><ele>554.0</ele></trkpt>
      <trkpt lat="48.271633" lon="10.693930"><ele>556.0</ele></trkpt>
      <trkpt lat="48.271469" lon="10.693409"><ele>559.0</ele></trkpt>
      <trkpt lat="48.271195" lon="10.692418"><ele>565.2</ele></trkpt>
      <trkpt lat="48.270978" lon="10.691888"><ele>569.8</ele></trkpt>
      <trkpt lat="48.270835" lon="10.691605"><ele>571.0</ele></trkpt>
      <trkpt lat="48.270697" lon="10.691474"><ele>572.2</ele></trkpt>
      <trkpt lat="48.270155" lon="10.691026"><ele>574.2</ele></trkpt>
      <trkpt lat="48.269928" lon="10.690783"><ele>574.8</ele></trkpt>
      <trkpt lat="48.269764" lon="10.690501"><ele>574.8</ele></trkpt>
      <trkpt lat="48.269699" lon="10.690231"><ele>575.0</ele></trkpt>
      <trkpt lat="48.270229" lon="10.689239"><ele>571.5</ele></trkpt>
      <trkpt lat="48.270369" lon="10.688770"><ele>569.0</ele></trkpt>
      <trkpt lat="48.270638" lon="10.688389"><ele>565.0</ele></trkpt>
      <trkpt lat="48.270834" lon="10.687783"><ele>560.0</ele></trkpt>
      <trkpt lat="48.270948" lon="10.687266"><ele>557.2</ele></trkpt>
      <trkpt lat="48.270995" lon="10.686869"><ele>555.0</ele></trkpt>
      <trkpt lat="48.270908" lon="10.686015"><ele>550.2</ele></trkpt>
      <trkpt lat="48.270848" lon="10.685548"><ele>548.0</ele></trkpt>
      <trkpt lat="48.270765" lon="10.684660"><ele>546.2</ele></trkpt>
      <trkpt lat="48.270886" lon="10.683801"><ele>545.2</ele></trkpt>
      <trkpt lat="48.270930" lon="10.683669"><ele>545.5</ele></trkpt>
      <trkpt lat="48.271140" lon="10.683036"><ele>544.0</ele></trkpt>
      <trkpt lat="48.271613" lon="10.682143"><ele>532.8</ele></trkpt>
      <trkpt lat="48.271972" lon="10.681837"><ele>529.0</ele></trkpt>
      <trkpt lat="48.272366" lon="10.681539"><ele>524.8</ele></trkpt>
      <trkpt lat="48.272734" lon="10.681416"><ele>522.5</ele></trkpt>
      <trkpt lat="48.273208" lon="10.681305"><ele>519.8</ele></trkpt>
      <trkpt lat="48.273340" lon="10.681186"><ele>519.5</ele></trkpt>
      <trkpt lat="48.273426" lon="10.681039"><ele>520.2</ele></trkpt>
      <trkpt lat="48.273510" lon="10.680846"><ele>521.0</ele></trkpt>
      <trkpt lat="48.273629" lon="10.680493"><ele>523.0</ele></trkpt>
      <trkpt lat="48.273858" lon="10.679852"><ele>526.8</ele></trkpt>
      <trkpt lat="48.273896" lon="10.679545"><ele>527.5</ele></trkpt>
      <trkpt lat="48.273911" lon="10.679207"><ele>529.8</ele></trkpt>
      <trkpt lat="48.273826" lon="10.678832"><ele>530.8</ele></trkpt>
      <trkpt lat="48.273279" lon="10.677831"><ele>530.2</ele></trkpt>
      <trkpt lat="48.272555" lon="10.676655"><ele>530.2</ele></trkpt>
      <trkpt lat="48.272253" lon="10.676132"><ele>530.2</ele></trkpt>
      <trkpt lat="48.272145" lon="10.676036"><ele>529.8</ele></trkpt>
      <trkpt lat="48.272053" lon="10.676001"><ele>529.0</ele></trkpt>
      <trkpt lat="48.271854" lon="10.676300"><ele>527.0</ele></trkpt>
      <trkpt lat="48.271697" lon="10.676348"><ele>527.0</ele></trkpt>
      <trkpt lat="48.271537" lon="10.676275"><ele>527.0</ele></trkpt>
      <trkpt lat="48.270944" lon="10.675486"><ele>530.2</ele></trkpt>
      <trkpt lat="48.270689" lon="10.675213"><ele>530.8</ele></trkpt>
      <trkpt lat="48.270456" lon="10.675005"><ele>531.5</ele></trkpt>
      <trkpt lat="48.270250" lon="10.674850"><ele>532.5</ele></trkpt>
      <trkpt lat="48.270084" lon="10.674767"><ele>532.8</ele></trkpt>
      <trkpt lat="48.269871" lon="10.674663"><ele>532.5</ele></trkpt>
      <trkpt lat="48.269973" lon="10.674172"><ele>535.8</ele></trkpt>
      <trkpt lat="48.270000" lon="10.674044"><ele>536.8</ele></trkpt>
      <trkpt lat="48.270111" lon="10.673418"><ele>540.8</ele></trkpt>
      <trkpt lat="48.269943" lon="10.673367"><ele>540.8</ele></trkpt>
      <trkpt lat="48.269846" lon="10.673347"><ele>540.8</ele></trkpt>
      <trkpt lat="48.269632" lon="10.673301"><ele>541.0</ele></trkpt>
      <trkpt lat="48.269441" lon="10.673259"><ele>541.0</ele></trkpt>
      <trkpt lat="48.269357" lon="10.673241"><ele>541.0</ele></trkpt>
      <trkpt lat="48.269147" lon="10.673239"><ele>540.2</ele></trkpt>
      <trkpt lat="48.269084" lon="10.673326"><ele>539.5</ele></trkpt>
      <trkpt lat="48.268809" lon="10.673969"><ele>535.0</ele></trkpt>
      <trkpt lat="48.268700" lon="10.674229"><ele>533.0</ele></trkpt>
      <trkpt lat="48.268390" lon="10.674216"><ele>532.0</ele></trkpt>
      <trkpt lat="48.267614" lon="10.674130"><ele>531.8</ele></trkpt>
      <trkpt lat="48.267482" lon="10.674111"><ele>532.2</ele></trkpt>
      <trkpt lat="48.267302" lon="10.674084"><ele>533.2</ele></trkpt>
      <trkpt lat="48.267218" lon="10.674072"><ele>533.5</ele></trkpt>
      <trkpt lat="48.266923" lon="10.674021"><ele>533.0</ele></trkpt>
      <trkpt lat="48.266626" lon="10.673952"><ele>533.2</ele></trkpt>
      <trkpt lat="48.265978" lon="10.673764"><ele>533.5</ele></trkpt>
      <trkpt lat="48.265913" lon="10.673828"><ele>533.2</ele></trkpt>
      <trkpt lat="48.265878" lon="10.673909"><ele>532.8</ele></trkpt>
      <trkpt lat="48.265868" lon="10.674038"><ele>532.2</ele></trkpt>
      <trkpt lat="48.265969" lon="10.674500"><ele>532.0</ele></trkpt>
      <trkpt lat="48.265951" lon="10.674653"><ele>532.2</ele></trkpt>
      <trkpt lat="48.265915" lon="10.674800"><ele>532.8</ele></trkpt>
      <trkpt lat="48.265779" lon="10.675217"><ele>536.0</ele></trkpt>
      <trkpt lat="48.265643" lon="10.675545"><ele>539.0</ele></trkpt>
      <trkpt lat="48.265677" lon="10.676414"><ele>546.0</ele></trkpt>
      <trkpt lat="48.265504" lon="10.677694"><ele>553.0</ele></trkpt>
      <trkpt lat="48.265343" lon="10.678626"><ele>561.5</ele></trkpt>
      <trkpt lat="48.265092" lon="10.679885"><ele>573.2</ele></trkpt>
      <trkpt lat="48.264824" lon="10.681037"><ele>577.0</ele></trkpt>
      <trkpt lat="48.264640" lon="10.681706"><ele>575.8</ele></trkpt>
      <trkpt lat="48.263940" lon="10.681771"><ele>576.5</ele></trkpt>
      <trkpt lat="48.263403" lon="10.681779"><ele>577.0</ele></trkpt>
      <trkpt lat="48.262405" lon="10.681663"><ele>575.8</ele></trkpt>
      <trkpt lat="48.261472" lon="10.681326"><ele>574.5</ele></trkpt>
      <trkpt lat="48.261308" lon="10.681226"><ele>573.8</ele></trkpt>
      <trkpt lat="48.260354" lon="10.680712"><ele>575.2</ele></trkpt>
      <trkpt lat="48.259941" lon="10.680556"><ele>576.2</ele></trkpt>
      <trkpt lat="48.259382" lon="10.680579"><ele>579.0</ele></trkpt>
      <trkpt lat="48.259022" lon="10.680742"><ele>580.5</ele></trkpt>
      <trkpt lat="48.258276" lon="10.681133"><ele>581.0</ele></trkpt>
      <trkpt lat="48.257889" lon="10.681139"><ele>581.0</ele></trkpt>
      <trkpt lat="48.257666" lon="10.681117"><ele>580.8</ele></trkpt>
      <trkpt lat="48.257202" lon="10.681005"><ele>580.8</ele></trkpt>
      <trkpt lat="48.255463" lon="10.679867"><ele>582.0</ele></trkpt>
      <trkpt lat="48.254959" lon="10.679539"><ele>582.0</ele></trkpt>
      <trkpt lat="48.254452" lon="10.679225"><ele>581.0</ele></trkpt>
      <trkpt lat="48.254219" lon="10.679094"><ele>579.8</ele></trkpt>
      <trkpt lat="48.253851" lon="10.679085"><ele>579.8</ele></trkpt>
      <trkpt lat="48.253778" lon="10.678990"><ele>580.0</ele></trkpt>
      <trkpt lat="48.253660" lon="10.678749"><ele>580.5</ele></trkpt>
      <trkpt lat="48.252826" lon="10.678224"><ele>582.0</ele></trkpt>
      <trkpt lat="48.251916" lon="10.677681"><ele>579.5</ele></trkpt>
      <trkpt lat="48.248750" lon="10.675604"><ele>584.0</ele></trkpt>
      <trkpt lat="48.248120" lon="10.675243"><ele>584.8</ele></trkpt>
      <trkpt lat="48.247787" lon="10.674983"><ele>584.8</ele></trkpt>
      <trkpt lat="48.246872" lon="10.674295"><ele>585.0</ele></trkpt>
      <trkpt lat="48.246792" lon="10.674255"><ele>585.0</ele></trkpt>
      <trkpt lat="48.246782" lon="10.674103"><ele>585.0</ele></trkpt>
      <trkpt lat="48.246672" lon="10.674034"><ele>585.0</ele></trkpt>
      <trkpt lat="48.245869" lon="10.673125"><ele>585.5</ele></trkpt>
      <trkpt lat="48.243896" lon="10.670886"><ele>587.0</ele></trkpt>
      <trkpt lat="48.242918" lon="10.669785"><ele>587.5</ele></trkpt>
      <trkpt lat="48.242229" lon="10.669021"><ele>588.5</ele></trkpt>
      <trkpt lat="48.240595" lon="10.667097"><ele>585.8</ele></trkpt>
      <trkpt lat="48.239870" lon="10.666342"><ele>586.2</ele></trkpt>
      <trkpt lat="48.238174" lon="10.665949"><ele>590.2</ele></trkpt>
      <trkpt lat="48.237463" lon="10.665878"><ele>588.0</ele></trkpt>
      <trkpt lat="48.236621" lon="10.665698"><ele>587.5</ele></trkpt>
      <trkpt lat="48.235490" lon="10.665439"><ele>591.0</ele></trkpt>
      <trkpt lat="48.234593" lon="10.665117"><ele>592.0</ele></trkpt>
      <trkpt lat="48.234100" lon="10.664729"><ele>591.8</ele></trkpt>
      <trkpt lat="48.233888" lon="10.664537"><ele>590.8</ele></trkpt>
      <trkpt lat="48.233184" lon="10.663517"><ele>589.2</ele></trkpt>
      <trkpt lat="48.233086" lon="10.663411"><ele>588.8</ele></trkpt>
      <trkpt lat="48.232948" lon="10.663315"><ele>589.2</ele></trkpt>
      <trkpt lat="48.232813" lon="10.663301"><ele>589.8</ele></trkpt>
      <trkpt lat="48.232103" lon="10.663299"><ele>591.0</ele></trkpt>
      <trkpt lat="48.230421" lon="10.662875"><ele>592.5</ele></trkpt>
      <trkpt lat="48.228564" lon="10.661923"><ele>591.8</ele></trkpt>
      <trkpt lat="48.228218" lon="10.661907"><ele>592.2</ele></trkpt>
      <trkpt lat="48.227072" lon="10.661938"><ele>595.0</ele></trkpt>
      <trkpt lat="48.226282" lon="10.661910"><ele>593.5</ele></trkpt>
      <trkpt lat="48.225317" lon="10.661897"><ele>590.0</ele></trkpt>
      <trkpt lat="48.224690" lon="10.661774"><ele>593.8</ele></trkpt>
      <trkpt lat="48.223885" lon="10.661676"><ele>596.0</ele></trkpt>
      <trkpt lat="48.223782" lon="10.661607"><ele>596.0</ele></trkpt>
      <trkpt lat="48.223737" lon="10.661559"><ele>596.0</ele></trkpt>
      <trkpt lat="48.223661" lon="10.661573"><ele>596.0</ele></trkpt>
      <trkpt lat="48.223574" lon="10.661501"><ele>596.0</ele></trkpt>
      <trkpt lat="48.223599" lon="10.661384"><ele>596.0</ele></trkpt>
      <trkpt lat="48.223638" lon="10.661328"><ele>596.0</ele></trkpt>
      <trkpt lat="48.223196" lon="10.660683"><ele>594.5</ele></trkpt>
      <trkpt lat="48.222926" lon="10.660308"><ele>593.5</ele></trkpt>
      <trkpt lat="48.222659" lon="10.659975"><ele>591.8</ele></trkpt>
      <trkpt lat="48.222310" lon="10.659866"><ele>591.8</ele></trkpt>
      <trkpt lat="48.221608" lon="10.659958"><ele>592.8</ele></trkpt>
      <trkpt lat="48.220778" lon="10.660033"><ele>593.0</ele></trkpt>
      <trkpt lat="48.220309" lon="10.659999"><ele>594.8</ele></trkpt>
      <trkpt lat="48.219100" lon="10.659831"><ele>596.8</ele></trkpt>
      <trkpt lat="48.218520" lon="10.659979"><ele>594.8</ele></trkpt>
      <trkpt lat="48.217466" lon="10.660698"><ele>594.8</ele></trkpt>
      <trkpt lat="48.216312" lon="10.662427"><ele>590.2</ele></trkpt>
      <trkpt lat="48.215230" lon="10.664101"><ele>586.5</ele></trkpt>
      <trkpt lat="48.215342" lon="10.664556"><ele>589.8</ele></trkpt>
      <trkpt lat="48.215406" lon="10.664888"><ele>591.8</ele></trkpt>
      <trkpt lat="48.215432" lon="10.665079"><ele>592.5</ele></trkpt>
      <trkpt lat="48.215426" lon="10.665215"><ele>592.8</ele></trkpt>
      <trkpt lat="48.215396" lon="10.665302"><ele>593.0</ele></trkpt>
      <trkpt lat="48.214839" lon="10.665951"><ele>595.0</ele></trkpt>
      <trkpt lat="48.214665" lon="10.666199"><ele>596.0</ele></trkpt>
      <trkpt lat="48.214347" lon="10.666787"><ele>597.0</ele></trkpt>
      <trkpt lat="48.214222" lon="10.666891"><ele>597.0</ele></trkpt>
      <trkpt lat="48.214130" lon="10.666952"><ele>597.0</ele></trkpt>
      <trkpt lat="48.214213" lon="10.667378"><ele>596.2</ele></trkpt>
      <trkpt lat="48.214539" lon="10.668960"><ele>589.0</ele></trkpt>
      <trkpt lat="48.214800" lon="10.670222"><ele>583.0</ele></trkpt>
      <trkpt lat="48.214906" lon="10.670665"><ele>580.5</ele></trkpt>
      <trkpt lat="48.214925" lon="10.670731"><ele>580.0</ele></trkpt>
      <trkpt lat="48.214965" lon="10.670857"><ele>578.8</ele></trkpt>
      <trkpt lat="48.215144" lon="10.671338"><ele>575.8</ele></trkpt>
      <trkpt lat="48.215299" lon="10.671769"><ele>572.5</ele></trkpt>
      <trkpt lat="48.215366" lon="10.672040"><ele>571.5</ele></trkpt>
      <trkpt lat="48.215387" lon="10.672318"><ele>570.2</ele></trkpt>
      <trkpt lat="48.215411" lon="10.672858"><ele>567.0</ele></trkpt>
      <trkpt lat="48.215455" lon="10.673080"><ele>566.2</ele></trkpt>
      <trkpt lat="48.215468" lon="10.673137"><ele>566.0</ele></trkpt>
      <trkpt lat="48.215607" lon="10.673485"><ele>564.2</ele></trkpt>
      <trkpt lat="48.215664" lon="10.673644"><ele>563.8</ele></trkpt>
      <trkpt lat="48.215777" lon="10.673760"><ele>563.5</ele></trkpt>
      <trkpt lat="48.215904" lon="10.673887"><ele>562.8</ele></trkpt>
      <trkpt lat="48.215973" lon="10.674016"><ele>562.2</ele></trkpt>
      <trkpt lat="48.216074" lon="10.673940"><ele>562.0</ele></trkpt>
      <trkpt lat="48.216188" lon="10.673878"><ele>562.0</ele></trkpt>
      <trkpt lat="48.216364" lon="10.673793"><ele>562.0</ele></trkpt>
      <trkpt lat="48.216199" lon="10.673213"><ele>563.5</ele></trkpt>
      <trkpt lat="48.216364" lon="10.673793"><ele>562.0</ele></trkpt>
      <trkpt lat="48.216188" lon="10.673878"><ele>562.0</ele></trkpt>
      <trkpt lat="48.216074" lon="10.673940"><ele>562.0</ele></trkpt>
      <trkpt lat="48.215973" lon="10.674016"><ele>562.2</ele></trkpt>
      <trkpt lat="48.215914" lon="10.674066"><ele>562.2</ele></trkpt>
      <trkpt lat="48.215753" lon="10.674238"><ele>562.2</ele></trkpt>
      <trkpt lat="48.215669" lon="10.674342"><ele>562.5</ele></trkpt>
      <trkpt lat="48.215489" lon="10.674534"><ele>562.8</ele></trkpt>
      <trkpt lat="48.215382" lon="10.674621"><ele>562.8</ele></trkpt>
      <trkpt lat="48.215279" lon="10.674671"><ele>563.0</ele></trkpt>
      <trkpt lat="48.215191" lon="10.674685"><ele>563.2</ele></trkpt>
      <trkpt lat="48.215165" lon="10.674900"><ele>563.0</ele></trkpt>
      <trkpt lat="48.215183" lon="10.675083"><ele>562.5</ele></trkpt>
      <trkpt lat="48.215565" lon="10.676086"><ele>558.0</ele></trkpt>
      <trkpt lat="48.215626" lon="10.676367"><ele>557.0</ele></trkpt>
      <trkpt lat="48.215683" lon="10.676568"><ele>557.0</ele></trkpt>
      <trkpt lat="48.215969" lon="10.677282"><ele>559.8</ele></trkpt>
      <trkpt lat="48.216073" lon="10.677652"><ele>563.0</ele></trkpt>
      <trkpt lat="48.216151" lon="10.678031"><ele>566.8</ele></trkpt>
      <trkpt lat="48.216187" lon="10.678304"><ele>570.0</ele></trkpt>
      <trkpt lat="48.216183" lon="10.678407"><ele>571.8</ele></trkpt>
      <trkpt lat="48.216160" lon="10.678511"><ele>573.5</ele></trkpt>
      <trkpt lat="48.215826" lon="10.679276"><ele>585.0</ele></trkpt>
      <trkpt lat="48.215785" lon="10.679420"><ele>587.0</ele></trkpt>
      <trkpt lat="48.215763" lon="10.679559"><ele>588.2</ele></trkpt>
      <trkpt lat="48.215746" lon="10.679682"><ele>589.2</ele></trkpt>
      <trkpt lat="48.215864" lon="10.682363"><ele>595.8</ele></trkpt>
      <trkpt lat="48.215928" lon="10.683022"><ele>594.2</ele></trkpt>
      <trkpt lat="48.215975" lon="10.683419"><ele>592.8</ele></trkpt>
      <trkpt lat="48.216006" lon="10.683679"><ele>591.8</ele></trkpt>
      <trkpt lat="48.216031" lon="10.683894"><ele>591.0</ele></trkpt>
      <trkpt lat="48.216090" lon="10.684339"><ele>588.5</ele></trkpt>
      <trkpt lat="48.216192" lon="10.685195"><ele>585.8</ele></trkpt>
      <trkpt lat="48.216251" lon="10.685284"><ele>585.0</ele></trkpt>
      <trkpt lat="48.216192" lon="10.685441"><ele>586.0</ele></trkpt>
      <trkpt lat="48.216147" lon="10.685667"><ele>586.8</ele></trkpt>
      <trkpt lat="48.216117" lon="10.685925"><ele>587.2</ele></trkpt>
      <trkpt lat="48.216086" lon="10.686038"><ele>587.8</ele></trkpt>
      <trkpt lat="48.216039" lon="10.686130"><ele>588.2</ele></trkpt>
      <trkpt lat="48.215798" lon="10.686440"><ele>590.8</ele></trkpt>
      <trkpt lat="48.215737" lon="10.686538"><ele>591.8</ele></trkpt>
      <trkpt lat="48.215682" lon="10.686642"><ele>592.5</ele></trkpt>
      <trkpt lat="48.215813" lon="10.686726"><ele>592.2</ele></trkpt>
      <trkpt lat="48.216201" lon="10.686839"><ele>591.8</ele></trkpt>
      <trkpt lat="48.216233" lon="10.686844"><ele>593.0</ele></trkpt>
      <trkpt lat="48.216492" lon="10.686889"><ele>593.0</ele></trkpt>
      <trkpt lat="48.216753" lon="10.686909"><ele>594.2</ele></trkpt>
      <trkpt lat="48.216754" lon="10.687196"><ele>594.8</ele></trkpt>
      <trkpt lat="48.216727" lon="10.687785"><ele>595.8</ele></trkpt>
      <trkpt lat="48.216713" lon="10.687944"><ele>595.8</ele></trkpt>
      <trkpt lat="48.216674" lon="10.688274"><ele>595.8</ele></trkpt>
      <trkpt lat="48.216575" lon="10.688919"><ele>595.8</ele></trkpt>
      <trkpt lat="48.216526" lon="10.689251"><ele>595.5</ele></trkpt>
      <trkpt lat="48.216511" lon="10.689357"><ele>595.5</ele></trkpt>
      <trkpt lat="48.216476" lon="10.689598"><ele>595.5</ele></trkpt>
      <trkpt lat="48.216467" lon="10.690328"><ele>595.5</ele></trkpt>
      <trkpt lat="48.216490" lon="10.690741"><ele>594.0</ele></trkpt>
      <trkpt lat="48.216549" lon="10.691175"><ele>592.5</ele></trkpt>
      <trkpt lat="48.216623" lon="10.691566"><ele>590.5</ele></trkpt>
      <trkpt lat="48.216713" lon="10.691931"><ele>588.5</ele></trkpt>
      <trkpt lat="48.217101" lon="10.693148"><ele>582.0</ele></trkpt>
      <trkpt lat="48.217518" lon="10.694428"><ele>576.0</ele></trkpt>
      <trkpt lat="48.217937" lon="10.695716"><ele>584.0</ele></trkpt>
      <trkpt lat="48.218092" lon="10.696616"><ele>586.2</ele></trkpt>
      <trkpt lat="48.218587" lon="10.698165"><ele>587.5</ele></trkpt>
      <trkpt lat="48.218657" lon="10.698402"><ele>588.0</ele></trkpt>
      <trkpt lat="48.218642" lon="10.698556"><ele>588.5</ele></trkpt>
      <trkpt lat="48.218449" lon="10.699676"><ele>593.0</ele></trkpt>
      <trkpt lat="48.217838" lon="10.703141"><ele>597.2</ele></trkpt>
      <trkpt lat="48.217251" lon="10.706608"><ele>596.0</ele></trkpt>
      <trkpt lat="48.216605" lon="10.710255"><ele>594.0</ele></trkpt>
      <trkpt lat="48.216180" lon="10.712620"><ele>594.2</ele></trkpt>
      <trkpt lat="48.216496" lon="10.712716"><ele>593.8</ele></trkpt>
      <trkpt lat="48.218722" lon="10.713598"><ele>588.5</ele></trkpt>
      <trkpt lat="48.219670" lon="10.714483"><ele>586.8</ele></trkpt>
      <trkpt lat="48.220705" lon="10.715298"><ele>584.0</ele></trkpt>
      <trkpt lat="48.220838" lon="10.715458"><ele>583.8</ele></trkpt>
      <trkpt lat="48.220913" lon="10.715572"><ele>583.5</ele></trkpt>
      <trkpt lat="48.220964" lon="10.715706"><ele>583.5</ele></trkpt>
      <trkpt lat="48.220983" lon="10.715844"><ele>583.2</ele></trkpt>
      <trkpt lat="48.220907" lon="10.716043"><ele>583.5</ele></trkpt>
      <trkpt lat="48.220796" lon="10.716251"><ele>584.8</ele></trkpt>
      <trkpt lat="48.220328" lon="10.717034"><ele>589.8</ele></trkpt>
      <trkpt lat="48.219975" lon="10.717625"><ele>592.0</ele></trkpt>
      <trkpt lat="48.219742" lon="10.718133"><ele>591.8</ele></trkpt>
      <trkpt lat="48.219609" lon="10.718484"><ele>592.5</ele></trkpt>
      <trkpt lat="48.219518" lon="10.718738"><ele>592.8</ele></trkpt>
      <trkpt lat="48.219287" lon="10.719378"><ele>592.0</ele></trkpt>
      <trkpt lat="48.219193" lon="10.719591"><ele>591.5</ele></trkpt>
      <trkpt lat="48.219099" lon="10.719733"><ele>590.8</ele></trkpt>
      <trkpt lat="48.219031" lon="10.719815"><ele>590.2</ele></trkpt>
      <trkpt lat="48.218976" lon="10.719869"><ele>589.5</ele></trkpt>
      <trkpt lat="48.219104" lon="10.719919"><ele>589.8</ele></trkpt>
      <trkpt lat="48.219386" lon="10.720119"><ele>589.8</ele></trkpt>
      <trkpt lat="48.219652" lon="10.720388"><ele>589.5</ele></trkpt>
      <trkpt lat="48.220463" lon="10.721307"><ele>590.8</ele></trkpt>
      <trkpt lat="48.221549" lon="10.722424"><ele>590.0</ele></trkpt>
      <trkpt lat="48.222992" lon="10.723990"><ele>592.0</ele></trkpt>
      <trkpt lat="48.223212" lon="10.724273"><ele>591.2</ele></trkpt>
      <trkpt lat="48.223374" lon="10.724561"><ele>591.0</ele></trkpt>
      <trkpt lat="48.223559" lon="10.725069"><ele>591.0</ele></trkpt>
      <trkpt lat="48.223639" lon="10.725232"><ele>591.0</ele></trkpt>
      <trkpt lat="48.223741" lon="10.725385"><ele>591.0</ele></trkpt>
      <trkpt lat="48.225033" lon="10.726895"><ele>587.2</ele></trkpt>
      <trkpt lat="48.226051" lon="10.728005"><ele>589.8</ele></trkpt>
      <trkpt lat="48.226080" lon="10.728035"><ele>589.8</ele></trkpt>
      <trkpt lat="48.226724" lon="10.728701"><ele>591.0</ele></trkpt>
      <trkpt lat="48.227037" lon="10.728971"><ele>591.0</ele></trkpt>
      <trkpt lat="48.227220" lon="10.729172"><ele>591.0</ele></trkpt>
      <trkpt lat="48.227469" lon="10.729674"><ele>591.0</ele></trkpt>
      <trkpt lat="48.227785" lon="10.730285"><ele>590.0</ele></trkpt>
      <trkpt lat="48.228297" lon="10.731333"><ele>590.0</ele></trkpt>
      <trkpt lat="48.228836" lon="10.732094"><ele>589.0</ele></trkpt>
      <trkpt lat="48.228950" lon="10.732208"><ele>589.0</ele></trkpt>
      <trkpt lat="48.229066" lon="10.732294"><ele>589.0</ele></trkpt>
      <trkpt lat="48.229154" lon="10.732295"><ele>589.0</ele></trkpt>
      <trkpt lat="48.230795" lon="10.735903"><ele>588.0</ele></trkpt>
      <trkpt lat="48.231076" lon="10.736292"><ele>587.2</ele></trkpt>
      <trkpt lat="48.231430" lon="10.736558"><ele>586.5</ele></trkpt>
      <trkpt lat="48.231584" lon="10.736693"><ele>584.5</ele></trkpt>
      <trkpt lat="48.231700" lon="10.736714"><ele>584.0</ele></trkpt>
      <trkpt lat="48.231743" lon="10.736277"><ele>586.5</ele></trkpt>
      <trkpt lat="48.231769" lon="10.735844"><ele>587.8</ele></trkpt>
      <trkpt lat="48.231823" lon="10.735851"><ele>587.8</ele></trkpt>
      <trkpt lat="48.231956" lon="10.735919"><ele>587.5</ele></trkpt>
      <trkpt lat="48.232076" lon="10.736014"><ele>587.5</ele></trkpt>
      <trkpt lat="48.232259" lon="10.736267"><ele>587.2</ele></trkpt>
      <trkpt lat="48.232598" lon="10.736824"><ele>586.5</ele></trkpt>
      <trkpt lat="48.232698" lon="10.736942"><ele>586.5</ele></trkpt>
      <trkpt lat="48.232787" lon="10.737019"><ele>587.0</ele></trkpt>
      <trkpt lat="48.233105" lon="10.737167"><ele>587.0</ele></trkpt>
      <trkpt lat="48.233336" lon="10.737272"><ele>587.0</ele></trkpt>
      <trkpt lat="48.233514" lon="10.737352"><ele>587.0</ele></trkpt>
      <trkpt lat="48.233634" lon="10.737407"><ele>586.8</ele></trkpt>
      <trkpt lat="48.233799" lon="10.737482"><ele>586.2</ele></trkpt>
      <trkpt lat="48.233887" lon="10.737510"><ele>586.0</ele></trkpt>
      <trkpt lat="48.233957" lon="10.737502"><ele>586.0</ele></trkpt>
      <trkpt lat="48.233982" lon="10.737655"><ele>586.2</ele></trkpt>
      <trkpt lat="48.233983" lon="10.737807"><ele>586.5</ele></trkpt>
      <trkpt lat="48.233983" lon="10.737842"><ele>586.5</ele></trkpt>
      <trkpt lat="48.233968" lon="10.737945"><ele>586.5</ele></trkpt>
      <trkpt lat="48.233942" lon="10.738130"><ele>586.5</ele></trkpt>
      <trkpt lat="48.233891" lon="10.738486"><ele>586.0</ele></trkpt>
      <trkpt lat="48.234010" lon="10.738630"><ele>586.2</ele></trkpt>
      <trkpt lat="48.234158" lon="10.738776"><ele>586.2</ele></trkpt>
      <trkpt lat="48.234281" lon="10.738881"><ele>586.0</ele></trkpt>
      <trkpt lat="48.234532" lon="10.739053"><ele>585.5</ele></trkpt>
      <trkpt lat="48.234753" lon="10.739182"><ele>585.0</ele></trkpt>
      <trkpt lat="48.235106" lon="10.739339"><ele>584.5</ele></trkpt>
      <trkpt lat="48.235701" lon="10.739498"><ele>584.0</ele></trkpt>
      <trkpt lat="48.236125" lon="10.739685"><ele>584.0</ele></trkpt>
      <trkpt lat="48.236544" lon="10.739924"><ele>584.0</ele></trkpt>
      <trkpt lat="48.237427" lon="10.740600"><ele>584.8</ele></trkpt>
      <trkpt lat="48.237568" lon="10.740682"><ele>585.0</ele></trkpt>
      <trkpt lat="48.238107" lon="10.740913"><ele>585.8</ele></trkpt>
      <trkpt lat="48.238583" lon="10.741181"><ele>586.0</ele></trkpt>
      <trkpt lat="48.239201" lon="10.741987"><ele>585.5</ele></trkpt>
      <trkpt lat="48.239270" lon="10.742121"><ele>585.0</ele></trkpt>
      <trkpt lat="48.239350" lon="10.742311"><ele>585.0</ele></trkpt>
      <trkpt lat="48.240008" lon="10.743225"><ele>583.8</ele></trkpt>
      <trkpt lat="48.240613" lon="10.743815"><ele>582.0</ele></trkpt>
      <trkpt lat="48.242174" lon="10.745415"><ele>581.0</ele></trkpt>
      <trkpt lat="48.242479" lon="10.746059"><ele>581.0</ele></trkpt>
      <trkpt lat="48.242549" lon="10.746155"><ele>580.5</ele></trkpt>
      <trkpt lat="48.242708" lon="10.746374"><ele>580.0</ele></trkpt>
      <trkpt lat="48.244052" lon="10.747798"><ele>579.0</ele></trkpt>
      <trkpt lat="48.244413" lon="10.748134"><ele>579.2</ele></trkpt>
      <trkpt lat="48.245336" lon="10.749067"><ele>578.8</ele></trkpt>
      <trkpt lat="48.246710" lon="10.750506"><ele>577.8</ele></trkpt>
      <trkpt lat="48.248198" lon="10.751985"><ele>577.5</ele></trkpt>
      <trkpt lat="48.248411" lon="10.752122"><ele>577.2</ele></trkpt>
      <trkpt lat="48.248768" lon="10.752277"><ele>575.8</ele></trkpt>
      <trkpt lat="48.249046" lon="10.752266"><ele>574.5</ele></trkpt>
      <trkpt lat="48.249195" lon="10.752425"><ele>574.5</ele></trkpt>
      <trkpt lat="48.249292" lon="10.752526"><ele>575.0</ele></trkpt>
      <trkpt lat="48.249663" lon="10.752664"><ele>576.2</ele></trkpt>
      <trkpt lat="48.250649" lon="10.753024"><ele>579.0</ele></trkpt>
      <trkpt lat="48.250832" lon="10.753088"><ele>579.0</ele></trkpt>
      <trkpt lat="48.251987" lon="10.753496"><ele>577.8</ele></trkpt>
      <trkpt lat="48.252133" lon="10.753606"><ele>577.8</ele></trkpt>
      <trkpt lat="48.252334" lon="10.753968"><ele>577.5</ele></trkpt>
      <trkpt lat="48.252572" lon="10.754270"><ele>577.5</ele></trkpt>
      <trkpt lat="48.252818" lon="10.754603"><ele>577.8</ele></trkpt>
      <trkpt lat="48.252895" lon="10.754721"><ele>577.8</ele></trkpt>
      <trkpt lat="48.252960" lon="10.754821"><ele>578.0</ele></trkpt>
      <trkpt lat="48.253633" lon="10.756229"><ele>576.2</ele></trkpt>
      <trkpt lat="48.254034" lon="10.757272"><ele>572.8</ele></trkpt>
      <trkpt lat="48.254394" lon="10.758446"><ele>573.5</ele></trkpt>
      <trkpt lat="48.254518" lon="10.759176"><ele>574.2</ele></trkpt>
      <trkpt lat="48.254574" lon="10.759503"><ele>574.5</ele></trkpt>
      <trkpt lat="48.254891" lon="10.760547"><ele>574.2</ele></trkpt>
      <trkpt lat="48.255462" lon="10.761428"><ele>575.0</ele></trkpt>
      <trkpt lat="48.256886" lon="10.762009"><ele>575.8</ele></trkpt>
      <trkpt lat="48.257175" lon="10.762668"><ele>575.0</ele></trkpt>
      <trkpt lat="48.258347" lon="10.765151"><ele>575.2</ele></trkpt>
      <trkpt lat="48.259053" lon="10.766848"><ele>575.0</ele></trkpt>
      <trkpt lat="48.259253" lon="10.767276"><ele>574.8</ele></trkpt>
      <trkpt lat="48.259429" lon="10.767614"><ele>574.8</ele></trkpt>
      <trkpt lat="48.259363" lon="10.767732"><ele>574.0</ele></trkpt>
      <trkpt lat="48.259344" lon="10.767928"><ele>572.5</ele></trkpt>
      <trkpt lat="48.259406" lon="10.768271"><ele>572.0</ele></trkpt>
      <trkpt lat="48.259601" lon="10.769043"><ele>569.8</ele></trkpt>
      <trkpt lat="48.259824" lon="10.769968"><ele>572.0</ele></trkpt>
      <trkpt lat="48.259937" lon="10.770872"><ele>573.5</ele></trkpt>
      <trkpt lat="48.259979" lon="10.771690"><ele>573.5</ele></trkpt>
      <trkpt lat="48.260074" lon="10.772133"><ele>573.2</ele></trkpt>
      <trkpt lat="48.260239" lon="10.772551"><ele>573.5</ele></trkpt>
      <trkpt lat="48.260736" lon="10.773748"><ele>573.8</ele></trkpt>
      <trkpt lat="48.261575" lon="10.775545"><ele>572.5</ele></trkpt>
      <trkpt lat="48.261720" lon="10.775707"><ele>572.2</ele></trkpt>
      <trkpt lat="48.261942" lon="10.775841"><ele>572.0</ele></trkpt>
      <trkpt lat="48.262134" lon="10.775827"><ele>572.0</ele></trkpt>
      <trkpt lat="48.262325" lon="10.775709"><ele>572.0</ele></trkpt>
      <trkpt lat="48.262742" lon="10.775393"><ele>572.5</ele></trkpt>
      <trkpt lat="48.262904" lon="10.776197"><ele>570.2</ele></trkpt>
      <trkpt lat="48.263034" lon="10.776968"><ele>568.5</ele></trkpt>
      <trkpt lat="48.263255" lon="10.777640"><ele>570.5</ele></trkpt>
      <trkpt lat="48.263404" lon="10.778597"><ele>568.2</ele></trkpt>
      <trkpt lat="48.263546" lon="10.779149"><ele>567.5</ele></trkpt>
      <trkpt lat="48.263606" lon="10.779330"><ele>567.2</ele></trkpt>
      <trkpt lat="48.263798" lon="10.779558"><ele>566.8</ele></trkpt>
      <trkpt lat="48.264025" lon="10.779594"><ele>566.5</ele></trkpt>
      <trkpt lat="48.265085" lon="10.779889"><ele>564.0</ele></trkpt>
      <trkpt lat="48.266153" lon="10.780488"><ele>560.8</ele></trkpt>
      <trkpt lat="48.266621" lon="10.781137"><ele>559.0</ele></trkpt>
      <trkpt lat="48.267391" lon="10.781794"><ele>556.0</ele></trkpt>
      <trkpt lat="48.268003" lon="10.782315"><ele>554.0</ele></trkpt>
      <trkpt lat="48.268288" lon="10.782552"><ele>554.2</ele></trkpt>
      <trkpt lat="48.268517" lon="10.782573"><ele>553.2</ele></trkpt>
      <trkpt lat="48.268829" lon="10.782621"><ele>552.8</ele></trkpt>
      <trkpt lat="48.269235" lon="10.782696"><ele>551.8</ele></trkpt>
      <trkpt lat="48.269425" lon="10.782778"><ele>551.0</ele></trkpt>
      <trkpt lat="48.269550" lon="10.782855"><ele>550.8</ele></trkpt>
      <trkpt lat="48.269585" lon="10.782876"><ele>550.5</ele></trkpt>
      <trkpt lat="48.269821" lon="10.783099"><ele>549.8</ele></trkpt>
      <trkpt lat="48.270043" lon="10.783317"><ele>549.5</ele></trkpt>
      <trkpt lat="48.270324" lon="10.783546"><ele>548.5</ele></trkpt>
      <trkpt lat="48.270456" lon="10.783790"><ele>548.8</ele></trkpt>
      <trkpt lat="48.270494" lon="10.783897"><ele>548.5</ele></trkpt>
      <trkpt lat="48.270757" lon="10.783626"><ele>549.2</ele></trkpt>
      <trkpt lat="48.270777" lon="10.783605"><ele>549.5</ele></trkpt>
      <trkpt lat="48.270981" lon="10.783386"><ele>552.2</ele></trkpt>
      <trkpt lat="48.271009" lon="10.783345"><ele>552.5</ele></trkpt>
      <trkpt lat="48.271026" lon="10.783320"><ele>552.5</ele></trkpt>
      <trkpt lat="48.271053" lon="10.783280"><ele>552.8</ele></trkpt>
      <trkpt lat="48.271213" lon="10.782982"><ele>555.2</ele></trkpt>
      <trkpt lat="48.271400" lon="10.782612"><ele>557.5</ele></trkpt>
      <trkpt lat="48.271433" lon="10.782546"><ele>557.8</ele></trkpt>
      <trkpt lat="48.271582" lon="10.782265"><ele>559.8</ele></trkpt>
      <trkpt lat="48.271658" lon="10.782136"><ele>560.0</ele></trkpt>
      <trkpt lat="48.271851" lon="10.781993"><ele>561.0</ele></trkpt>
      <trkpt lat="48.271885" lon="10.781975"><ele>561.2</ele></trkpt>
      <trkpt lat="48.271911" lon="10.781990"><ele>561.5</ele></trkpt>
      <trkpt lat="48.271939" lon="10.782027"><ele>561.5</ele></trkpt>
      <trkpt lat="48.272011" lon="10.782156"><ele>561.0</ele></trkpt>
      <trkpt lat="48.272030" lon="10.782189"><ele>561.0</ele></trkpt>
      <trkpt lat="48.272050" lon="10.782225"><ele>560.8</ele></trkpt>
      <trkpt lat="48.272142" lon="10.782383"><ele>560.2</ele></trkpt>
      <trkpt lat="48.272215" lon="10.782508"><ele>559.8</ele></trkpt>
      <trkpt lat="48.272252" lon="10.782547"><ele>559.8</ele></trkpt>
      <trkpt lat="48.272247" lon="10.782597"><ele>560.0</ele></trkpt>
      <trkpt lat="48.272409" lon="10.782898"><ele>559.5</ele></trkpt>
      <trkpt lat="48.272605" lon="10.782989"><ele>558.8</ele></trkpt>
      <trkpt lat="48.272446" lon="10.783982"><ele>554.5</ele></trkpt>
      <trkpt lat="48.272336" lon="10.784398"><ele>552.5</ele></trkpt>
      <trkpt lat="48.272498" lon="10.784561"><ele>552.5</ele></trkpt>
      <trkpt lat="48.272550" lon="10.784643"><ele>552.2</ele></trkpt>
      <trkpt lat="48.272588" lon="10.784705"><ele>552.0</ele></trkpt>
      <trkpt lat="48.272687" lon="10.784810"><ele>551.2</ele></trkpt>
      <trkpt lat="48.272741" lon="10.784866"><ele>550.8</ele></trkpt>
      <trkpt lat="48.272892" lon="10.785041"><ele>549.2</ele></trkpt>
      <trkpt lat="48.272980" lon="10.785186"><ele>548.2</ele></trkpt>
      <trkpt lat="48.273018" lon="10.785280"><ele>547.8</ele></trkpt>
      <trkpt lat="48.273077" lon="10.785424"><ele>546.8</ele></trkpt>
      <trkpt lat="48.273169" lon="10.785650"><ele>545.2</ele></trkpt>
      <trkpt lat="48.273254" lon="10.785881"><ele>544.2</ele></trkpt>
      <trkpt lat="48.273286" lon="10.785943"><ele>544.0</ele></trkpt>
      <trkpt lat="48.273380" lon="10.786053"><ele>543.2</ele></trkpt>
      <trkpt lat="48.273516" lon="10.786208"><ele>542.8</ele></trkpt>
      <trkpt lat="48.273588" lon="10.786327"><ele>542.2</ele></trkpt>
      <trkpt lat="48.273636" lon="10.786265"><ele>542.2</ele></trkpt>
      <trkpt lat="48.273588" lon="10.786327"><ele>542.2</ele></trkpt>
      <trkpt lat="48.273468" lon="10.786465"><ele>542.0</ele></trkpt>
      <trkpt lat="48.273319" lon="10.786637"><ele>542.0</ele></trkpt>
      <trkpt lat="48.273272" lon="10.786661"><ele>542.0</ele></trkpt>
      <trkpt lat="48.273275" lon="10.786712"><ele>541.8</ele></trkpt>
      <trkpt lat="48.273280" lon="10.786780"><ele>541.8</ele></trkpt>
      <trkpt lat="48.273287" lon="10.786896"><ele>541.8</ele></trkpt>
      <trkpt lat="48.273276" lon="10.787047"><ele>541.8</ele></trkpt>
      <trkpt lat="48.273264" lon="10.787138"><ele>541.8</ele></trkpt>
      <trkpt lat="48.273230" lon="10.787279"><ele>542.0</ele></trkpt>
      <trkpt lat="48.273371" lon="10.787368"><ele>542.5</ele></trkpt>
      <trkpt lat="48.273432" lon="10.787389"><ele>542.5</ele></trkpt>
      <trkpt lat="48.273523" lon="10.787361"><ele>542.2</ele></trkpt>
      <trkpt lat="48.273810" lon="10.787165"><ele>541.0</ele></trkpt>
      <trkpt lat="48.274001" lon="10.787034"><ele>541.0</ele></trkpt>
      <trkpt lat="48.274100" lon="10.786966"><ele>541.0</ele></trkpt>
      <trkpt lat="48.274326" lon="10.786812"><ele>540.5</ele></trkpt>
      <trkpt lat="48.274498" lon="10.786701"><ele>540.2</ele></trkpt>
      <trkpt lat="48.274550" lon="10.786667"><ele>540.2</ele></trkpt>
      <trkpt lat="48.274611" lon="10.786626"><ele>540.2</ele></trkpt>
      <trkpt lat="48.274666" lon="10.786589"><ele>540.5</ele></trkpt>
      <trkpt lat="48.274946" lon="10.786406"><ele>540.0</ele></trkpt>
      <trkpt lat="48.274976" lon="10.786385"><ele>539.8</ele></trkpt>
      <trkpt lat="48.275108" lon="10.786287"><ele>540.8</ele></trkpt>
      <trkpt lat="48.275130" lon="10.786266"><ele>540.8</ele></trkpt>
      <trkpt lat="48.275223" lon="10.786176"><ele>540.5</ele></trkpt>
      <trkpt lat="48.275240" lon="10.786134"><ele>540.0</ele></trkpt>
      <trkpt lat="48.275510" lon="10.785472"><ele>538.0</ele></trkpt>
      <trkpt lat="48.275616" lon="10.785339"><ele>537.5</ele></trkpt>
      <trkpt lat="48.275688" lon="10.785267"><ele>537.2</ele></trkpt>
      <trkpt lat="48.275808" lon="10.785148"><ele>537.0</ele></trkpt>
      <trkpt lat="48.276053" lon="10.784936"><ele>535.8</ele></trkpt>
      <trkpt lat="48.276306" lon="10.784665"><ele>535.0</ele></trkpt>
      <trkpt lat="48.276545" lon="10.784258"><ele>534.5</ele></trkpt>
      <trkpt lat="48.276691" lon="10.783880"><ele>534.8</ele></trkpt>
      <trkpt lat="48.276726" lon="10.783755"><ele>534.8</ele></trkpt>
      <trkpt lat="48.276808" lon="10.783791"><ele>534.2</ele></trkpt>
      <trkpt lat="48.276904" lon="10.783797"><ele>533.8</ele></trkpt>
      <trkpt lat="48.276980" lon="10.783792"><ele>533.5</ele></trkpt>
      <trkpt lat="48.277625" lon="10.783676"><ele>532.5</ele></trkpt>
      <trkpt lat="48.277882" lon="10.783583"><ele>532.0</ele></trkpt>
      <trkpt lat="48.278903" lon="10.783074"><ele>530.8</ele></trkpt>
      <trkpt lat="48.279428" lon="10.782842"><ele>530.0</ele></trkpt>
      <trkpt lat="48.280362" lon="10.782396"><ele>531.2</ele></trkpt>
      <trkpt lat="48.280481" lon="10.782363"><ele>531.2</ele></trkpt>
      <trkpt lat="48.280627" lon="10.782352"><ele>531.5</ele></trkpt>
      <trkpt lat="48.280758" lon="10.782356"><ele>531.5</ele></trkpt>
      <trkpt lat="48.281551" lon="10.782346"><ele>531.5</ele></trkpt>
      <trkpt lat="48.281926" lon="10.782386"><ele>529.5</ele></trkpt>
      <trkpt lat="48.282342" lon="10.782645"><ele>528.5</ele></trkpt>
      <trkpt lat="48.283454" lon="10.783144"><ele>528.0</ele></trkpt>
      <trkpt lat="48.284196" lon="10.783144"><ele>526.0</ele></trkpt>
      <trkpt lat="48.284599" lon="10.782955"><ele>527.8</ele></trkpt>
      <trkpt lat="48.284995" lon="10.782793"><ele>529.8</ele></trkpt>
      <trkpt lat="48.285439" lon="10.782769"><ele>528.2</ele></trkpt>
      <trkpt lat="48.285808" lon="10.782891"><ele>528.8</ele></trkpt>
      <trkpt lat="48.286314" lon="10.783015"><ele>531.5</ele></trkpt>
      <trkpt lat="48.286818" lon="10.783423"><ele>532.5</ele></trkpt>
      <trkpt lat="48.287197" lon="10.783425"><ele>538.0</ele></trkpt>
      <trkpt lat="48.288224" lon="10.783433"><ele>538.0</ele></trkpt>
      <trkpt lat="48.288825" lon="10.783403"><ele>543.5</ele></trkpt>
      <trkpt lat="48.290323" lon="10.783440"><ele>554.8</ele></trkpt>
      <trkpt lat="48.290838" lon="10.782749"><ele>559.0</ele></trkpt>
      <trkpt lat="48.291271" lon="10.781819"><ele>561.2</ele></trkpt>
      <trkpt lat="48.292014" lon="10.781827"><ele>561.2</ele></trkpt>
      <trkpt lat="48.292074" lon="10.781763"><ele>561.2</ele></trkpt>
      <trkpt lat="48.292031" lon="10.781396"><ele>561.5</ele></trkpt>
      <trkpt lat="48.292130" lon="10.780569"><ele>561.2</ele></trkpt>
      <trkpt lat="48.292402" lon="10.779667"><ele>560.8</ele></trkpt>
      <trkpt lat="48.292791" lon="10.778595"><ele>560.8</ele></trkpt>
      <trkpt lat="48.295091" lon="10.777339"><ele>560.0</ele></trkpt>
      <trkpt lat="48.295956" lon="10.777709"><ele>561.5</ele></trkpt>
      <trkpt lat="48.296138" lon="10.777803"><ele>561.0</ele></trkpt>
      <trkpt lat="48.296210" lon="10.777873"><ele>561.0</ele></trkpt>
      <trkpt lat="48.296241" lon="10.778065"><ele>560.8</ele></trkpt>
      <trkpt lat="48.296237" lon="10.779041"><ele>559.8</ele></trkpt>
      <trkpt lat="48.296284" lon="10.779117"><ele>559.5</ele></trkpt>
      <trkpt lat="48.296500" lon="10.779135"><ele>558.2</ele></trkpt>
      <trkpt lat="48.296827" lon="10.779137"><ele>554.8</ele></trkpt>
      <trkpt lat="48.297027" lon="10.779116"><ele>552.5</ele></trkpt>
      <trkpt lat="48.297505" lon="10.779217"><ele>550.5</ele></trkpt>
      <trkpt lat="48.297697" lon="10.779307"><ele>549.8</ele></trkpt>
      <trkpt lat="48.297844" lon="10.779446"><ele>549.0</ele></trkpt>
      <trkpt lat="48.299530" lon="10.781399"><ele>556.5</ele></trkpt>
      <trkpt lat="48.301634" lon="10.783892"><ele>558.8</ele></trkpt>
      <trkpt lat="48.301726" lon="10.783914"><ele>559.0</ele></trkpt>
      <trkpt lat="48.302763" lon="10.783536"><ele>559.0</ele></trkpt>
      <trkpt lat="48.304606" lon="10.782953"><ele>561.0</ele></trkpt>
      <trkpt lat="48.307373" lon="10.782360"><ele>552.5</ele></trkpt>
      <trkpt lat="48.307946" lon="10.783017"><ele>555.5</ele></trkpt>
      <trkpt lat="48.307985" lon="10.783826"><ele>556.5</ele></trkpt>
      <trkpt lat="48.307994" lon="10.784399"><ele>557.0</ele></trkpt>
      <trkpt lat="48.308035" lon="10.785188"><ele>558.0</ele></trkpt>
      <trkpt lat="48.308066" lon="10.786071"><ele>559.0</ele></trkpt>
      <trkpt lat="48.308155" lon="10.787449"><ele>558.2</ele></trkpt>
      <trkpt lat="48.308202" lon="10.788398"><ele>557.2</ele></trkpt>
      <trkpt lat="48.308249" lon="10.789274"><ele>556.0</ele></trkpt>
      <trkpt lat="48.308316" lon="10.789696"><ele>555.8</ele></trkpt>
      <trkpt lat="48.308419" lon="10.790024"><ele>555.5</ele></trkpt>
      <trkpt lat="48.308527" lon="10.790254"><ele>555.2</ele></trkpt>
      <trkpt lat="48.311677" lon="10.790209"><ele>554.8</ele></trkpt>
      <trkpt lat="48.311987" lon="10.790143"><ele>553.2</ele></trkpt>
      <trkpt lat="48.312464" lon="10.789857"><ele>553.2</ele></trkpt>
      <trkpt lat="48.312512" lon="10.789860"><ele>553.5</ele></trkpt>
      <trkpt lat="48.312552" lon="10.789896"><ele>553.8</ele></trkpt>
      <trkpt lat="48.314656" lon="10.792322"><ele>556.8</ele></trkpt>
      <trkpt lat="48.314693" lon="10.792429"><ele>556.8</ele></trkpt>
      <trkpt lat="48.314708" lon="10.792548"><ele>556.8</ele></trkpt>
      <trkpt lat="48.314672" lon="10.793677"><ele>557.8</ele></trkpt>
      <trkpt lat="48.314618" lon="10.795948"><ele>557.0</ele></trkpt>
      <trkpt lat="48.314702" lon="10.797739"><ele>556.0</ele></trkpt>
      <trkpt lat="48.314717" lon="10.797823"><ele>555.8</ele></trkpt>
      <trkpt lat="48.314785" lon="10.797925"><ele>555.2</ele></trkpt>
      <trkpt lat="48.314942" lon="10.798082"><ele>555.0</ele></trkpt>
      <trkpt lat="48.315477" lon="10.798708"><ele>555.0</ele></trkpt>
      <trkpt lat="48.317002" lon="10.800450"><ele>552.0</ele></trkpt>
      <trkpt lat="48.318039" lon="10.801615"><ele>553.0</ele></trkpt>
      <trkpt lat="48.321068" lon="10.805070"><ele>552.0</ele></trkpt>
      <trkpt lat="48.321735" lon="10.805957"><ele>551.0</ele></trkpt>
      <trkpt lat="48.321909" lon="10.806092"><ele>551.0</ele></trkpt>
      <trkpt lat="48.322287" lon="10.806231"><ele>551.0</ele></trkpt>
      <trkpt lat="48.322493" lon="10.806332"><ele>551.0</ele></trkpt>
      <trkpt lat="48.322589" lon="10.806420"><ele>551.0</ele></trkpt>
      <trkpt lat="48.322754" lon="10.806689"><ele>551.0</ele></trkpt>
      <trkpt lat="48.322780" lon="10.806720"><ele>551.0</ele></trkpt>
      <trkpt lat="48.323463" lon="10.807677"><ele>551.0</ele></trkpt>
      <trkpt lat="48.324115" lon="10.808670"><ele>551.0</ele></trkpt>
      <trkpt lat="48.324198" lon="10.808788"><ele>550.8</ele></trkpt>
      <trkpt lat="48.324361" lon="10.808961"><ele>550.2</ele></trkpt>
      <trkpt lat="48.325820" lon="10.810014"><ele>551.0</ele></trkpt>
      <trkpt lat="48.326756" lon="10.810729"><ele>548.5</ele></trkpt>
      <trkpt lat="48.327500" lon="10.810028"><ele>547.8</ele></trkpt>
      <trkpt lat="48.327806" lon="10.809719"><ele>548.0</ele></trkpt>
      <trkpt lat="48.328866" lon="10.808683"><ele>545.2</ele></trkpt>
      <trkpt lat="48.329777" lon="10.807825"><ele>536.5</ele></trkpt>
      <trkpt lat="48.330286" lon="10.808830"><ele>534.0</ele></trkpt>
      <trkpt lat="48.330357" lon="10.809006"><ele>534.2</ele></trkpt>
      <trkpt lat="48.330414" lon="10.809178"><ele>534.5</ele></trkpt>
      <trkpt lat="48.330701" lon="10.810133"><ele>534.0</ele></trkpt>
      <trkpt lat="48.330850" lon="10.810500"><ele>533.0</ele></trkpt>
      <trkpt lat="48.331405" lon="10.811338"><ele>531.8</ele></trkpt>
      <trkpt lat="48.332086" lon="10.812229"><ele>531.0</ele></trkpt>
      <trkpt lat="48.332169" lon="10.812316"><ele>531.0</ele></trkpt>
      <trkpt lat="48.332354" lon="10.812487"><ele>531.0</ele></trkpt>
      <trkpt lat="48.332824" lon="10.812953"><ele>530.2</ele></trkpt>
      <trkpt lat="48.333077" lon="10.813294"><ele>530.5</ele></trkpt>
      <trkpt lat="48.333246" lon="10.813574"><ele>532.0</ele></trkpt>
      <trkpt lat="48.333306" lon="10.813642"><ele>532.5</ele></trkpt>
      <trkpt lat="48.333388" lon="10.813688"><ele>532.5</ele></trkpt>
      <trkpt lat="48.333562" lon="10.813751"><ele>533.0</ele></trkpt>
      <trkpt lat="48.333640" lon="10.813739"><ele>533.0</ele></trkpt>
      <trkpt lat="48.333994" lon="10.813546"><ele>532.8</ele></trkpt>
      <trkpt lat="48.334409" lon="10.813304"><ele>533.0</ele></trkpt>
      <trkpt lat="48.334519" lon="10.813285"><ele>532.8</ele></trkpt>
      <trkpt lat="48.334682" lon="10.813328"><ele>533.0</ele></trkpt>
      <trkpt lat="48.334892" lon="10.813482"><ele>532.5</ele></trkpt>
      <trkpt lat="48.335167" lon="10.814060"><ele>533.5</ele></trkpt>
      <trkpt lat="48.335468" lon="10.814363"><ele>533.5</ele></trkpt>
      <trkpt lat="48.335536" lon="10.814441"><ele>534.0</ele></trkpt>
      <trkpt lat="48.335532" lon="10.815055"><ele>538.2</ele></trkpt>
      <trkpt lat="48.335492" lon="10.815854"><ele>539.8</ele></trkpt>
      <trkpt lat="48.335488" lon="10.816080"><ele>539.0</ele></trkpt>
      <trkpt lat="48.335444" lon="10.816932"><ele>534.5</ele></trkpt>
      <trkpt lat="48.335496" lon="10.817982"><ele>527.0</ele></trkpt>
      <trkpt lat="48.335535" lon="10.818301"><ele>525.0</ele></trkpt>
      <trkpt lat="48.335651" lon="10.819836"><ele>518.8</ele></trkpt>
      <trkpt lat="48.335638" lon="10.820233"><ele>517.2</ele></trkpt>
      <trkpt lat="48.335573" lon="10.821280"><ele>514.2</ele></trkpt>
      <trkpt lat="48.335427" lon="10.823373"><ele>507.8</ele></trkpt>
      <trkpt lat="48.335324" lon="10.824761"><ele>504.2</ele></trkpt>
      <trkpt lat="48.335310" lon="10.825263"><ele>503.2</ele></trkpt>
      <trkpt lat="48.335284" lon="10.825639"><ele>502.0</ele></trkpt>
      <trkpt lat="48.335253" lon="10.825826"><ele>502.0</ele></trkpt>
      <trkpt lat="48.335147" lon="10.825984"><ele>501.0</ele></trkpt>
      <trkpt lat="48.334595" lon="10.826295"><ele>500.5</ele></trkpt>
      <trkpt lat="48.334646" lon="10.826538"><ele>499.2</ele></trkpt>
      <trkpt lat="48.334469" lon="10.826769"><ele>498.8</ele></trkpt>
      <trkpt lat="48.334345" lon="10.826608"><ele>499.0</ele></trkpt>
      <trkpt lat="48.334103" lon="10.826170"><ele>500.8</ele></trkpt>
    </trkseg>
  </trk>
</gpx>
