<?xml version="1.0" encoding="UTF-8"?>
<gpx version="1.1" creator="Gravel Kompass" xmlns="http://www.topografix.com/GPX/1/1">
  <metadata><name>Lechauen-Runde: Augsburg, Mandichosee &amp; Wittelsbacher Schloss</name></metadata>
  <trk>
    <name>Lechauen-Runde: Augsburg, Mandichosee &amp; Wittelsbacher Schloss (komplett)</name>
    <trkseg>
<trkpt lat="48.36550" lon="10.88728"><ele>489</ele></trkpt>
<trkpt lat="48.36548" lon="10.88727"><ele>489</ele></trkpt>
<trkpt lat="48.36549" lon="10.88722"><ele>489</ele></trkpt>
<trkpt lat="48.36520" lon="10.88710"><ele>490</ele></trkpt>
<trkpt lat="48.36504" lon="10.88725"><ele>490</ele></trkpt>
<trkpt lat="48.36493" lon="10.88726"><ele>490</ele></trkpt>
<trkpt lat="48.36313" lon="10.88891"><ele>489</ele></trkpt>
<trkpt lat="48.36310" lon="10.88906"><ele>489</ele></trkpt>
<trkpt lat="48.36278" lon="10.88891"><ele>489</ele></trkpt>
<trkpt lat="48.36262" lon="10.88894"><ele>489</ele></trkpt>
<trkpt lat="48.36203" lon="10.88950"><ele>489</ele></trkpt>
<trkpt lat="48.36074" lon="10.89086"><ele>490</ele></trkpt>
<trkpt lat="48.36045" lon="10.89119"><ele>491</ele></trkpt>
<trkpt lat="48.35946" lon="10.89251"><ele>490</ele></trkpt>
<trkpt lat="48.35945" lon="10.89271"><ele>490</ele></trkpt>
<trkpt lat="48.35953" lon="10.89284"><ele>490</ele></trkpt>
<trkpt lat="48.36024" lon="10.89297"><ele>491</ele></trkpt>
<trkpt lat="48.35998" lon="10.89668"><ele>492</ele></trkpt>
<trkpt lat="48.35969" lon="10.89774"><ele>492</ele></trkpt>
<trkpt lat="48.35963" lon="10.89779"><ele>492</ele></trkpt>
<trkpt lat="48.35953" lon="10.89906"><ele>491</ele></trkpt>
<trkpt lat="48.35956" lon="10.89914"><ele>490</ele></trkpt>
<trkpt lat="48.35945" lon="10.89997"><ele>489</ele></trkpt>
<trkpt lat="48.35946" lon="10.90073"><ele>488</ele></trkpt>
<trkpt lat="48.35924" lon="10.90078"><ele>488</ele></trkpt>
<trkpt lat="48.35917" lon="10.90086"><ele>488</ele></trkpt>
<trkpt lat="48.35898" lon="10.90165"><ele>486</ele></trkpt>
<trkpt lat="48.35871" lon="10.90212"><ele>485</ele></trkpt>
<trkpt lat="48.35865" lon="10.90217"><ele>485</ele></trkpt>
<trkpt lat="48.35849" lon="10.90256"><ele>485</ele></trkpt>
<trkpt lat="48.35846" lon="10.90265"><ele>485</ele></trkpt>
<trkpt lat="48.35851" lon="10.90278"><ele>485</ele></trkpt>
<trkpt lat="48.35834" lon="10.90406"><ele>483</ele></trkpt>
<trkpt lat="48.35837" lon="10.90438"><ele>482</ele></trkpt>
<trkpt lat="48.35852" lon="10.90493"><ele>481</ele></trkpt>
<trkpt lat="48.35926" lon="10.90636"><ele>480</ele></trkpt>
<trkpt lat="48.35929" lon="10.90649"><ele>480</ele></trkpt>
<trkpt lat="48.35894" lon="10.90755"><ele>480</ele></trkpt>
<trkpt lat="48.35875" lon="10.90799"><ele>480</ele></trkpt>
<trkpt lat="48.35767" lon="10.90997"><ele>480</ele></trkpt>
<trkpt lat="48.35669" lon="10.91214"><ele>480</ele></trkpt>
<trkpt lat="48.35593" lon="10.91439"><ele>480</ele></trkpt>
<trkpt lat="48.35579" lon="10.91570"><ele>481</ele></trkpt>
<trkpt lat="48.35600" lon="10.91580"><ele>481</ele></trkpt>
<trkpt lat="48.35603" lon="10.91567"><ele>481</ele></trkpt>
<trkpt lat="48.35580" lon="10.91556"><ele>481</ele></trkpt>
<trkpt lat="48.35565" lon="10.91695"><ele>480</ele></trkpt>
<trkpt lat="48.35508" lon="10.92041"><ele>481</ele></trkpt>
<trkpt lat="48.35503" lon="10.92110"><ele>482</ele></trkpt>
<trkpt lat="48.35499" lon="10.92121"><ele>482</ele></trkpt>
<trkpt lat="48.35499" lon="10.92196"><ele>482</ele></trkpt>
<trkpt lat="48.35503" lon="10.92216"><ele>481</ele></trkpt>
<trkpt lat="48.35509" lon="10.92732"><ele>483</ele></trkpt>
<trkpt lat="48.35496" lon="10.92732"><ele>482</ele></trkpt>
<trkpt lat="48.35484" lon="10.92739"><ele>482</ele></trkpt>
<trkpt lat="48.35467" lon="10.92787"><ele>482</ele></trkpt>
<trkpt lat="48.35405" lon="10.92923"><ele>482</ele></trkpt>
<trkpt lat="48.35381" lon="10.92963"><ele>482</ele></trkpt>
<trkpt lat="48.35359" lon="10.92989"><ele>481</ele></trkpt>
<trkpt lat="48.35319" lon="10.93025"><ele>482</ele></trkpt>
<trkpt lat="48.35305" lon="10.93031"><ele>481</ele></trkpt>
<trkpt lat="48.35279" lon="10.93178"><ele>483</ele></trkpt>
<trkpt lat="48.35269" lon="10.93201"><ele>482</ele></trkpt>
<trkpt lat="48.35225" lon="10.93275"><ele>483</ele></trkpt>
<trkpt lat="48.35171" lon="10.93357"><ele>483</ele></trkpt>
<trkpt lat="48.35152" lon="10.93375"><ele>483</ele></trkpt>
<trkpt lat="48.35133" lon="10.93384"><ele>483</ele></trkpt>
<trkpt lat="48.34907" lon="10.93427"><ele>484</ele></trkpt>
<trkpt lat="48.34916" lon="10.93470"><ele>484</ele></trkpt>
<trkpt lat="48.34927" lon="10.93484"><ele>484</ele></trkpt>
<trkpt lat="48.34935" lon="10.93514"><ele>484</ele></trkpt>
<trkpt lat="48.34942" lon="10.93566"><ele>484</ele></trkpt>
<trkpt lat="48.35019" lon="10.93565"><ele>484</ele></trkpt>
<trkpt lat="48.35017" lon="10.93614"><ele>483</ele></trkpt>
<trkpt lat="48.35018" lon="10.93684"><ele>483</ele></trkpt>
<trkpt lat="48.35070" lon="10.93680"><ele>482</ele></trkpt>
<trkpt lat="48.35216" lon="10.93657"><ele>483</ele></trkpt>
<trkpt lat="48.35355" lon="10.93666"><ele>480</ele></trkpt>
<trkpt lat="48.35379" lon="10.93647"><ele>480</ele></trkpt>
<trkpt lat="48.35409" lon="10.93598"><ele>482</ele></trkpt>
<trkpt lat="48.35436" lon="10.93570"><ele>482</ele></trkpt>
<trkpt lat="48.35479" lon="10.93534"><ele>483</ele></trkpt>
<trkpt lat="48.35496" lon="10.93527"><ele>484</ele></trkpt>
<trkpt lat="48.35500" lon="10.93529"><ele>484</ele></trkpt>
<trkpt lat="48.35505" lon="10.93564"><ele>484</ele></trkpt>
<trkpt lat="48.35507" lon="10.93611"><ele>484</ele></trkpt>
<trkpt lat="48.35500" lon="10.93854"><ele>484</ele></trkpt>
<trkpt lat="48.35463" lon="10.93846"><ele>483</ele></trkpt>
<trkpt lat="48.35377" lon="10.93810"><ele>482</ele></trkpt>
<trkpt lat="48.35318" lon="10.93806"><ele>481</ele></trkpt>
<trkpt lat="48.35257" lon="10.93832"><ele>482</ele></trkpt>
<trkpt lat="48.35234" lon="10.93852"><ele>483</ele></trkpt>
<trkpt lat="48.35210" lon="10.93877"><ele>483</ele></trkpt>
<trkpt lat="48.35124" lon="10.93989"><ele>483</ele></trkpt>
<trkpt lat="48.35095" lon="10.94019"><ele>483</ele></trkpt>
<trkpt lat="48.35059" lon="10.94042"><ele>483</ele></trkpt>
<trkpt lat="48.35028" lon="10.94050"><ele>483</ele></trkpt>
<trkpt lat="48.34846" lon="10.94067"><ele>483</ele></trkpt>
<trkpt lat="48.34711" lon="10.94063"><ele>484</ele></trkpt>
<trkpt lat="48.34501" lon="10.94052"><ele>485</ele></trkpt>
<trkpt lat="48.34487" lon="10.93925"><ele>486</ele></trkpt>
<trkpt lat="48.34478" lon="10.93893"><ele>486</ele></trkpt>
<trkpt lat="48.34453" lon="10.93843"><ele>485</ele></trkpt>
<trkpt lat="48.34412" lon="10.93809"><ele>486</ele></trkpt>
<trkpt lat="48.34388" lon="10.93761"><ele>486</ele></trkpt>
<trkpt lat="48.34387" lon="10.93743"><ele>484</ele></trkpt>
<trkpt lat="48.34359" lon="10.93731"><ele>486</ele></trkpt>
<trkpt lat="48.34327" lon="10.93750"><ele>486</ele></trkpt>
<trkpt lat="48.34296" lon="10.93691"><ele>485</ele></trkpt>
<trkpt lat="48.34282" lon="10.93681"><ele>485</ele></trkpt>
<trkpt lat="48.34262" lon="10.93678"><ele>486</ele></trkpt>
<trkpt lat="48.34234" lon="10.93682"><ele>486</ele></trkpt>
<trkpt lat="48.34085" lon="10.93715"><ele>486</ele></trkpt>
<trkpt lat="48.33933" lon="10.93751"><ele>487</ele></trkpt>
<trkpt lat="48.33868" lon="10.93776"><ele>488</ele></trkpt>
<trkpt lat="48.33792" lon="10.93808"><ele>487</ele></trkpt>
<trkpt lat="48.33736" lon="10.93839"><ele>488</ele></trkpt>
<trkpt lat="48.33323" lon="10.94080"><ele>488</ele></trkpt>
<trkpt lat="48.33232" lon="10.94130"><ele>488</ele></trkpt>
<trkpt lat="48.33158" lon="10.94174"><ele>489</ele></trkpt>
<trkpt lat="48.33116" lon="10.94213"><ele>489</ele></trkpt>
<trkpt lat="48.33084" lon="10.94251"><ele>490</ele></trkpt>
<trkpt lat="48.33046" lon="10.94313"><ele>489</ele></trkpt>
<trkpt lat="48.32885" lon="10.94634"><ele>490</ele></trkpt>
<trkpt lat="48.32817" lon="10.94759"><ele>490</ele></trkpt>
<trkpt lat="48.32741" lon="10.94882"><ele>490</ele></trkpt>
<trkpt lat="48.32708" lon="10.94928"><ele>490</ele></trkpt>
<trkpt lat="48.32670" lon="10.94970"><ele>490</ele></trkpt>
<trkpt lat="48.32624" lon="10.95013"><ele>491</ele></trkpt>
<trkpt lat="48.32577" lon="10.95049"><ele>490</ele></trkpt>
<trkpt lat="48.32536" lon="10.95072"><ele>491</ele></trkpt>
<trkpt lat="48.32461" lon="10.95099"><ele>491</ele></trkpt>
<trkpt lat="48.32380" lon="10.95120"><ele>492</ele></trkpt>
<trkpt lat="48.32317" lon="10.95125"><ele>492</ele></trkpt>
<trkpt lat="48.32199" lon="10.95120"><ele>492</ele></trkpt>
<trkpt lat="48.32102" lon="10.95107"><ele>492</ele></trkpt>
<trkpt lat="48.31997" lon="10.95055"><ele>493</ele></trkpt>
<trkpt lat="48.31914" lon="10.95000"><ele>493</ele></trkpt>
<trkpt lat="48.31858" lon="10.94981"><ele>493</ele></trkpt>
<trkpt lat="48.31779" lon="10.94967"><ele>493</ele></trkpt>
<trkpt lat="48.31731" lon="10.94943"><ele>493</ele></trkpt>
<trkpt lat="48.31666" lon="10.94873"><ele>494</ele></trkpt>
<trkpt lat="48.31599" lon="10.94809"><ele>495</ele></trkpt>
<trkpt lat="48.31582" lon="10.94803"><ele>494</ele></trkpt>
<trkpt lat="48.31527" lon="10.94791"><ele>496</ele></trkpt>
<trkpt lat="48.31463" lon="10.94790"><ele>495</ele></trkpt>
<trkpt lat="48.31361" lon="10.94809"><ele>496</ele></trkpt>
<trkpt lat="48.31325" lon="10.94823"><ele>495</ele></trkpt>
<trkpt lat="48.31281" lon="10.94846"><ele>496</ele></trkpt>
<trkpt lat="48.31229" lon="10.94878"><ele>495</ele></trkpt>
<trkpt lat="48.31128" lon="10.94950"><ele>496</ele></trkpt>
<trkpt lat="48.31092" lon="10.94987"><ele>496</ele></trkpt>
<trkpt lat="48.31073" lon="10.95021"><ele>496</ele></trkpt>
<trkpt lat="48.31018" lon="10.95142"><ele>496</ele></trkpt>
<trkpt lat="48.30961" lon="10.95256"><ele>496</ele></trkpt>
<trkpt lat="48.30932" lon="10.95294"><ele>496</ele></trkpt>
<trkpt lat="48.30858" lon="10.95369"><ele>498</ele></trkpt>
<trkpt lat="48.30770" lon="10.95434"><ele>497</ele></trkpt>
<trkpt lat="48.30671" lon="10.95478"><ele>498</ele></trkpt>
<trkpt lat="48.30611" lon="10.95497"><ele>498</ele></trkpt>
<trkpt lat="48.30566" lon="10.95506"><ele>498</ele></trkpt>
<trkpt lat="48.30500" lon="10.95510"><ele>498</ele></trkpt>
<trkpt lat="48.30472" lon="10.95506"><ele>499</ele></trkpt>
<trkpt lat="48.30462" lon="10.95519"><ele>498</ele></trkpt>
<trkpt lat="48.30457" lon="10.95530"><ele>498</ele></trkpt>
<trkpt lat="48.30468" lon="10.95617"><ele>499</ele></trkpt>
<trkpt lat="48.30475" lon="10.95753"><ele>499</ele></trkpt>
<trkpt lat="48.30491" lon="10.95783"><ele>499</ele></trkpt>
<trkpt lat="48.30499" lon="10.95860"><ele>499</ele></trkpt>
<trkpt lat="48.30183" lon="10.95914"><ele>500</ele></trkpt>
<trkpt lat="48.29764" lon="10.95992"><ele>501</ele></trkpt>
<trkpt lat="48.29755" lon="10.95993"><ele>501</ele></trkpt>
<trkpt lat="48.29748" lon="10.95988"><ele>501</ele></trkpt>
<trkpt lat="48.29729" lon="10.96001"><ele>501</ele></trkpt>
<trkpt lat="48.29381" lon="10.96074"><ele>502</ele></trkpt>
<trkpt lat="48.29356" lon="10.95927"><ele>502</ele></trkpt>
<trkpt lat="48.29353" lon="10.95915"><ele>502</ele></trkpt>
<trkpt lat="48.29343" lon="10.95895"><ele>502</ele></trkpt>
<trkpt lat="48.29334" lon="10.95888"><ele>502</ele></trkpt>
<trkpt lat="48.29314" lon="10.95881"><ele>502</ele></trkpt>
<trkpt lat="48.29259" lon="10.95869"><ele>502</ele></trkpt>
<trkpt lat="48.29233" lon="10.95849"><ele>503</ele></trkpt>
<trkpt lat="48.29150" lon="10.95766"><ele>503</ele></trkpt>
<trkpt lat="48.29097" lon="10.95704"><ele>503</ele></trkpt>
<trkpt lat="48.29018" lon="10.95634"><ele>503</ele></trkpt>
<trkpt lat="48.28998" lon="10.95622"><ele>503</ele></trkpt>
<trkpt lat="48.28860" lon="10.95572"><ele>504</ele></trkpt>
<trkpt lat="48.28766" lon="10.95549"><ele>504</ele></trkpt>
<trkpt lat="48.28670" lon="10.95518"><ele>504</ele></trkpt>
<trkpt lat="48.28617" lon="10.95512"><ele>504</ele></trkpt>
<trkpt lat="48.28590" lon="10.95502"><ele>504</ele></trkpt>
<trkpt lat="48.28561" lon="10.95482"><ele>503</ele></trkpt>
<trkpt lat="48.28511" lon="10.95438"><ele>505</ele></trkpt>
<trkpt lat="48.28453" lon="10.95413"><ele>505</ele></trkpt>
<trkpt lat="48.28366" lon="10.95428"><ele>504</ele></trkpt>
<trkpt lat="48.28329" lon="10.95416"><ele>505</ele></trkpt>
<trkpt lat="48.28254" lon="10.95411"><ele>506</ele></trkpt>
<trkpt lat="48.28199" lon="10.95414"><ele>506</ele></trkpt>
<trkpt lat="48.28150" lon="10.95404"><ele>506</ele></trkpt>
<trkpt lat="48.28065" lon="10.95415"><ele>506</ele></trkpt>
<trkpt lat="48.28041" lon="10.95412"><ele>507</ele></trkpt>
<trkpt lat="48.27990" lon="10.95394"><ele>507</ele></trkpt>
<trkpt lat="48.27954" lon="10.95403"><ele>507</ele></trkpt>
<trkpt lat="48.27851" lon="10.95442"><ele>507</ele></trkpt>
<trkpt lat="48.27784" lon="10.95453"><ele>507</ele></trkpt>
<trkpt lat="48.27711" lon="10.95454"><ele>508</ele></trkpt>
<trkpt lat="48.27693" lon="10.95463"><ele>508</ele></trkpt>
<trkpt lat="48.27627" lon="10.95444"><ele>508</ele></trkpt>
<trkpt lat="48.27498" lon="10.95416"><ele>509</ele></trkpt>
<trkpt lat="48.27412" lon="10.95412"><ele>509</ele></trkpt>
<trkpt lat="48.27288" lon="10.95417"><ele>509</ele></trkpt>
<trkpt lat="48.27191" lon="10.95438"><ele>510</ele></trkpt>
<trkpt lat="48.27126" lon="10.95470"><ele>510</ele></trkpt>
<trkpt lat="48.27091" lon="10.95471"><ele>510</ele></trkpt>
<trkpt lat="48.27010" lon="10.95515"><ele>511</ele></trkpt>
<trkpt lat="48.26937" lon="10.95577"><ele>511</ele></trkpt>
<trkpt lat="48.26883" lon="10.95603"><ele>511</ele></trkpt>
<trkpt lat="48.26866" lon="10.95607"><ele>511</ele></trkpt>
<trkpt lat="48.26866" lon="10.95580"><ele>510</ele></trkpt>
<trkpt lat="48.26846" lon="10.95585"><ele>510</ele></trkpt>
<trkpt lat="48.26833" lon="10.95582"><ele>510</ele></trkpt>
<trkpt lat="48.26837" lon="10.95550"><ele>510</ele></trkpt>
<trkpt lat="48.26832" lon="10.95470"><ele>510</ele></trkpt>
<trkpt lat="48.26837" lon="10.95550"><ele>510</ele></trkpt>
<trkpt lat="48.26833" lon="10.95582"><ele>510</ele></trkpt>
<trkpt lat="48.26846" lon="10.95585"><ele>510</ele></trkpt>
<trkpt lat="48.26866" lon="10.95580"><ele>510</ele></trkpt>
<trkpt lat="48.26866" lon="10.95607"><ele>511</ele></trkpt>
<trkpt lat="48.26883" lon="10.95603"><ele>511</ele></trkpt>
<trkpt lat="48.26937" lon="10.95577"><ele>511</ele></trkpt>
<trkpt lat="48.27010" lon="10.95515"><ele>511</ele></trkpt>
<trkpt lat="48.27091" lon="10.95471"><ele>510</ele></trkpt>
<trkpt lat="48.27126" lon="10.95470"><ele>510</ele></trkpt>
<trkpt lat="48.27191" lon="10.95438"><ele>510</ele></trkpt>
<trkpt lat="48.27288" lon="10.95417"><ele>509</ele></trkpt>
<trkpt lat="48.27412" lon="10.95412"><ele>509</ele></trkpt>
<trkpt lat="48.27498" lon="10.95416"><ele>509</ele></trkpt>
<trkpt lat="48.27627" lon="10.95444"><ele>508</ele></trkpt>
<trkpt lat="48.27693" lon="10.95463"><ele>508</ele></trkpt>
<trkpt lat="48.27711" lon="10.95454"><ele>508</ele></trkpt>
<trkpt lat="48.27784" lon="10.95453"><ele>507</ele></trkpt>
<trkpt lat="48.27851" lon="10.95442"><ele>507</ele></trkpt>
<trkpt lat="48.27954" lon="10.95403"><ele>507</ele></trkpt>
<trkpt lat="48.27990" lon="10.95394"><ele>507</ele></trkpt>
<trkpt lat="48.28041" lon="10.95412"><ele>507</ele></trkpt>
<trkpt lat="48.28065" lon="10.95415"><ele>506</ele></trkpt>
<trkpt lat="48.28150" lon="10.95404"><ele>506</ele></trkpt>
<trkpt lat="48.28199" lon="10.95414"><ele>506</ele></trkpt>
<trkpt lat="48.28254" lon="10.95411"><ele>506</ele></trkpt>
<trkpt lat="48.28329" lon="10.95416"><ele>505</ele></trkpt>
<trkpt lat="48.28326" lon="10.95355"><ele>505</ele></trkpt>
<trkpt lat="48.28319" lon="10.95295"><ele>505</ele></trkpt>
<trkpt lat="48.28319" lon="10.95274"><ele>505</ele></trkpt>
<trkpt lat="48.28323" lon="10.95263"><ele>505</ele></trkpt>
<trkpt lat="48.28337" lon="10.95258"><ele>505</ele></trkpt>
<trkpt lat="48.28350" lon="10.95263"><ele>504</ele></trkpt>
<trkpt lat="48.28386" lon="10.95259"><ele>504</ele></trkpt>
<trkpt lat="48.28399" lon="10.95250"><ele>504</ele></trkpt>
<trkpt lat="48.28420" lon="10.95217"><ele>504</ele></trkpt>
<trkpt lat="48.28429" lon="10.95213"><ele>504</ele></trkpt>
<trkpt lat="48.28471" lon="10.95218"><ele>504</ele></trkpt>
<trkpt lat="48.28508" lon="10.95218"><ele>504</ele></trkpt>
<trkpt lat="48.28654" lon="10.95192"><ele>503</ele></trkpt>
<trkpt lat="48.28705" lon="10.95202"><ele>503</ele></trkpt>
<trkpt lat="48.28815" lon="10.95180"><ele>503</ele></trkpt>
<trkpt lat="48.28853" lon="10.95178"><ele>503</ele></trkpt>
<trkpt lat="48.28869" lon="10.95170"><ele>502</ele></trkpt>
<trkpt lat="48.28898" lon="10.95162"><ele>502</ele></trkpt>
<trkpt lat="48.28935" lon="10.95157"><ele>502</ele></trkpt>
<trkpt lat="48.28987" lon="10.95131"><ele>502</ele></trkpt>
<trkpt lat="48.29015" lon="10.95112"><ele>502</ele></trkpt>
<trkpt lat="48.29098" lon="10.95099"><ele>502</ele></trkpt>
<trkpt lat="48.29111" lon="10.95087"><ele>502</ele></trkpt>
<trkpt lat="48.29120" lon="10.95068"><ele>502</ele></trkpt>
<trkpt lat="48.29138" lon="10.95009"><ele>502</ele></trkpt>
<trkpt lat="48.29161" lon="10.94958"><ele>502</ele></trkpt>
<trkpt lat="48.29173" lon="10.94941"><ele>502</ele></trkpt>
<trkpt lat="48.29239" lon="10.94884"><ele>502</ele></trkpt>
<trkpt lat="48.29254" lon="10.94862"><ele>502</ele></trkpt>
<trkpt lat="48.29277" lon="10.94787"><ele>503</ele></trkpt>
<trkpt lat="48.29274" lon="10.94853"><ele>502</ele></trkpt>
<trkpt lat="48.29283" lon="10.94993"><ele>501</ele></trkpt>
<trkpt lat="48.29745" lon="10.95157"><ele>500</ele></trkpt>
<trkpt lat="48.29775" lon="10.95214"><ele>500</ele></trkpt>
<trkpt lat="48.29799" lon="10.95294"><ele>500</ele></trkpt>
<trkpt lat="48.29793" lon="10.95472"><ele>500</ele></trkpt>
<trkpt lat="48.29789" lon="10.95503"><ele>500</ele></trkpt>
<trkpt lat="48.29781" lon="10.95531"><ele>500</ele></trkpt>
<trkpt lat="48.29708" lon="10.95700"><ele>501</ele></trkpt>
<trkpt lat="48.29673" lon="10.95842"><ele>501</ele></trkpt>
<trkpt lat="48.29659" lon="10.95936"><ele>503</ele></trkpt>
<trkpt lat="48.29663" lon="10.95966"><ele>504</ele></trkpt>
<trkpt lat="48.29659" lon="10.95979"><ele>504</ele></trkpt>
<trkpt lat="48.29660" lon="10.96005"><ele>504</ele></trkpt>
<trkpt lat="48.29673" lon="10.96158"><ele>503</ele></trkpt>
<trkpt lat="48.29706" lon="10.96307"><ele>501</ele></trkpt>
<trkpt lat="48.29722" lon="10.96460"><ele>501</ele></trkpt>
<trkpt lat="48.29720" lon="10.96494"><ele>501</ele></trkpt>
<trkpt lat="48.29612" lon="10.96876"><ele>501</ele></trkpt>
<trkpt lat="48.29590" lon="10.96985"><ele>501</ele></trkpt>
<trkpt lat="48.29559" lon="10.97082"><ele>501</ele></trkpt>
<trkpt lat="48.29495" lon="10.97039"><ele>501</ele></trkpt>
<trkpt lat="48.29489" lon="10.97026"><ele>501</ele></trkpt>
<trkpt lat="48.29481" lon="10.96970"><ele>501</ele></trkpt>
<trkpt lat="48.29411" lon="10.96993"><ele>501</ele></trkpt>
<trkpt lat="48.29418" lon="10.97003"><ele>501</ele></trkpt>
<trkpt lat="48.29442" lon="10.97093"><ele>501</ele></trkpt>
<trkpt lat="48.29459" lon="10.97116"><ele>501</ele></trkpt>
<trkpt lat="48.29460" lon="10.97152"><ele>501</ele></trkpt>
<trkpt lat="48.29448" lon="10.97162"><ele>501</ele></trkpt>
<trkpt lat="48.29441" lon="10.97183"><ele>501</ele></trkpt>
<trkpt lat="48.29391" lon="10.97443"><ele>502</ele></trkpt>
<trkpt lat="48.29384" lon="10.97484"><ele>501</ele></trkpt>
<trkpt lat="48.29381" lon="10.97532"><ele>501</ele></trkpt>
<trkpt lat="48.29390" lon="10.97633"><ele>501</ele></trkpt>
<trkpt lat="48.29390" lon="10.97659"><ele>501</ele></trkpt>
<trkpt lat="48.29400" lon="10.97731"><ele>500</ele></trkpt>
<trkpt lat="48.29435" lon="10.97862"><ele>499</ele></trkpt>
<trkpt lat="48.29452" lon="10.98005"><ele>500</ele></trkpt>
<trkpt lat="48.29458" lon="10.98020"><ele>500</ele></trkpt>
<trkpt lat="48.29492" lon="10.98078"><ele>500</ele></trkpt>
<trkpt lat="48.29510" lon="10.98125"><ele>500</ele></trkpt>
<trkpt lat="48.29561" lon="10.98293"><ele>500</ele></trkpt>
<trkpt lat="48.29563" lon="10.98306"><ele>500</ele></trkpt>
<trkpt lat="48.29590" lon="10.98396"><ele>500</ele></trkpt>
<trkpt lat="48.29588" lon="10.98407"><ele>500</ele></trkpt>
<trkpt lat="48.29599" lon="10.98446"><ele>500</ele></trkpt>
<trkpt lat="48.29601" lon="10.98475"><ele>500</ele></trkpt>
<trkpt lat="48.29592" lon="10.98669"><ele>500</ele></trkpt>
<trkpt lat="48.29591" lon="10.98774"><ele>500</ele></trkpt>
<trkpt lat="48.29590" lon="10.98802"><ele>500</ele></trkpt>
<trkpt lat="48.29595" lon="10.98836"><ele>501</ele></trkpt>
<trkpt lat="48.29608" lon="10.98848"><ele>502</ele></trkpt>
<trkpt lat="48.29685" lon="10.98854"><ele>504</ele></trkpt>
<trkpt lat="48.29715" lon="10.98868"><ele>505</ele></trkpt>
<trkpt lat="48.29729" lon="10.98884"><ele>506</ele></trkpt>
<trkpt lat="48.29756" lon="10.98936"><ele>508</ele></trkpt>
<trkpt lat="48.29767" lon="10.98933"><ele>507</ele></trkpt>
<trkpt lat="48.29842" lon="10.98948"><ele>502</ele></trkpt>
<trkpt lat="48.29872" lon="10.98936"><ele>501</ele></trkpt>
<trkpt lat="48.29893" lon="10.98934"><ele>500</ele></trkpt>
<trkpt lat="48.29957" lon="10.98958"><ele>499</ele></trkpt>
<trkpt lat="48.29978" lon="10.98960"><ele>500</ele></trkpt>
<trkpt lat="48.30003" lon="10.98954"><ele>499</ele></trkpt>
<trkpt lat="48.30006" lon="10.98887"><ele>499</ele></trkpt>
<trkpt lat="48.30012" lon="10.98873"><ele>498</ele></trkpt>
<trkpt lat="48.30020" lon="10.98871"><ele>499</ele></trkpt>
<trkpt lat="48.30073" lon="10.98875"><ele>498</ele></trkpt>
<trkpt lat="48.30100" lon="10.98848"><ele>498</ele></trkpt>
<trkpt lat="48.30190" lon="10.98771"><ele>498</ele></trkpt>
<trkpt lat="48.30217" lon="10.98766"><ele>498</ele></trkpt>
<trkpt lat="48.30233" lon="10.98757"><ele>498</ele></trkpt>
<trkpt lat="48.30269" lon="10.98701"><ele>498</ele></trkpt>
<trkpt lat="48.30295" lon="10.98682"><ele>498</ele></trkpt>
<trkpt lat="48.30344" lon="10.98669"><ele>498</ele></trkpt>
<trkpt lat="48.30402" lon="10.98683"><ele>498</ele></trkpt>
<trkpt lat="48.30448" lon="10.98681"><ele>498</ele></trkpt>
<trkpt lat="48.30463" lon="10.98677"><ele>498</ele></trkpt>
<trkpt lat="48.30486" lon="10.98665"><ele>498</ele></trkpt>
<trkpt lat="48.30576" lon="10.98596"><ele>497</ele></trkpt>
<trkpt lat="48.30605" lon="10.98579"><ele>497</ele></trkpt>
<trkpt lat="48.30650" lon="10.98568"><ele>497</ele></trkpt>
<trkpt lat="48.30726" lon="10.98540"><ele>497</ele></trkpt>
<trkpt lat="48.30736" lon="10.98540"><ele>497</ele></trkpt>
<trkpt lat="48.30769" lon="10.98554"><ele>497</ele></trkpt>
<trkpt lat="48.30788" lon="10.98551"><ele>497</ele></trkpt>
<trkpt lat="48.30822" lon="10.98525"><ele>497</ele></trkpt>
<trkpt lat="48.30894" lon="10.98502"><ele>496</ele></trkpt>
<trkpt lat="48.30907" lon="10.98494"><ele>496</ele></trkpt>
<trkpt lat="48.30951" lon="10.98450"><ele>496</ele></trkpt>
<trkpt lat="48.30969" lon="10.98448"><ele>496</ele></trkpt>
<trkpt lat="48.30979" lon="10.98453"><ele>496</ele></trkpt>
<trkpt lat="48.31019" lon="10.98504"><ele>496</ele></trkpt>
<trkpt lat="48.31033" lon="10.98515"><ele>496</ele></trkpt>
<trkpt lat="48.31066" lon="10.98525"><ele>496</ele></trkpt>
<trkpt lat="48.31098" lon="10.98526"><ele>496</ele></trkpt>
<trkpt lat="48.31131" lon="10.98517"><ele>496</ele></trkpt>
<trkpt lat="48.31159" lon="10.98492"><ele>496</ele></trkpt>
<trkpt lat="48.31195" lon="10.98451"><ele>496</ele></trkpt>
<trkpt lat="48.31256" lon="10.98431"><ele>495</ele></trkpt>
<trkpt lat="48.31270" lon="10.98431"><ele>495</ele></trkpt>
<trkpt lat="48.31310" lon="10.98468"><ele>495</ele></trkpt>
<trkpt lat="48.31338" lon="10.98482"><ele>495</ele></trkpt>
<trkpt lat="48.31361" lon="10.98489"><ele>495</ele></trkpt>
<trkpt lat="48.31385" lon="10.98485"><ele>495</ele></trkpt>
<trkpt lat="48.31334" lon="10.98881"><ele>495</ele></trkpt>
<trkpt lat="48.31325" lon="10.98923"><ele>494</ele></trkpt>
<trkpt lat="48.31316" lon="10.99027"><ele>494</ele></trkpt>
<trkpt lat="48.31302" lon="10.99122"><ele>495</ele></trkpt>
<trkpt lat="48.31301" lon="10.99170"><ele>496</ele></trkpt>
<trkpt lat="48.31307" lon="10.99184"><ele>496</ele></trkpt>
<trkpt lat="48.31320" lon="10.99188"><ele>496</ele></trkpt>
<trkpt lat="48.31342" lon="10.99183"><ele>495</ele></trkpt>
<trkpt lat="48.31399" lon="10.99154"><ele>495</ele></trkpt>
<trkpt lat="48.31422" lon="10.99152"><ele>494</ele></trkpt>
<trkpt lat="48.31466" lon="10.99173"><ele>494</ele></trkpt>
<trkpt lat="48.31558" lon="10.99181"><ele>494</ele></trkpt>
<trkpt lat="48.31632" lon="10.99154"><ele>494</ele></trkpt>
<trkpt lat="48.31672" lon="10.99158"><ele>494</ele></trkpt>
<trkpt lat="48.31804" lon="10.99212"><ele>492</ele></trkpt>
<trkpt lat="48.31849" lon="10.99244"><ele>493</ele></trkpt>
<trkpt lat="48.31904" lon="10.99267"><ele>493</ele></trkpt>
<trkpt lat="48.31925" lon="10.99273"><ele>493</ele></trkpt>
<trkpt lat="48.31968" lon="10.99267"><ele>494</ele></trkpt>
<trkpt lat="48.32067" lon="10.99294"><ele>492</ele></trkpt>
<trkpt lat="48.32071" lon="10.99290"><ele>492</ele></trkpt>
<trkpt lat="48.32074" lon="10.99282"><ele>492</ele></trkpt>
<trkpt lat="48.32077" lon="10.99246"><ele>492</ele></trkpt>
<trkpt lat="48.32081" lon="10.99234"><ele>492</ele></trkpt>
<trkpt lat="48.32088" lon="10.99231"><ele>492</ele></trkpt>
<trkpt lat="48.32226" lon="10.99257"><ele>493</ele></trkpt>
<trkpt lat="48.32246" lon="10.99098"><ele>492</ele></trkpt>
<trkpt lat="48.32275" lon="10.99067"><ele>492</ele></trkpt>
<trkpt lat="48.32285" lon="10.99001"><ele>492</ele></trkpt>
<trkpt lat="48.32320" lon="10.99032"><ele>492</ele></trkpt>
<trkpt lat="48.32328" lon="10.99075"><ele>492</ele></trkpt>
<trkpt lat="48.32335" lon="10.99088"><ele>492</ele></trkpt>
<trkpt lat="48.32369" lon="10.99119"><ele>492</ele></trkpt>
<trkpt lat="48.32413" lon="10.99130"><ele>492</ele></trkpt>
<trkpt lat="48.32517" lon="10.99133"><ele>492</ele></trkpt>
<trkpt lat="48.32539" lon="10.99143"><ele>492</ele></trkpt>
<trkpt lat="48.32570" lon="10.99168"><ele>492</ele></trkpt>
<trkpt lat="48.32630" lon="10.99249"><ele>492</ele></trkpt>
<trkpt lat="48.32648" lon="10.99278"><ele>492</ele></trkpt>
<trkpt lat="48.32679" lon="10.99347"><ele>491</ele></trkpt>
<trkpt lat="48.32733" lon="10.99442"><ele>492</ele></trkpt>
<trkpt lat="48.32742" lon="10.99442"><ele>492</ele></trkpt>
<trkpt lat="48.32746" lon="10.99438"><ele>493</ele></trkpt>
<trkpt lat="48.32753" lon="10.99412"><ele>493</ele></trkpt>
<trkpt lat="48.32756" lon="10.99355"><ele>492</ele></trkpt>
<trkpt lat="48.32780" lon="10.99148"><ele>491</ele></trkpt>
<trkpt lat="48.32787" lon="10.99128"><ele>491</ele></trkpt>
<trkpt lat="48.32801" lon="10.99120"><ele>491</ele></trkpt>
<trkpt lat="48.32868" lon="10.99107"><ele>491</ele></trkpt>
<trkpt lat="48.32916" lon="10.99087"><ele>491</ele></trkpt>
<trkpt lat="48.32971" lon="10.99024"><ele>490</ele></trkpt>
<trkpt lat="48.33025" lon="10.98999"><ele>490</ele></trkpt>
<trkpt lat="48.33068" lon="10.98971"><ele>490</ele></trkpt>
<trkpt lat="48.33158" lon="10.98901"><ele>490</ele></trkpt>
<trkpt lat="48.33288" lon="10.98792"><ele>489</ele></trkpt>
<trkpt lat="48.33292" lon="10.98785"><ele>489</ele></trkpt>
<trkpt lat="48.33292" lon="10.98768"><ele>489</ele></trkpt>
<trkpt lat="48.33280" lon="10.98741"><ele>489</ele></trkpt>
<trkpt lat="48.33294" lon="10.98716"><ele>490</ele></trkpt>
<trkpt lat="48.33265" lon="10.98661"><ele>490</ele></trkpt>
<trkpt lat="48.33234" lon="10.98583"><ele>489</ele></trkpt>
<trkpt lat="48.33220" lon="10.98544"><ele>490</ele></trkpt>
<trkpt lat="48.33211" lon="10.98507"><ele>489</ele></trkpt>
<trkpt lat="48.33213" lon="10.98462"><ele>489</ele></trkpt>
<trkpt lat="48.33226" lon="10.98412"><ele>490</ele></trkpt>
<trkpt lat="48.33282" lon="10.98236"><ele>489</ele></trkpt>
<trkpt lat="48.33310" lon="10.98172"><ele>490</ele></trkpt>
<trkpt lat="48.33328" lon="10.98141"><ele>490</ele></trkpt>
<trkpt lat="48.33373" lon="10.98080"><ele>489</ele></trkpt>
<trkpt lat="48.33555" lon="10.97885"><ele>489</ele></trkpt>
<trkpt lat="48.33561" lon="10.97867"><ele>489</ele></trkpt>
<trkpt lat="48.33571" lon="10.97865"><ele>488</ele></trkpt>
<trkpt lat="48.33632" lon="10.97813"><ele>488</ele></trkpt>
<trkpt lat="48.33664" lon="10.97797"><ele>488</ele></trkpt>
<trkpt lat="48.33781" lon="10.97774"><ele>488</ele></trkpt>
<trkpt lat="48.33805" lon="10.97781"><ele>488</ele></trkpt>
<trkpt lat="48.33897" lon="10.97889"><ele>488</ele></trkpt>
<trkpt lat="48.33904" lon="10.97905"><ele>487</ele></trkpt>
<trkpt lat="48.33927" lon="10.97983"><ele>487</ele></trkpt>
<trkpt lat="48.33977" lon="10.98086"><ele>488</ele></trkpt>
<trkpt lat="48.33982" lon="10.98134"><ele>488</ele></trkpt>
<trkpt lat="48.33986" lon="10.98145"><ele>488</ele></trkpt>
<trkpt lat="48.34012" lon="10.98149"><ele>488</ele></trkpt>
<trkpt lat="48.34008" lon="10.98096"><ele>488</ele></trkpt>
<trkpt lat="48.34000" lon="10.97651"><ele>487</ele></trkpt>
<trkpt lat="48.34004" lon="10.97567"><ele>487</ele></trkpt>
<trkpt lat="48.34002" lon="10.97413"><ele>487</ele></trkpt>
<trkpt lat="48.34004" lon="10.97296"><ele>487</ele></trkpt>
<trkpt lat="48.34009" lon="10.97214"><ele>486</ele></trkpt>
<trkpt lat="48.34024" lon="10.97107"><ele>487</ele></trkpt>
<trkpt lat="48.34054" lon="10.96989"><ele>486</ele></trkpt>
<trkpt lat="48.34061" lon="10.96966"><ele>487</ele></trkpt>
<trkpt lat="48.34072" lon="10.96955"><ele>487</ele></trkpt>
<trkpt lat="48.34089" lon="10.96965"><ele>487</ele></trkpt>
<trkpt lat="48.34100" lon="10.96959"><ele>486</ele></trkpt>
<trkpt lat="48.34107" lon="10.96969"><ele>487</ele></trkpt>
<trkpt lat="48.34284" lon="10.97276"><ele>486</ele></trkpt>
<trkpt lat="48.34293" lon="10.97286"><ele>485</ele></trkpt>
<trkpt lat="48.34296" lon="10.97378"><ele>486</ele></trkpt>
<trkpt lat="48.34293" lon="10.97513"><ele>486</ele></trkpt>
<trkpt lat="48.34290" lon="10.97565"><ele>486</ele></trkpt>
<trkpt lat="48.34280" lon="10.97584"><ele>486</ele></trkpt>
<trkpt lat="48.34266" lon="10.97594"><ele>486</ele></trkpt>
<trkpt lat="48.34266" lon="10.97601"><ele>486</ele></trkpt>
<trkpt lat="48.34272" lon="10.97609"><ele>486</ele></trkpt>
<trkpt lat="48.34303" lon="10.97626"><ele>485</ele></trkpt>
<trkpt lat="48.34338" lon="10.97652"><ele>486</ele></trkpt>
<trkpt lat="48.34353" lon="10.97667"><ele>486</ele></trkpt>
<trkpt lat="48.34360" lon="10.97679"><ele>486</ele></trkpt>
<trkpt lat="48.34368" lon="10.97720"><ele>485</ele></trkpt>
<trkpt lat="48.34382" lon="10.97828"><ele>486</ele></trkpt>
<trkpt lat="48.34416" lon="10.97962"><ele>486</ele></trkpt>
<trkpt lat="48.34424" lon="10.97989"><ele>488</ele></trkpt>
<trkpt lat="48.34434" lon="10.98009"><ele>490</ele></trkpt>
<trkpt lat="48.34464" lon="10.98027"><ele>493</ele></trkpt>
<trkpt lat="48.34504" lon="10.98022"><ele>498</ele></trkpt>
<trkpt lat="48.34573" lon="10.97948"><ele>498</ele></trkpt>
<trkpt lat="48.34652" lon="10.97887"><ele>497</ele></trkpt>
<trkpt lat="48.34697" lon="10.97869"><ele>499</ele></trkpt>
<trkpt lat="48.34724" lon="10.97863"><ele>500</ele></trkpt>
<trkpt lat="48.34777" lon="10.97875"><ele>503</ele></trkpt>
<trkpt lat="48.34801" lon="10.97886"><ele>504</ele></trkpt>
<trkpt lat="48.34812" lon="10.97903"><ele>504</ele></trkpt>
<trkpt lat="48.34818" lon="10.97925"><ele>504</ele></trkpt>
<trkpt lat="48.34896" lon="10.97940"><ele>503</ele></trkpt>
<trkpt lat="48.34909" lon="10.98003"><ele>504</ele></trkpt>
<trkpt lat="48.34929" lon="10.98032"><ele>504</ele></trkpt>
<trkpt lat="48.34970" lon="10.98062"><ele>502</ele></trkpt>
<trkpt lat="48.34986" lon="10.98078"><ele>501</ele></trkpt>
<trkpt lat="48.34996" lon="10.98092"><ele>501</ele></trkpt>
<trkpt lat="48.35018" lon="10.98141"><ele>500</ele></trkpt>
<trkpt lat="48.35029" lon="10.98187"><ele>501</ele></trkpt>
<trkpt lat="48.35040" lon="10.98274"><ele>503</ele></trkpt>
<trkpt lat="48.35051" lon="10.98315"><ele>504</ele></trkpt>
<trkpt lat="48.35074" lon="10.98378"><ele>505</ele></trkpt>
<trkpt lat="48.35094" lon="10.98502"><ele>506</ele></trkpt>
<trkpt lat="48.35129" lon="10.98499"><ele>505</ele></trkpt>
<trkpt lat="48.35141" lon="10.98505"><ele>505</ele></trkpt>
<trkpt lat="48.35176" lon="10.98539"><ele>505</ele></trkpt>
<trkpt lat="48.35179" lon="10.98520"><ele>505</ele></trkpt>
<trkpt lat="48.35195" lon="10.98505"><ele>505</ele></trkpt>
<trkpt lat="48.35212" lon="10.98508"><ele>503</ele></trkpt>
<trkpt lat="48.35221" lon="10.98525"><ele>504</ele></trkpt>
<trkpt lat="48.35227" lon="10.98527"><ele>503</ele></trkpt>
<trkpt lat="48.35275" lon="10.98513"><ele>505</ele></trkpt>
<trkpt lat="48.35295" lon="10.98501"><ele>506</ele></trkpt>
<trkpt lat="48.35304" lon="10.98488"><ele>506</ele></trkpt>
<trkpt lat="48.35326" lon="10.98479"><ele>506</ele></trkpt>
<trkpt lat="48.35465" lon="10.98447"><ele>510</ele></trkpt>
<trkpt lat="48.35543" lon="10.98421"><ele>512</ele></trkpt>
<trkpt lat="48.35555" lon="10.98416"><ele>513</ele></trkpt>
<trkpt lat="48.35556" lon="10.98411"><ele>513</ele></trkpt>
<trkpt lat="48.35578" lon="10.98407"><ele>514</ele></trkpt>
<trkpt lat="48.35563" lon="10.98360"><ele>512</ele></trkpt>
<trkpt lat="48.35549" lon="10.98286"><ele>513</ele></trkpt>
<trkpt lat="48.35546" lon="10.98239"><ele>512</ele></trkpt>
<trkpt lat="48.35550" lon="10.98189"><ele>513</ele></trkpt>
<trkpt lat="48.35542" lon="10.98170"><ele>513</ele></trkpt>
<trkpt lat="48.35514" lon="10.98132"><ele>513</ele></trkpt>
<trkpt lat="48.35505" lon="10.98107"><ele>512</ele></trkpt>
<trkpt lat="48.35480" lon="10.97912"><ele>511</ele></trkpt>
<trkpt lat="48.35484" lon="10.97897"><ele>512</ele></trkpt>
<trkpt lat="48.35505" lon="10.97878"><ele>512</ele></trkpt>
<trkpt lat="48.35509" lon="10.97864"><ele>512</ele></trkpt>
<trkpt lat="48.35498" lon="10.97725"><ele>506</ele></trkpt>
<trkpt lat="48.35501" lon="10.97712"><ele>506</ele></trkpt>
<trkpt lat="48.35509" lon="10.97697"><ele>506</ele></trkpt>
<trkpt lat="48.35544" lon="10.97678"><ele>501</ele></trkpt>
<trkpt lat="48.35603" lon="10.97662"><ele>493</ele></trkpt>
<trkpt lat="48.35668" lon="10.97655"><ele>486</ele></trkpt>
<trkpt lat="48.35683" lon="10.97637"><ele>484</ele></trkpt>
<trkpt lat="48.35686" lon="10.97613"><ele>483</ele></trkpt>
<trkpt lat="48.35683" lon="10.97592"><ele>483</ele></trkpt>
<trkpt lat="48.35662" lon="10.97593"><ele>483</ele></trkpt>
<trkpt lat="48.35650" lon="10.97547"><ele>482</ele></trkpt>
<trkpt lat="48.35632" lon="10.97558"><ele>482</ele></trkpt>
<trkpt lat="48.35605" lon="10.97564"><ele>482</ele></trkpt>
<trkpt lat="48.35588" lon="10.97557"><ele>482</ele></trkpt>
<trkpt lat="48.35626" lon="10.97444"><ele>482</ele></trkpt>
<trkpt lat="48.35621" lon="10.97438"><ele>482</ele></trkpt>
<trkpt lat="48.35620" lon="10.97347"><ele>482</ele></trkpt>
<trkpt lat="48.35612" lon="10.97320"><ele>482</ele></trkpt>
<trkpt lat="48.35617" lon="10.97311"><ele>482</ele></trkpt>
<trkpt lat="48.35621" lon="10.97292"><ele>482</ele></trkpt>
<trkpt lat="48.35621" lon="10.97184"><ele>482</ele></trkpt>
<trkpt lat="48.35618" lon="10.97153"><ele>482</ele></trkpt>
<trkpt lat="48.35625" lon="10.97123"><ele>482</ele></trkpt>
<trkpt lat="48.35636" lon="10.96990"><ele>482</ele></trkpt>
<trkpt lat="48.35642" lon="10.96959"><ele>482</ele></trkpt>
<trkpt lat="48.35645" lon="10.96902"><ele>482</ele></trkpt>
<trkpt lat="48.35642" lon="10.96858"><ele>482</ele></trkpt>
<trkpt lat="48.35591" lon="10.96634"><ele>484</ele></trkpt>
<trkpt lat="48.35583" lon="10.96589"><ele>483</ele></trkpt>
<trkpt lat="48.35577" lon="10.96577"><ele>483</ele></trkpt>
<trkpt lat="48.35572" lon="10.96532"><ele>482</ele></trkpt>
<trkpt lat="48.35577" lon="10.96526"><ele>483</ele></trkpt>
<trkpt lat="48.35669" lon="10.96501"><ele>482</ele></trkpt>
<trkpt lat="48.35725" lon="10.96481"><ele>482</ele></trkpt>
<trkpt lat="48.35729" lon="10.96475"><ele>482</ele></trkpt>
<trkpt lat="48.35721" lon="10.96082"><ele>481</ele></trkpt>
<trkpt lat="48.35694" lon="10.96034"><ele>482</ele></trkpt>
<trkpt lat="48.35693" lon="10.96025"><ele>482</ele></trkpt>
<trkpt lat="48.35659" lon="10.95990"><ele>482</ele></trkpt>
<trkpt lat="48.35635" lon="10.95945"><ele>482</ele></trkpt>
<trkpt lat="48.35615" lon="10.95882"><ele>482</ele></trkpt>
<trkpt lat="48.35612" lon="10.95856"><ele>482</ele></trkpt>
<trkpt lat="48.35631" lon="10.95343"><ele>482</ele></trkpt>
<trkpt lat="48.35618" lon="10.95290"><ele>482</ele></trkpt>
<trkpt lat="48.35615" lon="10.95246"><ele>483</ele></trkpt>
<trkpt lat="48.35624" lon="10.95173"><ele>483</ele></trkpt>
<trkpt lat="48.35623" lon="10.95145"><ele>483</ele></trkpt>
<trkpt lat="48.35605" lon="10.95009"><ele>483</ele></trkpt>
<trkpt lat="48.35680" lon="10.95002"><ele>482</ele></trkpt>
<trkpt lat="48.35659" lon="10.94477"><ele>481</ele></trkpt>
<trkpt lat="48.35577" lon="10.94240"><ele>482</ele></trkpt>
<trkpt lat="48.35663" lon="10.94177"><ele>481</ele></trkpt>
<trkpt lat="48.35624" lon="10.94059"><ele>482</ele></trkpt>
<trkpt lat="48.35630" lon="10.94043"><ele>482</ele></trkpt>
<trkpt lat="48.35638" lon="10.93962"><ele>482</ele></trkpt>
<trkpt lat="48.35637" lon="10.93844"><ele>482</ele></trkpt>
<trkpt lat="48.35546" lon="10.93839"><ele>483</ele></trkpt>
<trkpt lat="48.35525" lon="10.93834"><ele>484</ele></trkpt>
<trkpt lat="48.35523" lon="10.93742"><ele>484</ele></trkpt>
<trkpt lat="48.35526" lon="10.93562"><ele>484</ele></trkpt>
<trkpt lat="48.35533" lon="10.93399"><ele>483</ele></trkpt>
<trkpt lat="48.35534" lon="10.93298"><ele>482</ele></trkpt>
<trkpt lat="48.35502" lon="10.93298"><ele>483</ele></trkpt>
<trkpt lat="48.35502" lon="10.93301"><ele>483</ele></trkpt>
<trkpt lat="48.35498" lon="10.93301"><ele>483</ele></trkpt>
<trkpt lat="48.35479" lon="10.93283"><ele>482</ele></trkpt>
<trkpt lat="48.35479" lon="10.93087"><ele>482</ele></trkpt>
<trkpt lat="48.35487" lon="10.93075"><ele>482</ele></trkpt>
<trkpt lat="48.35491" lon="10.93011"><ele>483</ele></trkpt>
<trkpt lat="48.35502" lon="10.92979"><ele>482</ele></trkpt>
<trkpt lat="48.35503" lon="10.92945"><ele>482</ele></trkpt>
<trkpt lat="48.35493" lon="10.92903"><ele>482</ele></trkpt>
<trkpt lat="48.35508" lon="10.92837"><ele>482</ele></trkpt>
<trkpt lat="48.35507" lon="10.92776"><ele>483</ele></trkpt>
<trkpt lat="48.35510" lon="10.92708"><ele>482</ele></trkpt>
<trkpt lat="48.35529" lon="10.92707"><ele>483</ele></trkpt>
<trkpt lat="48.35519" lon="10.92193"><ele>482</ele></trkpt>
<trkpt lat="48.35522" lon="10.92129"><ele>483</ele></trkpt>
<trkpt lat="48.35520" lon="10.92097"><ele>482</ele></trkpt>
<trkpt lat="48.35524" lon="10.92044"><ele>482</ele></trkpt>
<trkpt lat="48.35532" lon="10.91977"><ele>482</ele></trkpt>
<trkpt lat="48.35585" lon="10.91660"><ele>482</ele></trkpt>
<trkpt lat="48.35625" lon="10.91433"><ele>480</ele></trkpt>
<trkpt lat="48.35639" lon="10.91374"><ele>481</ele></trkpt>
<trkpt lat="48.35673" lon="10.91277"><ele>480</ele></trkpt>
<trkpt lat="48.35779" lon="10.91044"><ele>481</ele></trkpt>
<trkpt lat="48.35786" lon="10.91017"><ele>481</ele></trkpt>
<trkpt lat="48.35905" lon="10.90770"><ele>481</ele></trkpt>
<trkpt lat="48.35953" lon="10.90648"><ele>480</ele></trkpt>
<trkpt lat="48.35958" lon="10.90607"><ele>481</ele></trkpt>
<trkpt lat="48.35961" lon="10.90602"><ele>481</ele></trkpt>
<trkpt lat="48.35949" lon="10.90564"><ele>480</ele></trkpt>
<trkpt lat="48.35927" lon="10.90556"><ele>480</ele></trkpt>
<trkpt lat="48.35912" lon="10.90543"><ele>480</ele></trkpt>
<trkpt lat="48.35898" lon="10.90529"><ele>480</ele></trkpt>
<trkpt lat="48.35877" lon="10.90497"><ele>480</ele></trkpt>
<trkpt lat="48.35863" lon="10.90462"><ele>481</ele></trkpt>
<trkpt lat="48.35858" lon="10.90412"><ele>482</ele></trkpt>
<trkpt lat="48.35863" lon="10.90352"><ele>483</ele></trkpt>
<trkpt lat="48.35878" lon="10.90287"><ele>484</ele></trkpt>
<trkpt lat="48.35885" lon="10.90272"><ele>485</ele></trkpt>
<trkpt lat="48.35904" lon="10.90252"><ele>484</ele></trkpt>
<trkpt lat="48.35966" lon="10.90226"><ele>484</ele></trkpt>
<trkpt lat="48.35974" lon="10.90204"><ele>484</ele></trkpt>
<trkpt lat="48.35969" lon="10.90053"><ele>488</ele></trkpt>
<trkpt lat="48.35970" lon="10.90016"><ele>489</ele></trkpt>
<trkpt lat="48.35988" lon="10.89841"><ele>491</ele></trkpt>
<trkpt lat="48.35991" lon="10.89819"><ele>492</ele></trkpt>
<trkpt lat="48.35996" lon="10.89810"><ele>492</ele></trkpt>
<trkpt lat="48.35991" lon="10.89769"><ele>492</ele></trkpt>
<trkpt lat="48.35996" lon="10.89745"><ele>492</ele></trkpt>
<trkpt lat="48.35998" lon="10.89668"><ele>492</ele></trkpt>
<trkpt lat="48.36024" lon="10.89297"><ele>491</ele></trkpt>
<trkpt lat="48.35953" lon="10.89284"><ele>490</ele></trkpt>
<trkpt lat="48.35945" lon="10.89271"><ele>490</ele></trkpt>
<trkpt lat="48.35946" lon="10.89251"><ele>490</ele></trkpt>
<trkpt lat="48.36045" lon="10.89119"><ele>491</ele></trkpt>
<trkpt lat="48.36074" lon="10.89086"><ele>490</ele></trkpt>
<trkpt lat="48.36203" lon="10.88950"><ele>489</ele></trkpt>
<trkpt lat="48.36262" lon="10.88894"><ele>489</ele></trkpt>
<trkpt lat="48.36278" lon="10.88891"><ele>489</ele></trkpt>
<trkpt lat="48.36310" lon="10.88906"><ele>489</ele></trkpt>
<trkpt lat="48.36313" lon="10.88891"><ele>489</ele></trkpt>
<trkpt lat="48.36493" lon="10.88726"><ele>490</ele></trkpt>
<trkpt lat="48.36504" lon="10.88725"><ele>490</ele></trkpt>
<trkpt lat="48.36520" lon="10.88710"><ele>490</ele></trkpt>
<trkpt lat="48.36549" lon="10.88722"><ele>489</ele></trkpt>
<trkpt lat="48.36548" lon="10.88727"><ele>489</ele></trkpt>
<trkpt lat="48.36550" lon="10.88728"><ele>489</ele></trkpt>
    </trkseg>
  </trk>
</gpx>
