<?xml version="1.0" encoding="UTF-8"?>
<gpx version="1.1" creator="Gravel Kompass" xmlns="http://www.topografix.com/GPX/1/1">
  <metadata><name>Altmühltal-Runde: Donau, Kalkfelsen &amp; Fränkisches Seenland – Etappe 3</name></metadata>
  <trk>
    <name>Etappe 3: Kipfenberg – Treuchtlingen</name>
    <trkseg>
<trkpt lat="48.95014" lon="11.39695"><ele>390</ele></trkpt>
<trkpt lat="48.95011" lon="11.39665"><ele>389</ele></trkpt>
<trkpt lat="48.95022" lon="11.39644"><ele>385</ele></trkpt>
<trkpt lat="48.95025" lon="11.39627"><ele>384</ele></trkpt>
<trkpt lat="48.95026" lon="11.39585"><ele>381</ele></trkpt>
<trkpt lat="48.95023" lon="11.39500"><ele>379</ele></trkpt>
<trkpt lat="48.95015" lon="11.39484"><ele>379</ele></trkpt>
<trkpt lat="48.95011" lon="11.39419"><ele>378</ele></trkpt>
<trkpt lat="48.95003" lon="11.39396"><ele>377</ele></trkpt>
<trkpt lat="48.95006" lon="11.39381"><ele>377</ele></trkpt>
<trkpt lat="48.94998" lon="11.39179"><ele>375</ele></trkpt>
<trkpt lat="48.94998" lon="11.39098"><ele>375</ele></trkpt>
<trkpt lat="48.95005" lon="11.39014"><ele>374</ele></trkpt>
<trkpt lat="48.95014" lon="11.38960"><ele>375</ele></trkpt>
<trkpt lat="48.95047" lon="11.38835"><ele>376</ele></trkpt>
<trkpt lat="48.95056" lon="11.38773"><ele>378</ele></trkpt>
<trkpt lat="48.95026" lon="11.38748"><ele>381</ele></trkpt>
<trkpt lat="48.95016" lon="11.38729"><ele>382</ele></trkpt>
<trkpt lat="48.94969" lon="11.38538"><ele>390</ele></trkpt>
<trkpt lat="48.94972" lon="11.38515"><ele>391</ele></trkpt>
<trkpt lat="48.94995" lon="11.38462"><ele>393</ele></trkpt>
<trkpt lat="48.94969" lon="11.38380"><ele>400</ele></trkpt>
<trkpt lat="48.94962" lon="11.38346"><ele>400</ele></trkpt>
<trkpt lat="48.94956" lon="11.38271"><ele>402</ele></trkpt>
<trkpt lat="48.94961" lon="11.38213"><ele>410</ele></trkpt>
<trkpt lat="48.94982" lon="11.38101"><ele>418</ele></trkpt>
<trkpt lat="48.95039" lon="11.37925"><ele>437</ele></trkpt>
<trkpt lat="48.95041" lon="11.37850"><ele>448</ele></trkpt>
<trkpt lat="48.95038" lon="11.37806"><ele>454</ele></trkpt>
<trkpt lat="48.95041" lon="11.37768"><ele>456</ele></trkpt>
<trkpt lat="48.95076" lon="11.37643"><ele>467</ele></trkpt>
<trkpt lat="48.95081" lon="11.37586"><ele>468</ele></trkpt>
<trkpt lat="48.95086" lon="11.37555"><ele>469</ele></trkpt>
<trkpt lat="48.95132" lon="11.37381"><ele>473</ele></trkpt>
<trkpt lat="48.95145" lon="11.37223"><ele>476</ele></trkpt>
<trkpt lat="48.95148" lon="11.37106"><ele>475</ele></trkpt>
<trkpt lat="48.95144" lon="11.37094"><ele>474</ele></trkpt>
<trkpt lat="48.95136" lon="11.36956"><ele>474</ele></trkpt>
<trkpt lat="48.95139" lon="11.36908"><ele>474</ele></trkpt>
<trkpt lat="48.95152" lon="11.36816"><ele>473</ele></trkpt>
<trkpt lat="48.95158" lon="11.36779"><ele>472</ele></trkpt>
<trkpt lat="48.95185" lon="11.36682"><ele>476</ele></trkpt>
<trkpt lat="48.95215" lon="11.36575"><ele>484</ele></trkpt>
<trkpt lat="48.95223" lon="11.36557"><ele>486</ele></trkpt>
<trkpt lat="48.95240" lon="11.36539"><ele>488</ele></trkpt>
<trkpt lat="48.95429" lon="11.36428"><ele>512</ele></trkpt>
<trkpt lat="48.95456" lon="11.36405"><ele>513</ele></trkpt>
<trkpt lat="48.95487" lon="11.36367"><ele>515</ele></trkpt>
<trkpt lat="48.95498" lon="11.36345"><ele>515</ele></trkpt>
<trkpt lat="48.95510" lon="11.36293"><ele>516</ele></trkpt>
<trkpt lat="48.95530" lon="11.36239"><ele>517</ele></trkpt>
<trkpt lat="48.95629" lon="11.36039"><ele>518</ele></trkpt>
<trkpt lat="48.95705" lon="11.35903"><ele>515</ele></trkpt>
<trkpt lat="48.95716" lon="11.35873"><ele>515</ele></trkpt>
<trkpt lat="48.95745" lon="11.35732"><ele>516</ele></trkpt>
<trkpt lat="48.95754" lon="11.35709"><ele>517</ele></trkpt>
<trkpt lat="48.95809" lon="11.35622"><ele>520</ele></trkpt>
<trkpt lat="48.95711" lon="11.35562"><ele>524</ele></trkpt>
<trkpt lat="48.95549" lon="11.35444"><ele>524</ele></trkpt>
<trkpt lat="48.95572" lon="11.35430"><ele>525</ele></trkpt>
<trkpt lat="48.95630" lon="11.35374"><ele>528</ele></trkpt>
<trkpt lat="48.95677" lon="11.35318"><ele>530</ele></trkpt>
<trkpt lat="48.95811" lon="11.35068"><ele>536</ele></trkpt>
<trkpt lat="48.95862" lon="11.34908"><ele>538</ele></trkpt>
<trkpt lat="48.95906" lon="11.34722"><ele>538</ele></trkpt>
<trkpt lat="48.95923" lon="11.34635"><ele>538</ele></trkpt>
<trkpt lat="48.95711" lon="11.34604"><ele>525</ele></trkpt>
<trkpt lat="48.95701" lon="11.34342"><ele>520</ele></trkpt>
<trkpt lat="48.95704" lon="11.34269"><ele>518</ele></trkpt>
<trkpt lat="48.95746" lon="11.33977"><ele>520</ele></trkpt>
<trkpt lat="48.95789" lon="11.33751"><ele>519</ele></trkpt>
<trkpt lat="48.95859" lon="11.33411"><ele>510</ele></trkpt>
<trkpt lat="48.95873" lon="11.33334"><ele>508</ele></trkpt>
<trkpt lat="48.95878" lon="11.33276"><ele>507</ele></trkpt>
<trkpt lat="48.95914" lon="11.33262"><ele>506</ele></trkpt>
<trkpt lat="48.95935" lon="11.33248"><ele>504</ele></trkpt>
<trkpt lat="48.95981" lon="11.33202"><ele>502</ele></trkpt>
<trkpt lat="48.95992" lon="11.33174"><ele>500</ele></trkpt>
<trkpt lat="48.95995" lon="11.33128"><ele>500</ele></trkpt>
<trkpt lat="48.95991" lon="11.33092"><ele>499</ele></trkpt>
<trkpt lat="48.95964" lon="11.32956"><ele>497</ele></trkpt>
<trkpt lat="48.95960" lon="11.32903"><ele>496</ele></trkpt>
<trkpt lat="48.96037" lon="11.32805"><ele>497</ele></trkpt>
<trkpt lat="48.96036" lon="11.32784"><ele>496</ele></trkpt>
<trkpt lat="48.96025" lon="11.32712"><ele>495</ele></trkpt>
<trkpt lat="48.96007" lon="11.32543"><ele>493</ele></trkpt>
<trkpt lat="48.96006" lon="11.32492"><ele>492</ele></trkpt>
<trkpt lat="48.96047" lon="11.32201"><ele>494</ele></trkpt>
<trkpt lat="48.96052" lon="11.32175"><ele>496</ele></trkpt>
<trkpt lat="48.96050" lon="11.32146"><ele>498</ele></trkpt>
<trkpt lat="48.96052" lon="11.32115"><ele>499</ele></trkpt>
<trkpt lat="48.95894" lon="11.32078"><ele>495</ele></trkpt>
<trkpt lat="48.95884" lon="11.31829"><ele>495</ele></trkpt>
<trkpt lat="48.95848" lon="11.31465"><ele>498</ele></trkpt>
<trkpt lat="48.95821" lon="11.31246"><ele>512</ele></trkpt>
<trkpt lat="48.95819" lon="11.31235"><ele>513</ele></trkpt>
<trkpt lat="48.95814" lon="11.31231"><ele>513</ele></trkpt>
<trkpt lat="48.95799" lon="11.31233"><ele>512</ele></trkpt>
<trkpt lat="48.95791" lon="11.31229"><ele>512</ele></trkpt>
<trkpt lat="48.95789" lon="11.31220"><ele>512</ele></trkpt>
<trkpt lat="48.95775" lon="11.31094"><ele>514</ele></trkpt>
<trkpt lat="48.95761" lon="11.31002"><ele>515</ele></trkpt>
<trkpt lat="48.95757" lon="11.30942"><ele>515</ele></trkpt>
<trkpt lat="48.95733" lon="11.30830"><ele>514</ele></trkpt>
<trkpt lat="48.95685" lon="11.30576"><ele>513</ele></trkpt>
<trkpt lat="48.95676" lon="11.30416"><ele>514</ele></trkpt>
<trkpt lat="48.95682" lon="11.30339"><ele>515</ele></trkpt>
<trkpt lat="48.95681" lon="11.30275"><ele>516</ele></trkpt>
<trkpt lat="48.95677" lon="11.30243"><ele>517</ele></trkpt>
<trkpt lat="48.95669" lon="11.30212"><ele>518</ele></trkpt>
<trkpt lat="48.95627" lon="11.30099"><ele>524</ele></trkpt>
<trkpt lat="48.95578" lon="11.29926"><ele>532</ele></trkpt>
<trkpt lat="48.95558" lon="11.29804"><ele>535</ele></trkpt>
<trkpt lat="48.95548" lon="11.29779"><ele>536</ele></trkpt>
<trkpt lat="48.95515" lon="11.29743"><ele>536</ele></trkpt>
<trkpt lat="48.95479" lon="11.29682"><ele>536</ele></trkpt>
<trkpt lat="48.95446" lon="11.29639"><ele>535</ele></trkpt>
<trkpt lat="48.95439" lon="11.29620"><ele>534</ele></trkpt>
<trkpt lat="48.95416" lon="11.29489"><ele>533</ele></trkpt>
<trkpt lat="48.95407" lon="11.29471"><ele>533</ele></trkpt>
<trkpt lat="48.95370" lon="11.29430"><ele>534</ele></trkpt>
<trkpt lat="48.95343" lon="11.29377"><ele>536</ele></trkpt>
<trkpt lat="48.95304" lon="11.29314"><ele>535</ele></trkpt>
<trkpt lat="48.95262" lon="11.29320"><ele>533</ele></trkpt>
<trkpt lat="48.95220" lon="11.29226"><ele>533</ele></trkpt>
<trkpt lat="48.95207" lon="11.29241"><ele>532</ele></trkpt>
<trkpt lat="48.95192" lon="11.29247"><ele>532</ele></trkpt>
<trkpt lat="48.95182" lon="11.29244"><ele>532</ele></trkpt>
<trkpt lat="48.95154" lon="11.29212"><ele>530</ele></trkpt>
<trkpt lat="48.95121" lon="11.29190"><ele>530</ele></trkpt>
<trkpt lat="48.95111" lon="11.29177"><ele>530</ele></trkpt>
<trkpt lat="48.95100" lon="11.29150"><ele>529</ele></trkpt>
<trkpt lat="48.95062" lon="11.29014"><ele>527</ele></trkpt>
<trkpt lat="48.95061" lon="11.28966"><ele>527</ele></trkpt>
<trkpt lat="48.95071" lon="11.28910"><ele>525</ele></trkpt>
<trkpt lat="48.95072" lon="11.28889"><ele>525</ele></trkpt>
<trkpt lat="48.95060" lon="11.28779"><ele>523</ele></trkpt>
<trkpt lat="48.95064" lon="11.28746"><ele>522</ele></trkpt>
<trkpt lat="48.95078" lon="11.28702"><ele>521</ele></trkpt>
<trkpt lat="48.95077" lon="11.28685"><ele>520</ele></trkpt>
<trkpt lat="48.95053" lon="11.28575"><ele>517</ele></trkpt>
<trkpt lat="48.95025" lon="11.28557"><ele>517</ele></trkpt>
<trkpt lat="48.95020" lon="11.28542"><ele>516</ele></trkpt>
<trkpt lat="48.94870" lon="11.28460"><ele>516</ele></trkpt>
<trkpt lat="48.94786" lon="11.28438"><ele>515</ele></trkpt>
<trkpt lat="48.94686" lon="11.28429"><ele>514</ele></trkpt>
<trkpt lat="48.94663" lon="11.28386"><ele>514</ele></trkpt>
<trkpt lat="48.94615" lon="11.28264"><ele>512</ele></trkpt>
<trkpt lat="48.94577" lon="11.28206"><ele>511</ele></trkpt>
<trkpt lat="48.94573" lon="11.28192"><ele>511</ele></trkpt>
<trkpt lat="48.94547" lon="11.27739"><ele>508</ele></trkpt>
<trkpt lat="48.94525" lon="11.27535"><ele>509</ele></trkpt>
<trkpt lat="48.94522" lon="11.27477"><ele>510</ele></trkpt>
<trkpt lat="48.94524" lon="11.27424"><ele>510</ele></trkpt>
<trkpt lat="48.94509" lon="11.27420"><ele>511</ele></trkpt>
<trkpt lat="48.94517" lon="11.27206"><ele>516</ele></trkpt>
<trkpt lat="48.94558" lon="11.26599"><ele>530</ele></trkpt>
<trkpt lat="48.94496" lon="11.26670"><ele>532</ele></trkpt>
<trkpt lat="48.94430" lon="11.26730"><ele>534</ele></trkpt>
<trkpt lat="48.94373" lon="11.26754"><ele>535</ele></trkpt>
<trkpt lat="48.94336" lon="11.26761"><ele>536</ele></trkpt>
<trkpt lat="48.94327" lon="11.26792"><ele>536</ele></trkpt>
<trkpt lat="48.94286" lon="11.26868"><ele>536</ele></trkpt>
<trkpt lat="48.94273" lon="11.26883"><ele>536</ele></trkpt>
<trkpt lat="48.94181" lon="11.26808"><ele>534</ele></trkpt>
<trkpt lat="48.94030" lon="11.26534"><ele>527</ele></trkpt>
<trkpt lat="48.93533" lon="11.26901"><ele>504</ele></trkpt>
<trkpt lat="48.93519" lon="11.26928"><ele>502</ele></trkpt>
<trkpt lat="48.93520" lon="11.26850"><ele>503</ele></trkpt>
<trkpt lat="48.93536" lon="11.26756"><ele>503</ele></trkpt>
<trkpt lat="48.93606" lon="11.26470"><ele>505</ele></trkpt>
<trkpt lat="48.93587" lon="11.26360"><ele>507</ele></trkpt>
<trkpt lat="48.93577" lon="11.26249"><ele>510</ele></trkpt>
<trkpt lat="48.93576" lon="11.26219"><ele>510</ele></trkpt>
<trkpt lat="48.93589" lon="11.26141"><ele>511</ele></trkpt>
<trkpt lat="48.93586" lon="11.26107"><ele>511</ele></trkpt>
<trkpt lat="48.93547" lon="11.25903"><ele>508</ele></trkpt>
<trkpt lat="48.93553" lon="11.25830"><ele>507</ele></trkpt>
<trkpt lat="48.93575" lon="11.25732"><ele>505</ele></trkpt>
<trkpt lat="48.93575" lon="11.25647"><ele>502</ele></trkpt>
<trkpt lat="48.93589" lon="11.25542"><ele>500</ele></trkpt>
<trkpt lat="48.93588" lon="11.25493"><ele>498</ele></trkpt>
<trkpt lat="48.93581" lon="11.25446"><ele>496</ele></trkpt>
<trkpt lat="48.93554" lon="11.25399"><ele>492</ele></trkpt>
<trkpt lat="48.93580" lon="11.25387"><ele>493</ele></trkpt>
<trkpt lat="48.93585" lon="11.25356"><ele>493</ele></trkpt>
<trkpt lat="48.93666" lon="11.25135"><ele>495</ele></trkpt>
<trkpt lat="48.93098" lon="11.24684"><ele>502</ele></trkpt>
<trkpt lat="48.93087" lon="11.24669"><ele>500</ele></trkpt>
<trkpt lat="48.93078" lon="11.24651"><ele>499</ele></trkpt>
<trkpt lat="48.93071" lon="11.24546"><ele>493</ele></trkpt>
<trkpt lat="48.93073" lon="11.24495"><ele>491</ele></trkpt>
<trkpt lat="48.93080" lon="11.24446"><ele>486</ele></trkpt>
<trkpt lat="48.93095" lon="11.24388"><ele>482</ele></trkpt>
<trkpt lat="48.93100" lon="11.24358"><ele>480</ele></trkpt>
<trkpt lat="48.93095" lon="11.24340"><ele>479</ele></trkpt>
<trkpt lat="48.93085" lon="11.24331"><ele>479</ele></trkpt>
<trkpt lat="48.93070" lon="11.24293"><ele>482</ele></trkpt>
<trkpt lat="48.93021" lon="11.24017"><ele>500</ele></trkpt>
<trkpt lat="48.93004" lon="11.23876"><ele>506</ele></trkpt>
<trkpt lat="48.92976" lon="11.23847"><ele>509</ele></trkpt>
<trkpt lat="48.92962" lon="11.23839"><ele>511</ele></trkpt>
<trkpt lat="48.92931" lon="11.23846"><ele>514</ele></trkpt>
<trkpt lat="48.92785" lon="11.23994"><ele>522</ele></trkpt>
<trkpt lat="48.92780" lon="11.23942"><ele>523</ele></trkpt>
<trkpt lat="48.92755" lon="11.23834"><ele>525</ele></trkpt>
<trkpt lat="48.92712" lon="11.23802"><ele>524</ele></trkpt>
<trkpt lat="48.92707" lon="11.23751"><ele>524</ele></trkpt>
<trkpt lat="48.92664" lon="11.23600"><ele>524</ele></trkpt>
<trkpt lat="48.92648" lon="11.23602"><ele>523</ele></trkpt>
<trkpt lat="48.92607" lon="11.23623"><ele>521</ele></trkpt>
<trkpt lat="48.92613" lon="11.23514"><ele>522</ele></trkpt>
<trkpt lat="48.92601" lon="11.23400"><ele>521</ele></trkpt>
<trkpt lat="48.92595" lon="11.23291"><ele>520</ele></trkpt>
<trkpt lat="48.92595" lon="11.23268"><ele>520</ele></trkpt>
<trkpt lat="48.92607" lon="11.23214"><ele>520</ele></trkpt>
<trkpt lat="48.92606" lon="11.23187"><ele>520</ele></trkpt>
<trkpt lat="48.92591" lon="11.23114"><ele>522</ele></trkpt>
<trkpt lat="48.92555" lon="11.23023"><ele>523</ele></trkpt>
<trkpt lat="48.92555" lon="11.22903"><ele>524</ele></trkpt>
<trkpt lat="48.92580" lon="11.22752"><ele>526</ele></trkpt>
<trkpt lat="48.92583" lon="11.22714"><ele>526</ele></trkpt>
<trkpt lat="48.92569" lon="11.22587"><ele>525</ele></trkpt>
<trkpt lat="48.92559" lon="11.22352"><ele>521</ele></trkpt>
<trkpt lat="48.92560" lon="11.22208"><ele>519</ele></trkpt>
<trkpt lat="48.92552" lon="11.22154"><ele>518</ele></trkpt>
<trkpt lat="48.92533" lon="11.22089"><ele>517</ele></trkpt>
<trkpt lat="48.92512" lon="11.21932"><ele>514</ele></trkpt>
<trkpt lat="48.92481" lon="11.21847"><ele>516</ele></trkpt>
<trkpt lat="48.92476" lon="11.21823"><ele>516</ele></trkpt>
<trkpt lat="48.92473" lon="11.21754"><ele>517</ele></trkpt>
<trkpt lat="48.92465" lon="11.21701"><ele>518</ele></trkpt>
<trkpt lat="48.92445" lon="11.21596"><ele>518</ele></trkpt>
<trkpt lat="48.92432" lon="11.21548"><ele>518</ele></trkpt>
<trkpt lat="48.92397" lon="11.21467"><ele>515</ele></trkpt>
<trkpt lat="48.92388" lon="11.21437"><ele>515</ele></trkpt>
<trkpt lat="48.92384" lon="11.21409"><ele>515</ele></trkpt>
<trkpt lat="48.92390" lon="11.21228"><ele>515</ele></trkpt>
<trkpt lat="48.92378" lon="11.21113"><ele>508</ele></trkpt>
<trkpt lat="48.92359" lon="11.21056"><ele>505</ele></trkpt>
<trkpt lat="48.92337" lon="11.21025"><ele>505</ele></trkpt>
<trkpt lat="48.92325" lon="11.20995"><ele>506</ele></trkpt>
<trkpt lat="48.92223" lon="11.20728"><ele>520</ele></trkpt>
<trkpt lat="48.92207" lon="11.20706"><ele>522</ele></trkpt>
<trkpt lat="48.92085" lon="11.20664"><ele>528</ele></trkpt>
<trkpt lat="48.92026" lon="11.20637"><ele>529</ele></trkpt>
<trkpt lat="48.91950" lon="11.20552"><ele>535</ele></trkpt>
<trkpt lat="48.91848" lon="11.20511"><ele>536</ele></trkpt>
<trkpt lat="48.91826" lon="11.20499"><ele>536</ele></trkpt>
<trkpt lat="48.91767" lon="11.20433"><ele>538</ele></trkpt>
<trkpt lat="48.91627" lon="11.20309"><ele>543</ele></trkpt>
<trkpt lat="48.91563" lon="11.20210"><ele>546</ele></trkpt>
<trkpt lat="48.91534" lon="11.20179"><ele>548</ele></trkpt>
<trkpt lat="48.91516" lon="11.20167"><ele>548</ele></trkpt>
<trkpt lat="48.91400" lon="11.20115"><ele>548</ele></trkpt>
<trkpt lat="48.91302" lon="11.20066"><ele>546</ele></trkpt>
<trkpt lat="48.91235" lon="11.20020"><ele>544</ele></trkpt>
<trkpt lat="48.91215" lon="11.19995"><ele>544</ele></trkpt>
<trkpt lat="48.91160" lon="11.19984"><ele>544</ele></trkpt>
<trkpt lat="48.90791" lon="11.19884"><ele>544</ele></trkpt>
<trkpt lat="48.90786" lon="11.19875"><ele>544</ele></trkpt>
<trkpt lat="48.90785" lon="11.19866"><ele>544</ele></trkpt>
<trkpt lat="48.90789" lon="11.19818"><ele>544</ele></trkpt>
<trkpt lat="48.90786" lon="11.19810"><ele>544</ele></trkpt>
<trkpt lat="48.90776" lon="11.19796"><ele>544</ele></trkpt>
<trkpt lat="48.90759" lon="11.19797"><ele>545</ele></trkpt>
<trkpt lat="48.90750" lon="11.19745"><ele>545</ele></trkpt>
<trkpt lat="48.90745" lon="11.19743"><ele>545</ele></trkpt>
<trkpt lat="48.90718" lon="11.19740"><ele>546</ele></trkpt>
<trkpt lat="48.90711" lon="11.19754"><ele>546</ele></trkpt>
<trkpt lat="48.90688" lon="11.19761"><ele>546</ele></trkpt>
<trkpt lat="48.90668" lon="11.19761"><ele>545</ele></trkpt>
<trkpt lat="48.90617" lon="11.19776"><ele>542</ele></trkpt>
<trkpt lat="48.90547" lon="11.19816"><ele>538</ele></trkpt>
<trkpt lat="48.90532" lon="11.19811"><ele>536</ele></trkpt>
<trkpt lat="48.90519" lon="11.19795"><ele>535</ele></trkpt>
<trkpt lat="48.90514" lon="11.19781"><ele>534</ele></trkpt>
<trkpt lat="48.90509" lon="11.19755"><ele>533</ele></trkpt>
<trkpt lat="48.90514" lon="11.19737"><ele>532</ele></trkpt>
<trkpt lat="48.90513" lon="11.19726"><ele>532</ele></trkpt>
<trkpt lat="48.90480" lon="11.19574"><ele>513</ele></trkpt>
<trkpt lat="48.90474" lon="11.19561"><ele>511</ele></trkpt>
<trkpt lat="48.90390" lon="11.19440"><ele>500</ele></trkpt>
<trkpt lat="48.90359" lon="11.19408"><ele>496</ele></trkpt>
<trkpt lat="48.90330" lon="11.19397"><ele>494</ele></trkpt>
<trkpt lat="48.90268" lon="11.19397"><ele>487</ele></trkpt>
<trkpt lat="48.90229" lon="11.19412"><ele>482</ele></trkpt>
<trkpt lat="48.90163" lon="11.19448"><ele>473</ele></trkpt>
<trkpt lat="48.90149" lon="11.19450"><ele>472</ele></trkpt>
<trkpt lat="48.90141" lon="11.19447"><ele>470</ele></trkpt>
<trkpt lat="48.90090" lon="11.19390"><ele>466</ele></trkpt>
<trkpt lat="48.90072" lon="11.19378"><ele>465</ele></trkpt>
<trkpt lat="48.90027" lon="11.19323"><ele>460</ele></trkpt>
<trkpt lat="48.90005" lon="11.19308"><ele>457</ele></trkpt>
<trkpt lat="48.89909" lon="11.19268"><ele>450</ele></trkpt>
<trkpt lat="48.89829" lon="11.19245"><ele>442</ele></trkpt>
<trkpt lat="48.89762" lon="11.19236"><ele>437</ele></trkpt>
<trkpt lat="48.89684" lon="11.19249"><ele>428</ele></trkpt>
<trkpt lat="48.89624" lon="11.19240"><ele>424</ele></trkpt>
<trkpt lat="48.89610" lon="11.19132"><ele>419</ele></trkpt>
<trkpt lat="48.89592" lon="11.19085"><ele>418</ele></trkpt>
<trkpt lat="48.89584" lon="11.19079"><ele>417</ele></trkpt>
<trkpt lat="48.89572" lon="11.19052"><ele>416</ele></trkpt>
<trkpt lat="48.89509" lon="11.18879"><ele>410</ele></trkpt>
<trkpt lat="48.89468" lon="11.18845"><ele>407</ele></trkpt>
<trkpt lat="48.89417" lon="11.18812"><ele>407</ele></trkpt>
<trkpt lat="48.89383" lon="11.18795"><ele>406</ele></trkpt>
<trkpt lat="48.89340" lon="11.18782"><ele>405</ele></trkpt>
<trkpt lat="48.89332" lon="11.18766"><ele>404</ele></trkpt>
<trkpt lat="48.89310" lon="11.18781"><ele>404</ele></trkpt>
<trkpt lat="48.89283" lon="11.18791"><ele>402</ele></trkpt>
<trkpt lat="48.89256" lon="11.18790"><ele>399</ele></trkpt>
<trkpt lat="48.89180" lon="11.18762"><ele>394</ele></trkpt>
<trkpt lat="48.89111" lon="11.18719"><ele>391</ele></trkpt>
<trkpt lat="48.89156" lon="11.18557"><ele>390</ele></trkpt>
<trkpt lat="48.89106" lon="11.18525"><ele>389</ele></trkpt>
<trkpt lat="48.89077" lon="11.18493"><ele>389</ele></trkpt>
<trkpt lat="48.89063" lon="11.18452"><ele>388</ele></trkpt>
<trkpt lat="48.89059" lon="11.18401"><ele>388</ele></trkpt>
<trkpt lat="48.89063" lon="11.18376"><ele>388</ele></trkpt>
<trkpt lat="48.89085" lon="11.18304"><ele>387</ele></trkpt>
<trkpt lat="48.89096" lon="11.18282"><ele>388</ele></trkpt>
<trkpt lat="48.89133" lon="11.18229"><ele>387</ele></trkpt>
<trkpt lat="48.89145" lon="11.18225"><ele>387</ele></trkpt>
<trkpt lat="48.89203" lon="11.18253"><ele>388</ele></trkpt>
<trkpt lat="48.89210" lon="11.18251"><ele>388</ele></trkpt>
<trkpt lat="48.89241" lon="11.18107"><ele>388</ele></trkpt>
<trkpt lat="48.89236" lon="11.18082"><ele>388</ele></trkpt>
<trkpt lat="48.89264" lon="11.18050"><ele>388</ele></trkpt>
<trkpt lat="48.89279" lon="11.18048"><ele>388</ele></trkpt>
<trkpt lat="48.89295" lon="11.18060"><ele>388</ele></trkpt>
<trkpt lat="48.89302" lon="11.18059"><ele>389</ele></trkpt>
<trkpt lat="48.89333" lon="11.18043"><ele>389</ele></trkpt>
<trkpt lat="48.89351" lon="11.18097"><ele>388</ele></trkpt>
<trkpt lat="48.89359" lon="11.18131"><ele>387</ele></trkpt>
<trkpt lat="48.89379" lon="11.18118"><ele>387</ele></trkpt>
<trkpt lat="48.89463" lon="11.18043"><ele>387</ele></trkpt>
<trkpt lat="48.89477" lon="11.18013"><ele>387</ele></trkpt>
<trkpt lat="48.89489" lon="11.18001"><ele>387</ele></trkpt>
<trkpt lat="48.89533" lon="11.18008"><ele>386</ele></trkpt>
<trkpt lat="48.89538" lon="11.18004"><ele>386</ele></trkpt>
<trkpt lat="48.89704" lon="11.17778"><ele>386</ele></trkpt>
<trkpt lat="48.89786" lon="11.17648"><ele>386</ele></trkpt>
<trkpt lat="48.89818" lon="11.17561"><ele>386</ele></trkpt>
<trkpt lat="48.89829" lon="11.17559"><ele>386</ele></trkpt>
<trkpt lat="48.89855" lon="11.17568"><ele>386</ele></trkpt>
<trkpt lat="48.89881" lon="11.17536"><ele>387</ele></trkpt>
<trkpt lat="48.89882" lon="11.17522"><ele>386</ele></trkpt>
<trkpt lat="48.89907" lon="11.17453"><ele>386</ele></trkpt>
<trkpt lat="48.89909" lon="11.17415"><ele>387</ele></trkpt>
<trkpt lat="48.89900" lon="11.17288"><ele>386</ele></trkpt>
<trkpt lat="48.89902" lon="11.17239"><ele>386</ele></trkpt>
<trkpt lat="48.89912" lon="11.17160"><ele>387</ele></trkpt>
<trkpt lat="48.89920" lon="11.17066"><ele>387</ele></trkpt>
<trkpt lat="48.89924" lon="11.16912"><ele>386</ele></trkpt>
<trkpt lat="48.89927" lon="11.16905"><ele>386</ele></trkpt>
<trkpt lat="48.89926" lon="11.16883"><ele>386</ele></trkpt>
<trkpt lat="48.89910" lon="11.16807"><ele>387</ele></trkpt>
<trkpt lat="48.89908" lon="11.16758"><ele>387</ele></trkpt>
<trkpt lat="48.89902" lon="11.16741"><ele>387</ele></trkpt>
<trkpt lat="48.89868" lon="11.16755"><ele>389</ele></trkpt>
<trkpt lat="48.89863" lon="11.16729"><ele>390</ele></trkpt>
<trkpt lat="48.89863" lon="11.16722"><ele>390</ele></trkpt>
<trkpt lat="48.89908" lon="11.16593"><ele>388</ele></trkpt>
<trkpt lat="48.89924" lon="11.16535"><ele>389</ele></trkpt>
<trkpt lat="48.89910" lon="11.16527"><ele>389</ele></trkpt>
<trkpt lat="48.89903" lon="11.16517"><ele>389</ele></trkpt>
<trkpt lat="48.89891" lon="11.16483"><ele>389</ele></trkpt>
<trkpt lat="48.89893" lon="11.16158"><ele>396</ele></trkpt>
<trkpt lat="48.89896" lon="11.16119"><ele>399</ele></trkpt>
<trkpt lat="48.89908" lon="11.16075"><ele>402</ele></trkpt>
<trkpt lat="48.89942" lon="11.16015"><ele>405</ele></trkpt>
<trkpt lat="48.89960" lon="11.15976"><ele>408</ele></trkpt>
<trkpt lat="48.89993" lon="11.15922"><ele>410</ele></trkpt>
<trkpt lat="48.90018" lon="11.15883"><ele>414</ele></trkpt>
<trkpt lat="48.90104" lon="11.15769"><ele>427</ele></trkpt>
<trkpt lat="48.90173" lon="11.15591"><ele>440</ele></trkpt>
<trkpt lat="48.90191" lon="11.15564"><ele>440</ele></trkpt>
<trkpt lat="48.90315" lon="11.15481"><ele>448</ele></trkpt>
<trkpt lat="48.90352" lon="11.15468"><ele>451</ele></trkpt>
<trkpt lat="48.90389" lon="11.15446"><ele>455</ele></trkpt>
<trkpt lat="48.90411" lon="11.15438"><ele>458</ele></trkpt>
<trkpt lat="48.90427" lon="11.15435"><ele>460</ele></trkpt>
<trkpt lat="48.90449" lon="11.15438"><ele>461</ele></trkpt>
<trkpt lat="48.90470" lon="11.15447"><ele>462</ele></trkpt>
<trkpt lat="48.90484" lon="11.15460"><ele>465</ele></trkpt>
<trkpt lat="48.90517" lon="11.15469"><ele>468</ele></trkpt>
<trkpt lat="48.90557" lon="11.15458"><ele>472</ele></trkpt>
<trkpt lat="48.90575" lon="11.15446"><ele>472</ele></trkpt>
<trkpt lat="48.90598" lon="11.15417"><ele>478</ele></trkpt>
<trkpt lat="48.90617" lon="11.15382"><ele>482</ele></trkpt>
<trkpt lat="48.90657" lon="11.15297"><ele>487</ele></trkpt>
<trkpt lat="48.90677" lon="11.15235"><ele>490</ele></trkpt>
<trkpt lat="48.90694" lon="11.15201"><ele>490</ele></trkpt>
<trkpt lat="48.90707" lon="11.15188"><ele>493</ele></trkpt>
<trkpt lat="48.90754" lon="11.15177"><ele>495</ele></trkpt>
<trkpt lat="48.90771" lon="11.15164"><ele>496</ele></trkpt>
<trkpt lat="48.90782" lon="11.15140"><ele>499</ele></trkpt>
<trkpt lat="48.90791" lon="11.15101"><ele>506</ele></trkpt>
<trkpt lat="48.90807" lon="11.14982"><ele>509</ele></trkpt>
<trkpt lat="48.90828" lon="11.14889"><ele>514</ele></trkpt>
<trkpt lat="48.90870" lon="11.14636"><ele>531</ele></trkpt>
<trkpt lat="48.90872" lon="11.14557"><ele>532</ele></trkpt>
<trkpt lat="48.90863" lon="11.14461"><ele>532</ele></trkpt>
<trkpt lat="48.90844" lon="11.14372"><ele>531</ele></trkpt>
<trkpt lat="48.90847" lon="11.14365"><ele>531</ele></trkpt>
<trkpt lat="48.90875" lon="11.14365"><ele>532</ele></trkpt>
<trkpt lat="48.90943" lon="11.14421"><ele>535</ele></trkpt>
<trkpt lat="48.90954" lon="11.14425"><ele>535</ele></trkpt>
<trkpt lat="48.90961" lon="11.14439"><ele>536</ele></trkpt>
<trkpt lat="48.90978" lon="11.14444"><ele>536</ele></trkpt>
<trkpt lat="48.91144" lon="11.14335"><ele>543</ele></trkpt>
<trkpt lat="48.91193" lon="11.14316"><ele>542</ele></trkpt>
<trkpt lat="48.91195" lon="11.14219"><ele>545</ele></trkpt>
<trkpt lat="48.91265" lon="11.13860"><ele>547</ele></trkpt>
<trkpt lat="48.91271" lon="11.13804"><ele>546</ele></trkpt>
<trkpt lat="48.91270" lon="11.13774"><ele>546</ele></trkpt>
<trkpt lat="48.91226" lon="11.13303"><ele>542</ele></trkpt>
<trkpt lat="48.91227" lon="11.13279"><ele>542</ele></trkpt>
<trkpt lat="48.91244" lon="11.13203"><ele>542</ele></trkpt>
<trkpt lat="48.91244" lon="11.13190"><ele>542</ele></trkpt>
<trkpt lat="48.91290" lon="11.13170"><ele>540</ele></trkpt>
<trkpt lat="48.91310" lon="11.13165"><ele>540</ele></trkpt>
<trkpt lat="48.91330" lon="11.13171"><ele>540</ele></trkpt>
<trkpt lat="48.91339" lon="11.13110"><ele>540</ele></trkpt>
<trkpt lat="48.91332" lon="11.13060"><ele>541</ele></trkpt>
<trkpt lat="48.91334" lon="11.13046"><ele>541</ele></trkpt>
<trkpt lat="48.91339" lon="11.13035"><ele>541</ele></trkpt>
<trkpt lat="48.91338" lon="11.13009"><ele>541</ele></trkpt>
<trkpt lat="48.91322" lon="11.12898"><ele>540</ele></trkpt>
<trkpt lat="48.91329" lon="11.12774"><ele>541</ele></trkpt>
<trkpt lat="48.91334" lon="11.12758"><ele>541</ele></trkpt>
<trkpt lat="48.91365" lon="11.12738"><ele>543</ele></trkpt>
<trkpt lat="48.91367" lon="11.12723"><ele>543</ele></trkpt>
<trkpt lat="48.91294" lon="11.12400"><ele>547</ele></trkpt>
<trkpt lat="48.91267" lon="11.12302"><ele>548</ele></trkpt>
<trkpt lat="48.91295" lon="11.12287"><ele>547</ele></trkpt>
<trkpt lat="48.91287" lon="11.12255"><ele>548</ele></trkpt>
<trkpt lat="48.91275" lon="11.12177"><ele>548</ele></trkpt>
<trkpt lat="48.91260" lon="11.12113"><ele>548</ele></trkpt>
<trkpt lat="48.91257" lon="11.12082"><ele>547</ele></trkpt>
<trkpt lat="48.91259" lon="11.12009"><ele>546</ele></trkpt>
<trkpt lat="48.91251" lon="11.11928"><ele>546</ele></trkpt>
<trkpt lat="48.91253" lon="11.11864"><ele>545</ele></trkpt>
<trkpt lat="48.91251" lon="11.11831"><ele>545</ele></trkpt>
<trkpt lat="48.91237" lon="11.11742"><ele>545</ele></trkpt>
<trkpt lat="48.91233" lon="11.11676"><ele>544</ele></trkpt>
<trkpt lat="48.91240" lon="11.11529"><ele>542</ele></trkpt>
<trkpt lat="48.91242" lon="11.11346"><ele>542</ele></trkpt>
<trkpt lat="48.91261" lon="11.11060"><ele>541</ele></trkpt>
<trkpt lat="48.91272" lon="11.10895"><ele>539</ele></trkpt>
<trkpt lat="48.91295" lon="11.10758"><ele>534</ele></trkpt>
<trkpt lat="48.91299" lon="11.10712"><ele>533</ele></trkpt>
<trkpt lat="48.91287" lon="11.10616"><ele>530</ele></trkpt>
<trkpt lat="48.91268" lon="11.10540"><ele>530</ele></trkpt>
<trkpt lat="48.91245" lon="11.10202"><ele>527</ele></trkpt>
<trkpt lat="48.91242" lon="11.10084"><ele>526</ele></trkpt>
<trkpt lat="48.91244" lon="11.10041"><ele>525</ele></trkpt>
<trkpt lat="48.91259" lon="11.09969"><ele>525</ele></trkpt>
<trkpt lat="48.91258" lon="11.09938"><ele>524</ele></trkpt>
<trkpt lat="48.91254" lon="11.09907"><ele>524</ele></trkpt>
<trkpt lat="48.91242" lon="11.09860"><ele>523</ele></trkpt>
<trkpt lat="48.91227" lon="11.09822"><ele>521</ele></trkpt>
<trkpt lat="48.91183" lon="11.09724"><ele>522</ele></trkpt>
<trkpt lat="48.91166" lon="11.09669"><ele>521</ele></trkpt>
<trkpt lat="48.91123" lon="11.09590"><ele>518</ele></trkpt>
<trkpt lat="48.91131" lon="11.09578"><ele>519</ele></trkpt>
<trkpt lat="48.91166" lon="11.09560"><ele>522</ele></trkpt>
<trkpt lat="48.91233" lon="11.09502"><ele>526</ele></trkpt>
<trkpt lat="48.91260" lon="11.09466"><ele>527</ele></trkpt>
<trkpt lat="48.91322" lon="11.09345"><ele>533</ele></trkpt>
<trkpt lat="48.91415" lon="11.09241"><ele>543</ele></trkpt>
<trkpt lat="48.91522" lon="11.09148"><ele>550</ele></trkpt>
<trkpt lat="48.91539" lon="11.09129"><ele>551</ele></trkpt>
<trkpt lat="48.91596" lon="11.09042"><ele>554</ele></trkpt>
<trkpt lat="48.91647" lon="11.08973"><ele>555</ele></trkpt>
<trkpt lat="48.91731" lon="11.08873"><ele>557</ele></trkpt>
<trkpt lat="48.91743" lon="11.08869"><ele>557</ele></trkpt>
<trkpt lat="48.91785" lon="11.08880"><ele>558</ele></trkpt>
<trkpt lat="48.91846" lon="11.08770"><ele>559</ele></trkpt>
<trkpt lat="48.91544" lon="11.08157"><ele>544</ele></trkpt>
<trkpt lat="48.91437" lon="11.07898"><ele>548</ele></trkpt>
<trkpt lat="48.91236" lon="11.07585"><ele>554</ele></trkpt>
<trkpt lat="48.91187" lon="11.07487"><ele>554</ele></trkpt>
<trkpt lat="48.91127" lon="11.07321"><ele>554</ele></trkpt>
<trkpt lat="48.91094" lon="11.07245"><ele>553</ele></trkpt>
<trkpt lat="48.91099" lon="11.07216"><ele>553</ele></trkpt>
<trkpt lat="48.91180" lon="11.06909"><ele>550</ele></trkpt>
<trkpt lat="48.91191" lon="11.06879"><ele>551</ele></trkpt>
<trkpt lat="48.91128" lon="11.06805"><ele>548</ele></trkpt>
<trkpt lat="48.91116" lon="11.06762"><ele>547</ele></trkpt>
<trkpt lat="48.91115" lon="11.06748"><ele>547</ele></trkpt>
<trkpt lat="48.91169" lon="11.06496"><ele>546</ele></trkpt>
<trkpt lat="48.91172" lon="11.06468"><ele>546</ele></trkpt>
<trkpt lat="48.91175" lon="11.06308"><ele>544</ele></trkpt>
<trkpt lat="48.91179" lon="11.06235"><ele>543</ele></trkpt>
<trkpt lat="48.91188" lon="11.06143"><ele>542</ele></trkpt>
<trkpt lat="48.91189" lon="11.06098"><ele>542</ele></trkpt>
<trkpt lat="48.91181" lon="11.06078"><ele>541</ele></trkpt>
<trkpt lat="48.91163" lon="11.06053"><ele>540</ele></trkpt>
<trkpt lat="48.91141" lon="11.06048"><ele>538</ele></trkpt>
<trkpt lat="48.91112" lon="11.06065"><ele>537</ele></trkpt>
<trkpt lat="48.91055" lon="11.06111"><ele>535</ele></trkpt>
<trkpt lat="48.91001" lon="11.06135"><ele>537</ele></trkpt>
<trkpt lat="48.90983" lon="11.06141"><ele>537</ele></trkpt>
<trkpt lat="48.90837" lon="11.06155"><ele>524</ele></trkpt>
<trkpt lat="48.90610" lon="11.05700"><ele>542</ele></trkpt>
<trkpt lat="48.90594" lon="11.05676"><ele>542</ele></trkpt>
<trkpt lat="48.90459" lon="11.05512"><ele>541</ele></trkpt>
<trkpt lat="48.90328" lon="11.05371"><ele>536</ele></trkpt>
<trkpt lat="48.90199" lon="11.05247"><ele>521</ele></trkpt>
<trkpt lat="48.89964" lon="11.05050"><ele>496</ele></trkpt>
<trkpt lat="48.89881" lon="11.04987"><ele>492</ele></trkpt>
<trkpt lat="48.89882" lon="11.04944"><ele>490</ele></trkpt>
<trkpt lat="48.89956" lon="11.04738"><ele>480</ele></trkpt>
<trkpt lat="48.89967" lon="11.04692"><ele>476</ele></trkpt>
<trkpt lat="48.89974" lon="11.04653"><ele>472</ele></trkpt>
<trkpt lat="48.89977" lon="11.04602"><ele>470</ele></trkpt>
<trkpt lat="48.89982" lon="11.04580"><ele>470</ele></trkpt>
<trkpt lat="48.89990" lon="11.04562"><ele>468</ele></trkpt>
<trkpt lat="48.90022" lon="11.04520"><ele>461</ele></trkpt>
<trkpt lat="48.90048" lon="11.04511"><ele>459</ele></trkpt>
<trkpt lat="48.90068" lon="11.04513"><ele>458</ele></trkpt>
<trkpt lat="48.90096" lon="11.04527"><ele>458</ele></trkpt>
<trkpt lat="48.90109" lon="11.04526"><ele>459</ele></trkpt>
<trkpt lat="48.90149" lon="11.04511"><ele>460</ele></trkpt>
<trkpt lat="48.90178" lon="11.04517"><ele>460</ele></trkpt>
<trkpt lat="48.90190" lon="11.04515"><ele>460</ele></trkpt>
<trkpt lat="48.90205" lon="11.04494"><ele>462</ele></trkpt>
<trkpt lat="48.90210" lon="11.04464"><ele>464</ele></trkpt>
<trkpt lat="48.90212" lon="11.04414"><ele>466</ele></trkpt>
<trkpt lat="48.90216" lon="11.04395"><ele>466</ele></trkpt>
<trkpt lat="48.90280" lon="11.04269"><ele>472</ele></trkpt>
<trkpt lat="48.90275" lon="11.04244"><ele>474</ele></trkpt>
<trkpt lat="48.90266" lon="11.04220"><ele>477</ele></trkpt>
<trkpt lat="48.90254" lon="11.04208"><ele>479</ele></trkpt>
<trkpt lat="48.90241" lon="11.04206"><ele>481</ele></trkpt>
<trkpt lat="48.90229" lon="11.04214"><ele>482</ele></trkpt>
<trkpt lat="48.90209" lon="11.04254"><ele>484</ele></trkpt>
<trkpt lat="48.90196" lon="11.04255"><ele>486</ele></trkpt>
<trkpt lat="48.90193" lon="11.04244"><ele>487</ele></trkpt>
<trkpt lat="48.90192" lon="11.04226"><ele>488</ele></trkpt>
<trkpt lat="48.90196" lon="11.04206"><ele>489</ele></trkpt>
<trkpt lat="48.90221" lon="11.04177"><ele>489</ele></trkpt>
<trkpt lat="48.90260" lon="11.04099"><ele>498</ele></trkpt>
<trkpt lat="48.90309" lon="11.04058"><ele>505</ele></trkpt>
<trkpt lat="48.90345" lon="11.04005"><ele>512</ele></trkpt>
<trkpt lat="48.90374" lon="11.03952"><ele>516</ele></trkpt>
<trkpt lat="48.90379" lon="11.03926"><ele>516</ele></trkpt>
<trkpt lat="48.90378" lon="11.03903"><ele>517</ele></trkpt>
<trkpt lat="48.90285" lon="11.03860"><ele>514</ele></trkpt>
<trkpt lat="48.90158" lon="11.03809"><ele>505</ele></trkpt>
<trkpt lat="48.90139" lon="11.03793"><ele>503</ele></trkpt>
<trkpt lat="48.90116" lon="11.03767"><ele>501</ele></trkpt>
<trkpt lat="48.90109" lon="11.03740"><ele>502</ele></trkpt>
<trkpt lat="48.90112" lon="11.03711"><ele>503</ele></trkpt>
<trkpt lat="48.90207" lon="11.03186"><ele>503</ele></trkpt>
<trkpt lat="48.90151" lon="11.03175"><ele>502</ele></trkpt>
<trkpt lat="48.90116" lon="11.03161"><ele>501</ele></trkpt>
<trkpt lat="48.90035" lon="11.03120"><ele>501</ele></trkpt>
<trkpt lat="48.89970" lon="11.03076"><ele>500</ele></trkpt>
<trkpt lat="48.89994" lon="11.02928"><ele>498</ele></trkpt>
<trkpt lat="48.89998" lon="11.02878"><ele>496</ele></trkpt>
<trkpt lat="48.89998" lon="11.02785"><ele>495</ele></trkpt>
<trkpt lat="48.89988" lon="11.02197"><ele>485</ele></trkpt>
<trkpt lat="48.89986" lon="11.02171"><ele>484</ele></trkpt>
<trkpt lat="48.89976" lon="11.02118"><ele>482</ele></trkpt>
<trkpt lat="48.89956" lon="11.02060"><ele>476</ele></trkpt>
<trkpt lat="48.89956" lon="11.02006"><ele>471</ele></trkpt>
<trkpt lat="48.89937" lon="11.01993"><ele>470</ele></trkpt>
<trkpt lat="48.89881" lon="11.01939"><ele>466</ele></trkpt>
<trkpt lat="48.89845" lon="11.01864"><ele>464</ele></trkpt>
<trkpt lat="48.89805" lon="11.01803"><ele>461</ele></trkpt>
<trkpt lat="48.89763" lon="11.01768"><ele>460</ele></trkpt>
<trkpt lat="48.89726" lon="11.01729"><ele>458</ele></trkpt>
<trkpt lat="48.89691" lon="11.01700"><ele>454</ele></trkpt>
<trkpt lat="48.89662" lon="11.01700"><ele>452</ele></trkpt>
<trkpt lat="48.89612" lon="11.01728"><ele>450</ele></trkpt>
<trkpt lat="48.89578" lon="11.01788"><ele>447</ele></trkpt>
<trkpt lat="48.89525" lon="11.01849"><ele>444</ele></trkpt>
<trkpt lat="48.89504" lon="11.01861"><ele>443</ele></trkpt>
<trkpt lat="48.89457" lon="11.01871"><ele>443</ele></trkpt>
<trkpt lat="48.89407" lon="11.01896"><ele>440</ele></trkpt>
<trkpt lat="48.89386" lon="11.01901"><ele>440</ele></trkpt>
<trkpt lat="48.89372" lon="11.01899"><ele>438</ele></trkpt>
<trkpt lat="48.89390" lon="11.01868"><ele>439</ele></trkpt>
<trkpt lat="48.89405" lon="11.01818"><ele>444</ele></trkpt>
<trkpt lat="48.89415" lon="11.01796"><ele>446</ele></trkpt>
<trkpt lat="48.89433" lon="11.01780"><ele>448</ele></trkpt>
<trkpt lat="48.89490" lon="11.01749"><ele>455</ele></trkpt>
<trkpt lat="48.89520" lon="11.01694"><ele>460</ele></trkpt>
<trkpt lat="48.89550" lon="11.01664"><ele>460</ele></trkpt>
<trkpt lat="48.89590" lon="11.01597"><ele>463</ele></trkpt>
<trkpt lat="48.89600" lon="11.01586"><ele>464</ele></trkpt>
<trkpt lat="48.89622" lon="11.01575"><ele>465</ele></trkpt>
<trkpt lat="48.89679" lon="11.01553"><ele>470</ele></trkpt>
<trkpt lat="48.89694" lon="11.01540"><ele>472</ele></trkpt>
<trkpt lat="48.89699" lon="11.01524"><ele>474</ele></trkpt>
<trkpt lat="48.89708" lon="11.01453"><ele>476</ele></trkpt>
<trkpt lat="48.89717" lon="11.01241"><ele>478</ele></trkpt>
<trkpt lat="48.89721" lon="11.01060"><ele>476</ele></trkpt>
<trkpt lat="48.89713" lon="11.00942"><ele>474</ele></trkpt>
<trkpt lat="48.89710" lon="11.00773"><ele>471</ele></trkpt>
<trkpt lat="48.89705" lon="11.00723"><ele>468</ele></trkpt>
<trkpt lat="48.89683" lon="11.00624"><ele>464</ele></trkpt>
<trkpt lat="48.89635" lon="11.00472"><ele>458</ele></trkpt>
<trkpt lat="48.89629" lon="11.00412"><ele>452</ele></trkpt>
<trkpt lat="48.89631" lon="11.00337"><ele>452</ele></trkpt>
<trkpt lat="48.89630" lon="11.00312"><ele>454</ele></trkpt>
<trkpt lat="48.89624" lon="11.00287"><ele>455</ele></trkpt>
<trkpt lat="48.89611" lon="11.00256"><ele>456</ele></trkpt>
<trkpt lat="48.89612" lon="11.00241"><ele>458</ele></trkpt>
<trkpt lat="48.89580" lon="11.00213"><ele>456</ele></trkpt>
<trkpt lat="48.89562" lon="11.00185"><ele>455</ele></trkpt>
<trkpt lat="48.89535" lon="11.00087"><ele>454</ele></trkpt>
<trkpt lat="48.89529" lon="11.00038"><ele>452</ele></trkpt>
<trkpt lat="48.89523" lon="10.99932"><ele>448</ele></trkpt>
<trkpt lat="48.89517" lon="10.99907"><ele>448</ele></trkpt>
<trkpt lat="48.89494" lon="10.99865"><ele>444</ele></trkpt>
<trkpt lat="48.89484" lon="10.99835"><ele>443</ele></trkpt>
<trkpt lat="48.89502" lon="10.99804"><ele>444</ele></trkpt>
<trkpt lat="48.89507" lon="10.99786"><ele>445</ele></trkpt>
<trkpt lat="48.89520" lon="10.99599"><ele>442</ele></trkpt>
<trkpt lat="48.89585" lon="10.99602"><ele>448</ele></trkpt>
<trkpt lat="48.89645" lon="10.99617"><ele>453</ele></trkpt>
<trkpt lat="48.89659" lon="10.99609"><ele>454</ele></trkpt>
<trkpt lat="48.89606" lon="10.99518"><ele>448</ele></trkpt>
<trkpt lat="48.89579" lon="10.99459"><ele>445</ele></trkpt>
<trkpt lat="48.89538" lon="10.99334"><ele>439</ele></trkpt>
<trkpt lat="48.89520" lon="10.99308"><ele>436</ele></trkpt>
<trkpt lat="48.89528" lon="10.99289"><ele>436</ele></trkpt>
<trkpt lat="48.89519" lon="10.99272"><ele>434</ele></trkpt>
<trkpt lat="48.89517" lon="10.99259"><ele>433</ele></trkpt>
<trkpt lat="48.89517" lon="10.99245"><ele>432</ele></trkpt>
<trkpt lat="48.89528" lon="10.99200"><ele>428</ele></trkpt>
<trkpt lat="48.89537" lon="10.99176"><ele>425</ele></trkpt>
<trkpt lat="48.89588" lon="10.99120"><ele>415</ele></trkpt>
<trkpt lat="48.89595" lon="10.99110"><ele>414</ele></trkpt>
<trkpt lat="48.89599" lon="10.99102"><ele>413</ele></trkpt>
<trkpt lat="48.89596" lon="10.99101"><ele>412</ele></trkpt>
<trkpt lat="48.89600" lon="10.99094"><ele>412</ele></trkpt>
<trkpt lat="48.89665" lon="10.99082"><ele>409</ele></trkpt>
<trkpt lat="48.89744" lon="10.99105"><ele>406</ele></trkpt>
<trkpt lat="48.89786" lon="10.99124"><ele>405</ele></trkpt>
<trkpt lat="48.89874" lon="10.99185"><ele>403</ele></trkpt>
<trkpt lat="48.89896" lon="10.99205"><ele>403</ele></trkpt>
<trkpt lat="48.89963" lon="10.99277"><ele>403</ele></trkpt>
<trkpt lat="48.90044" lon="10.99382"><ele>407</ele></trkpt>
<trkpt lat="48.90077" lon="10.99405"><ele>406</ele></trkpt>
<trkpt lat="48.90175" lon="10.99444"><ele>403</ele></trkpt>
<trkpt lat="48.90246" lon="10.99468"><ele>404</ele></trkpt>
<trkpt lat="48.90296" lon="10.99480"><ele>403</ele></trkpt>
<trkpt lat="48.90324" lon="10.99484"><ele>404</ele></trkpt>
<trkpt lat="48.90349" lon="10.99483"><ele>405</ele></trkpt>
<trkpt lat="48.90445" lon="10.99463"><ele>403</ele></trkpt>
<trkpt lat="48.90473" lon="10.99449"><ele>403</ele></trkpt>
<trkpt lat="48.90527" lon="10.99408"><ele>403</ele></trkpt>
<trkpt lat="48.90592" lon="10.99388"><ele>404</ele></trkpt>
<trkpt lat="48.90619" lon="10.99362"><ele>404</ele></trkpt>
<trkpt lat="48.90677" lon="10.99288"><ele>404</ele></trkpt>
<trkpt lat="48.90752" lon="10.99181"><ele>404</ele></trkpt>
<trkpt lat="48.90754" lon="10.99142"><ele>402</ele></trkpt>
<trkpt lat="48.90808" lon="10.98964"><ele>402</ele></trkpt>
<trkpt lat="48.90820" lon="10.98903"><ele>402</ele></trkpt>
<trkpt lat="48.90828" lon="10.98820"><ele>403</ele></trkpt>
<trkpt lat="48.90836" lon="10.98799"><ele>403</ele></trkpt>
<trkpt lat="48.91115" lon="10.98569"><ele>404</ele></trkpt>
<trkpt lat="48.91125" lon="10.98556"><ele>404</ele></trkpt>
<trkpt lat="48.91148" lon="10.98509"><ele>403</ele></trkpt>
<trkpt lat="48.91170" lon="10.98485"><ele>404</ele></trkpt>
<trkpt lat="48.91220" lon="10.98456"><ele>402</ele></trkpt>
<trkpt lat="48.91309" lon="10.98430"><ele>402</ele></trkpt>
<trkpt lat="48.91393" lon="10.98419"><ele>403</ele></trkpt>
<trkpt lat="48.91498" lon="10.98412"><ele>404</ele></trkpt>
<trkpt lat="48.91616" lon="10.98414"><ele>403</ele></trkpt>
<trkpt lat="48.91748" lon="10.98442"><ele>405</ele></trkpt>
<trkpt lat="48.91769" lon="10.98443"><ele>405</ele></trkpt>
<trkpt lat="48.91838" lon="10.98432"><ele>406</ele></trkpt>
<trkpt lat="48.91900" lon="10.98408"><ele>405</ele></trkpt>
<trkpt lat="48.91959" lon="10.98374"><ele>405</ele></trkpt>
<trkpt lat="48.92019" lon="10.98322"><ele>405</ele></trkpt>
<trkpt lat="48.92073" lon="10.98261"><ele>404</ele></trkpt>
<trkpt lat="48.92079" lon="10.98257"><ele>404</ele></trkpt>
<trkpt lat="48.92088" lon="10.98262"><ele>404</ele></trkpt>
<trkpt lat="48.92104" lon="10.98283"><ele>404</ele></trkpt>
<trkpt lat="48.92219" lon="10.98368"><ele>402</ele></trkpt>
<trkpt lat="48.92241" lon="10.98395"><ele>402</ele></trkpt>
<trkpt lat="48.92253" lon="10.98417"><ele>403</ele></trkpt>
<trkpt lat="48.92269" lon="10.98455"><ele>404</ele></trkpt>
<trkpt lat="48.92280" lon="10.98474"><ele>403</ele></trkpt>
<trkpt lat="48.92311" lon="10.98509"><ele>404</ele></trkpt>
<trkpt lat="48.92367" lon="10.98608"><ele>403</ele></trkpt>
<trkpt lat="48.92380" lon="10.98655"><ele>402</ele></trkpt>
<trkpt lat="48.92382" lon="10.98682"><ele>404</ele></trkpt>
<trkpt lat="48.92408" lon="10.98719"><ele>405</ele></trkpt>
<trkpt lat="48.92406" lon="10.98772"><ele>407</ele></trkpt>
<trkpt lat="48.92408" lon="10.98787"><ele>408</ele></trkpt>
<trkpt lat="48.92437" lon="10.98769"><ele>406</ele></trkpt>
<trkpt lat="48.92496" lon="10.98751"><ele>405</ele></trkpt>
<trkpt lat="48.92515" lon="10.98736"><ele>405</ele></trkpt>
<trkpt lat="48.92536" lon="10.98709"><ele>404</ele></trkpt>
<trkpt lat="48.92546" lon="10.98687"><ele>404</ele></trkpt>
<trkpt lat="48.92593" lon="10.98559"><ele>405</ele></trkpt>
<trkpt lat="48.92607" lon="10.98571"><ele>405</ele></trkpt>
<trkpt lat="48.92625" lon="10.98530"><ele>405</ele></trkpt>
<trkpt lat="48.92632" lon="10.98490"><ele>405</ele></trkpt>
<trkpt lat="48.92632" lon="10.98406"><ele>405</ele></trkpt>
<trkpt lat="48.92654" lon="10.98393"><ele>405</ele></trkpt>
<trkpt lat="48.92653" lon="10.98373"><ele>405</ele></trkpt>
<trkpt lat="48.92669" lon="10.98325"><ele>406</ele></trkpt>
<trkpt lat="48.92689" lon="10.98232"><ele>408</ele></trkpt>
<trkpt lat="48.92697" lon="10.98207"><ele>410</ele></trkpt>
<trkpt lat="48.92718" lon="10.98158"><ele>415</ele></trkpt>
<trkpt lat="48.92718" lon="10.98054"><ele>425</ele></trkpt>
<trkpt lat="48.92726" lon="10.97961"><ele>434</ele></trkpt>
<trkpt lat="48.92710" lon="10.97643"><ele>456</ele></trkpt>
<trkpt lat="48.92710" lon="10.97591"><ele>459</ele></trkpt>
<trkpt lat="48.92713" lon="10.97571"><ele>460</ele></trkpt>
<trkpt lat="48.92720" lon="10.97565"><ele>460</ele></trkpt>
<trkpt lat="48.92739" lon="10.97564"><ele>458</ele></trkpt>
<trkpt lat="48.92848" lon="10.97593"><ele>446</ele></trkpt>
<trkpt lat="48.92908" lon="10.97618"><ele>436</ele></trkpt>
<trkpt lat="48.92959" lon="10.97662"><ele>431</ele></trkpt>
<trkpt lat="48.92989" lon="10.97699"><ele>429</ele></trkpt>
<trkpt lat="48.93045" lon="10.97749"><ele>428</ele></trkpt>
<trkpt lat="48.93142" lon="10.97831"><ele>425</ele></trkpt>
<trkpt lat="48.93222" lon="10.97893"><ele>421</ele></trkpt>
<trkpt lat="48.93342" lon="10.97961"><ele>415</ele></trkpt>
<trkpt lat="48.93462" lon="10.98014"><ele>415</ele></trkpt>
<trkpt lat="48.93516" lon="10.97847"><ele>410</ele></trkpt>
<trkpt lat="48.93549" lon="10.97711"><ele>407</ele></trkpt>
<trkpt lat="48.93590" lon="10.97642"><ele>407</ele></trkpt>
<trkpt lat="48.93597" lon="10.97596"><ele>408</ele></trkpt>
<trkpt lat="48.93598" lon="10.97564"><ele>408</ele></trkpt>
<trkpt lat="48.93597" lon="10.97510"><ele>407</ele></trkpt>
<trkpt lat="48.93591" lon="10.97466"><ele>408</ele></trkpt>
<trkpt lat="48.93520" lon="10.97462"><ele>405</ele></trkpt>
<trkpt lat="48.93488" lon="10.97452"><ele>407</ele></trkpt>
<trkpt lat="48.93486" lon="10.97429"><ele>407</ele></trkpt>
<trkpt lat="48.93481" lon="10.97414"><ele>407</ele></trkpt>
<trkpt lat="48.93474" lon="10.97409"><ele>407</ele></trkpt>
<trkpt lat="48.93433" lon="10.97411"><ele>408</ele></trkpt>
<trkpt lat="48.93375" lon="10.97395"><ele>407</ele></trkpt>
<trkpt lat="48.93365" lon="10.97481"><ele>406</ele></trkpt>
<trkpt lat="48.93449" lon="10.97490"><ele>407</ele></trkpt>
<trkpt lat="48.93470" lon="10.97483"><ele>406</ele></trkpt>
<trkpt lat="48.93486" lon="10.97462"><ele>406</ele></trkpt>
<trkpt lat="48.93488" lon="10.97437"><ele>407</ele></trkpt>
<trkpt lat="48.93483" lon="10.97418"><ele>407</ele></trkpt>
<trkpt lat="48.93478" lon="10.97411"><ele>407</ele></trkpt>
<trkpt lat="48.93480" lon="10.97375"><ele>408</ele></trkpt>
<trkpt lat="48.93475" lon="10.97327"><ele>408</ele></trkpt>
<trkpt lat="48.93477" lon="10.97320"><ele>408</ele></trkpt>
<trkpt lat="48.93473" lon="10.97291"><ele>408</ele></trkpt>
<trkpt lat="48.93496" lon="10.97272"><ele>407</ele></trkpt>
<trkpt lat="48.93509" lon="10.97254"><ele>406</ele></trkpt>
<trkpt lat="48.93500" lon="10.97228"><ele>406</ele></trkpt>
<trkpt lat="48.93472" lon="10.97171"><ele>406</ele></trkpt>
<trkpt lat="48.93448" lon="10.97100"><ele>406</ele></trkpt>
<trkpt lat="48.93437" lon="10.97064"><ele>405</ele></trkpt>
<trkpt lat="48.93432" lon="10.97015"><ele>405</ele></trkpt>
<trkpt lat="48.93437" lon="10.96999"><ele>404</ele></trkpt>
<trkpt lat="48.93465" lon="10.96953"><ele>406</ele></trkpt>
<trkpt lat="48.93508" lon="10.96892"><ele>406</ele></trkpt>
<trkpt lat="48.93534" lon="10.96862"><ele>408</ele></trkpt>
<trkpt lat="48.93478" lon="10.96716"><ele>408</ele></trkpt>
<trkpt lat="48.93414" lon="10.96569"><ele>411</ele></trkpt>
<trkpt lat="48.93408" lon="10.96551"><ele>411</ele></trkpt>
<trkpt lat="48.93409" lon="10.96541"><ele>411</ele></trkpt>
<trkpt lat="48.93399" lon="10.96540"><ele>411</ele></trkpt>
<trkpt lat="48.93357" lon="10.96575"><ele>408</ele></trkpt>
<trkpt lat="48.93341" lon="10.96553"><ele>408</ele></trkpt>
<trkpt lat="48.93334" lon="10.96555"><ele>407</ele></trkpt>
<trkpt lat="48.93317" lon="10.96572"><ele>406</ele></trkpt>
<trkpt lat="48.93306" lon="10.96573"><ele>406</ele></trkpt>
<trkpt lat="48.93235" lon="10.96418"><ele>406</ele></trkpt>
<trkpt lat="48.93200" lon="10.96334"><ele>406</ele></trkpt>
<trkpt lat="48.93174" lon="10.96229"><ele>406</ele></trkpt>
<trkpt lat="48.93130" lon="10.96116"><ele>406</ele></trkpt>
<trkpt lat="48.93091" lon="10.95948"><ele>406</ele></trkpt>
<trkpt lat="48.93079" lon="10.95835"><ele>406</ele></trkpt>
<trkpt lat="48.93080" lon="10.95813"><ele>406</ele></trkpt>
<trkpt lat="48.93110" lon="10.95663"><ele>406</ele></trkpt>
<trkpt lat="48.93131" lon="10.95618"><ele>407</ele></trkpt>
<trkpt lat="48.93138" lon="10.95609"><ele>407</ele></trkpt>
<trkpt lat="48.93217" lon="10.95552"><ele>408</ele></trkpt>
<trkpt lat="48.93247" lon="10.95541"><ele>408</ele></trkpt>
<trkpt lat="48.93334" lon="10.95522"><ele>408</ele></trkpt>
<trkpt lat="48.93396" lon="10.95524"><ele>411</ele></trkpt>
<trkpt lat="48.93582" lon="10.95504"><ele>411</ele></trkpt>
<trkpt lat="48.93632" lon="10.95489"><ele>411</ele></trkpt>
<trkpt lat="48.93711" lon="10.95457"><ele>410</ele></trkpt>
<trkpt lat="48.93761" lon="10.95431"><ele>411</ele></trkpt>
<trkpt lat="48.93812" lon="10.95380"><ele>411</ele></trkpt>
<trkpt lat="48.93903" lon="10.95246"><ele>411</ele></trkpt>
<trkpt lat="48.93929" lon="10.95195"><ele>413</ele></trkpt>
<trkpt lat="48.93944" lon="10.95139"><ele>412</ele></trkpt>
<trkpt lat="48.93952" lon="10.95102"><ele>413</ele></trkpt>
<trkpt lat="48.93957" lon="10.95055"><ele>414</ele></trkpt>
<trkpt lat="48.93954" lon="10.94967"><ele>413</ele></trkpt>
<trkpt lat="48.93948" lon="10.94900"><ele>412</ele></trkpt>
<trkpt lat="48.93938" lon="10.94891"><ele>410</ele></trkpt>
<trkpt lat="48.93916" lon="10.94883"><ele>407</ele></trkpt>
<trkpt lat="48.93886" lon="10.94825"><ele>406</ele></trkpt>
<trkpt lat="48.93789" lon="10.94727"><ele>406</ele></trkpt>
<trkpt lat="48.93741" lon="10.94651"><ele>406</ele></trkpt>
<trkpt lat="48.93702" lon="10.94606"><ele>406</ele></trkpt>
<trkpt lat="48.93686" lon="10.94585"><ele>406</ele></trkpt>
<trkpt lat="48.93683" lon="10.94574"><ele>406</ele></trkpt>
<trkpt lat="48.93681" lon="10.94401"><ele>410</ele></trkpt>
<trkpt lat="48.93677" lon="10.94350"><ele>410</ele></trkpt>
<trkpt lat="48.93637" lon="10.94061"><ele>414</ele></trkpt>
<trkpt lat="48.93610" lon="10.93921"><ele>415</ele></trkpt>
<trkpt lat="48.93577" lon="10.93668"><ele>413</ele></trkpt>
<trkpt lat="48.93580" lon="10.93594"><ele>411</ele></trkpt>
<trkpt lat="48.93595" lon="10.93437"><ele>410</ele></trkpt>
<trkpt lat="48.93609" lon="10.93367"><ele>408</ele></trkpt>
<trkpt lat="48.93649" lon="10.93230"><ele>410</ele></trkpt>
<trkpt lat="48.93674" lon="10.93154"><ele>408</ele></trkpt>
<trkpt lat="48.93685" lon="10.93134"><ele>408</ele></trkpt>
<trkpt lat="48.93701" lon="10.93121"><ele>408</ele></trkpt>
<trkpt lat="48.93712" lon="10.93124"><ele>407</ele></trkpt>
<trkpt lat="48.93744" lon="10.93162"><ele>408</ele></trkpt>
<trkpt lat="48.93886" lon="10.93276"><ele>408</ele></trkpt>
<trkpt lat="48.93993" lon="10.93377"><ele>410</ele></trkpt>
<trkpt lat="48.94094" lon="10.93459"><ele>410</ele></trkpt>
<trkpt lat="48.94138" lon="10.93488"><ele>410</ele></trkpt>
<trkpt lat="48.94194" lon="10.93517"><ele>410</ele></trkpt>
<trkpt lat="48.94272" lon="10.93539"><ele>410</ele></trkpt>
<trkpt lat="48.94322" lon="10.93525"><ele>409</ele></trkpt>
<trkpt lat="48.94334" lon="10.93517"><ele>408</ele></trkpt>
<trkpt lat="48.94358" lon="10.93487"><ele>409</ele></trkpt>
<trkpt lat="48.94387" lon="10.93442"><ele>409</ele></trkpt>
<trkpt lat="48.94400" lon="10.93414"><ele>409</ele></trkpt>
<trkpt lat="48.94458" lon="10.93447"><ele>410</ele></trkpt>
<trkpt lat="48.94532" lon="10.93469"><ele>413</ele></trkpt>
<trkpt lat="48.94563" lon="10.93474"><ele>413</ele></trkpt>
<trkpt lat="48.94661" lon="10.93473"><ele>414</ele></trkpt>
<trkpt lat="48.94685" lon="10.93468"><ele>413</ele></trkpt>
<trkpt lat="48.94690" lon="10.93456"><ele>412</ele></trkpt>
<trkpt lat="48.94711" lon="10.93308"><ele>408</ele></trkpt>
<trkpt lat="48.94725" lon="10.93232"><ele>408</ele></trkpt>
<trkpt lat="48.94768" lon="10.93058"><ele>408</ele></trkpt>
<trkpt lat="48.94842" lon="10.92715"><ele>408</ele></trkpt>
<trkpt lat="48.94841" lon="10.92700"><ele>408</ele></trkpt>
<trkpt lat="48.94831" lon="10.92679"><ele>408</ele></trkpt>
<trkpt lat="48.94742" lon="10.92605"><ele>408</ele></trkpt>
<trkpt lat="48.94630" lon="10.92531"><ele>408</ele></trkpt>
<trkpt lat="48.94623" lon="10.92509"><ele>407</ele></trkpt>
<trkpt lat="48.94632" lon="10.92472"><ele>408</ele></trkpt>
<trkpt lat="48.94666" lon="10.92397"><ele>408</ele></trkpt>
<trkpt lat="48.94713" lon="10.92328"><ele>407</ele></trkpt>
<trkpt lat="48.94732" lon="10.92287"><ele>407</ele></trkpt>
<trkpt lat="48.94742" lon="10.92285"><ele>408</ele></trkpt>
<trkpt lat="48.94751" lon="10.92294"><ele>409</ele></trkpt>
<trkpt lat="48.94794" lon="10.92190"><ele>410</ele></trkpt>
<trkpt lat="48.94890" lon="10.91986"><ele>410</ele></trkpt>
<trkpt lat="48.94947" lon="10.91874"><ele>410</ele></trkpt>
<trkpt lat="48.94967" lon="10.91819"><ele>411</ele></trkpt>
<trkpt lat="48.95010" lon="10.91640"><ele>410</ele></trkpt>
<trkpt lat="48.95019" lon="10.91565"><ele>410</ele></trkpt>
<trkpt lat="48.95028" lon="10.91423"><ele>410</ele></trkpt>
<trkpt lat="48.95051" lon="10.91352"><ele>411</ele></trkpt>
<trkpt lat="48.95064" lon="10.91323"><ele>412</ele></trkpt>
<trkpt lat="48.95071" lon="10.91310"><ele>412</ele></trkpt>
<trkpt lat="48.95102" lon="10.91277"><ele>410</ele></trkpt>
<trkpt lat="48.95141" lon="10.91280"><ele>410</ele></trkpt>
<trkpt lat="48.95171" lon="10.91293"><ele>410</ele></trkpt>
<trkpt lat="48.95228" lon="10.91333"><ele>409</ele></trkpt>
<trkpt lat="48.95299" lon="10.91415"><ele>409</ele></trkpt>
<trkpt lat="48.95307" lon="10.91380"><ele>409</ele></trkpt>
<trkpt lat="48.95321" lon="10.91359"><ele>409</ele></trkpt>
<trkpt lat="48.95337" lon="10.91316"><ele>410</ele></trkpt>
<trkpt lat="48.95386" lon="10.91125"><ele>412</ele></trkpt>
<trkpt lat="48.95397" lon="10.91067"><ele>412</ele></trkpt>
<trkpt lat="48.95435" lon="10.91018"><ele>414</ele></trkpt>
<trkpt lat="48.95465" lon="10.90964"><ele>414</ele></trkpt>
<trkpt lat="48.95462" lon="10.90955"><ele>414</ele></trkpt>
<trkpt lat="48.95463" lon="10.90904"><ele>415</ele></trkpt>
<trkpt lat="48.95435" lon="10.90901"><ele>414</ele></trkpt>
<trkpt lat="48.95435" lon="10.90898"><ele>416</ele></trkpt>
    </trkseg>
  </trk>
</gpx>
