<?xml version="1.0" encoding="UTF-8"?>
<gpx version="1.1" creator="Gravel Kompass" xmlns="http://www.topografix.com/GPX/1/1">
  <metadata><name>Altmühltal-Runde: Donau, Kalkfelsen &amp; Fränkisches Seenland – Etappe 1</name></metadata>
  <trk>
    <name>Etappe 1: Ingolstadt – Kelheim</name>
    <trkseg>
<trkpt lat="48.76650" lon="11.42579"><ele>373</ele></trkpt>
<trkpt lat="48.76698" lon="11.42584"><ele>373</ele></trkpt>
<trkpt lat="48.76809" lon="11.42610"><ele>373</ele></trkpt>
<trkpt lat="48.76866" lon="11.42616"><ele>374</ele></trkpt>
<trkpt lat="48.76870" lon="11.42721"><ele>374</ele></trkpt>
<trkpt lat="48.76865" lon="11.42823"><ele>375</ele></trkpt>
<trkpt lat="48.76867" lon="11.42841"><ele>375</ele></trkpt>
<trkpt lat="48.76878" lon="11.42867"><ele>375</ele></trkpt>
<trkpt lat="48.76895" lon="11.42890"><ele>375</ele></trkpt>
<trkpt lat="48.76899" lon="11.42901"><ele>375</ele></trkpt>
<trkpt lat="48.76916" lon="11.42914"><ele>375</ele></trkpt>
<trkpt lat="48.76937" lon="11.42919"><ele>375</ele></trkpt>
<trkpt lat="48.76974" lon="11.42953"><ele>376</ele></trkpt>
<trkpt lat="48.76976" lon="11.42958"><ele>376</ele></trkpt>
<trkpt lat="48.77175" lon="11.43129"><ele>374</ele></trkpt>
<trkpt lat="48.77186" lon="11.43152"><ele>374</ele></trkpt>
<trkpt lat="48.77181" lon="11.43166"><ele>374</ele></trkpt>
<trkpt lat="48.77167" lon="11.43188"><ele>374</ele></trkpt>
<trkpt lat="48.77070" lon="11.43279"><ele>373</ele></trkpt>
<trkpt lat="48.76968" lon="11.43346"><ele>372</ele></trkpt>
<trkpt lat="48.76976" lon="11.43364"><ele>372</ele></trkpt>
<trkpt lat="48.76973" lon="11.43369"><ele>372</ele></trkpt>
<trkpt lat="48.76985" lon="11.43423"><ele>371</ele></trkpt>
<trkpt lat="48.77010" lon="11.43450"><ele>371</ele></trkpt>
<trkpt lat="48.77037" lon="11.43487"><ele>370</ele></trkpt>
<trkpt lat="48.77070" lon="11.43562"><ele>370</ele></trkpt>
<trkpt lat="48.77129" lon="11.43636"><ele>371</ele></trkpt>
<trkpt lat="48.77146" lon="11.43682"><ele>372</ele></trkpt>
<trkpt lat="48.77157" lon="11.43746"><ele>373</ele></trkpt>
<trkpt lat="48.77160" lon="11.43777"><ele>373</ele></trkpt>
<trkpt lat="48.77159" lon="11.43786"><ele>373</ele></trkpt>
<trkpt lat="48.77155" lon="11.43791"><ele>373</ele></trkpt>
<trkpt lat="48.77159" lon="11.43824"><ele>373</ele></trkpt>
<trkpt lat="48.77163" lon="11.43829"><ele>373</ele></trkpt>
<trkpt lat="48.77180" lon="11.43999"><ele>373</ele></trkpt>
<trkpt lat="48.77190" lon="11.44042"><ele>373</ele></trkpt>
<trkpt lat="48.77232" lon="11.44163"><ele>373</ele></trkpt>
<trkpt lat="48.77238" lon="11.44194"><ele>373</ele></trkpt>
<trkpt lat="48.77259" lon="11.44200"><ele>373</ele></trkpt>
<trkpt lat="48.77263" lon="11.44213"><ele>373</ele></trkpt>
<trkpt lat="48.77259" lon="11.44230"><ele>373</ele></trkpt>
<trkpt lat="48.77257" lon="11.44329"><ele>373</ele></trkpt>
<trkpt lat="48.77250" lon="11.44410"><ele>373</ele></trkpt>
<trkpt lat="48.77217" lon="11.44628"><ele>372</ele></trkpt>
<trkpt lat="48.77266" lon="11.44650"><ele>372</ele></trkpt>
<trkpt lat="48.77274" lon="11.45222"><ele>372</ele></trkpt>
<trkpt lat="48.77278" lon="11.45246"><ele>371</ele></trkpt>
<trkpt lat="48.77290" lon="11.45280"><ele>371</ele></trkpt>
<trkpt lat="48.77294" lon="11.45305"><ele>371</ele></trkpt>
<trkpt lat="48.77309" lon="11.45521"><ele>371</ele></trkpt>
<trkpt lat="48.77314" lon="11.45665"><ele>371</ele></trkpt>
<trkpt lat="48.77345" lon="11.45643"><ele>371</ele></trkpt>
<trkpt lat="48.77367" lon="11.45640"><ele>371</ele></trkpt>
<trkpt lat="48.77392" lon="11.45657"><ele>371</ele></trkpt>
<trkpt lat="48.77473" lon="11.45692"><ele>372</ele></trkpt>
<trkpt lat="48.77527" lon="11.45722"><ele>372</ele></trkpt>
<trkpt lat="48.77549" lon="11.45721"><ele>372</ele></trkpt>
<trkpt lat="48.77572" lon="11.45792"><ele>372</ele></trkpt>
<trkpt lat="48.77584" lon="11.45818"><ele>372</ele></trkpt>
<trkpt lat="48.77598" lon="11.45840"><ele>372</ele></trkpt>
<trkpt lat="48.77650" lon="11.45900"><ele>373</ele></trkpt>
<trkpt lat="48.77661" lon="11.45936"><ele>372</ele></trkpt>
<trkpt lat="48.77656" lon="11.45947"><ele>372</ele></trkpt>
<trkpt lat="48.77803" lon="11.45930"><ele>372</ele></trkpt>
<trkpt lat="48.77852" lon="11.45911"><ele>372</ele></trkpt>
<trkpt lat="48.77890" lon="11.45888"><ele>372</ele></trkpt>
<trkpt lat="48.77924" lon="11.45873"><ele>372</ele></trkpt>
<trkpt lat="48.77958" lon="11.45872"><ele>372</ele></trkpt>
<trkpt lat="48.78063" lon="11.45899"><ele>370</ele></trkpt>
<trkpt lat="48.78086" lon="11.45899"><ele>368</ele></trkpt>
<trkpt lat="48.78204" lon="11.45846"><ele>369</ele></trkpt>
<trkpt lat="48.78216" lon="11.45873"><ele>369</ele></trkpt>
<trkpt lat="48.78209" lon="11.45909"><ele>369</ele></trkpt>
<trkpt lat="48.78209" lon="11.45926"><ele>369</ele></trkpt>
<trkpt lat="48.78212" lon="11.45937"><ele>369</ele></trkpt>
<trkpt lat="48.78338" lon="11.46233"><ele>370</ele></trkpt>
<trkpt lat="48.78319" lon="11.46255"><ele>370</ele></trkpt>
<trkpt lat="48.78317" lon="11.46264"><ele>370</ele></trkpt>
<trkpt lat="48.78333" lon="11.46382"><ele>372</ele></trkpt>
<trkpt lat="48.78338" lon="11.46457"><ele>371</ele></trkpt>
<trkpt lat="48.78336" lon="11.46518"><ele>371</ele></trkpt>
<trkpt lat="48.78321" lon="11.46619"><ele>371</ele></trkpt>
<trkpt lat="48.78270" lon="11.46784"><ele>370</ele></trkpt>
<trkpt lat="48.78267" lon="11.46814"><ele>371</ele></trkpt>
<trkpt lat="48.78262" lon="11.46833"><ele>371</ele></trkpt>
<trkpt lat="48.78162" lon="11.47154"><ele>372</ele></trkpt>
<trkpt lat="48.77975" lon="11.47902"><ele>371</ele></trkpt>
<trkpt lat="48.77965" lon="11.47918"><ele>373</ele></trkpt>
<trkpt lat="48.77959" lon="11.47943"><ele>374</ele></trkpt>
<trkpt lat="48.77958" lon="11.47970"><ele>372</ele></trkpt>
<trkpt lat="48.77788" lon="11.48677"><ele>370</ele></trkpt>
<trkpt lat="48.77786" lon="11.48701"><ele>370</ele></trkpt>
<trkpt lat="48.77791" lon="11.48751"><ele>370</ele></trkpt>
<trkpt lat="48.77783" lon="11.48780"><ele>367</ele></trkpt>
<trkpt lat="48.77705" lon="11.48733"><ele>369</ele></trkpt>
<trkpt lat="48.77629" lon="11.48697"><ele>370</ele></trkpt>
<trkpt lat="48.77542" lon="11.48675"><ele>366</ele></trkpt>
<trkpt lat="48.77470" lon="11.48669"><ele>366</ele></trkpt>
<trkpt lat="48.77470" lon="11.48680"><ele>366</ele></trkpt>
<trkpt lat="48.77479" lon="11.48693"><ele>365</ele></trkpt>
<trkpt lat="48.77515" lon="11.48695"><ele>365</ele></trkpt>
<trkpt lat="48.77530" lon="11.48706"><ele>365</ele></trkpt>
<trkpt lat="48.77549" lon="11.48733"><ele>366</ele></trkpt>
<trkpt lat="48.77519" lon="11.48876"><ele>366</ele></trkpt>
<trkpt lat="48.77520" lon="11.48906"><ele>366</ele></trkpt>
<trkpt lat="48.77536" lon="11.48966"><ele>366</ele></trkpt>
<trkpt lat="48.77501" lon="11.48995"><ele>365</ele></trkpt>
<trkpt lat="48.77496" lon="11.49006"><ele>365</ele></trkpt>
<trkpt lat="48.77503" lon="11.49040"><ele>366</ele></trkpt>
<trkpt lat="48.77537" lon="11.49100"><ele>366</ele></trkpt>
<trkpt lat="48.77538" lon="11.49106"><ele>366</ele></trkpt>
<trkpt lat="48.77490" lon="11.49171"><ele>366</ele></trkpt>
<trkpt lat="48.77488" lon="11.49179"><ele>366</ele></trkpt>
<trkpt lat="48.77491" lon="11.49186"><ele>366</ele></trkpt>
<trkpt lat="48.77450" lon="11.49234"><ele>367</ele></trkpt>
<trkpt lat="48.77476" lon="11.49433"><ele>366</ele></trkpt>
<trkpt lat="48.77487" lon="11.49474"><ele>365</ele></trkpt>
<trkpt lat="48.77502" lon="11.49507"><ele>365</ele></trkpt>
<trkpt lat="48.77513" lon="11.49521"><ele>366</ele></trkpt>
<trkpt lat="48.77526" lon="11.49533"><ele>367</ele></trkpt>
<trkpt lat="48.77542" lon="11.49541"><ele>368</ele></trkpt>
<trkpt lat="48.77538" lon="11.49570"><ele>368</ele></trkpt>
<trkpt lat="48.77551" lon="11.49593"><ele>369</ele></trkpt>
<trkpt lat="48.77581" lon="11.49601"><ele>369</ele></trkpt>
<trkpt lat="48.77562" lon="11.49769"><ele>370</ele></trkpt>
<trkpt lat="48.77544" lon="11.49883"><ele>370</ele></trkpt>
<trkpt lat="48.77521" lon="11.50001"><ele>370</ele></trkpt>
<trkpt lat="48.77507" lon="11.50060"><ele>370</ele></trkpt>
<trkpt lat="48.77474" lon="11.50174"><ele>369</ele></trkpt>
<trkpt lat="48.77446" lon="11.50254"><ele>370</ele></trkpt>
<trkpt lat="48.77406" lon="11.50347"><ele>370</ele></trkpt>
<trkpt lat="48.77363" lon="11.50434"><ele>369</ele></trkpt>
<trkpt lat="48.77548" lon="11.50819"><ele>370</ele></trkpt>
<trkpt lat="48.77743" lon="11.51466"><ele>370</ele></trkpt>
<trkpt lat="48.77810" lon="11.51772"><ele>369</ele></trkpt>
<trkpt lat="48.77826" lon="11.52099"><ele>367</ele></trkpt>
<trkpt lat="48.77833" lon="11.52187"><ele>367</ele></trkpt>
<trkpt lat="48.77954" lon="11.52582"><ele>371</ele></trkpt>
<trkpt lat="48.77846" lon="11.52733"><ele>370</ele></trkpt>
<trkpt lat="48.77822" lon="11.52761"><ele>370</ele></trkpt>
<trkpt lat="48.77687" lon="11.52888"><ele>370</ele></trkpt>
<trkpt lat="48.77722" lon="11.53000"><ele>370</ele></trkpt>
<trkpt lat="48.77706" lon="11.53059"><ele>370</ele></trkpt>
<trkpt lat="48.77689" lon="11.53147"><ele>371</ele></trkpt>
<trkpt lat="48.77674" lon="11.53195"><ele>371</ele></trkpt>
<trkpt lat="48.77647" lon="11.53253"><ele>374</ele></trkpt>
<trkpt lat="48.77609" lon="11.53304"><ele>376</ele></trkpt>
<trkpt lat="48.77568" lon="11.53337"><ele>378</ele></trkpt>
<trkpt lat="48.77517" lon="11.53358"><ele>379</ele></trkpt>
<trkpt lat="48.77522" lon="11.53389"><ele>378</ele></trkpt>
<trkpt lat="48.77538" lon="11.53390"><ele>377</ele></trkpt>
<trkpt lat="48.77583" lon="11.53365"><ele>375</ele></trkpt>
<trkpt lat="48.77636" lon="11.53327"><ele>373</ele></trkpt>
<trkpt lat="48.77630" lon="11.53363"><ele>372</ele></trkpt>
<trkpt lat="48.77467" lon="11.53994"><ele>370</ele></trkpt>
<trkpt lat="48.77383" lon="11.54384"><ele>369</ele></trkpt>
<trkpt lat="48.77383" lon="11.54503"><ele>368</ele></trkpt>
<trkpt lat="48.77376" lon="11.54521"><ele>368</ele></trkpt>
<trkpt lat="48.77121" lon="11.54636"><ele>370</ele></trkpt>
<trkpt lat="48.77178" lon="11.54712"><ele>369</ele></trkpt>
<trkpt lat="48.77223" lon="11.54792"><ele>370</ele></trkpt>
<trkpt lat="48.77324" lon="11.55004"><ele>376</ele></trkpt>
<trkpt lat="48.77348" lon="11.55025"><ele>376</ele></trkpt>
<trkpt lat="48.77354" lon="11.55042"><ele>376</ele></trkpt>
<trkpt lat="48.77357" lon="11.55082"><ele>376</ele></trkpt>
<trkpt lat="48.77366" lon="11.55108"><ele>375</ele></trkpt>
<trkpt lat="48.77580" lon="11.55563"><ele>373</ele></trkpt>
<trkpt lat="48.77654" lon="11.55746"><ele>371</ele></trkpt>
<trkpt lat="48.77682" lon="11.55820"><ele>371</ele></trkpt>
<trkpt lat="48.77717" lon="11.55961"><ele>372</ele></trkpt>
<trkpt lat="48.77732" lon="11.55985"><ele>372</ele></trkpt>
<trkpt lat="48.77739" lon="11.56020"><ele>372</ele></trkpt>
<trkpt lat="48.77732" lon="11.56050"><ele>372</ele></trkpt>
<trkpt lat="48.77748" lon="11.56213"><ele>373</ele></trkpt>
<trkpt lat="48.77752" lon="11.56441"><ele>373</ele></trkpt>
<trkpt lat="48.77761" lon="11.56494"><ele>374</ele></trkpt>
<trkpt lat="48.77749" lon="11.56539"><ele>375</ele></trkpt>
<trkpt lat="48.77747" lon="11.56561"><ele>375</ele></trkpt>
<trkpt lat="48.77729" lon="11.56930"><ele>373</ele></trkpt>
<trkpt lat="48.77734" lon="11.56977"><ele>373</ele></trkpt>
<trkpt lat="48.77725" lon="11.57026"><ele>373</ele></trkpt>
<trkpt lat="48.77709" lon="11.57433"><ele>371</ele></trkpt>
<trkpt lat="48.77708" lon="11.57566"><ele>371</ele></trkpt>
<trkpt lat="48.77722" lon="11.57643"><ele>373</ele></trkpt>
<trkpt lat="48.77676" lon="11.57642"><ele>373</ele></trkpt>
<trkpt lat="48.77637" lon="11.57634"><ele>374</ele></trkpt>
<trkpt lat="48.77562" lon="11.57595"><ele>375</ele></trkpt>
<trkpt lat="48.77451" lon="11.57561"><ele>367</ele></trkpt>
<trkpt lat="48.77434" lon="11.57567"><ele>365</ele></trkpt>
<trkpt lat="48.77425" lon="11.57576"><ele>364</ele></trkpt>
<trkpt lat="48.77410" lon="11.57597"><ele>363</ele></trkpt>
<trkpt lat="48.77399" lon="11.57633"><ele>361</ele></trkpt>
<trkpt lat="48.77378" lon="11.57761"><ele>358</ele></trkpt>
<trkpt lat="48.77375" lon="11.57822"><ele>358</ele></trkpt>
<trkpt lat="48.77379" lon="11.57868"><ele>359</ele></trkpt>
<trkpt lat="48.77386" lon="11.57899"><ele>359</ele></trkpt>
<trkpt lat="48.77401" lon="11.57948"><ele>360</ele></trkpt>
<trkpt lat="48.77430" lon="11.58024"><ele>359</ele></trkpt>
<trkpt lat="48.77441" lon="11.58061"><ele>358</ele></trkpt>
<trkpt lat="48.77441" lon="11.58070"><ele>358</ele></trkpt>
<trkpt lat="48.77439" lon="11.58080"><ele>358</ele></trkpt>
<trkpt lat="48.77420" lon="11.58101"><ele>358</ele></trkpt>
<trkpt lat="48.77418" lon="11.58110"><ele>358</ele></trkpt>
<trkpt lat="48.77336" lon="11.58126"><ele>357</ele></trkpt>
<trkpt lat="48.77300" lon="11.58160"><ele>358</ele></trkpt>
<trkpt lat="48.77289" lon="11.58172"><ele>360</ele></trkpt>
<trkpt lat="48.77300" lon="11.58226"><ele>361</ele></trkpt>
<trkpt lat="48.77407" lon="11.58447"><ele>360</ele></trkpt>
<trkpt lat="48.77500" lon="11.58645"><ele>363</ele></trkpt>
<trkpt lat="48.77519" lon="11.58671"><ele>362</ele></trkpt>
<trkpt lat="48.77564" lon="11.58679"><ele>360</ele></trkpt>
<trkpt lat="48.77578" lon="11.58687"><ele>360</ele></trkpt>
<trkpt lat="48.77592" lon="11.58708"><ele>360</ele></trkpt>
<trkpt lat="48.77601" lon="11.58751"><ele>360</ele></trkpt>
<trkpt lat="48.77602" lon="11.58784"><ele>359</ele></trkpt>
<trkpt lat="48.77670" lon="11.59059"><ele>360</ele></trkpt>
<trkpt lat="48.77689" lon="11.59168"><ele>362</ele></trkpt>
<trkpt lat="48.77702" lon="11.59208"><ele>361</ele></trkpt>
<trkpt lat="48.77712" lon="11.59279"><ele>359</ele></trkpt>
<trkpt lat="48.77731" lon="11.59374"><ele>360</ele></trkpt>
<trkpt lat="48.77745" lon="11.59421"><ele>360</ele></trkpt>
<trkpt lat="48.77760" lon="11.59424"><ele>358</ele></trkpt>
<trkpt lat="48.77778" lon="11.59401"><ele>356</ele></trkpt>
<trkpt lat="48.77785" lon="11.59387"><ele>357</ele></trkpt>
<trkpt lat="48.77789" lon="11.59384"><ele>358</ele></trkpt>
<trkpt lat="48.77801" lon="11.59389"><ele>358</ele></trkpt>
<trkpt lat="48.77808" lon="11.59400"><ele>358</ele></trkpt>
<trkpt lat="48.77810" lon="11.59414"><ele>358</ele></trkpt>
<trkpt lat="48.77811" lon="11.59446"><ele>357</ele></trkpt>
<trkpt lat="48.77815" lon="11.59476"><ele>358</ele></trkpt>
<trkpt lat="48.77819" lon="11.59489"><ele>358</ele></trkpt>
<trkpt lat="48.77835" lon="11.59525"><ele>357</ele></trkpt>
<trkpt lat="48.77841" lon="11.59524"><ele>357</ele></trkpt>
<trkpt lat="48.77855" lon="11.59577"><ele>356</ele></trkpt>
<trkpt lat="48.77906" lon="11.59662"><ele>356</ele></trkpt>
<trkpt lat="48.77928" lon="11.59686"><ele>356</ele></trkpt>
<trkpt lat="48.77986" lon="11.59731"><ele>358</ele></trkpt>
<trkpt lat="48.78016" lon="11.59726"><ele>358</ele></trkpt>
<trkpt lat="48.78023" lon="11.59732"><ele>357</ele></trkpt>
<trkpt lat="48.78036" lon="11.59777"><ele>357</ele></trkpt>
<trkpt lat="48.78074" lon="11.59842"><ele>356</ele></trkpt>
<trkpt lat="48.78124" lon="11.59919"><ele>355</ele></trkpt>
<trkpt lat="48.78161" lon="11.59996"><ele>356</ele></trkpt>
<trkpt lat="48.78254" lon="11.60257"><ele>358</ele></trkpt>
<trkpt lat="48.78266" lon="11.60271"><ele>359</ele></trkpt>
<trkpt lat="48.78275" lon="11.60275"><ele>359</ele></trkpt>
<trkpt lat="48.78293" lon="11.60276"><ele>360</ele></trkpt>
<trkpt lat="48.78317" lon="11.60265"><ele>360</ele></trkpt>
<trkpt lat="48.78345" lon="11.60418"><ele>360</ele></trkpt>
<trkpt lat="48.78334" lon="11.60446"><ele>358</ele></trkpt>
<trkpt lat="48.78336" lon="11.60464"><ele>359</ele></trkpt>
<trkpt lat="48.78353" lon="11.60528"><ele>360</ele></trkpt>
<trkpt lat="48.78364" lon="11.60556"><ele>360</ele></trkpt>
<trkpt lat="48.78434" lon="11.60604"><ele>362</ele></trkpt>
<trkpt lat="48.78410" lon="11.60676"><ele>363</ele></trkpt>
<trkpt lat="48.78397" lon="11.60705"><ele>364</ele></trkpt>
<trkpt lat="48.78390" lon="11.60716"><ele>363</ele></trkpt>
<trkpt lat="48.78348" lon="11.60758"><ele>364</ele></trkpt>
<trkpt lat="48.78312" lon="11.60775"><ele>366</ele></trkpt>
<trkpt lat="48.78214" lon="11.60808"><ele>368</ele></trkpt>
<trkpt lat="48.78179" lon="11.60828"><ele>368</ele></trkpt>
<trkpt lat="48.78168" lon="11.60839"><ele>369</ele></trkpt>
<trkpt lat="48.78216" lon="11.61293"><ele>377</ele></trkpt>
<trkpt lat="48.78224" lon="11.61307"><ele>377</ele></trkpt>
<trkpt lat="48.78131" lon="11.61316"><ele>375</ele></trkpt>
<trkpt lat="48.78107" lon="11.61702"><ele>380</ele></trkpt>
<trkpt lat="48.78023" lon="11.61667"><ele>380</ele></trkpt>
<trkpt lat="48.77974" lon="11.61640"><ele>380</ele></trkpt>
<trkpt lat="48.77950" lon="11.61788"><ele>381</ele></trkpt>
<trkpt lat="48.77775" lon="11.61751"><ele>371</ele></trkpt>
<trkpt lat="48.77766" lon="11.61750"><ele>370</ele></trkpt>
<trkpt lat="48.77713" lon="11.61766"><ele>367</ele></trkpt>
<trkpt lat="48.77699" lon="11.61774"><ele>366</ele></trkpt>
<trkpt lat="48.77680" lon="11.61793"><ele>364</ele></trkpt>
<trkpt lat="48.77636" lon="11.61851"><ele>362</ele></trkpt>
<trkpt lat="48.77622" lon="11.61860"><ele>360</ele></trkpt>
<trkpt lat="48.77603" lon="11.61861"><ele>359</ele></trkpt>
<trkpt lat="48.77592" lon="11.61854"><ele>359</ele></trkpt>
<trkpt lat="48.77582" lon="11.61870"><ele>359</ele></trkpt>
<trkpt lat="48.77571" lon="11.61879"><ele>359</ele></trkpt>
<trkpt lat="48.77536" lon="11.61897"><ele>358</ele></trkpt>
<trkpt lat="48.77508" lon="11.61923"><ele>359</ele></trkpt>
<trkpt lat="48.77487" lon="11.61967"><ele>359</ele></trkpt>
<trkpt lat="48.77469" lon="11.61970"><ele>359</ele></trkpt>
<trkpt lat="48.77453" lon="11.61995"><ele>359</ele></trkpt>
<trkpt lat="48.77437" lon="11.62048"><ele>358</ele></trkpt>
<trkpt lat="48.77422" lon="11.62113"><ele>360</ele></trkpt>
<trkpt lat="48.77417" lon="11.62150"><ele>360</ele></trkpt>
<trkpt lat="48.77430" lon="11.62229"><ele>362</ele></trkpt>
<trkpt lat="48.77439" lon="11.62493"><ele>362</ele></trkpt>
<trkpt lat="48.77492" lon="11.62707"><ele>360</ele></trkpt>
<trkpt lat="48.77521" lon="11.62838"><ele>359</ele></trkpt>
<trkpt lat="48.77527" lon="11.62886"><ele>359</ele></trkpt>
<trkpt lat="48.77527" lon="11.62912"><ele>359</ele></trkpt>
<trkpt lat="48.77520" lon="11.62971"><ele>362</ele></trkpt>
<trkpt lat="48.77485" lon="11.63102"><ele>361</ele></trkpt>
<trkpt lat="48.77479" lon="11.63139"><ele>359</ele></trkpt>
<trkpt lat="48.77478" lon="11.63171"><ele>361</ele></trkpt>
<trkpt lat="48.77482" lon="11.63227"><ele>362</ele></trkpt>
<trkpt lat="48.77490" lon="11.63261"><ele>362</ele></trkpt>
<trkpt lat="48.77523" lon="11.63365"><ele>358</ele></trkpt>
<trkpt lat="48.77534" lon="11.63419"><ele>358</ele></trkpt>
<trkpt lat="48.77507" lon="11.63427"><ele>358</ele></trkpt>
<trkpt lat="48.77469" lon="11.63449"><ele>355</ele></trkpt>
<trkpt lat="48.77461" lon="11.63442"><ele>355</ele></trkpt>
<trkpt lat="48.77455" lon="11.63410"><ele>355</ele></trkpt>
<trkpt lat="48.77442" lon="11.63290"><ele>355</ele></trkpt>
<trkpt lat="48.77445" lon="11.63065"><ele>356</ele></trkpt>
<trkpt lat="48.77438" lon="11.62936"><ele>356</ele></trkpt>
<trkpt lat="48.77443" lon="11.62925"><ele>356</ele></trkpt>
<trkpt lat="48.77455" lon="11.62925"><ele>357</ele></trkpt>
<trkpt lat="48.77461" lon="11.62936"><ele>358</ele></trkpt>
<trkpt lat="48.77462" lon="11.62948"><ele>358</ele></trkpt>
<trkpt lat="48.77463" lon="11.63002"><ele>358</ele></trkpt>
<trkpt lat="48.77461" lon="11.63011"><ele>358</ele></trkpt>
<trkpt lat="48.77455" lon="11.63020"><ele>358</ele></trkpt>
<trkpt lat="48.77390" lon="11.63040"><ele>358</ele></trkpt>
<trkpt lat="48.77327" lon="11.63052"><ele>358</ele></trkpt>
<trkpt lat="48.77204" lon="11.63060"><ele>358</ele></trkpt>
<trkpt lat="48.77123" lon="11.63054"><ele>358</ele></trkpt>
<trkpt lat="48.77114" lon="11.63127"><ele>357</ele></trkpt>
<trkpt lat="48.77115" lon="11.63146"><ele>358</ele></trkpt>
<trkpt lat="48.77082" lon="11.63400"><ele>358</ele></trkpt>
<trkpt lat="48.77058" lon="11.63547"><ele>357</ele></trkpt>
<trkpt lat="48.77054" lon="11.63588"><ele>358</ele></trkpt>
<trkpt lat="48.77049" lon="11.63885"><ele>356</ele></trkpt>
<trkpt lat="48.77050" lon="11.63980"><ele>357</ele></trkpt>
<trkpt lat="48.77062" lon="11.64220"><ele>356</ele></trkpt>
<trkpt lat="48.77059" lon="11.64280"><ele>357</ele></trkpt>
<trkpt lat="48.77041" lon="11.64410"><ele>354</ele></trkpt>
<trkpt lat="48.77034" lon="11.64537"><ele>355</ele></trkpt>
<trkpt lat="48.77051" lon="11.64741"><ele>357</ele></trkpt>
<trkpt lat="48.77070" lon="11.64776"><ele>356</ele></trkpt>
<trkpt lat="48.77088" lon="11.64794"><ele>355</ele></trkpt>
<trkpt lat="48.77108" lon="11.64801"><ele>356</ele></trkpt>
<trkpt lat="48.77267" lon="11.64813"><ele>355</ele></trkpt>
<trkpt lat="48.77287" lon="11.64827"><ele>355</ele></trkpt>
<trkpt lat="48.77349" lon="11.64884"><ele>356</ele></trkpt>
<trkpt lat="48.77407" lon="11.64911"><ele>356</ele></trkpt>
<trkpt lat="48.77558" lon="11.64967"><ele>356</ele></trkpt>
<trkpt lat="48.77603" lon="11.65007"><ele>355</ele></trkpt>
<trkpt lat="48.77634" lon="11.65057"><ele>356</ele></trkpt>
<trkpt lat="48.77654" lon="11.65109"><ele>354</ele></trkpt>
<trkpt lat="48.77718" lon="11.65332"><ele>355</ele></trkpt>
<trkpt lat="48.77730" lon="11.65392"><ele>354</ele></trkpt>
<trkpt lat="48.77740" lon="11.65508"><ele>354</ele></trkpt>
<trkpt lat="48.77756" lon="11.65576"><ele>354</ele></trkpt>
<trkpt lat="48.77802" lon="11.65654"><ele>356</ele></trkpt>
<trkpt lat="48.77835" lon="11.65694"><ele>357</ele></trkpt>
<trkpt lat="48.77976" lon="11.65807"><ele>357</ele></trkpt>
<trkpt lat="48.78001" lon="11.65839"><ele>356</ele></trkpt>
<trkpt lat="48.78037" lon="11.65936"><ele>354</ele></trkpt>
<trkpt lat="48.78074" lon="11.66000"><ele>356</ele></trkpt>
<trkpt lat="48.78094" lon="11.66018"><ele>355</ele></trkpt>
<trkpt lat="48.78167" lon="11.66056"><ele>356</ele></trkpt>
<trkpt lat="48.78261" lon="11.66128"><ele>354</ele></trkpt>
<trkpt lat="48.78278" lon="11.66158"><ele>356</ele></trkpt>
<trkpt lat="48.78284" lon="11.66183"><ele>354</ele></trkpt>
<trkpt lat="48.78307" lon="11.66358"><ele>355</ele></trkpt>
<trkpt lat="48.78380" lon="11.66743"><ele>354</ele></trkpt>
<trkpt lat="48.78410" lon="11.66807"><ele>354</ele></trkpt>
<trkpt lat="48.78435" lon="11.66886"><ele>354</ele></trkpt>
<trkpt lat="48.78488" lon="11.67139"><ele>353</ele></trkpt>
<trkpt lat="48.78544" lon="11.67292"><ele>354</ele></trkpt>
<trkpt lat="48.78552" lon="11.67325"><ele>355</ele></trkpt>
<trkpt lat="48.78561" lon="11.67428"><ele>354</ele></trkpt>
<trkpt lat="48.78577" lon="11.67513"><ele>354</ele></trkpt>
<trkpt lat="48.78614" lon="11.67812"><ele>355</ele></trkpt>
<trkpt lat="48.78654" lon="11.68086"><ele>353</ele></trkpt>
<trkpt lat="48.78667" lon="11.68115"><ele>357</ele></trkpt>
<trkpt lat="48.78606" lon="11.68126"><ele>356</ele></trkpt>
<trkpt lat="48.78629" lon="11.68183"><ele>353</ele></trkpt>
<trkpt lat="48.78669" lon="11.68250"><ele>354</ele></trkpt>
<trkpt lat="48.78843" lon="11.68677"><ele>353</ele></trkpt>
<trkpt lat="48.78880" lon="11.68766"><ele>353</ele></trkpt>
<trkpt lat="48.78932" lon="11.68871"><ele>353</ele></trkpt>
<trkpt lat="48.79074" lon="11.69006"><ele>353</ele></trkpt>
<trkpt lat="48.79084" lon="11.69030"><ele>355</ele></trkpt>
<trkpt lat="48.79115" lon="11.69200"><ele>355</ele></trkpt>
<trkpt lat="48.79129" lon="11.69263"><ele>353</ele></trkpt>
<trkpt lat="48.79161" lon="11.69318"><ele>354</ele></trkpt>
<trkpt lat="48.79203" lon="11.69383"><ele>355</ele></trkpt>
<trkpt lat="48.79196" lon="11.69388"><ele>356</ele></trkpt>
<trkpt lat="48.79201" lon="11.69403"><ele>355</ele></trkpt>
<trkpt lat="48.79213" lon="11.69420"><ele>354</ele></trkpt>
<trkpt lat="48.79227" lon="11.69415"><ele>354</ele></trkpt>
<trkpt lat="48.79313" lon="11.69491"><ele>353</ele></trkpt>
<trkpt lat="48.79351" lon="11.69530"><ele>353</ele></trkpt>
<trkpt lat="48.79376" lon="11.69547"><ele>353</ele></trkpt>
<trkpt lat="48.79408" lon="11.69554"><ele>354</ele></trkpt>
<trkpt lat="48.79445" lon="11.69555"><ele>354</ele></trkpt>
<trkpt lat="48.79477" lon="11.69567"><ele>352</ele></trkpt>
<trkpt lat="48.79576" lon="11.69643"><ele>352</ele></trkpt>
<trkpt lat="48.79612" lon="11.69678"><ele>352</ele></trkpt>
<trkpt lat="48.79639" lon="11.69715"><ele>354</ele></trkpt>
<trkpt lat="48.79731" lon="11.69884"><ele>352</ele></trkpt>
<trkpt lat="48.79781" lon="11.70022"><ele>353</ele></trkpt>
<trkpt lat="48.79819" lon="11.70099"><ele>352</ele></trkpt>
<trkpt lat="48.79829" lon="11.70133"><ele>352</ele></trkpt>
<trkpt lat="48.79813" lon="11.70257"><ele>352</ele></trkpt>
<trkpt lat="48.79817" lon="11.70280"><ele>352</ele></trkpt>
<trkpt lat="48.79827" lon="11.70300"><ele>352</ele></trkpt>
<trkpt lat="48.79886" lon="11.70398"><ele>353</ele></trkpt>
<trkpt lat="48.79951" lon="11.70475"><ele>353</ele></trkpt>
<trkpt lat="48.79971" lon="11.70525"><ele>354</ele></trkpt>
<trkpt lat="48.79983" lon="11.70582"><ele>352</ele></trkpt>
<trkpt lat="48.79992" lon="11.70665"><ele>352</ele></trkpt>
<trkpt lat="48.80057" lon="11.70824"><ele>353</ele></trkpt>
<trkpt lat="48.80093" lon="11.70868"><ele>352</ele></trkpt>
<trkpt lat="48.80259" lon="11.70997"><ele>352</ele></trkpt>
<trkpt lat="48.80280" lon="11.71035"><ele>354</ele></trkpt>
<trkpt lat="48.80382" lon="11.71289"><ele>352</ele></trkpt>
<trkpt lat="48.80466" lon="11.71450"><ele>352</ele></trkpt>
<trkpt lat="48.80946" lon="11.72586"><ele>354</ele></trkpt>
<trkpt lat="48.80999" lon="11.72679"><ele>352</ele></trkpt>
<trkpt lat="48.81025" lon="11.72734"><ele>352</ele></trkpt>
<trkpt lat="48.81140" lon="11.73141"><ele>353</ele></trkpt>
<trkpt lat="48.81196" lon="11.73297"><ele>352</ele></trkpt>
<trkpt lat="48.81206" lon="11.73349"><ele>350</ele></trkpt>
<trkpt lat="48.81287" lon="11.73515"><ele>350</ele></trkpt>
<trkpt lat="48.81322" lon="11.73579"><ele>351</ele></trkpt>
<trkpt lat="48.81462" lon="11.73884"><ele>351</ele></trkpt>
<trkpt lat="48.81478" lon="11.73907"><ele>351</ele></trkpt>
<trkpt lat="48.81714" lon="11.74398"><ele>350</ele></trkpt>
<trkpt lat="48.81722" lon="11.74438"><ele>350</ele></trkpt>
<trkpt lat="48.81749" lon="11.74490"><ele>352</ele></trkpt>
<trkpt lat="48.81739" lon="11.74561"><ele>349</ele></trkpt>
<trkpt lat="48.81766" lon="11.74611"><ele>348</ele></trkpt>
<trkpt lat="48.81818" lon="11.74699"><ele>350</ele></trkpt>
<trkpt lat="48.81838" lon="11.74716"><ele>350</ele></trkpt>
<trkpt lat="48.81867" lon="11.74787"><ele>350</ele></trkpt>
<trkpt lat="48.81941" lon="11.74952"><ele>351</ele></trkpt>
<trkpt lat="48.82034" lon="11.75123"><ele>350</ele></trkpt>
<trkpt lat="48.82088" lon="11.75207"><ele>350</ele></trkpt>
<trkpt lat="48.82234" lon="11.75535"><ele>349</ele></trkpt>
<trkpt lat="48.82269" lon="11.75605"><ele>350</ele></trkpt>
<trkpt lat="48.82342" lon="11.75741"><ele>349</ele></trkpt>
<trkpt lat="48.82411" lon="11.75835"><ele>350</ele></trkpt>
<trkpt lat="48.82487" lon="11.75904"><ele>350</ele></trkpt>
<trkpt lat="48.82538" lon="11.75943"><ele>350</ele></trkpt>
<trkpt lat="48.82619" lon="11.75981"><ele>350</ele></trkpt>
<trkpt lat="48.82646" lon="11.75990"><ele>349</ele></trkpt>
<trkpt lat="48.82724" lon="11.76004"><ele>350</ele></trkpt>
<trkpt lat="48.82799" lon="11.75999"><ele>350</ele></trkpt>
<trkpt lat="48.82836" lon="11.75989"><ele>349</ele></trkpt>
<trkpt lat="48.82955" lon="11.75968"><ele>350</ele></trkpt>
<trkpt lat="48.83041" lon="11.75967"><ele>350</ele></trkpt>
<trkpt lat="48.83147" lon="11.75983"><ele>350</ele></trkpt>
<trkpt lat="48.83239" lon="11.76016"><ele>349</ele></trkpt>
<trkpt lat="48.83308" lon="11.76047"><ele>349</ele></trkpt>
<trkpt lat="48.83435" lon="11.76125"><ele>349</ele></trkpt>
<trkpt lat="48.83472" lon="11.76156"><ele>349</ele></trkpt>
<trkpt lat="48.83510" lon="11.76196"><ele>349</ele></trkpt>
<trkpt lat="48.83572" lon="11.76271"><ele>349</ele></trkpt>
<trkpt lat="48.83607" lon="11.76320"><ele>348</ele></trkpt>
<trkpt lat="48.83643" lon="11.76361"><ele>350</ele></trkpt>
<trkpt lat="48.83683" lon="11.76423"><ele>348</ele></trkpt>
<trkpt lat="48.83774" lon="11.76608"><ele>350</ele></trkpt>
<trkpt lat="48.83805" lon="11.76658"><ele>350</ele></trkpt>
<trkpt lat="48.83855" lon="11.76714"><ele>349</ele></trkpt>
<trkpt lat="48.83923" lon="11.76762"><ele>349</ele></trkpt>
<trkpt lat="48.83990" lon="11.76787"><ele>349</ele></trkpt>
<trkpt lat="48.84059" lon="11.76804"><ele>351</ele></trkpt>
<trkpt lat="48.84424" lon="11.76852"><ele>349</ele></trkpt>
<trkpt lat="48.84488" lon="11.76859"><ele>350</ele></trkpt>
<trkpt lat="48.84692" lon="11.76861"><ele>351</ele></trkpt>
<trkpt lat="48.84767" lon="11.76865"><ele>350</ele></trkpt>
<trkpt lat="48.85311" lon="11.76937"><ele>348</ele></trkpt>
<trkpt lat="48.85417" lon="11.76946"><ele>349</ele></trkpt>
<trkpt lat="48.85478" lon="11.76992"><ele>347</ele></trkpt>
<trkpt lat="48.85478" lon="11.77041"><ele>348</ele></trkpt>
<trkpt lat="48.85485" lon="11.77051"><ele>349</ele></trkpt>
<trkpt lat="48.85514" lon="11.77054"><ele>348</ele></trkpt>
<trkpt lat="48.85554" lon="11.77076"><ele>348</ele></trkpt>
<trkpt lat="48.85571" lon="11.77069"><ele>348</ele></trkpt>
<trkpt lat="48.85624" lon="11.77080"><ele>348</ele></trkpt>
<trkpt lat="48.85653" lon="11.77096"><ele>348</ele></trkpt>
<trkpt lat="48.85691" lon="11.77107"><ele>347</ele></trkpt>
<trkpt lat="48.85702" lon="11.77118"><ele>348</ele></trkpt>
<trkpt lat="48.85709" lon="11.77102"><ele>347</ele></trkpt>
<trkpt lat="48.85730" lon="11.77112"><ele>348</ele></trkpt>
<trkpt lat="48.85738" lon="11.77121"><ele>348</ele></trkpt>
<trkpt lat="48.85744" lon="11.77137"><ele>348</ele></trkpt>
<trkpt lat="48.85753" lon="11.77149"><ele>348</ele></trkpt>
<trkpt lat="48.85841" lon="11.77147"><ele>347</ele></trkpt>
<trkpt lat="48.85954" lon="11.77257"><ele>346</ele></trkpt>
<trkpt lat="48.85965" lon="11.77261"><ele>346</ele></trkpt>
<trkpt lat="48.85981" lon="11.77287"><ele>347</ele></trkpt>
<trkpt lat="48.86017" lon="11.77308"><ele>348</ele></trkpt>
<trkpt lat="48.86046" lon="11.77338"><ele>348</ele></trkpt>
<trkpt lat="48.86080" lon="11.77360"><ele>347</ele></trkpt>
<trkpt lat="48.86189" lon="11.77478"><ele>346</ele></trkpt>
<trkpt lat="48.86232" lon="11.77544"><ele>346</ele></trkpt>
<trkpt lat="48.86304" lon="11.77667"><ele>347</ele></trkpt>
<trkpt lat="48.86420" lon="11.77849"><ele>346</ele></trkpt>
<trkpt lat="48.86426" lon="11.77869"><ele>346</ele></trkpt>
<trkpt lat="48.86426" lon="11.77894"><ele>346</ele></trkpt>
<trkpt lat="48.86430" lon="11.77913"><ele>347</ele></trkpt>
<trkpt lat="48.86405" lon="11.77961"><ele>347</ele></trkpt>
<trkpt lat="48.86392" lon="11.78000"><ele>348</ele></trkpt>
<trkpt lat="48.86382" lon="11.78048"><ele>350</ele></trkpt>
<trkpt lat="48.86295" lon="11.78364"><ele>362</ele></trkpt>
<trkpt lat="48.86283" lon="11.78413"><ele>365</ele></trkpt>
<trkpt lat="48.86280" lon="11.78500"><ele>368</ele></trkpt>
<trkpt lat="48.86286" lon="11.78621"><ele>374</ele></trkpt>
<trkpt lat="48.86280" lon="11.78690"><ele>376</ele></trkpt>
<trkpt lat="48.86278" lon="11.78810"><ele>381</ele></trkpt>
<trkpt lat="48.86277" lon="11.79044"><ele>392</ele></trkpt>
<trkpt lat="48.86276" lon="11.79094"><ele>393</ele></trkpt>
<trkpt lat="48.86270" lon="11.79142"><ele>395</ele></trkpt>
<trkpt lat="48.86278" lon="11.79164"><ele>396</ele></trkpt>
<trkpt lat="48.86300" lon="11.79195"><ele>397</ele></trkpt>
<trkpt lat="48.86307" lon="11.79228"><ele>398</ele></trkpt>
<trkpt lat="48.86314" lon="11.79296"><ele>398</ele></trkpt>
<trkpt lat="48.86313" lon="11.79328"><ele>397</ele></trkpt>
<trkpt lat="48.86323" lon="11.79429"><ele>394</ele></trkpt>
<trkpt lat="48.86323" lon="11.79456"><ele>392</ele></trkpt>
<trkpt lat="48.86310" lon="11.79614"><ele>388</ele></trkpt>
<trkpt lat="48.86352" lon="11.79632"><ele>387</ele></trkpt>
<trkpt lat="48.86375" lon="11.79659"><ele>387</ele></trkpt>
<trkpt lat="48.86381" lon="11.80298"><ele>381</ele></trkpt>
<trkpt lat="48.86750" lon="11.80228"><ele>380</ele></trkpt>
<trkpt lat="48.87033" lon="11.80166"><ele>379</ele></trkpt>
<trkpt lat="48.87203" lon="11.80156"><ele>378</ele></trkpt>
<trkpt lat="48.87444" lon="11.80120"><ele>371</ele></trkpt>
<trkpt lat="48.87541" lon="11.80063"><ele>370</ele></trkpt>
<trkpt lat="48.87636" lon="11.80030"><ele>369</ele></trkpt>
<trkpt lat="48.87804" lon="11.79991"><ele>369</ele></trkpt>
<trkpt lat="48.87867" lon="11.79993"><ele>368</ele></trkpt>
<trkpt lat="48.87905" lon="11.79999"><ele>367</ele></trkpt>
<trkpt lat="48.87927" lon="11.80011"><ele>368</ele></trkpt>
<trkpt lat="48.87971" lon="11.80044"><ele>367</ele></trkpt>
<trkpt lat="48.88004" lon="11.80074"><ele>366</ele></trkpt>
<trkpt lat="48.88026" lon="11.80102"><ele>365</ele></trkpt>
<trkpt lat="48.88044" lon="11.80137"><ele>366</ele></trkpt>
<trkpt lat="48.88143" lon="11.80425"><ele>362</ele></trkpt>
<trkpt lat="48.88152" lon="11.80449"><ele>362</ele></trkpt>
<trkpt lat="48.88173" lon="11.80486"><ele>362</ele></trkpt>
<trkpt lat="48.88202" lon="11.80501"><ele>361</ele></trkpt>
<trkpt lat="48.88226" lon="11.80504"><ele>361</ele></trkpt>
<trkpt lat="48.88329" lon="11.80496"><ele>360</ele></trkpt>
<trkpt lat="48.88480" lon="11.80518"><ele>355</ele></trkpt>
<trkpt lat="48.88512" lon="11.80524"><ele>354</ele></trkpt>
<trkpt lat="48.88614" lon="11.80566"><ele>352</ele></trkpt>
<trkpt lat="48.88651" lon="11.80589"><ele>351</ele></trkpt>
<trkpt lat="48.88660" lon="11.80599"><ele>350</ele></trkpt>
<trkpt lat="48.88668" lon="11.80666"><ele>349</ele></trkpt>
<trkpt lat="48.88678" lon="11.80701"><ele>349</ele></trkpt>
<trkpt lat="48.88688" lon="11.80710"><ele>349</ele></trkpt>
<trkpt lat="48.88718" lon="11.80719"><ele>347</ele></trkpt>
<trkpt lat="48.88740" lon="11.80753"><ele>348</ele></trkpt>
<trkpt lat="48.88747" lon="11.80776"><ele>347</ele></trkpt>
<trkpt lat="48.88751" lon="11.80822"><ele>346</ele></trkpt>
<trkpt lat="48.88750" lon="11.80868"><ele>346</ele></trkpt>
<trkpt lat="48.88744" lon="11.80896"><ele>346</ele></trkpt>
<trkpt lat="48.88714" lon="11.80962"><ele>346</ele></trkpt>
<trkpt lat="48.88699" lon="11.81005"><ele>345</ele></trkpt>
<trkpt lat="48.88690" lon="11.81057"><ele>345</ele></trkpt>
<trkpt lat="48.88688" lon="11.81133"><ele>345</ele></trkpt>
<trkpt lat="48.88721" lon="11.81408"><ele>344</ele></trkpt>
<trkpt lat="48.88727" lon="11.81483"><ele>345</ele></trkpt>
<trkpt lat="48.88729" lon="11.81562"><ele>345</ele></trkpt>
<trkpt lat="48.88726" lon="11.81595"><ele>345</ele></trkpt>
<trkpt lat="48.88699" lon="11.81747"><ele>345</ele></trkpt>
<trkpt lat="48.88697" lon="11.81809"><ele>345</ele></trkpt>
<trkpt lat="48.88699" lon="11.81869"><ele>345</ele></trkpt>
<trkpt lat="48.88825" lon="11.81911"><ele>344</ele></trkpt>
<trkpt lat="48.88867" lon="11.81917"><ele>344</ele></trkpt>
<trkpt lat="48.88920" lon="11.81930"><ele>345</ele></trkpt>
<trkpt lat="48.88958" lon="11.82032"><ele>344</ele></trkpt>
<trkpt lat="48.89062" lon="11.82160"><ele>345</ele></trkpt>
<trkpt lat="48.89132" lon="11.82210"><ele>344</ele></trkpt>
<trkpt lat="48.89156" lon="11.82233"><ele>344</ele></trkpt>
<trkpt lat="48.89192" lon="11.82253"><ele>344</ele></trkpt>
<trkpt lat="48.89238" lon="11.82270"><ele>344</ele></trkpt>
<trkpt lat="48.89272" lon="11.82292"><ele>344</ele></trkpt>
<trkpt lat="48.89296" lon="11.82295"><ele>344</ele></trkpt>
<trkpt lat="48.89331" lon="11.82272"><ele>344</ele></trkpt>
<trkpt lat="48.89340" lon="11.82272"><ele>345</ele></trkpt>
<trkpt lat="48.89349" lon="11.82280"><ele>348</ele></trkpt>
<trkpt lat="48.89376" lon="11.82220"><ele>346</ele></trkpt>
<trkpt lat="48.89396" lon="11.82164"><ele>350</ele></trkpt>
<trkpt lat="48.89405" lon="11.82151"><ele>350</ele></trkpt>
<trkpt lat="48.89502" lon="11.82084"><ele>347</ele></trkpt>
<trkpt lat="48.89643" lon="11.81957"><ele>354</ele></trkpt>
<trkpt lat="48.89732" lon="11.81913"><ele>348</ele></trkpt>
<trkpt lat="48.89818" lon="11.81887"><ele>345</ele></trkpt>
<trkpt lat="48.89842" lon="11.81888"><ele>345</ele></trkpt>
<trkpt lat="48.89883" lon="11.81901"><ele>344</ele></trkpt>
<trkpt lat="48.89908" lon="11.81913"><ele>345</ele></trkpt>
<trkpt lat="48.89917" lon="11.81922"><ele>345</ele></trkpt>
<trkpt lat="48.89920" lon="11.81930"><ele>345</ele></trkpt>
<trkpt lat="48.89895" lon="11.81969"><ele>346</ele></trkpt>
<trkpt lat="48.89875" lon="11.81992"><ele>354</ele></trkpt>
<trkpt lat="48.89877" lon="11.82041"><ele>356</ele></trkpt>
<trkpt lat="48.89874" lon="11.82057"><ele>358</ele></trkpt>
<trkpt lat="48.89854" lon="11.82090"><ele>364</ele></trkpt>
<trkpt lat="48.89843" lon="11.82100"><ele>365</ele></trkpt>
<trkpt lat="48.89821" lon="11.82108"><ele>370</ele></trkpt>
<trkpt lat="48.89807" lon="11.82108"><ele>372</ele></trkpt>
<trkpt lat="48.89727" lon="11.82096"><ele>387</ele></trkpt>
<trkpt lat="48.89690" lon="11.82096"><ele>393</ele></trkpt>
<trkpt lat="48.89665" lon="11.82104"><ele>398</ele></trkpt>
<trkpt lat="48.89564" lon="11.82164"><ele>409</ele></trkpt>
<trkpt lat="48.89542" lon="11.82191"><ele>408</ele></trkpt>
<trkpt lat="48.89524" lon="11.82221"><ele>409</ele></trkpt>
<trkpt lat="48.89448" lon="11.82288"><ele>403</ele></trkpt>
<trkpt lat="48.89275" lon="11.82536"><ele>376</ele></trkpt>
<trkpt lat="48.89229" lon="11.82612"><ele>370</ele></trkpt>
<trkpt lat="48.89172" lon="11.82697"><ele>360</ele></trkpt>
<trkpt lat="48.89150" lon="11.82744"><ele>358</ele></trkpt>
<trkpt lat="48.89125" lon="11.82767"><ele>354</ele></trkpt>
<trkpt lat="48.89106" lon="11.82775"><ele>352</ele></trkpt>
<trkpt lat="48.89079" lon="11.82842"><ele>354</ele></trkpt>
<trkpt lat="48.89073" lon="11.82844"><ele>354</ele></trkpt>
<trkpt lat="48.89057" lon="11.82896"><ele>354</ele></trkpt>
<trkpt lat="48.89045" lon="11.82945"><ele>356</ele></trkpt>
<trkpt lat="48.89041" lon="11.83003"><ele>358</ele></trkpt>
<trkpt lat="48.89044" lon="11.83048"><ele>359</ele></trkpt>
<trkpt lat="48.89051" lon="11.83094"><ele>361</ele></trkpt>
<trkpt lat="48.89064" lon="11.83143"><ele>364</ele></trkpt>
<trkpt lat="48.89149" lon="11.83368"><ele>377</ele></trkpt>
<trkpt lat="48.89160" lon="11.83370"><ele>379</ele></trkpt>
<trkpt lat="48.89280" lon="11.83630"><ele>403</ele></trkpt>
<trkpt lat="48.89304" lon="11.83702"><ele>407</ele></trkpt>
<trkpt lat="48.89332" lon="11.83865"><ele>410</ele></trkpt>
<trkpt lat="48.89338" lon="11.83879"><ele>410</ele></trkpt>
<trkpt lat="48.89346" lon="11.83890"><ele>408</ele></trkpt>
<trkpt lat="48.89403" lon="11.83943"><ele>406</ele></trkpt>
<trkpt lat="48.89471" lon="11.84046"><ele>417</ele></trkpt>
<trkpt lat="48.89532" lon="11.84097"><ele>421</ele></trkpt>
<trkpt lat="48.89559" lon="11.84150"><ele>424</ele></trkpt>
<trkpt lat="48.89579" lon="11.84200"><ele>426</ele></trkpt>
<trkpt lat="48.89606" lon="11.84281"><ele>429</ele></trkpt>
<trkpt lat="48.89614" lon="11.84327"><ele>432</ele></trkpt>
<trkpt lat="48.89626" lon="11.84356"><ele>434</ele></trkpt>
<trkpt lat="48.89642" lon="11.84376"><ele>434</ele></trkpt>
<trkpt lat="48.89662" lon="11.84390"><ele>435</ele></trkpt>
<trkpt lat="48.89679" lon="11.84413"><ele>438</ele></trkpt>
<trkpt lat="48.89687" lon="11.84459"><ele>442</ele></trkpt>
<trkpt lat="48.89700" lon="11.84484"><ele>445</ele></trkpt>
<trkpt lat="48.89713" lon="11.84537"><ele>448</ele></trkpt>
<trkpt lat="48.89744" lon="11.84613"><ele>453</ele></trkpt>
<trkpt lat="48.89754" lon="11.84658"><ele>456</ele></trkpt>
<trkpt lat="48.89754" lon="11.84668"><ele>456</ele></trkpt>
<trkpt lat="48.89743" lon="11.84700"><ele>456</ele></trkpt>
<trkpt lat="48.89737" lon="11.84732"><ele>458</ele></trkpt>
<trkpt lat="48.89734" lon="11.84781"><ele>458</ele></trkpt>
<trkpt lat="48.89745" lon="11.84844"><ele>460</ele></trkpt>
<trkpt lat="48.89802" lon="11.84984"><ele>462</ele></trkpt>
<trkpt lat="48.89807" lon="11.85029"><ele>462</ele></trkpt>
<trkpt lat="48.89801" lon="11.85124"><ele>460</ele></trkpt>
<trkpt lat="48.89825" lon="11.85105"><ele>461</ele></trkpt>
<trkpt lat="48.89846" lon="11.85102"><ele>462</ele></trkpt>
<trkpt lat="48.89867" lon="11.85106"><ele>462</ele></trkpt>
<trkpt lat="48.89897" lon="11.85127"><ele>462</ele></trkpt>
<trkpt lat="48.89909" lon="11.85131"><ele>461</ele></trkpt>
<trkpt lat="48.89935" lon="11.85133"><ele>460</ele></trkpt>
<trkpt lat="48.89949" lon="11.85129"><ele>460</ele></trkpt>
<trkpt lat="48.89965" lon="11.85122"><ele>458</ele></trkpt>
<trkpt lat="48.89990" lon="11.85099"><ele>457</ele></trkpt>
<trkpt lat="48.90017" lon="11.85065"><ele>456</ele></trkpt>
<trkpt lat="48.90026" lon="11.85064"><ele>456</ele></trkpt>
<trkpt lat="48.90031" lon="11.85068"><ele>456</ele></trkpt>
<trkpt lat="48.90040" lon="11.85078"><ele>457</ele></trkpt>
<trkpt lat="48.90059" lon="11.85112"><ele>458</ele></trkpt>
<trkpt lat="48.90108" lon="11.85153"><ele>459</ele></trkpt>
<trkpt lat="48.90156" lon="11.85206"><ele>462</ele></trkpt>
<trkpt lat="48.90211" lon="11.85286"><ele>462</ele></trkpt>
<trkpt lat="48.90221" lon="11.85329"><ele>460</ele></trkpt>
<trkpt lat="48.90227" lon="11.85388"><ele>458</ele></trkpt>
<trkpt lat="48.90232" lon="11.85409"><ele>457</ele></trkpt>
<trkpt lat="48.90238" lon="11.85425"><ele>456</ele></trkpt>
<trkpt lat="48.90250" lon="11.85444"><ele>454</ele></trkpt>
<trkpt lat="48.90259" lon="11.85452"><ele>453</ele></trkpt>
<trkpt lat="48.90288" lon="11.85444"><ele>450</ele></trkpt>
<trkpt lat="48.90331" lon="11.85477"><ele>453</ele></trkpt>
<trkpt lat="48.90383" lon="11.85563"><ele>459</ele></trkpt>
<trkpt lat="48.90400" lon="11.85606"><ele>460</ele></trkpt>
<trkpt lat="48.90430" lon="11.85651"><ele>461</ele></trkpt>
<trkpt lat="48.90465" lon="11.85662"><ele>459</ele></trkpt>
<trkpt lat="48.90493" lon="11.85691"><ele>456</ele></trkpt>
<trkpt lat="48.90506" lon="11.85695"><ele>456</ele></trkpt>
<trkpt lat="48.90561" lon="11.85691"><ele>458</ele></trkpt>
<trkpt lat="48.90635" lon="11.85702"><ele>460</ele></trkpt>
<trkpt lat="48.90650" lon="11.85708"><ele>459</ele></trkpt>
<trkpt lat="48.90671" lon="11.85736"><ele>457</ele></trkpt>
<trkpt lat="48.90684" lon="11.85763"><ele>455</ele></trkpt>
<trkpt lat="48.90690" lon="11.85787"><ele>453</ele></trkpt>
<trkpt lat="48.90709" lon="11.85804"><ele>449</ele></trkpt>
<trkpt lat="48.90716" lon="11.85808"><ele>448</ele></trkpt>
<trkpt lat="48.90720" lon="11.85793"><ele>446</ele></trkpt>
<trkpt lat="48.90795" lon="11.85716"><ele>432</ele></trkpt>
<trkpt lat="48.90813" lon="11.85703"><ele>429</ele></trkpt>
<trkpt lat="48.90846" lon="11.85690"><ele>424</ele></trkpt>
<trkpt lat="48.90884" lon="11.85694"><ele>418</ele></trkpt>
<trkpt lat="48.90917" lon="11.85707"><ele>410</ele></trkpt>
<trkpt lat="48.90954" lon="11.85747"><ele>402</ele></trkpt>
<trkpt lat="48.90952" lon="11.85779"><ele>402</ele></trkpt>
<trkpt lat="48.90964" lon="11.85978"><ele>406</ele></trkpt>
<trkpt lat="48.90976" lon="11.86038"><ele>408</ele></trkpt>
<trkpt lat="48.90994" lon="11.86059"><ele>408</ele></trkpt>
<trkpt lat="48.90998" lon="11.86080"><ele>409</ele></trkpt>
<trkpt lat="48.90999" lon="11.86100"><ele>410</ele></trkpt>
<trkpt lat="48.91043" lon="11.86114"><ele>402</ele></trkpt>
<trkpt lat="48.91046" lon="11.86219"><ele>402</ele></trkpt>
<trkpt lat="48.91102" lon="11.86242"><ele>400</ele></trkpt>
<trkpt lat="48.91102" lon="11.86227"><ele>400</ele></trkpt>
<trkpt lat="48.91129" lon="11.86215"><ele>398</ele></trkpt>
<trkpt lat="48.91130" lon="11.86230"><ele>396</ele></trkpt>
<trkpt lat="48.91136" lon="11.86247"><ele>394</ele></trkpt>
<trkpt lat="48.91143" lon="11.86253"><ele>392</ele></trkpt>
<trkpt lat="48.91179" lon="11.86269"><ele>386</ele></trkpt>
<trkpt lat="48.91184" lon="11.86281"><ele>385</ele></trkpt>
<trkpt lat="48.91213" lon="11.86278"><ele>380</ele></trkpt>
<trkpt lat="48.91238" lon="11.86283"><ele>377</ele></trkpt>
<trkpt lat="48.91262" lon="11.86303"><ele>372</ele></trkpt>
<trkpt lat="48.91274" lon="11.86323"><ele>370</ele></trkpt>
<trkpt lat="48.91285" lon="11.86367"><ele>374</ele></trkpt>
<trkpt lat="48.91284" lon="11.86403"><ele>375</ele></trkpt>
<trkpt lat="48.91274" lon="11.86428"><ele>374</ele></trkpt>
<trkpt lat="48.91232" lon="11.86507"><ele>372</ele></trkpt>
<trkpt lat="48.91224" lon="11.86531"><ele>370</ele></trkpt>
<trkpt lat="48.91214" lon="11.86588"><ele>365</ele></trkpt>
<trkpt lat="48.91219" lon="11.86622"><ele>362</ele></trkpt>
<trkpt lat="48.91225" lon="11.86642"><ele>360</ele></trkpt>
<trkpt lat="48.91202" lon="11.86702"><ele>358</ele></trkpt>
<trkpt lat="48.91176" lon="11.86787"><ele>358</ele></trkpt>
<trkpt lat="48.91174" lon="11.86801"><ele>358</ele></trkpt>
<trkpt lat="48.91183" lon="11.86855"><ele>354</ele></trkpt>
<trkpt lat="48.91181" lon="11.86878"><ele>353</ele></trkpt>
<trkpt lat="48.91146" lon="11.86973"><ele>353</ele></trkpt>
<trkpt lat="48.91133" lon="11.86980"><ele>354</ele></trkpt>
<trkpt lat="48.91137" lon="11.87021"><ele>352</ele></trkpt>
<trkpt lat="48.91167" lon="11.87166"><ele>348</ele></trkpt>
<trkpt lat="48.91173" lon="11.87182"><ele>348</ele></trkpt>
<trkpt lat="48.91206" lon="11.87209"><ele>348</ele></trkpt>
<trkpt lat="48.91217" lon="11.87225"><ele>347</ele></trkpt>
<trkpt lat="48.91224" lon="11.87226"><ele>346</ele></trkpt>
<trkpt lat="48.91232" lon="11.87218"><ele>347</ele></trkpt>
<trkpt lat="48.91244" lon="11.87215"><ele>347</ele></trkpt>
<trkpt lat="48.91265" lon="11.87226"><ele>345</ele></trkpt>
<trkpt lat="48.91490" lon="11.87425"><ele>344</ele></trkpt>
<trkpt lat="48.91581" lon="11.87514"><ele>344</ele></trkpt>
<trkpt lat="48.91587" lon="11.87512"><ele>344</ele></trkpt>
<trkpt lat="48.91631" lon="11.87565"><ele>344</ele></trkpt>
<trkpt lat="48.91676" lon="11.87630"><ele>345</ele></trkpt>
<trkpt lat="48.91714" lon="11.87690"><ele>346</ele></trkpt>
<trkpt lat="48.91742" lon="11.87743"><ele>348</ele></trkpt>
<trkpt lat="48.91763" lon="11.87712"><ele>347</ele></trkpt>
<trkpt lat="48.91774" lon="11.87681"><ele>347</ele></trkpt>
<trkpt lat="48.91793" lon="11.87662"><ele>345</ele></trkpt>
<trkpt lat="48.91791" lon="11.87617"><ele>345</ele></trkpt>
<trkpt lat="48.91799" lon="11.87605"><ele>344</ele></trkpt>
<trkpt lat="48.91825" lon="11.87466"><ele>342</ele></trkpt>
<trkpt lat="48.91823" lon="11.87452"><ele>342</ele></trkpt>
<trkpt lat="48.91817" lon="11.87436"><ele>342</ele></trkpt>
<trkpt lat="48.91794" lon="11.87409"><ele>342</ele></trkpt>
<trkpt lat="48.91809" lon="11.87371"><ele>342</ele></trkpt>
<trkpt lat="48.91848" lon="11.87227"><ele>342</ele></trkpt>
    </trkseg>
  </trk>
</gpx>
