<?xml version="1.0" encoding="UTF-8"?>
<gpx version="1.1" creator="Gravel Kompass" xmlns="http://www.topografix.com/GPX/1/1">
  <metadata><name>Altmühltal-Runde: Donau, Kalkfelsen &amp; Fränkisches Seenland – Etappe 4</name></metadata>
  <trk>
    <name>Etappe 4: Treuchtlingen – Weißenburg</name>
    <trkseg>
<trkpt lat="48.95435" lon="10.90898"><ele>414</ele></trkpt>
<trkpt lat="48.95435" lon="10.90901"><ele>414</ele></trkpt>
<trkpt lat="48.95463" lon="10.90904"><ele>415</ele></trkpt>
<trkpt lat="48.95462" lon="10.90955"><ele>414</ele></trkpt>
<trkpt lat="48.95465" lon="10.90964"><ele>414</ele></trkpt>
<trkpt lat="48.95485" lon="10.90933"><ele>414</ele></trkpt>
<trkpt lat="48.95519" lon="10.90932"><ele>414</ele></trkpt>
<trkpt lat="48.95533" lon="10.90861"><ele>415</ele></trkpt>
<trkpt lat="48.95573" lon="10.90874"><ele>414</ele></trkpt>
<trkpt lat="48.95607" lon="10.90877"><ele>414</ele></trkpt>
<trkpt lat="48.95697" lon="10.90878"><ele>412</ele></trkpt>
<trkpt lat="48.95744" lon="10.90871"><ele>412</ele></trkpt>
<trkpt lat="48.95779" lon="10.90871"><ele>412</ele></trkpt>
<trkpt lat="48.95885" lon="10.90912"><ele>412</ele></trkpt>
<trkpt lat="48.95910" lon="10.90926"><ele>412</ele></trkpt>
<trkpt lat="48.95919" lon="10.90913"><ele>412</ele></trkpt>
<trkpt lat="48.95959" lon="10.90892"><ele>415</ele></trkpt>
<trkpt lat="48.95997" lon="10.90879"><ele>418</ele></trkpt>
<trkpt lat="48.96016" lon="10.90881"><ele>418</ele></trkpt>
<trkpt lat="48.96139" lon="10.90920"><ele>420</ele></trkpt>
<trkpt lat="48.96159" lon="10.90936"><ele>418</ele></trkpt>
<trkpt lat="48.96175" lon="10.90930"><ele>419</ele></trkpt>
<trkpt lat="48.96198" lon="10.90939"><ele>419</ele></trkpt>
<trkpt lat="48.96278" lon="10.90955"><ele>419</ele></trkpt>
<trkpt lat="48.96296" lon="10.90962"><ele>419</ele></trkpt>
<trkpt lat="48.96325" lon="10.90993"><ele>418</ele></trkpt>
<trkpt lat="48.96402" lon="10.91016"><ele>416</ele></trkpt>
<trkpt lat="48.96519" lon="10.91042"><ele>415</ele></trkpt>
<trkpt lat="48.96585" lon="10.91032"><ele>416</ele></trkpt>
<trkpt lat="48.96597" lon="10.91044"><ele>415</ele></trkpt>
<trkpt lat="48.96612" lon="10.91088"><ele>413</ele></trkpt>
<trkpt lat="48.96640" lon="10.91108"><ele>413</ele></trkpt>
<trkpt lat="48.96646" lon="10.91130"><ele>413</ele></trkpt>
<trkpt lat="48.96678" lon="10.91131"><ele>413</ele></trkpt>
<trkpt lat="48.96730" lon="10.91153"><ele>413</ele></trkpt>
<trkpt lat="48.96777" lon="10.91164"><ele>414</ele></trkpt>
<trkpt lat="48.96954" lon="10.91165"><ele>414</ele></trkpt>
<trkpt lat="48.96972" lon="10.91168"><ele>414</ele></trkpt>
<trkpt lat="48.96990" lon="10.91106"><ele>417</ele></trkpt>
<trkpt lat="48.97006" lon="10.91089"><ele>416</ele></trkpt>
<trkpt lat="48.97081" lon="10.91086"><ele>418</ele></trkpt>
<trkpt lat="48.97161" lon="10.91093"><ele>418</ele></trkpt>
<trkpt lat="48.97170" lon="10.91087"><ele>419</ele></trkpt>
<trkpt lat="48.97197" lon="10.91054"><ele>422</ele></trkpt>
<trkpt lat="48.97233" lon="10.91035"><ele>422</ele></trkpt>
<trkpt lat="48.97241" lon="10.91038"><ele>422</ele></trkpt>
<trkpt lat="48.97292" lon="10.91025"><ele>421</ele></trkpt>
<trkpt lat="48.97380" lon="10.91012"><ele>420</ele></trkpt>
<trkpt lat="48.97508" lon="10.90974"><ele>418</ele></trkpt>
<trkpt lat="48.97596" lon="10.90939"><ele>415</ele></trkpt>
<trkpt lat="48.97638" lon="10.90916"><ele>413</ele></trkpt>
<trkpt lat="48.97716" lon="10.90849"><ele>414</ele></trkpt>
<trkpt lat="48.97802" lon="10.90748"><ele>416</ele></trkpt>
<trkpt lat="48.97880" lon="10.90638"><ele>417</ele></trkpt>
<trkpt lat="48.97946" lon="10.90516"><ele>416</ele></trkpt>
<trkpt lat="48.97997" lon="10.90398"><ele>415</ele></trkpt>
<trkpt lat="48.98011" lon="10.90353"><ele>416</ele></trkpt>
<trkpt lat="48.98017" lon="10.90346"><ele>415</ele></trkpt>
<trkpt lat="48.98022" lon="10.90346"><ele>415</ele></trkpt>
<trkpt lat="48.98049" lon="10.90363"><ele>412</ele></trkpt>
<trkpt lat="48.98078" lon="10.90285"><ele>412</ele></trkpt>
<trkpt lat="48.98103" lon="10.90233"><ele>412</ele></trkpt>
<trkpt lat="48.98116" lon="10.90217"><ele>411</ele></trkpt>
<trkpt lat="48.98168" lon="10.90183"><ele>410</ele></trkpt>
<trkpt lat="48.98178" lon="10.90170"><ele>410</ele></trkpt>
<trkpt lat="48.98202" lon="10.90109"><ele>410</ele></trkpt>
<trkpt lat="48.98522" lon="10.89229"><ele>411</ele></trkpt>
<trkpt lat="48.98831" lon="10.88844"><ele>412</ele></trkpt>
<trkpt lat="48.98844" lon="10.88823"><ele>412</ele></trkpt>
<trkpt lat="48.98852" lon="10.88723"><ele>412</ele></trkpt>
<trkpt lat="48.98869" lon="10.88695"><ele>412</ele></trkpt>
<trkpt lat="48.99251" lon="10.88178"><ele>410</ele></trkpt>
<trkpt lat="48.99927" lon="10.87405"><ele>411</ele></trkpt>
<trkpt lat="48.99946" lon="10.87378"><ele>411</ele></trkpt>
<trkpt lat="49.00246" lon="10.86796"><ele>411</ele></trkpt>
<trkpt lat="49.00162" lon="10.86681"><ele>412</ele></trkpt>
<trkpt lat="49.00160" lon="10.86672"><ele>412</ele></trkpt>
<trkpt lat="49.00161" lon="10.86665"><ele>412</ele></trkpt>
<trkpt lat="49.00534" lon="10.86173"><ele>413</ele></trkpt>
<trkpt lat="49.00705" lon="10.85954"><ele>412</ele></trkpt>
<trkpt lat="49.00749" lon="10.85905"><ele>412</ele></trkpt>
<trkpt lat="49.00782" lon="10.85878"><ele>411</ele></trkpt>
<trkpt lat="49.00792" lon="10.85877"><ele>411</ele></trkpt>
<trkpt lat="49.00904" lon="10.85771"><ele>413</ele></trkpt>
<trkpt lat="49.00916" lon="10.85751"><ele>412</ele></trkpt>
<trkpt lat="49.00986" lon="10.85699"><ele>414</ele></trkpt>
<trkpt lat="49.01231" lon="10.85543"><ele>412</ele></trkpt>
<trkpt lat="49.01433" lon="10.85407"><ele>414</ele></trkpt>
<trkpt lat="49.01451" lon="10.85417"><ele>414</ele></trkpt>
<trkpt lat="49.01507" lon="10.85365"><ele>412</ele></trkpt>
<trkpt lat="49.01881" lon="10.85122"><ele>414</ele></trkpt>
<trkpt lat="49.02040" lon="10.85015"><ele>413</ele></trkpt>
<trkpt lat="49.02113" lon="10.84959"><ele>413</ele></trkpt>
<trkpt lat="49.02460" lon="10.84727"><ele>414</ele></trkpt>
<trkpt lat="49.03310" lon="10.84169"><ele>415</ele></trkpt>
<trkpt lat="49.03322" lon="10.84167"><ele>415</ele></trkpt>
<trkpt lat="49.03321" lon="10.84192"><ele>414</ele></trkpt>
<trkpt lat="49.03665" lon="10.84345"><ele>411</ele></trkpt>
<trkpt lat="49.03683" lon="10.84344"><ele>411</ele></trkpt>
<trkpt lat="49.03701" lon="10.84319"><ele>411</ele></trkpt>
<trkpt lat="49.03738" lon="10.84248"><ele>410</ele></trkpt>
<trkpt lat="49.03780" lon="10.84227"><ele>411</ele></trkpt>
<trkpt lat="49.03831" lon="10.84168"><ele>411</ele></trkpt>
<trkpt lat="49.04311" lon="10.83582"><ele>411</ele></trkpt>
<trkpt lat="49.04314" lon="10.83561"><ele>411</ele></trkpt>
<trkpt lat="49.04250" lon="10.83196"><ele>413</ele></trkpt>
<trkpt lat="49.04250" lon="10.83181"><ele>413</ele></trkpt>
<trkpt lat="49.04310" lon="10.83098"><ele>416</ele></trkpt>
<trkpt lat="49.04320" lon="10.83087"><ele>416</ele></trkpt>
<trkpt lat="49.04337" lon="10.83080"><ele>414</ele></trkpt>
<trkpt lat="49.04346" lon="10.83072"><ele>414</ele></trkpt>
<trkpt lat="49.04511" lon="10.82855"><ele>412</ele></trkpt>
<trkpt lat="49.04678" lon="10.82649"><ele>413</ele></trkpt>
<trkpt lat="49.04721" lon="10.82609"><ele>412</ele></trkpt>
<trkpt lat="49.04765" lon="10.82582"><ele>412</ele></trkpt>
<trkpt lat="49.04824" lon="10.82557"><ele>412</ele></trkpt>
<trkpt lat="49.04964" lon="10.82433"><ele>412</ele></trkpt>
<trkpt lat="49.05229" lon="10.82244"><ele>413</ele></trkpt>
<trkpt lat="49.05597" lon="10.81825"><ele>411</ele></trkpt>
<trkpt lat="49.06088" lon="10.81241"><ele>413</ele></trkpt>
<trkpt lat="49.06448" lon="10.80843"><ele>412</ele></trkpt>
<trkpt lat="49.06452" lon="10.80829"><ele>412</ele></trkpt>
<trkpt lat="49.06416" lon="10.80749"><ele>412</ele></trkpt>
<trkpt lat="49.06408" lon="10.80725"><ele>412</ele></trkpt>
<trkpt lat="49.06408" lon="10.80709"><ele>412</ele></trkpt>
<trkpt lat="49.06412" lon="10.80697"><ele>412</ele></trkpt>
<trkpt lat="49.06599" lon="10.80472"><ele>412</ele></trkpt>
<trkpt lat="49.06565" lon="10.80388"><ele>412</ele></trkpt>
<trkpt lat="49.06524" lon="10.80308"><ele>413</ele></trkpt>
<trkpt lat="49.06538" lon="10.80131"><ele>413</ele></trkpt>
<trkpt lat="49.06539" lon="10.79683"><ele>415</ele></trkpt>
<trkpt lat="49.06507" lon="10.79639"><ele>415</ele></trkpt>
<trkpt lat="49.06512" lon="10.79602"><ele>415</ele></trkpt>
<trkpt lat="49.06525" lon="10.79222"><ele>417</ele></trkpt>
<trkpt lat="49.06707" lon="10.79175"><ele>418</ele></trkpt>
<trkpt lat="49.06936" lon="10.79145"><ele>418</ele></trkpt>
<trkpt lat="49.07023" lon="10.79140"><ele>418</ele></trkpt>
<trkpt lat="49.07286" lon="10.79168"><ele>420</ele></trkpt>
<trkpt lat="49.07283" lon="10.79152"><ele>420</ele></trkpt>
<trkpt lat="49.07404" lon="10.79106"><ele>419</ele></trkpt>
<trkpt lat="49.07530" lon="10.79047"><ele>418</ele></trkpt>
<trkpt lat="49.07652" lon="10.78915"><ele>417</ele></trkpt>
<trkpt lat="49.07758" lon="10.78769"><ele>416</ele></trkpt>
<trkpt lat="49.07822" lon="10.78659"><ele>416</ele></trkpt>
<trkpt lat="49.07843" lon="10.78600"><ele>416</ele></trkpt>
<trkpt lat="49.07874" lon="10.78559"><ele>416</ele></trkpt>
<trkpt lat="49.07914" lon="10.78471"><ele>416</ele></trkpt>
<trkpt lat="49.08178" lon="10.77839"><ele>415</ele></trkpt>
<trkpt lat="49.08182" lon="10.77804"><ele>414</ele></trkpt>
<trkpt lat="49.08180" lon="10.77760"><ele>414</ele></trkpt>
<trkpt lat="49.08205" lon="10.77769"><ele>415</ele></trkpt>
<trkpt lat="49.08229" lon="10.77790"><ele>415</ele></trkpt>
<trkpt lat="49.08239" lon="10.77781"><ele>414</ele></trkpt>
<trkpt lat="49.08246" lon="10.77753"><ele>413</ele></trkpt>
<trkpt lat="49.08683" lon="10.76706"><ele>414</ele></trkpt>
<trkpt lat="49.08709" lon="10.76651"><ele>414</ele></trkpt>
<trkpt lat="49.08771" lon="10.76570"><ele>413</ele></trkpt>
<trkpt lat="49.08837" lon="10.76437"><ele>413</ele></trkpt>
<trkpt lat="49.08889" lon="10.76419"><ele>413</ele></trkpt>
<trkpt lat="49.08912" lon="10.76393"><ele>413</ele></trkpt>
<trkpt lat="49.08966" lon="10.76255"><ele>413</ele></trkpt>
<trkpt lat="49.08987" lon="10.76213"><ele>413</ele></trkpt>
<trkpt lat="49.09007" lon="10.76192"><ele>413</ele></trkpt>
<trkpt lat="49.09116" lon="10.76092"><ele>414</ele></trkpt>
<trkpt lat="49.09147" lon="10.76058"><ele>414</ele></trkpt>
<trkpt lat="49.09183" lon="10.75994"><ele>413</ele></trkpt>
<trkpt lat="49.09253" lon="10.75895"><ele>413</ele></trkpt>
<trkpt lat="49.09294" lon="10.75816"><ele>414</ele></trkpt>
<trkpt lat="49.09311" lon="10.75777"><ele>414</ele></trkpt>
<trkpt lat="49.09337" lon="10.75694"><ele>414</ele></trkpt>
<trkpt lat="49.09385" lon="10.75517"><ele>415</ele></trkpt>
<trkpt lat="49.09396" lon="10.75457"><ele>416</ele></trkpt>
<trkpt lat="49.09403" lon="10.75366"><ele>416</ele></trkpt>
<trkpt lat="49.09417" lon="10.75333"><ele>416</ele></trkpt>
<trkpt lat="49.09468" lon="10.75242"><ele>415</ele></trkpt>
<trkpt lat="49.09555" lon="10.75170"><ele>415</ele></trkpt>
<trkpt lat="49.09645" lon="10.75308"><ele>414</ele></trkpt>
<trkpt lat="49.09652" lon="10.75310"><ele>414</ele></trkpt>
<trkpt lat="49.09692" lon="10.75304"><ele>414</ele></trkpt>
<trkpt lat="49.09698" lon="10.75302"><ele>414</ele></trkpt>
<trkpt lat="49.09704" lon="10.75291"><ele>414</ele></trkpt>
<trkpt lat="49.09715" lon="10.75255"><ele>414</ele></trkpt>
<trkpt lat="49.09726" lon="10.75236"><ele>414</ele></trkpt>
<trkpt lat="49.09744" lon="10.75216"><ele>414</ele></trkpt>
<trkpt lat="49.09755" lon="10.75215"><ele>414</ele></trkpt>
<trkpt lat="49.09793" lon="10.75158"><ele>414</ele></trkpt>
<trkpt lat="49.09828" lon="10.75129"><ele>414</ele></trkpt>
<trkpt lat="49.09870" lon="10.75102"><ele>413</ele></trkpt>
<trkpt lat="49.10007" lon="10.75086"><ele>413</ele></trkpt>
<trkpt lat="49.10064" lon="10.75075"><ele>413</ele></trkpt>
<trkpt lat="49.10101" lon="10.75077"><ele>412</ele></trkpt>
<trkpt lat="49.10913" lon="10.75249"><ele>413</ele></trkpt>
<trkpt lat="49.10871" lon="10.75039"><ele>412</ele></trkpt>
<trkpt lat="49.10939" lon="10.75038"><ele>412</ele></trkpt>
<trkpt lat="49.11019" lon="10.75046"><ele>413</ele></trkpt>
<trkpt lat="49.11210" lon="10.75076"><ele>412</ele></trkpt>
<trkpt lat="49.11266" lon="10.75079"><ele>413</ele></trkpt>
<trkpt lat="49.11292" lon="10.75075"><ele>413</ele></trkpt>
<trkpt lat="49.11346" lon="10.75053"><ele>413</ele></trkpt>
<trkpt lat="49.11358" lon="10.75044"><ele>413</ele></trkpt>
<trkpt lat="49.11367" lon="10.75029"><ele>413</ele></trkpt>
<trkpt lat="49.11378" lon="10.74905"><ele>414</ele></trkpt>
<trkpt lat="49.11382" lon="10.74902"><ele>414</ele></trkpt>
<trkpt lat="49.11397" lon="10.74930"><ele>414</ele></trkpt>
<trkpt lat="49.11478" lon="10.75043"><ele>414</ele></trkpt>
<trkpt lat="49.11488" lon="10.75061"><ele>414</ele></trkpt>
<trkpt lat="49.11488" lon="10.75146"><ele>413</ele></trkpt>
<trkpt lat="49.11483" lon="10.75171"><ele>413</ele></trkpt>
<trkpt lat="49.11472" lon="10.75193"><ele>413</ele></trkpt>
<trkpt lat="49.11442" lon="10.75215"><ele>412</ele></trkpt>
<trkpt lat="49.11427" lon="10.75231"><ele>412</ele></trkpt>
<trkpt lat="49.11412" lon="10.75280"><ele>413</ele></trkpt>
<trkpt lat="49.11412" lon="10.75305"><ele>413</ele></trkpt>
<trkpt lat="49.11434" lon="10.75371"><ele>414</ele></trkpt>
<trkpt lat="49.11432" lon="10.75380"><ele>414</ele></trkpt>
<trkpt lat="49.11445" lon="10.75424"><ele>414</ele></trkpt>
<trkpt lat="49.11431" lon="10.75436"><ele>414</ele></trkpt>
<trkpt lat="49.11448" lon="10.75484"><ele>415</ele></trkpt>
<trkpt lat="49.11445" lon="10.75487"><ele>415</ele></trkpt>
<trkpt lat="49.11463" lon="10.75540"><ele>417</ele></trkpt>
<trkpt lat="49.11482" lon="10.75563"><ele>419</ele></trkpt>
<trkpt lat="49.11500" lon="10.75602"><ele>420</ele></trkpt>
<trkpt lat="49.11487" lon="10.75613"><ele>420</ele></trkpt>
<trkpt lat="49.11575" lon="10.75873"><ele>424</ele></trkpt>
<trkpt lat="49.11620" lon="10.75840"><ele>424</ele></trkpt>
<trkpt lat="49.11671" lon="10.76293"><ele>434</ele></trkpt>
<trkpt lat="49.11675" lon="10.76318"><ele>435</ele></trkpt>
<trkpt lat="49.11795" lon="10.76320"><ele>430</ele></trkpt>
<trkpt lat="49.11805" lon="10.76324"><ele>429</ele></trkpt>
<trkpt lat="49.11819" lon="10.76336"><ele>429</ele></trkpt>
<trkpt lat="49.11830" lon="10.76352"><ele>429</ele></trkpt>
<trkpt lat="49.11848" lon="10.76478"><ele>432</ele></trkpt>
<trkpt lat="49.11913" lon="10.76630"><ele>433</ele></trkpt>
<trkpt lat="49.11945" lon="10.76722"><ele>432</ele></trkpt>
<trkpt lat="49.11997" lon="10.76844"><ele>431</ele></trkpt>
<trkpt lat="49.12006" lon="10.76876"><ele>432</ele></trkpt>
<trkpt lat="49.12027" lon="10.77038"><ele>432</ele></trkpt>
<trkpt lat="49.12080" lon="10.77206"><ele>433</ele></trkpt>
<trkpt lat="49.12112" lon="10.77390"><ele>434</ele></trkpt>
<trkpt lat="49.12132" lon="10.77554"><ele>433</ele></trkpt>
<trkpt lat="49.12138" lon="10.77712"><ele>433</ele></trkpt>
<trkpt lat="49.12154" lon="10.77712"><ele>433</ele></trkpt>
<trkpt lat="49.12181" lon="10.77723"><ele>432</ele></trkpt>
<trkpt lat="49.12194" lon="10.77736"><ele>432</ele></trkpt>
<trkpt lat="49.12201" lon="10.77748"><ele>432</ele></trkpt>
<trkpt lat="49.12222" lon="10.77806"><ele>431</ele></trkpt>
<trkpt lat="49.12248" lon="10.77918"><ele>430</ele></trkpt>
<trkpt lat="49.12276" lon="10.78008"><ele>430</ele></trkpt>
<trkpt lat="49.12291" lon="10.78039"><ele>430</ele></trkpt>
<trkpt lat="49.12309" lon="10.78059"><ele>430</ele></trkpt>
<trkpt lat="49.12330" lon="10.78065"><ele>430</ele></trkpt>
<trkpt lat="49.12452" lon="10.78043"><ele>428</ele></trkpt>
<trkpt lat="49.12450" lon="10.78136"><ele>428</ele></trkpt>
<trkpt lat="49.12447" lon="10.78148"><ele>428</ele></trkpt>
<trkpt lat="49.12538" lon="10.78050"><ele>425</ele></trkpt>
<trkpt lat="49.12548" lon="10.78045"><ele>426</ele></trkpt>
<trkpt lat="49.12589" lon="10.78050"><ele>424</ele></trkpt>
<trkpt lat="49.12637" lon="10.78039"><ele>422</ele></trkpt>
<trkpt lat="49.12647" lon="10.78100"><ele>421</ele></trkpt>
<trkpt lat="49.12661" lon="10.78151"><ele>421</ele></trkpt>
<trkpt lat="49.12681" lon="10.78199"><ele>420</ele></trkpt>
<trkpt lat="49.12728" lon="10.78282"><ele>421</ele></trkpt>
<trkpt lat="49.12734" lon="10.78302"><ele>421</ele></trkpt>
<trkpt lat="49.12736" lon="10.78538"><ele>423</ele></trkpt>
<trkpt lat="49.12757" lon="10.78628"><ele>423</ele></trkpt>
<trkpt lat="49.12747" lon="10.78690"><ele>423</ele></trkpt>
<trkpt lat="49.12740" lon="10.78811"><ele>423</ele></trkpt>
<trkpt lat="49.12741" lon="10.78872"><ele>424</ele></trkpt>
<trkpt lat="49.12717" lon="10.78930"><ele>424</ele></trkpt>
<trkpt lat="49.12876" lon="10.79005"><ele>422</ele></trkpt>
<trkpt lat="49.12884" lon="10.79048"><ele>424</ele></trkpt>
<trkpt lat="49.12892" lon="10.79142"><ele>425</ele></trkpt>
<trkpt lat="49.12899" lon="10.79170"><ele>425</ele></trkpt>
<trkpt lat="49.12964" lon="10.79273"><ele>426</ele></trkpt>
<trkpt lat="49.13054" lon="10.79489"><ele>427</ele></trkpt>
<trkpt lat="49.13087" lon="10.79554"><ele>429</ele></trkpt>
<trkpt lat="49.13105" lon="10.79605"><ele>430</ele></trkpt>
<trkpt lat="49.13195" lon="10.79762"><ele>432</ele></trkpt>
<trkpt lat="49.13004" lon="10.80347"><ele>433</ele></trkpt>
<trkpt lat="49.12994" lon="10.80367"><ele>434</ele></trkpt>
<trkpt lat="49.12836" lon="10.80601"><ele>436</ele></trkpt>
<trkpt lat="49.12824" lon="10.80635"><ele>436</ele></trkpt>
<trkpt lat="49.12802" lon="10.80765"><ele>436</ele></trkpt>
<trkpt lat="49.12835" lon="10.80891"><ele>436</ele></trkpt>
<trkpt lat="49.12843" lon="10.80954"><ele>436</ele></trkpt>
<trkpt lat="49.12631" lon="10.81057"><ele>436</ele></trkpt>
<trkpt lat="49.12727" lon="10.81533"><ele>436</ele></trkpt>
<trkpt lat="49.12751" lon="10.81662"><ele>436</ele></trkpt>
<trkpt lat="49.12851" lon="10.82149"><ele>431</ele></trkpt>
<trkpt lat="49.12569" lon="10.82284"><ele>432</ele></trkpt>
<trkpt lat="49.12497" lon="10.82315"><ele>432</ele></trkpt>
<trkpt lat="49.12506" lon="10.82412"><ele>431</ele></trkpt>
<trkpt lat="49.12528" lon="10.82540"><ele>431</ele></trkpt>
<trkpt lat="49.12561" lon="10.82696"><ele>426</ele></trkpt>
<trkpt lat="49.12595" lon="10.82874"><ele>421</ele></trkpt>
<trkpt lat="49.12602" lon="10.82889"><ele>420</ele></trkpt>
<trkpt lat="49.12585" lon="10.82960"><ele>422</ele></trkpt>
<trkpt lat="49.12588" lon="10.83054"><ele>421</ele></trkpt>
<trkpt lat="49.12619" lon="10.83210"><ele>419</ele></trkpt>
<trkpt lat="49.12617" lon="10.83240"><ele>420</ele></trkpt>
<trkpt lat="49.12599" lon="10.83259"><ele>421</ele></trkpt>
<trkpt lat="49.12377" lon="10.83358"><ele>422</ele></trkpt>
<trkpt lat="49.12356" lon="10.83360"><ele>422</ele></trkpt>
<trkpt lat="49.12304" lon="10.83354"><ele>424</ele></trkpt>
<trkpt lat="49.12348" lon="10.83498"><ele>422</ele></trkpt>
<trkpt lat="49.12386" lon="10.83605"><ele>422</ele></trkpt>
<trkpt lat="49.12221" lon="10.83860"><ele>428</ele></trkpt>
<trkpt lat="49.12150" lon="10.83989"><ele>428</ele></trkpt>
<trkpt lat="49.12146" lon="10.84011"><ele>428</ele></trkpt>
<trkpt lat="49.12113" lon="10.84453"><ele>428</ele></trkpt>
<trkpt lat="49.12117" lon="10.84541"><ele>428</ele></trkpt>
<trkpt lat="49.12108" lon="10.84542"><ele>428</ele></trkpt>
<trkpt lat="49.12105" lon="10.84606"><ele>426</ele></trkpt>
<trkpt lat="49.12079" lon="10.84894"><ele>425</ele></trkpt>
<trkpt lat="49.12066" lon="10.85002"><ele>426</ele></trkpt>
<trkpt lat="49.12005" lon="10.85404"><ele>426</ele></trkpt>
<trkpt lat="49.12002" lon="10.85448"><ele>426</ele></trkpt>
<trkpt lat="49.12002" lon="10.85514"><ele>427</ele></trkpt>
<trkpt lat="49.12011" lon="10.85524"><ele>426</ele></trkpt>
<trkpt lat="49.12020" lon="10.85554"><ele>426</ele></trkpt>
<trkpt lat="49.12018" lon="10.85568"><ele>426</ele></trkpt>
<trkpt lat="49.12000" lon="10.85600"><ele>427</ele></trkpt>
<trkpt lat="49.11995" lon="10.85616"><ele>427</ele></trkpt>
<trkpt lat="49.12002" lon="10.85762"><ele>426</ele></trkpt>
<trkpt lat="49.12015" lon="10.85830"><ele>425</ele></trkpt>
<trkpt lat="49.11968" lon="10.85865"><ele>426</ele></trkpt>
<trkpt lat="49.11921" lon="10.85889"><ele>427</ele></trkpt>
<trkpt lat="49.11914" lon="10.85897"><ele>427</ele></trkpt>
<trkpt lat="49.11865" lon="10.86105"><ele>427</ele></trkpt>
<trkpt lat="49.11835" lon="10.86219"><ele>427</ele></trkpt>
<trkpt lat="49.11777" lon="10.86407"><ele>428</ele></trkpt>
<trkpt lat="49.11738" lon="10.86502"><ele>428</ele></trkpt>
<trkpt lat="49.11711" lon="10.86611"><ele>428</ele></trkpt>
<trkpt lat="49.11678" lon="10.86752"><ele>428</ele></trkpt>
<trkpt lat="49.11638" lon="10.86981"><ele>427</ele></trkpt>
<trkpt lat="49.11624" lon="10.87158"><ele>425</ele></trkpt>
<trkpt lat="49.11625" lon="10.87201"><ele>424</ele></trkpt>
<trkpt lat="49.11637" lon="10.87264"><ele>424</ele></trkpt>
<trkpt lat="49.11678" lon="10.87401"><ele>424</ele></trkpt>
<trkpt lat="49.11723" lon="10.87608"><ele>425</ele></trkpt>
<trkpt lat="49.11758" lon="10.87728"><ele>425</ele></trkpt>
<trkpt lat="49.11836" lon="10.87928"><ele>427</ele></trkpt>
<trkpt lat="49.11845" lon="10.87963"><ele>428</ele></trkpt>
<trkpt lat="49.11851" lon="10.88002"><ele>428</ele></trkpt>
<trkpt lat="49.11849" lon="10.88317"><ele>424</ele></trkpt>
<trkpt lat="49.11867" lon="10.88366"><ele>426</ele></trkpt>
<trkpt lat="49.11888" lon="10.88451"><ele>429</ele></trkpt>
<trkpt lat="49.11931" lon="10.88600"><ele>438</ele></trkpt>
<trkpt lat="49.12008" lon="10.88737"><ele>444</ele></trkpt>
<trkpt lat="49.11998" lon="10.88812"><ele>447</ele></trkpt>
<trkpt lat="49.11985" lon="10.88950"><ele>453</ele></trkpt>
<trkpt lat="49.11992" lon="10.89117"><ele>466</ele></trkpt>
<trkpt lat="49.11989" lon="10.89375"><ele>475</ele></trkpt>
<trkpt lat="49.12009" lon="10.89564"><ele>477</ele></trkpt>
<trkpt lat="49.12005" lon="10.89706"><ele>478</ele></trkpt>
<trkpt lat="49.11985" lon="10.89939"><ele>479</ele></trkpt>
<trkpt lat="49.11998" lon="10.90118"><ele>482</ele></trkpt>
<trkpt lat="49.12002" lon="10.90268"><ele>485</ele></trkpt>
<trkpt lat="49.12015" lon="10.90350"><ele>484</ele></trkpt>
<trkpt lat="49.12010" lon="10.90364"><ele>484</ele></trkpt>
<trkpt lat="49.11946" lon="10.90370"><ele>484</ele></trkpt>
<trkpt lat="49.11928" lon="10.90379"><ele>483</ele></trkpt>
<trkpt lat="49.11924" lon="10.90405"><ele>483</ele></trkpt>
<trkpt lat="49.11918" lon="10.90530"><ele>481</ele></trkpt>
<trkpt lat="49.11921" lon="10.90598"><ele>480</ele></trkpt>
<trkpt lat="49.11929" lon="10.90649"><ele>479</ele></trkpt>
<trkpt lat="49.11975" lon="10.90823"><ele>478</ele></trkpt>
<trkpt lat="49.11983" lon="10.90826"><ele>478</ele></trkpt>
<trkpt lat="49.11991" lon="10.90836"><ele>478</ele></trkpt>
<trkpt lat="49.11997" lon="10.90857"><ele>478</ele></trkpt>
<trkpt lat="49.12014" lon="10.90947"><ele>477</ele></trkpt>
<trkpt lat="49.12014" lon="10.90975"><ele>477</ele></trkpt>
<trkpt lat="49.12011" lon="10.91006"><ele>477</ele></trkpt>
<trkpt lat="49.11949" lon="10.91268"><ele>479</ele></trkpt>
<trkpt lat="49.11942" lon="10.91319"><ele>480</ele></trkpt>
<trkpt lat="49.11925" lon="10.91649"><ele>474</ele></trkpt>
<trkpt lat="49.11928" lon="10.91859"><ele>454</ele></trkpt>
<trkpt lat="49.11927" lon="10.91933"><ele>449</ele></trkpt>
<trkpt lat="49.11920" lon="10.92066"><ele>445</ele></trkpt>
<trkpt lat="49.11922" lon="10.92098"><ele>444</ele></trkpt>
<trkpt lat="49.11886" lon="10.92103"><ele>444</ele></trkpt>
<trkpt lat="49.11865" lon="10.92159"><ele>442</ele></trkpt>
<trkpt lat="49.11834" lon="10.92202"><ele>440</ele></trkpt>
<trkpt lat="49.11800" lon="10.92262"><ele>438</ele></trkpt>
<trkpt lat="49.11762" lon="10.92315"><ele>438</ele></trkpt>
<trkpt lat="49.11710" lon="10.92348"><ele>434</ele></trkpt>
<trkpt lat="49.11666" lon="10.92369"><ele>431</ele></trkpt>
<trkpt lat="49.11621" lon="10.92404"><ele>428</ele></trkpt>
<trkpt lat="49.11659" lon="10.92579"><ele>434</ele></trkpt>
<trkpt lat="49.11658" lon="10.92597"><ele>434</ele></trkpt>
<trkpt lat="49.11653" lon="10.92595"><ele>434</ele></trkpt>
<trkpt lat="49.11638" lon="10.92681"><ele>435</ele></trkpt>
<trkpt lat="49.11641" lon="10.92690"><ele>435</ele></trkpt>
<trkpt lat="49.11655" lon="10.92702"><ele>436</ele></trkpt>
<trkpt lat="49.11665" lon="10.92724"><ele>437</ele></trkpt>
<trkpt lat="49.11624" lon="10.92735"><ele>438</ele></trkpt>
<trkpt lat="49.11613" lon="10.92783"><ele>442</ele></trkpt>
<trkpt lat="49.11595" lon="10.92833"><ele>449</ele></trkpt>
<trkpt lat="49.11565" lon="10.92864"><ele>452</ele></trkpt>
<trkpt lat="49.11467" lon="10.93000"><ele>466</ele></trkpt>
<trkpt lat="49.11454" lon="10.93027"><ele>469</ele></trkpt>
<trkpt lat="49.11447" lon="10.93107"><ele>473</ele></trkpt>
<trkpt lat="49.11415" lon="10.93230"><ele>474</ele></trkpt>
<trkpt lat="49.11404" lon="10.93291"><ele>473</ele></trkpt>
<trkpt lat="49.11380" lon="10.93540"><ele>470</ele></trkpt>
<trkpt lat="49.11379" lon="10.93588"><ele>470</ele></trkpt>
<trkpt lat="49.11387" lon="10.93771"><ele>472</ele></trkpt>
<trkpt lat="49.11411" lon="10.93967"><ele>473</ele></trkpt>
<trkpt lat="49.11415" lon="10.93984"><ele>473</ele></trkpt>
<trkpt lat="49.11428" lon="10.94010"><ele>472</ele></trkpt>
<trkpt lat="49.11460" lon="10.94043"><ele>472</ele></trkpt>
<trkpt lat="49.11487" lon="10.94085"><ele>472</ele></trkpt>
<trkpt lat="49.11512" lon="10.94146"><ele>474</ele></trkpt>
<trkpt lat="49.11541" lon="10.94236"><ele>474</ele></trkpt>
<trkpt lat="49.11348" lon="10.94562"><ele>462</ele></trkpt>
<trkpt lat="49.11324" lon="10.94589"><ele>461</ele></trkpt>
<trkpt lat="49.11277" lon="10.94626"><ele>462</ele></trkpt>
<trkpt lat="49.11237" lon="10.94667"><ele>461</ele></trkpt>
<trkpt lat="49.11184" lon="10.94743"><ele>459</ele></trkpt>
<trkpt lat="49.11160" lon="10.94828"><ele>456</ele></trkpt>
<trkpt lat="49.11119" lon="10.95026"><ele>452</ele></trkpt>
<trkpt lat="49.11114" lon="10.95078"><ele>450</ele></trkpt>
<trkpt lat="49.11134" lon="10.95260"><ele>451</ele></trkpt>
<trkpt lat="49.11162" lon="10.95546"><ele>447</ele></trkpt>
<trkpt lat="49.11158" lon="10.95765"><ele>448</ele></trkpt>
<trkpt lat="49.11161" lon="10.95797"><ele>447</ele></trkpt>
<trkpt lat="49.11232" lon="10.96133"><ele>428</ele></trkpt>
<trkpt lat="49.10941" lon="10.96058"><ele>424</ele></trkpt>
<trkpt lat="49.10468" lon="10.96418"><ele>398</ele></trkpt>
<trkpt lat="49.10449" lon="10.96400"><ele>397</ele></trkpt>
<trkpt lat="49.10408" lon="10.96385"><ele>397</ele></trkpt>
<trkpt lat="49.10260" lon="10.96372"><ele>396</ele></trkpt>
<trkpt lat="49.10247" lon="10.96565"><ele>399</ele></trkpt>
<trkpt lat="49.10246" lon="10.96708"><ele>399</ele></trkpt>
<trkpt lat="49.10239" lon="10.96975"><ele>400</ele></trkpt>
<trkpt lat="49.10231" lon="10.97029"><ele>399</ele></trkpt>
<trkpt lat="49.10233" lon="10.97203"><ele>400</ele></trkpt>
<trkpt lat="49.10240" lon="10.97256"><ele>400</ele></trkpt>
<trkpt lat="49.10258" lon="10.97334"><ele>399</ele></trkpt>
<trkpt lat="49.10309" lon="10.97512"><ele>395</ele></trkpt>
<trkpt lat="49.10268" lon="10.97518"><ele>395</ele></trkpt>
<trkpt lat="49.10268" lon="10.97770"><ele>390</ele></trkpt>
<trkpt lat="49.10270" lon="10.97821"><ele>389</ele></trkpt>
<trkpt lat="49.10284" lon="10.97969"><ele>385</ele></trkpt>
<trkpt lat="49.10282" lon="10.98070"><ele>384</ele></trkpt>
<trkpt lat="49.10301" lon="10.98070"><ele>382</ele></trkpt>
<trkpt lat="49.10304" lon="10.98079"><ele>382</ele></trkpt>
<trkpt lat="49.10300" lon="10.98112"><ele>382</ele></trkpt>
<trkpt lat="49.10301" lon="10.98139"><ele>382</ele></trkpt>
<trkpt lat="49.10243" lon="10.98182"><ele>385</ele></trkpt>
<trkpt lat="49.10225" lon="10.98189"><ele>386</ele></trkpt>
<trkpt lat="49.10174" lon="10.98190"><ele>386</ele></trkpt>
<trkpt lat="49.10142" lon="10.98185"><ele>386</ele></trkpt>
<trkpt lat="49.10131" lon="10.98192"><ele>384</ele></trkpt>
<trkpt lat="49.09994" lon="10.98111"><ele>388</ele></trkpt>
<trkpt lat="49.09943" lon="10.98089"><ele>388</ele></trkpt>
<trkpt lat="49.09885" lon="10.98071"><ele>387</ele></trkpt>
<trkpt lat="49.09733" lon="10.98059"><ele>386</ele></trkpt>
<trkpt lat="49.09677" lon="10.98048"><ele>384</ele></trkpt>
<trkpt lat="49.09586" lon="10.98010"><ele>377</ele></trkpt>
<trkpt lat="49.09475" lon="10.97945"><ele>377</ele></trkpt>
<trkpt lat="49.09430" lon="10.97838"><ele>377</ele></trkpt>
<trkpt lat="49.09331" lon="10.97620"><ele>378</ele></trkpt>
<trkpt lat="49.09185" lon="10.97384"><ele>378</ele></trkpt>
<trkpt lat="49.09157" lon="10.97325"><ele>378</ele></trkpt>
<trkpt lat="49.09084" lon="10.97127"><ele>383</ele></trkpt>
<trkpt lat="49.09058" lon="10.97034"><ele>382</ele></trkpt>
<trkpt lat="49.08999" lon="10.96762"><ele>380</ele></trkpt>
<trkpt lat="49.08984" lon="10.96711"><ele>382</ele></trkpt>
<trkpt lat="49.08968" lon="10.96675"><ele>382</ele></trkpt>
<trkpt lat="49.08861" lon="10.96493"><ele>384</ele></trkpt>
<trkpt lat="49.08804" lon="10.96422"><ele>382</ele></trkpt>
<trkpt lat="49.08782" lon="10.96400"><ele>382</ele></trkpt>
<trkpt lat="49.08727" lon="10.96359"><ele>381</ele></trkpt>
<trkpt lat="49.08631" lon="10.96300"><ele>382</ele></trkpt>
<trkpt lat="49.08558" lon="10.96270"><ele>382</ele></trkpt>
<trkpt lat="49.08076" lon="10.96204"><ele>385</ele></trkpt>
<trkpt lat="49.07999" lon="10.96200"><ele>385</ele></trkpt>
<trkpt lat="49.07961" lon="10.96214"><ele>386</ele></trkpt>
<trkpt lat="49.07827" lon="10.96296"><ele>388</ele></trkpt>
<trkpt lat="49.07677" lon="10.96381"><ele>399</ele></trkpt>
<trkpt lat="49.07626" lon="10.96404"><ele>404</ele></trkpt>
<trkpt lat="49.07461" lon="10.96416"><ele>398</ele></trkpt>
<trkpt lat="49.07235" lon="10.96422"><ele>393</ele></trkpt>
<trkpt lat="49.07057" lon="10.96453"><ele>392</ele></trkpt>
<trkpt lat="49.06999" lon="10.96472"><ele>389</ele></trkpt>
<trkpt lat="49.06983" lon="10.96473"><ele>389</ele></trkpt>
<trkpt lat="49.06954" lon="10.96449"><ele>390</ele></trkpt>
<trkpt lat="49.06924" lon="10.96399"><ele>390</ele></trkpt>
<trkpt lat="49.06915" lon="10.96371"><ele>389</ele></trkpt>
<trkpt lat="49.06910" lon="10.96324"><ele>388</ele></trkpt>
<trkpt lat="49.06905" lon="10.96315"><ele>388</ele></trkpt>
<trkpt lat="49.06875" lon="10.96337"><ele>389</ele></trkpt>
<trkpt lat="49.06849" lon="10.96349"><ele>390</ele></trkpt>
<trkpt lat="49.06797" lon="10.96348"><ele>389</ele></trkpt>
<trkpt lat="49.06719" lon="10.96323"><ele>388</ele></trkpt>
<trkpt lat="49.06576" lon="10.96269"><ele>388</ele></trkpt>
<trkpt lat="49.06550" lon="10.96266"><ele>388</ele></trkpt>
<trkpt lat="49.06467" lon="10.96285"><ele>389</ele></trkpt>
<trkpt lat="49.06348" lon="10.96271"><ele>389</ele></trkpt>
<trkpt lat="49.06273" lon="10.96241"><ele>389</ele></trkpt>
<trkpt lat="49.06251" lon="10.96228"><ele>388</ele></trkpt>
<trkpt lat="49.06158" lon="10.96127"><ele>389</ele></trkpt>
<trkpt lat="49.06140" lon="10.96112"><ele>389</ele></trkpt>
<trkpt lat="49.06105" lon="10.96093"><ele>390</ele></trkpt>
<trkpt lat="49.06045" lon="10.96078"><ele>389</ele></trkpt>
<trkpt lat="49.06015" lon="10.95969"><ele>391</ele></trkpt>
<trkpt lat="49.06007" lon="10.95928"><ele>392</ele></trkpt>
<trkpt lat="49.05997" lon="10.95914"><ele>392</ele></trkpt>
<trkpt lat="49.05883" lon="10.95943"><ele>396</ele></trkpt>
<trkpt lat="49.05768" lon="10.95992"><ele>396</ele></trkpt>
<trkpt lat="49.05716" lon="10.96029"><ele>392</ele></trkpt>
<trkpt lat="49.05692" lon="10.95987"><ele>392</ele></trkpt>
<trkpt lat="49.05676" lon="10.95980"><ele>392</ele></trkpt>
<trkpt lat="49.05671" lon="10.95967"><ele>392</ele></trkpt>
<trkpt lat="49.05555" lon="10.95889"><ele>395</ele></trkpt>
<trkpt lat="49.05541" lon="10.95814"><ele>396</ele></trkpt>
<trkpt lat="49.05495" lon="10.95842"><ele>402</ele></trkpt>
<trkpt lat="49.05456" lon="10.95851"><ele>404</ele></trkpt>
<trkpt lat="49.05412" lon="10.95843"><ele>406</ele></trkpt>
<trkpt lat="49.05395" lon="10.95828"><ele>408</ele></trkpt>
<trkpt lat="49.05383" lon="10.95825"><ele>408</ele></trkpt>
<trkpt lat="49.05308" lon="10.95854"><ele>413</ele></trkpt>
<trkpt lat="49.05290" lon="10.95856"><ele>415</ele></trkpt>
<trkpt lat="49.05270" lon="10.95840"><ele>417</ele></trkpt>
<trkpt lat="49.05256" lon="10.95836"><ele>418</ele></trkpt>
<trkpt lat="49.05215" lon="10.95865"><ele>416</ele></trkpt>
<trkpt lat="49.05182" lon="10.95895"><ele>412</ele></trkpt>
<trkpt lat="49.05152" lon="10.95913"><ele>409</ele></trkpt>
<trkpt lat="49.05130" lon="10.95921"><ele>406</ele></trkpt>
<trkpt lat="49.05078" lon="10.95918"><ele>400</ele></trkpt>
<trkpt lat="49.05090" lon="10.96010"><ele>398</ele></trkpt>
<trkpt lat="49.05156" lon="10.96254"><ele>396</ele></trkpt>
<trkpt lat="49.05055" lon="10.96280"><ele>396</ele></trkpt>
<trkpt lat="49.04625" lon="10.96547"><ele>394</ele></trkpt>
<trkpt lat="49.04610" lon="10.96470"><ele>395</ele></trkpt>
<trkpt lat="49.04590" lon="10.96393"><ele>396</ele></trkpt>
<trkpt lat="49.04458" lon="10.96434"><ele>399</ele></trkpt>
<trkpt lat="49.04356" lon="10.96432"><ele>398</ele></trkpt>
<trkpt lat="49.04310" lon="10.96388"><ele>399</ele></trkpt>
<trkpt lat="49.04222" lon="10.96284"><ele>405</ele></trkpt>
<trkpt lat="49.04204" lon="10.96317"><ele>400</ele></trkpt>
<trkpt lat="49.04171" lon="10.96360"><ele>398</ele></trkpt>
<trkpt lat="49.04128" lon="10.96405"><ele>399</ele></trkpt>
<trkpt lat="49.04087" lon="10.96455"><ele>399</ele></trkpt>
<trkpt lat="49.04058" lon="10.96464"><ele>400</ele></trkpt>
<trkpt lat="49.04032" lon="10.96481"><ele>406</ele></trkpt>
<trkpt lat="49.04005" lon="10.96492"><ele>409</ele></trkpt>
<trkpt lat="49.03917" lon="10.96584"><ele>414</ele></trkpt>
<trkpt lat="49.03915" lon="10.96690"><ele>418</ele></trkpt>
<trkpt lat="49.03912" lon="10.96749"><ele>419</ele></trkpt>
<trkpt lat="49.03927" lon="10.97054"><ele>423</ele></trkpt>
<trkpt lat="49.03689" lon="10.97125"><ele>421</ele></trkpt>
<trkpt lat="49.03561" lon="10.97141"><ele>422</ele></trkpt>
<trkpt lat="49.03451" lon="10.97184"><ele>423</ele></trkpt>
<trkpt lat="49.03334" lon="10.97200"><ele>424</ele></trkpt>
<trkpt lat="49.03307" lon="10.97192"><ele>423</ele></trkpt>
<trkpt lat="49.03294" lon="10.97177"><ele>423</ele></trkpt>
<trkpt lat="49.03288" lon="10.97156"><ele>422</ele></trkpt>
<trkpt lat="49.03287" lon="10.97086"><ele>421</ele></trkpt>
<trkpt lat="49.03279" lon="10.97049"><ele>421</ele></trkpt>
<trkpt lat="49.03243" lon="10.96988"><ele>420</ele></trkpt>
<trkpt lat="49.03226" lon="10.96991"><ele>420</ele></trkpt>
<trkpt lat="49.03218" lon="10.96998"><ele>420</ele></trkpt>
<trkpt lat="49.03213" lon="10.97008"><ele>420</ele></trkpt>
<trkpt lat="49.03201" lon="10.97066"><ele>422</ele></trkpt>
<trkpt lat="49.03113" lon="10.97189"><ele>423</ele></trkpt>
<trkpt lat="49.03104" lon="10.97190"><ele>423</ele></trkpt>
<trkpt lat="49.03100" lon="10.97195"><ele>423</ele></trkpt>
    </trkseg>
  </trk>
</gpx>
