<?xml version="1.0" encoding="UTF-8"?>
<gpx version="1.1" creator="Gravel Kompass" xmlns="http://www.topografix.com/GPX/1/1">
  <metadata><name>Altmühltal-Runde: Donau, Kalkfelsen &amp; Fränkisches Seenland – Etappe 2</name></metadata>
  <trk>
    <name>Etappe 2: Kelheim – Kipfenberg</name>
    <trkseg>
<trkpt lat="48.91700" lon="11.88752"><ele>345</ele></trkpt>
<trkpt lat="48.91778" lon="11.88755"><ele>345</ele></trkpt>
<trkpt lat="48.91784" lon="11.88660"><ele>345</ele></trkpt>
<trkpt lat="48.91792" lon="11.88585"><ele>344</ele></trkpt>
<trkpt lat="48.91804" lon="11.88514"><ele>344</ele></trkpt>
<trkpt lat="48.91832" lon="11.88425"><ele>343</ele></trkpt>
<trkpt lat="48.91902" lon="11.88249"><ele>342</ele></trkpt>
<trkpt lat="48.91915" lon="11.88205"><ele>343</ele></trkpt>
<trkpt lat="48.91928" lon="11.88145"><ele>343</ele></trkpt>
<trkpt lat="48.91930" lon="11.88122"><ele>342</ele></trkpt>
<trkpt lat="48.91885" lon="11.88054"><ele>343</ele></trkpt>
<trkpt lat="48.91861" lon="11.88010"><ele>344</ele></trkpt>
<trkpt lat="48.91755" lon="11.87770"><ele>346</ele></trkpt>
<trkpt lat="48.91752" lon="11.87731"><ele>348</ele></trkpt>
<trkpt lat="48.91763" lon="11.87712"><ele>347</ele></trkpt>
<trkpt lat="48.91774" lon="11.87681"><ele>347</ele></trkpt>
<trkpt lat="48.91793" lon="11.87662"><ele>345</ele></trkpt>
<trkpt lat="48.91791" lon="11.87617"><ele>345</ele></trkpt>
<trkpt lat="48.91799" lon="11.87605"><ele>344</ele></trkpt>
<trkpt lat="48.91819" lon="11.87495"><ele>342</ele></trkpt>
<trkpt lat="48.91826" lon="11.87510"><ele>342</ele></trkpt>
<trkpt lat="48.91888" lon="11.87543"><ele>341</ele></trkpt>
<trkpt lat="48.91891" lon="11.87557"><ele>342</ele></trkpt>
<trkpt lat="48.91903" lon="11.87576"><ele>343</ele></trkpt>
<trkpt lat="48.91911" lon="11.87581"><ele>343</ele></trkpt>
<trkpt lat="48.91936" lon="11.87577"><ele>340</ele></trkpt>
<trkpt lat="48.91965" lon="11.87523"><ele>340</ele></trkpt>
<trkpt lat="48.92014" lon="11.87417"><ele>341</ele></trkpt>
<trkpt lat="48.92127" lon="11.87079"><ele>341</ele></trkpt>
<trkpt lat="48.92167" lon="11.86942"><ele>343</ele></trkpt>
<trkpt lat="48.92196" lon="11.86818"><ele>343</ele></trkpt>
<trkpt lat="48.92197" lon="11.86782"><ele>344</ele></trkpt>
<trkpt lat="48.92207" lon="11.86714"><ele>343</ele></trkpt>
<trkpt lat="48.92226" lon="11.86672"><ele>342</ele></trkpt>
<trkpt lat="48.92230" lon="11.86655"><ele>342</ele></trkpt>
<trkpt lat="48.92268" lon="11.86388"><ele>341</ele></trkpt>
<trkpt lat="48.92291" lon="11.86203"><ele>341</ele></trkpt>
<trkpt lat="48.92296" lon="11.86115"><ele>341</ele></trkpt>
<trkpt lat="48.92295" lon="11.85995"><ele>341</ele></trkpt>
<trkpt lat="48.92284" lon="11.85968"><ele>342</ele></trkpt>
<trkpt lat="48.92231" lon="11.85953"><ele>344</ele></trkpt>
<trkpt lat="48.92251" lon="11.85824"><ele>344</ele></trkpt>
<trkpt lat="48.92280" lon="11.85606"><ele>344</ele></trkpt>
<trkpt lat="48.92301" lon="11.85343"><ele>343</ele></trkpt>
<trkpt lat="48.92299" lon="11.85307"><ele>343</ele></trkpt>
<trkpt lat="48.92279" lon="11.85212"><ele>346</ele></trkpt>
<trkpt lat="48.92279" lon="11.85143"><ele>349</ele></trkpt>
<trkpt lat="48.92243" lon="11.85143"><ele>350</ele></trkpt>
<trkpt lat="48.92222" lon="11.85155"><ele>351</ele></trkpt>
<trkpt lat="48.92209" lon="11.85168"><ele>354</ele></trkpt>
<trkpt lat="48.92193" lon="11.85190"><ele>356</ele></trkpt>
<trkpt lat="48.92185" lon="11.85208"><ele>357</ele></trkpt>
<trkpt lat="48.92165" lon="11.85269"><ele>360</ele></trkpt>
<trkpt lat="48.92169" lon="11.85151"><ele>362</ele></trkpt>
<trkpt lat="48.92168" lon="11.84938"><ele>366</ele></trkpt>
<trkpt lat="48.92172" lon="11.84778"><ele>367</ele></trkpt>
<trkpt lat="48.92201" lon="11.84530"><ele>366</ele></trkpt>
<trkpt lat="48.92247" lon="11.84294"><ele>359</ele></trkpt>
<trkpt lat="48.92276" lon="11.83911"><ele>360</ele></trkpt>
<trkpt lat="48.92261" lon="11.83717"><ele>365</ele></trkpt>
<trkpt lat="48.92264" lon="11.83670"><ele>365</ele></trkpt>
<trkpt lat="48.92276" lon="11.83627"><ele>365</ele></trkpt>
<trkpt lat="48.92333" lon="11.83473"><ele>362</ele></trkpt>
<trkpt lat="48.92371" lon="11.83333"><ele>358</ele></trkpt>
<trkpt lat="48.92438" lon="11.82909"><ele>355</ele></trkpt>
<trkpt lat="48.92469" lon="11.82894"><ele>350</ele></trkpt>
<trkpt lat="48.92494" lon="11.82793"><ele>350</ele></trkpt>
<trkpt lat="48.92524" lon="11.82707"><ele>348</ele></trkpt>
<trkpt lat="48.92540" lon="11.82631"><ele>348</ele></trkpt>
<trkpt lat="48.92554" lon="11.82587"><ele>348</ele></trkpt>
<trkpt lat="48.92561" lon="11.82539"><ele>348</ele></trkpt>
<trkpt lat="48.92578" lon="11.82353"><ele>348</ele></trkpt>
<trkpt lat="48.92576" lon="11.82299"><ele>348</ele></trkpt>
<trkpt lat="48.92583" lon="11.82031"><ele>348</ele></trkpt>
<trkpt lat="48.92582" lon="11.81934"><ele>348</ele></trkpt>
<trkpt lat="48.92571" lon="11.81767"><ele>349</ele></trkpt>
<trkpt lat="48.92549" lon="11.81590"><ele>349</ele></trkpt>
<trkpt lat="48.92527" lon="11.81456"><ele>348</ele></trkpt>
<trkpt lat="48.92510" lon="11.81379"><ele>348</ele></trkpt>
<trkpt lat="48.92493" lon="11.81333"><ele>349</ele></trkpt>
<trkpt lat="48.92474" lon="11.81301"><ele>348</ele></trkpt>
<trkpt lat="48.92434" lon="11.81216"><ele>347</ele></trkpt>
<trkpt lat="48.92371" lon="11.81124"><ele>348</ele></trkpt>
<trkpt lat="48.92288" lon="11.80880"><ele>347</ele></trkpt>
<trkpt lat="48.92265" lon="11.80769"><ele>348</ele></trkpt>
<trkpt lat="48.92249" lon="11.80705"><ele>348</ele></trkpt>
<trkpt lat="48.92227" lon="11.80579"><ele>351</ele></trkpt>
<trkpt lat="48.92220" lon="11.80488"><ele>352</ele></trkpt>
<trkpt lat="48.92218" lon="11.80412"><ele>353</ele></trkpt>
<trkpt lat="48.92227" lon="11.80265"><ele>355</ele></trkpt>
<trkpt lat="48.92240" lon="11.80193"><ele>356</ele></trkpt>
<trkpt lat="48.92251" lon="11.80150"><ele>356</ele></trkpt>
<trkpt lat="48.92278" lon="11.80057"><ele>357</ele></trkpt>
<trkpt lat="48.92380" lon="11.79823"><ele>352</ele></trkpt>
<trkpt lat="48.92421" lon="11.79739"><ele>352</ele></trkpt>
<trkpt lat="48.92489" lon="11.79648"><ele>350</ele></trkpt>
<trkpt lat="48.92541" lon="11.79563"><ele>349</ele></trkpt>
<trkpt lat="48.92614" lon="11.79498"><ele>349</ele></trkpt>
<trkpt lat="48.92630" lon="11.79480"><ele>350</ele></trkpt>
<trkpt lat="48.92641" lon="11.79442"><ele>351</ele></trkpt>
<trkpt lat="48.92582" lon="11.79343"><ele>354</ele></trkpt>
<trkpt lat="48.92571" lon="11.79318"><ele>358</ele></trkpt>
<trkpt lat="48.92499" lon="11.79089"><ele>364</ele></trkpt>
<trkpt lat="48.92465" lon="11.79043"><ele>368</ele></trkpt>
<trkpt lat="48.92461" lon="11.79025"><ele>368</ele></trkpt>
<trkpt lat="48.92452" lon="11.79022"><ele>368</ele></trkpt>
<trkpt lat="48.92432" lon="11.78959"><ele>371</ele></trkpt>
<trkpt lat="48.92412" lon="11.78935"><ele>372</ele></trkpt>
<trkpt lat="48.92400" lon="11.78913"><ele>372</ele></trkpt>
<trkpt lat="48.92374" lon="11.78798"><ele>376</ele></trkpt>
<trkpt lat="48.92362" lon="11.78762"><ele>377</ele></trkpt>
<trkpt lat="48.92343" lon="11.78728"><ele>378</ele></trkpt>
<trkpt lat="48.92269" lon="11.78632"><ele>382</ele></trkpt>
<trkpt lat="48.92277" lon="11.78601"><ele>384</ele></trkpt>
<trkpt lat="48.92277" lon="11.78555"><ele>386</ele></trkpt>
<trkpt lat="48.92283" lon="11.78479"><ele>389</ele></trkpt>
<trkpt lat="48.92306" lon="11.78352"><ele>396</ele></trkpt>
<trkpt lat="48.92308" lon="11.78322"><ele>398</ele></trkpt>
<trkpt lat="48.92290" lon="11.78050"><ele>414</ele></trkpt>
<trkpt lat="48.92273" lon="11.77937"><ele>421</ele></trkpt>
<trkpt lat="48.92273" lon="11.77840"><ele>425</ele></trkpt>
<trkpt lat="48.92282" lon="11.77762"><ele>428</ele></trkpt>
<trkpt lat="48.92297" lon="11.77720"><ele>430</ele></trkpt>
<trkpt lat="48.92322" lon="11.77670"><ele>433</ele></trkpt>
<trkpt lat="48.92337" lon="11.77650"><ele>434</ele></trkpt>
<trkpt lat="48.92375" lon="11.77627"><ele>436</ele></trkpt>
<trkpt lat="48.92566" lon="11.77636"><ele>438</ele></trkpt>
<trkpt lat="48.92810" lon="11.77564"><ele>444</ele></trkpt>
<trkpt lat="48.92928" lon="11.77534"><ele>442</ele></trkpt>
<trkpt lat="48.92962" lon="11.77554"><ele>442</ele></trkpt>
<trkpt lat="48.92980" lon="11.77559"><ele>442</ele></trkpt>
<trkpt lat="48.93000" lon="11.77555"><ele>443</ele></trkpt>
<trkpt lat="48.93010" lon="11.77547"><ele>444</ele></trkpt>
<trkpt lat="48.93015" lon="11.77537"><ele>444</ele></trkpt>
<trkpt lat="48.93000" lon="11.77555"><ele>443</ele></trkpt>
<trkpt lat="48.92980" lon="11.77559"><ele>442</ele></trkpt>
<trkpt lat="48.92962" lon="11.77554"><ele>442</ele></trkpt>
<trkpt lat="48.92928" lon="11.77534"><ele>442</ele></trkpt>
<trkpt lat="48.92996" lon="11.77014"><ele>401</ele></trkpt>
<trkpt lat="48.93001" lon="11.76858"><ele>392</ele></trkpt>
<trkpt lat="48.93020" lon="11.76806"><ele>392</ele></trkpt>
<trkpt lat="48.93100" lon="11.76710"><ele>388</ele></trkpt>
<trkpt lat="48.93134" lon="11.76676"><ele>387</ele></trkpt>
<trkpt lat="48.93160" lon="11.76666"><ele>385</ele></trkpt>
<trkpt lat="48.93179" lon="11.76666"><ele>384</ele></trkpt>
<trkpt lat="48.93234" lon="11.76676"><ele>383</ele></trkpt>
<trkpt lat="48.93291" lon="11.76660"><ele>381</ele></trkpt>
<trkpt lat="48.93352" lon="11.76659"><ele>377</ele></trkpt>
<trkpt lat="48.93433" lon="11.76615"><ele>374</ele></trkpt>
<trkpt lat="48.93486" lon="11.76607"><ele>372</ele></trkpt>
<trkpt lat="48.93552" lon="11.76610"><ele>367</ele></trkpt>
<trkpt lat="48.93596" lon="11.76632"><ele>366</ele></trkpt>
<trkpt lat="48.93635" lon="11.76659"><ele>363</ele></trkpt>
<trkpt lat="48.93698" lon="11.76691"><ele>360</ele></trkpt>
<trkpt lat="48.93746" lon="11.76731"><ele>357</ele></trkpt>
<trkpt lat="48.93788" lon="11.76778"><ele>352</ele></trkpt>
<trkpt lat="48.93839" lon="11.76818"><ele>349</ele></trkpt>
<trkpt lat="48.93873" lon="11.76850"><ele>348</ele></trkpt>
<trkpt lat="48.93887" lon="11.76854"><ele>348</ele></trkpt>
<trkpt lat="48.93906" lon="11.76841"><ele>347</ele></trkpt>
<trkpt lat="48.93907" lon="11.76806"><ele>347</ele></trkpt>
<trkpt lat="48.93916" lon="11.76759"><ele>348</ele></trkpt>
<trkpt lat="48.93921" lon="11.76691"><ele>348</ele></trkpt>
<trkpt lat="48.93924" lon="11.76493"><ele>349</ele></trkpt>
<trkpt lat="48.93933" lon="11.76353"><ele>348</ele></trkpt>
<trkpt lat="48.93940" lon="11.76160"><ele>350</ele></trkpt>
<trkpt lat="48.93950" lon="11.75971"><ele>348</ele></trkpt>
<trkpt lat="48.93938" lon="11.75910"><ele>348</ele></trkpt>
<trkpt lat="48.93937" lon="11.75880"><ele>348</ele></trkpt>
<trkpt lat="48.93952" lon="11.75814"><ele>347</ele></trkpt>
<trkpt lat="48.93952" lon="11.75753"><ele>348</ele></trkpt>
<trkpt lat="48.93958" lon="11.75673"><ele>348</ele></trkpt>
<trkpt lat="48.93956" lon="11.75647"><ele>348</ele></trkpt>
<trkpt lat="48.93951" lon="11.75633"><ele>348</ele></trkpt>
<trkpt lat="48.93932" lon="11.75604"><ele>348</ele></trkpt>
<trkpt lat="48.93894" lon="11.75487"><ele>350</ele></trkpt>
<trkpt lat="48.93889" lon="11.75456"><ele>349</ele></trkpt>
<trkpt lat="48.93889" lon="11.75400"><ele>349</ele></trkpt>
<trkpt lat="48.93899" lon="11.75252"><ele>350</ele></trkpt>
<trkpt lat="48.93913" lon="11.75182"><ele>349</ele></trkpt>
<trkpt lat="48.93929" lon="11.75123"><ele>349</ele></trkpt>
<trkpt lat="48.93945" lon="11.75026"><ele>349</ele></trkpt>
<trkpt lat="48.93976" lon="11.74898"><ele>350</ele></trkpt>
<trkpt lat="48.93985" lon="11.74878"><ele>350</ele></trkpt>
<trkpt lat="48.94079" lon="11.74727"><ele>350</ele></trkpt>
<trkpt lat="48.94147" lon="11.74627"><ele>350</ele></trkpt>
<trkpt lat="48.94233" lon="11.74482"><ele>351</ele></trkpt>
<trkpt lat="48.94287" lon="11.74409"><ele>350</ele></trkpt>
<trkpt lat="48.94364" lon="11.74329"><ele>350</ele></trkpt>
<trkpt lat="48.94461" lon="11.74277"><ele>349</ele></trkpt>
<trkpt lat="48.94517" lon="11.74200"><ele>349</ele></trkpt>
<trkpt lat="48.94563" lon="11.74164"><ele>349</ele></trkpt>
<trkpt lat="48.94581" lon="11.74126"><ele>350</ele></trkpt>
<trkpt lat="48.94584" lon="11.74109"><ele>351</ele></trkpt>
<trkpt lat="48.94583" lon="11.74090"><ele>352</ele></trkpt>
<trkpt lat="48.94573" lon="11.74060"><ele>353</ele></trkpt>
<trkpt lat="48.94554" lon="11.74084"><ele>354</ele></trkpt>
<trkpt lat="48.94552" lon="11.74109"><ele>354</ele></trkpt>
<trkpt lat="48.94556" lon="11.74124"><ele>353</ele></trkpt>
<trkpt lat="48.94638" lon="11.74300"><ele>356</ele></trkpt>
<trkpt lat="48.94647" lon="11.74314"><ele>360</ele></trkpt>
<trkpt lat="48.94751" lon="11.74131"><ele>352</ele></trkpt>
<trkpt lat="48.94859" lon="11.73986"><ele>352</ele></trkpt>
<trkpt lat="48.94918" lon="11.73921"><ele>352</ele></trkpt>
<trkpt lat="48.94937" lon="11.73896"><ele>352</ele></trkpt>
<trkpt lat="48.94936" lon="11.73889"><ele>352</ele></trkpt>
<trkpt lat="48.94945" lon="11.73860"><ele>350</ele></trkpt>
<trkpt lat="48.94932" lon="11.73840"><ele>349</ele></trkpt>
<trkpt lat="48.94970" lon="11.73770"><ele>348</ele></trkpt>
<trkpt lat="48.94991" lon="11.73744"><ele>350</ele></trkpt>
<trkpt lat="48.95018" lon="11.73696"><ele>349</ele></trkpt>
<trkpt lat="48.95045" lon="11.73629"><ele>349</ele></trkpt>
<trkpt lat="48.95054" lon="11.73591"><ele>349</ele></trkpt>
<trkpt lat="48.95066" lon="11.73584"><ele>349</ele></trkpt>
<trkpt lat="48.95080" lon="11.73585"><ele>349</ele></trkpt>
<trkpt lat="48.95119" lon="11.73549"><ele>350</ele></trkpt>
<trkpt lat="48.95150" lon="11.73496"><ele>350</ele></trkpt>
<trkpt lat="48.95181" lon="11.73419"><ele>350</ele></trkpt>
<trkpt lat="48.95190" lon="11.73394"><ele>349</ele></trkpt>
<trkpt lat="48.95200" lon="11.73347"><ele>349</ele></trkpt>
<trkpt lat="48.95195" lon="11.73323"><ele>349</ele></trkpt>
<trkpt lat="48.95250" lon="11.73196"><ele>349</ele></trkpt>
<trkpt lat="48.95259" lon="11.73164"><ele>350</ele></trkpt>
<trkpt lat="48.95339" lon="11.72640"><ele>351</ele></trkpt>
<trkpt lat="48.95384" lon="11.72419"><ele>351</ele></trkpt>
<trkpt lat="48.95419" lon="11.72275"><ele>350</ele></trkpt>
<trkpt lat="48.95418" lon="11.72258"><ele>350</ele></trkpt>
<trkpt lat="48.95407" lon="11.72223"><ele>350</ele></trkpt>
<trkpt lat="48.95404" lon="11.72177"><ele>349</ele></trkpt>
<trkpt lat="48.95414" lon="11.72117"><ele>350</ele></trkpt>
<trkpt lat="48.95439" lon="11.72041"><ele>350</ele></trkpt>
<trkpt lat="48.95450" lon="11.72001"><ele>350</ele></trkpt>
<trkpt lat="48.95465" lon="11.71895"><ele>349</ele></trkpt>
<trkpt lat="48.95475" lon="11.71684"><ele>350</ele></trkpt>
<trkpt lat="48.95487" lon="11.71586"><ele>348</ele></trkpt>
<trkpt lat="48.95517" lon="11.71405"><ele>348</ele></trkpt>
<trkpt lat="48.95555" lon="11.71075"><ele>350</ele></trkpt>
<trkpt lat="48.95564" lon="11.71013"><ele>349</ele></trkpt>
<trkpt lat="48.95580" lon="11.70943"><ele>350</ele></trkpt>
<trkpt lat="48.95588" lon="11.70884"><ele>349</ele></trkpt>
<trkpt lat="48.95595" lon="11.70826"><ele>348</ele></trkpt>
<trkpt lat="48.95601" lon="11.70716"><ele>349</ele></trkpt>
<trkpt lat="48.95610" lon="11.70691"><ele>350</ele></trkpt>
<trkpt lat="48.95666" lon="11.70652"><ele>350</ele></trkpt>
<trkpt lat="48.95689" lon="11.70623"><ele>350</ele></trkpt>
<trkpt lat="48.95695" lon="11.70608"><ele>350</ele></trkpt>
<trkpt lat="48.95704" lon="11.70561"><ele>350</ele></trkpt>
<trkpt lat="48.95701" lon="11.70495"><ele>350</ele></trkpt>
<trkpt lat="48.95696" lon="11.70471"><ele>350</ele></trkpt>
<trkpt lat="48.95655" lon="11.70383"><ele>349</ele></trkpt>
<trkpt lat="48.95655" lon="11.70353"><ele>349</ele></trkpt>
<trkpt lat="48.95702" lon="11.70151"><ele>350</ele></trkpt>
<trkpt lat="48.95716" lon="11.70061"><ele>350</ele></trkpt>
<trkpt lat="48.95755" lon="11.69979"><ele>350</ele></trkpt>
<trkpt lat="48.95762" lon="11.69952"><ele>350</ele></trkpt>
<trkpt lat="48.95768" lon="11.69923"><ele>350</ele></trkpt>
<trkpt lat="48.95775" lon="11.69799"><ele>350</ele></trkpt>
<trkpt lat="48.95816" lon="11.69617"><ele>349</ele></trkpt>
<trkpt lat="48.95926" lon="11.69271"><ele>350</ele></trkpt>
<trkpt lat="48.95936" lon="11.69253"><ele>349</ele></trkpt>
<trkpt lat="48.95974" lon="11.69213"><ele>350</ele></trkpt>
<trkpt lat="48.96003" lon="11.69167"><ele>349</ele></trkpt>
<trkpt lat="48.96046" lon="11.69108"><ele>352</ele></trkpt>
<trkpt lat="48.96049" lon="11.69091"><ele>351</ele></trkpt>
<trkpt lat="48.96047" lon="11.69070"><ele>351</ele></trkpt>
<trkpt lat="48.96041" lon="11.69053"><ele>350</ele></trkpt>
<trkpt lat="48.96040" lon="11.69028"><ele>350</ele></trkpt>
<trkpt lat="48.96045" lon="11.69009"><ele>350</ele></trkpt>
<trkpt lat="48.96052" lon="11.68996"><ele>350</ele></trkpt>
<trkpt lat="48.96065" lon="11.68987"><ele>350</ele></trkpt>
<trkpt lat="48.96111" lon="11.68983"><ele>351</ele></trkpt>
<trkpt lat="48.96124" lon="11.68974"><ele>352</ele></trkpt>
<trkpt lat="48.96154" lon="11.68996"><ele>354</ele></trkpt>
<trkpt lat="48.96179" lon="11.68903"><ele>354</ele></trkpt>
<trkpt lat="48.96197" lon="11.68849"><ele>353</ele></trkpt>
<trkpt lat="48.96242" lon="11.68754"><ele>352</ele></trkpt>
<trkpt lat="48.96319" lon="11.68626"><ele>352</ele></trkpt>
<trkpt lat="48.96328" lon="11.68620"><ele>352</ele></trkpt>
<trkpt lat="48.96342" lon="11.68623"><ele>353</ele></trkpt>
<trkpt lat="48.96356" lon="11.68642"><ele>354</ele></trkpt>
<trkpt lat="48.96383" lon="11.68694"><ele>356</ele></trkpt>
<trkpt lat="48.96421" lon="11.68610"><ele>355</ele></trkpt>
<trkpt lat="48.96452" lon="11.68560"><ele>354</ele></trkpt>
<trkpt lat="48.96457" lon="11.68548"><ele>353</ele></trkpt>
<trkpt lat="48.96460" lon="11.68534"><ele>353</ele></trkpt>
<trkpt lat="48.96457" lon="11.68499"><ele>351</ele></trkpt>
<trkpt lat="48.96448" lon="11.68463"><ele>350</ele></trkpt>
<trkpt lat="48.96442" lon="11.68468"><ele>350</ele></trkpt>
<trkpt lat="48.96442" lon="11.68457"><ele>350</ele></trkpt>
<trkpt lat="48.96469" lon="11.68425"><ele>350</ele></trkpt>
<trkpt lat="48.96485" lon="11.68392"><ele>348</ele></trkpt>
<trkpt lat="48.96521" lon="11.68369"><ele>349</ele></trkpt>
<trkpt lat="48.96547" lon="11.68358"><ele>349</ele></trkpt>
<trkpt lat="48.96592" lon="11.68344"><ele>349</ele></trkpt>
<trkpt lat="48.96620" lon="11.68341"><ele>349</ele></trkpt>
<trkpt lat="48.96654" lon="11.68329"><ele>349</ele></trkpt>
<trkpt lat="48.96692" lon="11.68305"><ele>350</ele></trkpt>
<trkpt lat="48.96783" lon="11.68298"><ele>350</ele></trkpt>
<trkpt lat="48.96830" lon="11.68303"><ele>350</ele></trkpt>
<trkpt lat="48.96872" lon="11.68312"><ele>349</ele></trkpt>
<trkpt lat="48.96931" lon="11.68331"><ele>350</ele></trkpt>
<trkpt lat="48.97028" lon="11.68388"><ele>349</ele></trkpt>
<trkpt lat="48.97066" lon="11.68420"><ele>350</ele></trkpt>
<trkpt lat="48.97129" lon="11.68485"><ele>350</ele></trkpt>
<trkpt lat="48.97315" lon="11.68710"><ele>350</ele></trkpt>
<trkpt lat="48.97332" lon="11.68733"><ele>350</ele></trkpt>
<trkpt lat="48.97342" lon="11.68759"><ele>351</ele></trkpt>
<trkpt lat="48.97345" lon="11.68774"><ele>352</ele></trkpt>
<trkpt lat="48.97343" lon="11.68795"><ele>355</ele></trkpt>
<trkpt lat="48.97347" lon="11.68812"><ele>356</ele></trkpt>
<trkpt lat="48.97389" lon="11.68875"><ele>356</ele></trkpt>
<trkpt lat="48.97403" lon="11.68881"><ele>356</ele></trkpt>
<trkpt lat="48.97555" lon="11.68614"><ele>356</ele></trkpt>
<trkpt lat="48.97645" lon="11.68687"><ele>358</ele></trkpt>
<trkpt lat="48.97673" lon="11.68704"><ele>358</ele></trkpt>
<trkpt lat="48.97926" lon="11.68770"><ele>370</ele></trkpt>
<trkpt lat="48.98022" lon="11.68771"><ele>372</ele></trkpt>
<trkpt lat="48.98048" lon="11.68765"><ele>372</ele></trkpt>
<trkpt lat="48.98043" lon="11.68704"><ele>376</ele></trkpt>
<trkpt lat="48.98043" lon="11.68653"><ele>380</ele></trkpt>
<trkpt lat="48.98059" lon="11.68562"><ele>388</ele></trkpt>
<trkpt lat="48.98082" lon="11.68485"><ele>395</ele></trkpt>
<trkpt lat="48.98104" lon="11.68438"><ele>398</ele></trkpt>
<trkpt lat="48.98106" lon="11.68416"><ele>401</ele></trkpt>
<trkpt lat="48.98098" lon="11.68369"><ele>406</ele></trkpt>
<trkpt lat="48.98095" lon="11.68311"><ele>414</ele></trkpt>
<trkpt lat="48.98086" lon="11.68305"><ele>414</ele></trkpt>
<trkpt lat="48.98084" lon="11.68288"><ele>416</ele></trkpt>
<trkpt lat="48.98077" lon="11.68277"><ele>418</ele></trkpt>
<trkpt lat="48.98062" lon="11.68266"><ele>419</ele></trkpt>
<trkpt lat="48.98077" lon="11.68277"><ele>418</ele></trkpt>
<trkpt lat="48.98084" lon="11.68288"><ele>416</ele></trkpt>
<trkpt lat="48.98086" lon="11.68305"><ele>414</ele></trkpt>
<trkpt lat="48.98095" lon="11.68311"><ele>414</ele></trkpt>
<trkpt lat="48.98102" lon="11.68286"><ele>418</ele></trkpt>
<trkpt lat="48.98115" lon="11.68281"><ele>420</ele></trkpt>
<trkpt lat="48.98148" lon="11.68287"><ele>420</ele></trkpt>
<trkpt lat="48.98165" lon="11.68298"><ele>416</ele></trkpt>
<trkpt lat="48.98192" lon="11.68303"><ele>415</ele></trkpt>
<trkpt lat="48.98246" lon="11.68309"><ele>414</ele></trkpt>
<trkpt lat="48.98334" lon="11.68302"><ele>411</ele></trkpt>
<trkpt lat="48.98360" lon="11.68294"><ele>412</ele></trkpt>
<trkpt lat="48.98381" lon="11.68278"><ele>414</ele></trkpt>
<trkpt lat="48.98415" lon="11.68264"><ele>414</ele></trkpt>
<trkpt lat="48.98476" lon="11.68230"><ele>412</ele></trkpt>
<trkpt lat="48.98616" lon="11.68030"><ele>409</ele></trkpt>
<trkpt lat="48.98646" lon="11.68073"><ele>402</ele></trkpt>
<trkpt lat="48.98734" lon="11.68142"><ele>386</ele></trkpt>
<trkpt lat="48.98820" lon="11.68189"><ele>374</ele></trkpt>
<trkpt lat="48.98885" lon="11.68234"><ele>367</ele></trkpt>
<trkpt lat="48.98855" lon="11.68314"><ele>368</ele></trkpt>
<trkpt lat="48.98868" lon="11.68323"><ele>367</ele></trkpt>
<trkpt lat="48.98894" lon="11.68321"><ele>366</ele></trkpt>
<trkpt lat="48.98924" lon="11.68299"><ele>363</ele></trkpt>
<trkpt lat="48.98952" lon="11.68264"><ele>361</ele></trkpt>
<trkpt lat="48.98978" lon="11.68207"><ele>360</ele></trkpt>
<trkpt lat="48.98991" lon="11.68188"><ele>358</ele></trkpt>
<trkpt lat="48.99015" lon="11.68168"><ele>358</ele></trkpt>
<trkpt lat="48.99014" lon="11.68131"><ele>359</ele></trkpt>
<trkpt lat="48.99008" lon="11.68077"><ele>359</ele></trkpt>
<trkpt lat="48.98991" lon="11.67987"><ele>359</ele></trkpt>
<trkpt lat="48.98970" lon="11.67901"><ele>360</ele></trkpt>
<trkpt lat="48.98943" lon="11.67805"><ele>360</ele></trkpt>
<trkpt lat="48.98934" lon="11.67781"><ele>360</ele></trkpt>
<trkpt lat="48.98928" lon="11.67771"><ele>360</ele></trkpt>
<trkpt lat="48.98916" lon="11.67763"><ele>361</ele></trkpt>
<trkpt lat="48.98904" lon="11.67761"><ele>361</ele></trkpt>
<trkpt lat="48.98900" lon="11.67785"><ele>361</ele></trkpt>
<trkpt lat="48.98865" lon="11.67766"><ele>362</ele></trkpt>
<trkpt lat="48.98762" lon="11.67531"><ele>359</ele></trkpt>
<trkpt lat="48.98707" lon="11.67466"><ele>358</ele></trkpt>
<trkpt lat="48.98649" lon="11.67386"><ele>356</ele></trkpt>
<trkpt lat="48.98539" lon="11.67284"><ele>356</ele></trkpt>
<trkpt lat="48.98438" lon="11.67216"><ele>358</ele></trkpt>
<trkpt lat="48.98414" lon="11.67206"><ele>360</ele></trkpt>
<trkpt lat="48.98369" lon="11.67172"><ele>360</ele></trkpt>
<trkpt lat="48.98353" lon="11.67143"><ele>357</ele></trkpt>
<trkpt lat="48.98274" lon="11.67058"><ele>355</ele></trkpt>
<trkpt lat="48.98158" lon="11.66980"><ele>356</ele></trkpt>
<trkpt lat="48.98025" lon="11.66874"><ele>356</ele></trkpt>
<trkpt lat="48.97895" lon="11.66788"><ele>356</ele></trkpt>
<trkpt lat="48.97824" lon="11.66721"><ele>356</ele></trkpt>
<trkpt lat="48.97764" lon="11.66656"><ele>356</ele></trkpt>
<trkpt lat="48.97721" lon="11.66601"><ele>356</ele></trkpt>
<trkpt lat="48.97664" lon="11.66501"><ele>356</ele></trkpt>
<trkpt lat="48.97628" lon="11.66386"><ele>356</ele></trkpt>
<trkpt lat="48.97612" lon="11.66360"><ele>356</ele></trkpt>
<trkpt lat="48.97559" lon="11.66296"><ele>357</ele></trkpt>
<trkpt lat="48.97546" lon="11.66260"><ele>356</ele></trkpt>
<trkpt lat="48.97537" lon="11.66256"><ele>356</ele></trkpt>
<trkpt lat="48.97520" lon="11.66267"><ele>357</ele></trkpt>
<trkpt lat="48.97511" lon="11.66268"><ele>358</ele></trkpt>
<trkpt lat="48.97485" lon="11.66261"><ele>359</ele></trkpt>
<trkpt lat="48.97470" lon="11.66230"><ele>357</ele></trkpt>
<trkpt lat="48.97423" lon="11.66064"><ele>359</ele></trkpt>
<trkpt lat="48.97410" lon="11.66005"><ele>359</ele></trkpt>
<trkpt lat="48.97389" lon="11.65842"><ele>359</ele></trkpt>
<trkpt lat="48.97385" lon="11.65755"><ele>358</ele></trkpt>
<trkpt lat="48.97378" lon="11.65708"><ele>360</ele></trkpt>
<trkpt lat="48.97376" lon="11.65654"><ele>360</ele></trkpt>
<trkpt lat="48.97394" lon="11.65531"><ele>356</ele></trkpt>
<trkpt lat="48.97401" lon="11.65409"><ele>360</ele></trkpt>
<trkpt lat="48.97410" lon="11.65386"><ele>362</ele></trkpt>
<trkpt lat="48.97426" lon="11.65369"><ele>361</ele></trkpt>
<trkpt lat="48.97410" lon="11.65320"><ele>360</ele></trkpt>
<trkpt lat="48.97407" lon="11.65296"><ele>360</ele></trkpt>
<trkpt lat="48.97407" lon="11.65226"><ele>360</ele></trkpt>
<trkpt lat="48.97430" lon="11.65132"><ele>358</ele></trkpt>
<trkpt lat="48.97436" lon="11.65076"><ele>358</ele></trkpt>
<trkpt lat="48.97445" lon="11.65036"><ele>356</ele></trkpt>
<trkpt lat="48.97464" lon="11.64980"><ele>357</ele></trkpt>
<trkpt lat="48.97476" lon="11.64903"><ele>357</ele></trkpt>
<trkpt lat="48.97503" lon="11.64779"><ele>356</ele></trkpt>
<trkpt lat="48.97534" lon="11.64605"><ele>359</ele></trkpt>
<trkpt lat="48.97569" lon="11.64486"><ele>359</ele></trkpt>
<trkpt lat="48.97584" lon="11.64419"><ele>360</ele></trkpt>
<trkpt lat="48.97592" lon="11.64344"><ele>361</ele></trkpt>
<trkpt lat="48.97600" lon="11.64215"><ele>365</ele></trkpt>
<trkpt lat="48.97621" lon="11.64080"><ele>367</ele></trkpt>
<trkpt lat="48.97622" lon="11.64026"><ele>368</ele></trkpt>
<trkpt lat="48.97673" lon="11.64031"><ele>362</ele></trkpt>
<trkpt lat="48.97683" lon="11.64024"><ele>362</ele></trkpt>
<trkpt lat="48.97724" lon="11.63945"><ele>361</ele></trkpt>
<trkpt lat="48.97809" lon="11.63816"><ele>362</ele></trkpt>
<trkpt lat="48.97869" lon="11.63695"><ele>362</ele></trkpt>
<trkpt lat="48.97894" lon="11.63652"><ele>361</ele></trkpt>
<trkpt lat="48.97939" lon="11.63586"><ele>360</ele></trkpt>
<trkpt lat="48.98017" lon="11.63456"><ele>361</ele></trkpt>
<trkpt lat="48.98047" lon="11.63372"><ele>363</ele></trkpt>
<trkpt lat="48.98094" lon="11.63268"><ele>363</ele></trkpt>
<trkpt lat="48.98161" lon="11.63139"><ele>364</ele></trkpt>
<trkpt lat="48.98294" lon="11.62974"><ele>364</ele></trkpt>
<trkpt lat="48.98404" lon="11.62904"><ele>361</ele></trkpt>
<trkpt lat="48.98575" lon="11.62728"><ele>360</ele></trkpt>
<trkpt lat="48.98631" lon="11.62831"><ele>359</ele></trkpt>
<trkpt lat="48.98647" lon="11.62800"><ele>359</ele></trkpt>
<trkpt lat="48.98671" lon="11.62777"><ele>360</ele></trkpt>
<trkpt lat="48.98698" lon="11.62778"><ele>360</ele></trkpt>
<trkpt lat="48.98794" lon="11.62810"><ele>363</ele></trkpt>
<trkpt lat="48.98975" lon="11.62826"><ele>360</ele></trkpt>
<trkpt lat="48.98995" lon="11.62824"><ele>360</ele></trkpt>
<trkpt lat="48.99005" lon="11.62819"><ele>360</ele></trkpt>
<trkpt lat="48.99005" lon="11.62810"><ele>360</ele></trkpt>
<trkpt lat="48.99104" lon="11.62750"><ele>358</ele></trkpt>
<trkpt lat="48.99147" lon="11.62749"><ele>358</ele></trkpt>
<trkpt lat="48.99183" lon="11.62740"><ele>358</ele></trkpt>
<trkpt lat="48.99246" lon="11.62748"><ele>359</ele></trkpt>
<trkpt lat="48.99246" lon="11.62731"><ele>359</ele></trkpt>
<trkpt lat="48.99240" lon="11.62694"><ele>360</ele></trkpt>
<trkpt lat="48.99219" lon="11.62632"><ele>360</ele></trkpt>
<trkpt lat="48.99201" lon="11.62599"><ele>361</ele></trkpt>
<trkpt lat="48.99198" lon="11.62580"><ele>362</ele></trkpt>
<trkpt lat="48.99200" lon="11.62525"><ele>367</ele></trkpt>
<trkpt lat="48.99198" lon="11.62472"><ele>367</ele></trkpt>
<trkpt lat="48.99187" lon="11.62433"><ele>369</ele></trkpt>
<trkpt lat="48.99184" lon="11.62408"><ele>369</ele></trkpt>
<trkpt lat="48.99197" lon="11.62198"><ele>379</ele></trkpt>
<trkpt lat="48.99192" lon="11.62197"><ele>380</ele></trkpt>
<trkpt lat="48.99188" lon="11.62188"><ele>382</ele></trkpt>
<trkpt lat="48.99187" lon="11.62142"><ele>387</ele></trkpt>
<trkpt lat="48.99196" lon="11.62056"><ele>395</ele></trkpt>
<trkpt lat="48.99204" lon="11.62005"><ele>403</ele></trkpt>
<trkpt lat="48.99202" lon="11.61978"><ele>406</ele></trkpt>
<trkpt lat="48.99188" lon="11.61940"><ele>411</ele></trkpt>
<trkpt lat="48.99172" lon="11.61910"><ele>417</ele></trkpt>
<trkpt lat="48.99150" lon="11.61887"><ele>421</ele></trkpt>
<trkpt lat="48.99124" lon="11.61851"><ele>426</ele></trkpt>
<trkpt lat="48.99073" lon="11.61813"><ele>434</ele></trkpt>
<trkpt lat="48.99032" lon="11.61798"><ele>437</ele></trkpt>
<trkpt lat="48.98987" lon="11.61767"><ele>441</ele></trkpt>
<trkpt lat="48.98954" lon="11.61755"><ele>442</ele></trkpt>
<trkpt lat="48.98918" lon="11.61748"><ele>443</ele></trkpt>
<trkpt lat="48.98889" lon="11.61754"><ele>446</ele></trkpt>
<trkpt lat="48.98891" lon="11.61774"><ele>448</ele></trkpt>
<trkpt lat="48.98906" lon="11.61809"><ele>452</ele></trkpt>
<trkpt lat="48.98906" lon="11.61818"><ele>453</ele></trkpt>
<trkpt lat="48.98887" lon="11.61899"><ele>459</ele></trkpt>
<trkpt lat="48.98885" lon="11.61971"><ele>465</ele></trkpt>
<trkpt lat="48.98874" lon="11.62025"><ele>468</ele></trkpt>
<trkpt lat="48.98873" lon="11.62114"><ele>470</ele></trkpt>
<trkpt lat="48.98878" lon="11.62240"><ele>472</ele></trkpt>
<trkpt lat="48.98875" lon="11.62293"><ele>473</ele></trkpt>
<trkpt lat="48.98844" lon="11.62279"><ele>474</ele></trkpt>
<trkpt lat="48.98742" lon="11.62206"><ele>476</ele></trkpt>
<trkpt lat="48.98699" lon="11.62184"><ele>475</ele></trkpt>
<trkpt lat="48.98684" lon="11.62170"><ele>474</ele></trkpt>
<trkpt lat="48.98647" lon="11.62148"><ele>474</ele></trkpt>
<trkpt lat="48.98558" lon="11.62105"><ele>474</ele></trkpt>
<trkpt lat="48.98548" lon="11.62088"><ele>474</ele></trkpt>
<trkpt lat="48.98540" lon="11.62059"><ele>475</ele></trkpt>
<trkpt lat="48.98540" lon="11.62044"><ele>475</ele></trkpt>
<trkpt lat="48.98547" lon="11.62022"><ele>476</ele></trkpt>
<trkpt lat="48.98546" lon="11.62003"><ele>476</ele></trkpt>
<trkpt lat="48.98541" lon="11.61995"><ele>476</ele></trkpt>
<trkpt lat="48.98471" lon="11.61947"><ele>475</ele></trkpt>
<trkpt lat="48.98459" lon="11.61882"><ele>472</ele></trkpt>
<trkpt lat="48.98449" lon="11.61844"><ele>473</ele></trkpt>
<trkpt lat="48.98458" lon="11.61761"><ele>476</ele></trkpt>
<trkpt lat="48.98457" lon="11.61729"><ele>476</ele></trkpt>
<trkpt lat="48.98448" lon="11.61667"><ele>476</ele></trkpt>
<trkpt lat="48.98440" lon="11.61559"><ele>475</ele></trkpt>
<trkpt lat="48.98423" lon="11.61455"><ele>476</ele></trkpt>
<trkpt lat="48.98411" lon="11.61416"><ele>475</ele></trkpt>
<trkpt lat="48.98394" lon="11.61311"><ele>474</ele></trkpt>
<trkpt lat="48.98375" lon="11.61242"><ele>475</ele></trkpt>
<trkpt lat="48.98372" lon="11.61164"><ele>476</ele></trkpt>
<trkpt lat="48.98367" lon="11.61142"><ele>476</ele></trkpt>
<trkpt lat="48.98335" lon="11.61063"><ele>479</ele></trkpt>
<trkpt lat="48.98303" lon="11.60964"><ele>481</ele></trkpt>
<trkpt lat="48.98264" lon="11.60703"><ele>485</ele></trkpt>
<trkpt lat="48.98263" lon="11.60685"><ele>486</ele></trkpt>
<trkpt lat="48.98266" lon="11.60656"><ele>486</ele></trkpt>
<trkpt lat="48.98262" lon="11.60324"><ele>491</ele></trkpt>
<trkpt lat="48.98249" lon="11.59988"><ele>493</ele></trkpt>
<trkpt lat="48.98253" lon="11.59935"><ele>493</ele></trkpt>
<trkpt lat="48.98291" lon="11.59698"><ele>495</ele></trkpt>
<trkpt lat="48.98277" lon="11.59676"><ele>496</ele></trkpt>
<trkpt lat="48.98230" lon="11.59658"><ele>496</ele></trkpt>
<trkpt lat="48.98215" lon="11.59644"><ele>496</ele></trkpt>
<trkpt lat="48.98199" lon="11.59602"><ele>495</ele></trkpt>
<trkpt lat="48.98198" lon="11.59569"><ele>495</ele></trkpt>
<trkpt lat="48.98129" lon="11.59572"><ele>494</ele></trkpt>
<trkpt lat="48.98095" lon="11.59561"><ele>493</ele></trkpt>
<trkpt lat="48.97992" lon="11.59516"><ele>490</ele></trkpt>
<trkpt lat="48.97878" lon="11.59496"><ele>487</ele></trkpt>
<trkpt lat="48.97850" lon="11.58903"><ele>483</ele></trkpt>
<trkpt lat="48.97757" lon="11.58489"><ele>471</ele></trkpt>
<trkpt lat="48.97745" lon="11.58459"><ele>470</ele></trkpt>
<trkpt lat="48.97737" lon="11.58429"><ele>471</ele></trkpt>
<trkpt lat="48.97719" lon="11.58324"><ele>473</ele></trkpt>
<trkpt lat="48.97692" lon="11.58199"><ele>475</ele></trkpt>
<trkpt lat="48.97666" lon="11.57966"><ele>474</ele></trkpt>
<trkpt lat="48.97668" lon="11.57903"><ele>473</ele></trkpt>
<trkpt lat="48.97673" lon="11.57861"><ele>473</ele></trkpt>
<trkpt lat="48.97673" lon="11.57821"><ele>472</ele></trkpt>
<trkpt lat="48.97670" lon="11.57785"><ele>472</ele></trkpt>
<trkpt lat="48.97661" lon="11.57748"><ele>474</ele></trkpt>
<trkpt lat="48.97659" lon="11.57643"><ele>476</ele></trkpt>
<trkpt lat="48.97589" lon="11.57095"><ele>477</ele></trkpt>
<trkpt lat="48.97575" lon="11.57030"><ele>479</ele></trkpt>
<trkpt lat="48.97560" lon="11.57018"><ele>478</ele></trkpt>
<trkpt lat="48.97539" lon="11.57026"><ele>476</ele></trkpt>
<trkpt lat="48.97522" lon="11.57015"><ele>475</ele></trkpt>
<trkpt lat="48.97563" lon="11.56887"><ele>480</ele></trkpt>
<trkpt lat="48.97672" lon="11.56436"><ele>490</ele></trkpt>
<trkpt lat="48.97675" lon="11.56418"><ele>490</ele></trkpt>
<trkpt lat="48.97680" lon="11.56298"><ele>491</ele></trkpt>
<trkpt lat="48.97774" lon="11.56242"><ele>491</ele></trkpt>
<trkpt lat="48.97765" lon="11.56209"><ele>491</ele></trkpt>
<trkpt lat="48.97756" lon="11.56063"><ele>486</ele></trkpt>
<trkpt lat="48.97749" lon="11.56011"><ele>486</ele></trkpt>
<trkpt lat="48.97741" lon="11.55992"><ele>486</ele></trkpt>
<trkpt lat="48.97725" lon="11.55972"><ele>486</ele></trkpt>
<trkpt lat="48.97700" lon="11.55855"><ele>487</ele></trkpt>
<trkpt lat="48.97726" lon="11.55832"><ele>488</ele></trkpt>
<trkpt lat="48.97743" lon="11.55811"><ele>490</ele></trkpt>
<trkpt lat="48.97822" lon="11.55703"><ele>495</ele></trkpt>
<trkpt lat="48.97860" lon="11.55645"><ele>497</ele></trkpt>
<trkpt lat="48.97942" lon="11.55508"><ele>500</ele></trkpt>
<trkpt lat="48.98003" lon="11.55362"><ele>502</ele></trkpt>
<trkpt lat="48.98097" lon="11.54884"><ele>497</ele></trkpt>
<trkpt lat="48.98126" lon="11.54780"><ele>496</ele></trkpt>
<trkpt lat="48.98137" lon="11.54700"><ele>495</ele></trkpt>
<trkpt lat="48.98182" lon="11.54271"><ele>488</ele></trkpt>
<trkpt lat="48.98190" lon="11.54071"><ele>490</ele></trkpt>
<trkpt lat="48.98188" lon="11.54004"><ele>489</ele></trkpt>
<trkpt lat="48.98193" lon="11.53940"><ele>487</ele></trkpt>
<trkpt lat="48.98189" lon="11.53916"><ele>487</ele></trkpt>
<trkpt lat="48.98175" lon="11.53859"><ele>484</ele></trkpt>
<trkpt lat="48.98154" lon="11.53886"><ele>484</ele></trkpt>
<trkpt lat="48.98149" lon="11.53879"><ele>484</ele></trkpt>
<trkpt lat="48.98176" lon="11.53838"><ele>484</ele></trkpt>
<trkpt lat="48.98206" lon="11.53780"><ele>484</ele></trkpt>
<trkpt lat="48.98226" lon="11.53728"><ele>484</ele></trkpt>
<trkpt lat="48.98248" lon="11.53651"><ele>486</ele></trkpt>
<trkpt lat="48.98292" lon="11.53440"><ele>485</ele></trkpt>
<trkpt lat="48.98313" lon="11.53441"><ele>484</ele></trkpt>
<trkpt lat="48.98327" lon="11.53419"><ele>484</ele></trkpt>
<trkpt lat="48.98339" lon="11.53408"><ele>484</ele></trkpt>
<trkpt lat="48.98402" lon="11.53372"><ele>484</ele></trkpt>
<trkpt lat="48.98416" lon="11.53337"><ele>484</ele></trkpt>
<trkpt lat="48.98502" lon="11.53185"><ele>486</ele></trkpt>
<trkpt lat="48.98625" lon="11.52994"><ele>490</ele></trkpt>
<trkpt lat="48.98675" lon="11.52895"><ele>494</ele></trkpt>
<trkpt lat="48.98706" lon="11.52854"><ele>496</ele></trkpt>
<trkpt lat="48.98757" lon="11.52774"><ele>496</ele></trkpt>
<trkpt lat="48.98775" lon="11.52739"><ele>497</ele></trkpt>
<trkpt lat="48.98805" lon="11.52706"><ele>498</ele></trkpt>
<trkpt lat="48.98814" lon="11.52687"><ele>498</ele></trkpt>
<trkpt lat="48.98885" lon="11.52651"><ele>500</ele></trkpt>
<trkpt lat="48.98893" lon="11.52636"><ele>500</ele></trkpt>
<trkpt lat="48.98901" lon="11.52599"><ele>502</ele></trkpt>
<trkpt lat="48.98911" lon="11.52584"><ele>503</ele></trkpt>
<trkpt lat="48.99011" lon="11.52486"><ele>505</ele></trkpt>
<trkpt lat="48.99023" lon="11.52471"><ele>504</ele></trkpt>
<trkpt lat="48.99106" lon="11.52418"><ele>503</ele></trkpt>
<trkpt lat="48.99249" lon="11.52356"><ele>510</ele></trkpt>
<trkpt lat="48.99296" lon="11.52301"><ele>510</ele></trkpt>
<trkpt lat="48.99533" lon="11.51991"><ele>513</ele></trkpt>
<trkpt lat="48.99648" lon="11.51812"><ele>508</ele></trkpt>
<trkpt lat="48.99721" lon="11.51740"><ele>510</ele></trkpt>
<trkpt lat="48.99788" lon="11.51643"><ele>510</ele></trkpt>
<trkpt lat="48.99850" lon="11.51533"><ele>510</ele></trkpt>
<trkpt lat="48.99908" lon="11.51450"><ele>512</ele></trkpt>
<trkpt lat="48.99915" lon="11.51442"><ele>513</ele></trkpt>
<trkpt lat="48.99925" lon="11.51443"><ele>513</ele></trkpt>
<trkpt lat="49.00025" lon="11.51472"><ele>516</ele></trkpt>
<trkpt lat="49.00126" lon="11.51484"><ele>516</ele></trkpt>
<trkpt lat="49.00422" lon="11.51509"><ele>508</ele></trkpt>
<trkpt lat="49.00514" lon="11.51307"><ele>507</ele></trkpt>
<trkpt lat="49.00603" lon="11.51158"><ele>504</ele></trkpt>
<trkpt lat="49.00672" lon="11.51061"><ele>498</ele></trkpt>
<trkpt lat="49.00760" lon="11.50918"><ele>492</ele></trkpt>
<trkpt lat="49.00803" lon="11.50836"><ele>491</ele></trkpt>
<trkpt lat="49.00804" lon="11.50826"><ele>491</ele></trkpt>
<trkpt lat="49.00829" lon="11.50784"><ele>491</ele></trkpt>
<trkpt lat="49.00862" lon="11.50715"><ele>492</ele></trkpt>
<trkpt lat="49.00887" lon="11.50654"><ele>493</ele></trkpt>
<trkpt lat="49.00889" lon="11.50642"><ele>493</ele></trkpt>
<trkpt lat="49.00887" lon="11.50628"><ele>494</ele></trkpt>
<trkpt lat="49.00812" lon="11.50476"><ele>491</ele></trkpt>
<trkpt lat="49.00796" lon="11.50431"><ele>492</ele></trkpt>
<trkpt lat="49.00777" lon="11.50360"><ele>493</ele></trkpt>
<trkpt lat="49.00910" lon="11.50312"><ele>500</ele></trkpt>
<trkpt lat="49.00987" lon="11.50279"><ele>504</ele></trkpt>
<trkpt lat="49.01026" lon="11.50255"><ele>506</ele></trkpt>
<trkpt lat="49.01037" lon="11.50236"><ele>506</ele></trkpt>
<trkpt lat="49.01054" lon="11.50244"><ele>505</ele></trkpt>
<trkpt lat="49.01066" lon="11.50245"><ele>505</ele></trkpt>
<trkpt lat="49.01131" lon="11.50221"><ele>505</ele></trkpt>
<trkpt lat="49.01161" lon="11.50214"><ele>506</ele></trkpt>
<trkpt lat="49.01189" lon="11.50213"><ele>506</ele></trkpt>
<trkpt lat="49.01323" lon="11.50244"><ele>504</ele></trkpt>
<trkpt lat="49.01334" lon="11.50253"><ele>503</ele></trkpt>
<trkpt lat="49.01346" lon="11.50270"><ele>502</ele></trkpt>
<trkpt lat="49.01378" lon="11.50260"><ele>500</ele></trkpt>
<trkpt lat="49.01390" lon="11.50249"><ele>500</ele></trkpt>
<trkpt lat="49.01395" lon="11.50237"><ele>499</ele></trkpt>
<trkpt lat="49.01398" lon="11.50214"><ele>499</ele></trkpt>
<trkpt lat="49.01446" lon="11.49859"><ele>506</ele></trkpt>
<trkpt lat="49.01471" lon="11.49763"><ele>503</ele></trkpt>
<trkpt lat="49.01509" lon="11.49572"><ele>488</ele></trkpt>
<trkpt lat="49.01533" lon="11.49467"><ele>477</ele></trkpt>
<trkpt lat="49.01553" lon="11.49362"><ele>472</ele></trkpt>
<trkpt lat="49.01584" lon="11.49151"><ele>459</ele></trkpt>
<trkpt lat="49.01638" lon="11.48956"><ele>441</ele></trkpt>
<trkpt lat="49.01681" lon="11.48819"><ele>428</ele></trkpt>
<trkpt lat="49.01707" lon="11.48661"><ele>422</ele></trkpt>
<trkpt lat="49.01787" lon="11.48424"><ele>410</ele></trkpt>
<trkpt lat="49.01899" lon="11.48076"><ele>390</ele></trkpt>
<trkpt lat="49.01938" lon="11.47966"><ele>386</ele></trkpt>
<trkpt lat="49.02004" lon="11.47819"><ele>377</ele></trkpt>
<trkpt lat="49.02068" lon="11.47720"><ele>371</ele></trkpt>
<trkpt lat="49.02071" lon="11.47663"><ele>369</ele></trkpt>
<trkpt lat="49.02115" lon="11.47646"><ele>367</ele></trkpt>
<trkpt lat="49.02170" lon="11.47600"><ele>366</ele></trkpt>
<trkpt lat="49.02244" lon="11.47559"><ele>365</ele></trkpt>
<trkpt lat="49.02253" lon="11.47558"><ele>365</ele></trkpt>
<trkpt lat="49.02256" lon="11.47592"><ele>366</ele></trkpt>
<trkpt lat="49.02242" lon="11.47642"><ele>366</ele></trkpt>
<trkpt lat="49.02236" lon="11.47716"><ele>365</ele></trkpt>
<trkpt lat="49.02460" lon="11.47720"><ele>366</ele></trkpt>
<trkpt lat="49.02660" lon="11.47732"><ele>366</ele></trkpt>
<trkpt lat="49.02687" lon="11.47739"><ele>366</ele></trkpt>
<trkpt lat="49.02776" lon="11.47785"><ele>366</ele></trkpt>
<trkpt lat="49.02857" lon="11.47821"><ele>366</ele></trkpt>
<trkpt lat="49.02912" lon="11.47833"><ele>368</ele></trkpt>
<trkpt lat="49.02912" lon="11.47844"><ele>367</ele></trkpt>
<trkpt lat="49.02921" lon="11.47857"><ele>367</ele></trkpt>
<trkpt lat="49.02947" lon="11.47861"><ele>367</ele></trkpt>
<trkpt lat="49.02964" lon="11.47850"><ele>367</ele></trkpt>
<trkpt lat="49.02996" lon="11.47818"><ele>366</ele></trkpt>
<trkpt lat="49.03029" lon="11.47891"><ele>365</ele></trkpt>
<trkpt lat="49.03052" lon="11.47877"><ele>365</ele></trkpt>
<trkpt lat="49.03062" lon="11.47879"><ele>365</ele></trkpt>
<trkpt lat="49.03117" lon="11.47845"><ele>366</ele></trkpt>
<trkpt lat="49.03145" lon="11.47822"><ele>366</ele></trkpt>
<trkpt lat="49.03272" lon="11.47762"><ele>366</ele></trkpt>
<trkpt lat="49.03264" lon="11.47727"><ele>367</ele></trkpt>
<trkpt lat="49.03265" lon="11.47718"><ele>367</ele></trkpt>
<trkpt lat="49.03204" lon="11.47571"><ele>367</ele></trkpt>
<trkpt lat="49.03229" lon="11.47547"><ele>367</ele></trkpt>
<trkpt lat="49.03180" lon="11.47451"><ele>367</ele></trkpt>
<trkpt lat="49.03168" lon="11.47438"><ele>367</ele></trkpt>
<trkpt lat="49.03148" lon="11.47428"><ele>367</ele></trkpt>
<trkpt lat="49.03171" lon="11.47392"><ele>368</ele></trkpt>
<trkpt lat="49.03194" lon="11.47364"><ele>368</ele></trkpt>
<trkpt lat="49.03258" lon="11.47310"><ele>368</ele></trkpt>
<trkpt lat="49.03278" lon="11.47312"><ele>368</ele></trkpt>
<trkpt lat="49.03283" lon="11.47296"><ele>368</ele></trkpt>
<trkpt lat="49.03299" lon="11.47275"><ele>368</ele></trkpt>
<trkpt lat="49.03196" lon="11.47014"><ele>368</ele></trkpt>
<trkpt lat="49.03122" lon="11.46852"><ele>368</ele></trkpt>
<trkpt lat="49.02947" lon="11.46576"><ele>367</ele></trkpt>
<trkpt lat="49.02795" lon="11.46249"><ele>365</ele></trkpt>
<trkpt lat="49.02768" lon="11.46216"><ele>365</ele></trkpt>
<trkpt lat="49.02756" lon="11.46221"><ele>365</ele></trkpt>
<trkpt lat="49.02749" lon="11.46234"><ele>365</ele></trkpt>
<trkpt lat="49.02703" lon="11.46338"><ele>365</ele></trkpt>
<trkpt lat="49.02692" lon="11.46354"><ele>365</ele></trkpt>
<trkpt lat="49.02665" lon="11.46373"><ele>365</ele></trkpt>
<trkpt lat="49.02590" lon="11.46483"><ele>365</ele></trkpt>
<trkpt lat="49.02572" lon="11.46497"><ele>365</ele></trkpt>
<trkpt lat="49.02565" lon="11.46495"><ele>365</ele></trkpt>
<trkpt lat="49.02416" lon="11.46289"><ele>366</ele></trkpt>
<trkpt lat="49.02385" lon="11.46242"><ele>366</ele></trkpt>
<trkpt lat="49.02233" lon="11.45729"><ele>366</ele></trkpt>
<trkpt lat="49.02192" lon="11.45620"><ele>366</ele></trkpt>
<trkpt lat="49.02120" lon="11.45457"><ele>366</ele></trkpt>
<trkpt lat="49.02107" lon="11.45440"><ele>366</ele></trkpt>
<trkpt lat="49.01766" lon="11.45247"><ele>366</ele></trkpt>
<trkpt lat="49.01735" lon="11.45386"><ele>366</ele></trkpt>
<trkpt lat="49.01728" lon="11.45436"><ele>367</ele></trkpt>
<trkpt lat="49.01729" lon="11.45502"><ele>368</ele></trkpt>
<trkpt lat="49.01737" lon="11.45550"><ele>370</ele></trkpt>
<trkpt lat="49.01762" lon="11.45612"><ele>376</ele></trkpt>
<trkpt lat="49.01783" lon="11.45647"><ele>378</ele></trkpt>
<trkpt lat="49.01798" lon="11.45663"><ele>379</ele></trkpt>
<trkpt lat="49.01871" lon="11.45722"><ele>375</ele></trkpt>
<trkpt lat="49.01886" lon="11.45749"><ele>376</ele></trkpt>
<trkpt lat="49.01890" lon="11.45765"><ele>377</ele></trkpt>
<trkpt lat="49.01892" lon="11.45782"><ele>378</ele></trkpt>
<trkpt lat="49.01912" lon="11.45860"><ele>379</ele></trkpt>
<trkpt lat="49.01889" lon="11.45885"><ele>383</ele></trkpt>
<trkpt lat="49.01834" lon="11.45922"><ele>392</ele></trkpt>
<trkpt lat="49.01820" lon="11.45927"><ele>394</ele></trkpt>
<trkpt lat="49.01752" lon="11.45924"><ele>408</ele></trkpt>
<trkpt lat="49.01742" lon="11.45918"><ele>410</ele></trkpt>
<trkpt lat="49.01725" lon="11.45897"><ele>414</ele></trkpt>
<trkpt lat="49.01666" lon="11.45799"><ele>432</ele></trkpt>
<trkpt lat="49.01659" lon="11.45795"><ele>433</ele></trkpt>
<trkpt lat="49.01646" lon="11.45796"><ele>436</ele></trkpt>
<trkpt lat="49.01628" lon="11.45814"><ele>440</ele></trkpt>
<trkpt lat="49.01579" lon="11.45919"><ele>455</ele></trkpt>
<trkpt lat="49.01535" lon="11.46064"><ele>470</ele></trkpt>
<trkpt lat="49.01520" lon="11.46106"><ele>474</ele></trkpt>
<trkpt lat="49.01476" lon="11.46196"><ele>484</ele></trkpt>
<trkpt lat="49.01470" lon="11.46225"><ele>485</ele></trkpt>
<trkpt lat="49.01468" lon="11.46275"><ele>487</ele></trkpt>
<trkpt lat="49.01479" lon="11.46342"><ele>489</ele></trkpt>
<trkpt lat="49.01480" lon="11.46412"><ele>490</ele></trkpt>
<trkpt lat="49.01487" lon="11.46462"><ele>489</ele></trkpt>
<trkpt lat="49.01488" lon="11.46595"><ele>488</ele></trkpt>
<trkpt lat="49.01411" lon="11.46695"><ele>489</ele></trkpt>
<trkpt lat="49.01300" lon="11.46816"><ele>490</ele></trkpt>
<trkpt lat="49.01269" lon="11.46833"><ele>490</ele></trkpt>
<trkpt lat="49.01173" lon="11.46841"><ele>491</ele></trkpt>
<trkpt lat="49.01152" lon="11.46775"><ele>490</ele></trkpt>
<trkpt lat="49.01095" lon="11.46625"><ele>492</ele></trkpt>
<trkpt lat="49.01086" lon="11.46613"><ele>493</ele></trkpt>
<trkpt lat="49.01015" lon="11.46570"><ele>496</ele></trkpt>
<trkpt lat="49.00877" lon="11.46505"><ele>501</ele></trkpt>
<trkpt lat="49.00766" lon="11.46459"><ele>502</ele></trkpt>
<trkpt lat="49.00745" lon="11.46457"><ele>501</ele></trkpt>
<trkpt lat="49.00696" lon="11.46479"><ele>497</ele></trkpt>
<trkpt lat="49.00623" lon="11.46538"><ele>495</ele></trkpt>
<trkpt lat="49.00574" lon="11.46467"><ele>496</ele></trkpt>
<trkpt lat="49.00565" lon="11.46449"><ele>497</ele></trkpt>
<trkpt lat="49.00515" lon="11.46259"><ele>501</ele></trkpt>
<trkpt lat="49.00507" lon="11.46241"><ele>502</ele></trkpt>
<trkpt lat="49.00465" lon="11.46182"><ele>504</ele></trkpt>
<trkpt lat="49.00386" lon="11.46090"><ele>511</ele></trkpt>
<trkpt lat="49.00370" lon="11.46080"><ele>512</ele></trkpt>
<trkpt lat="49.00298" lon="11.46055"><ele>516</ele></trkpt>
<trkpt lat="49.00055" lon="11.45975"><ele>514</ele></trkpt>
<trkpt lat="49.00023" lon="11.45961"><ele>512</ele></trkpt>
<trkpt lat="48.99996" lon="11.45954"><ele>511</ele></trkpt>
<trkpt lat="48.99965" lon="11.45954"><ele>509</ele></trkpt>
<trkpt lat="48.99917" lon="11.45975"><ele>508</ele></trkpt>
<trkpt lat="48.99895" lon="11.45976"><ele>507</ele></trkpt>
<trkpt lat="48.99875" lon="11.45973"><ele>508</ele></trkpt>
<trkpt lat="48.99850" lon="11.45962"><ele>508</ele></trkpt>
<trkpt lat="48.99807" lon="11.45934"><ele>510</ele></trkpt>
<trkpt lat="48.99756" lon="11.45920"><ele>512</ele></trkpt>
<trkpt lat="48.99791" lon="11.45885"><ele>512</ele></trkpt>
<trkpt lat="48.99797" lon="11.45873"><ele>511</ele></trkpt>
<trkpt lat="48.99798" lon="11.45858"><ele>511</ele></trkpt>
<trkpt lat="48.99785" lon="11.45776"><ele>512</ele></trkpt>
<trkpt lat="48.99781" lon="11.45683"><ele>512</ele></trkpt>
<trkpt lat="48.99766" lon="11.45651"><ele>513</ele></trkpt>
<trkpt lat="48.99744" lon="11.45626"><ele>513</ele></trkpt>
<trkpt lat="48.99669" lon="11.45564"><ele>512</ele></trkpt>
<trkpt lat="48.99542" lon="11.45483"><ele>510</ele></trkpt>
<trkpt lat="48.99485" lon="11.45429"><ele>510</ele></trkpt>
<trkpt lat="48.99405" lon="11.45342"><ele>513</ele></trkpt>
<trkpt lat="48.99352" lon="11.45301"><ele>515</ele></trkpt>
<trkpt lat="48.99303" lon="11.45274"><ele>517</ele></trkpt>
<trkpt lat="48.99284" lon="11.45270"><ele>518</ele></trkpt>
<trkpt lat="48.99273" lon="11.45279"><ele>519</ele></trkpt>
<trkpt lat="48.99247" lon="11.45309"><ele>518</ele></trkpt>
<trkpt lat="48.99212" lon="11.45370"><ele>516</ele></trkpt>
<trkpt lat="48.99201" lon="11.45373"><ele>516</ele></trkpt>
<trkpt lat="48.99198" lon="11.45380"><ele>516</ele></trkpt>
<trkpt lat="48.99200" lon="11.45420"><ele>515</ele></trkpt>
<trkpt lat="48.99197" lon="11.45430"><ele>514</ele></trkpt>
<trkpt lat="48.99157" lon="11.45494"><ele>510</ele></trkpt>
<trkpt lat="48.99081" lon="11.45564"><ele>504</ele></trkpt>
<trkpt lat="48.99079" lon="11.45573"><ele>504</ele></trkpt>
<trkpt lat="48.98996" lon="11.45448"><ele>504</ele></trkpt>
<trkpt lat="48.98922" lon="11.45361"><ele>510</ele></trkpt>
<trkpt lat="48.98915" lon="11.45346"><ele>511</ele></trkpt>
<trkpt lat="48.98882" lon="11.45246"><ele>517</ele></trkpt>
<trkpt lat="48.98871" lon="11.45231"><ele>518</ele></trkpt>
<trkpt lat="48.98837" lon="11.45194"><ele>520</ele></trkpt>
<trkpt lat="48.98748" lon="11.45115"><ele>519</ele></trkpt>
<trkpt lat="48.98721" lon="11.45084"><ele>517</ele></trkpt>
<trkpt lat="48.98582" lon="11.44884"><ele>513</ele></trkpt>
<trkpt lat="48.98517" lon="11.44783"><ele>512</ele></trkpt>
<trkpt lat="48.98440" lon="11.44858"><ele>519</ele></trkpt>
<trkpt lat="48.98396" lon="11.44735"><ele>514</ele></trkpt>
<trkpt lat="48.98318" lon="11.44753"><ele>511</ele></trkpt>
<trkpt lat="48.98311" lon="11.44750"><ele>511</ele></trkpt>
<trkpt lat="48.98302" lon="11.44738"><ele>510</ele></trkpt>
<trkpt lat="48.98260" lon="11.44654"><ele>508</ele></trkpt>
<trkpt lat="48.98202" lon="11.44700"><ele>507</ele></trkpt>
<trkpt lat="48.98129" lon="11.44749"><ele>508</ele></trkpt>
<trkpt lat="48.98041" lon="11.44844"><ele>513</ele></trkpt>
<trkpt lat="48.97985" lon="11.44911"><ele>516</ele></trkpt>
<trkpt lat="48.97980" lon="11.44901"><ele>516</ele></trkpt>
<trkpt lat="48.97976" lon="11.44553"><ele>514</ele></trkpt>
<trkpt lat="48.97977" lon="11.44513"><ele>513</ele></trkpt>
<trkpt lat="48.97601" lon="11.44374"><ele>504</ele></trkpt>
<trkpt lat="48.97594" lon="11.44369"><ele>504</ele></trkpt>
<trkpt lat="48.97513" lon="11.44233"><ele>504</ele></trkpt>
<trkpt lat="48.97496" lon="11.44213"><ele>503</ele></trkpt>
<trkpt lat="48.97309" lon="11.44160"><ele>502</ele></trkpt>
<trkpt lat="48.97295" lon="11.44150"><ele>502</ele></trkpt>
<trkpt lat="48.97165" lon="11.43993"><ele>507</ele></trkpt>
<trkpt lat="48.97158" lon="11.43978"><ele>508</ele></trkpt>
<trkpt lat="48.97109" lon="11.43821"><ele>517</ele></trkpt>
<trkpt lat="48.97087" lon="11.43794"><ele>520</ele></trkpt>
<trkpt lat="48.97028" lon="11.43750"><ele>527</ele></trkpt>
<trkpt lat="48.96931" lon="11.43650"><ele>532</ele></trkpt>
<trkpt lat="48.96892" lon="11.43617"><ele>533</ele></trkpt>
<trkpt lat="48.96821" lon="11.43567"><ele>532</ele></trkpt>
<trkpt lat="48.96686" lon="11.43483"><ele>520</ele></trkpt>
<trkpt lat="48.96666" lon="11.43475"><ele>519</ele></trkpt>
<trkpt lat="48.96633" lon="11.43480"><ele>516</ele></trkpt>
<trkpt lat="48.96606" lon="11.43372"><ele>512</ele></trkpt>
<trkpt lat="48.96601" lon="11.43338"><ele>511</ele></trkpt>
<trkpt lat="48.96595" lon="11.43217"><ele>510</ele></trkpt>
<trkpt lat="48.96587" lon="11.43182"><ele>510</ele></trkpt>
<trkpt lat="48.96580" lon="11.43170"><ele>510</ele></trkpt>
<trkpt lat="48.96577" lon="11.43157"><ele>509</ele></trkpt>
<trkpt lat="48.96576" lon="11.43107"><ele>508</ele></trkpt>
<trkpt lat="48.96525" lon="11.42792"><ele>506</ele></trkpt>
<trkpt lat="48.96520" lon="11.42704"><ele>506</ele></trkpt>
<trkpt lat="48.96385" lon="11.42698"><ele>510</ele></trkpt>
<trkpt lat="48.96205" lon="11.42671"><ele>522</ele></trkpt>
<trkpt lat="48.96201" lon="11.42672"><ele>522</ele></trkpt>
<trkpt lat="48.96200" lon="11.42677"><ele>522</ele></trkpt>
<trkpt lat="48.96205" lon="11.42750"><ele>520</ele></trkpt>
<trkpt lat="48.96203" lon="11.42768"><ele>520</ele></trkpt>
<trkpt lat="48.96194" lon="11.42792"><ele>521</ele></trkpt>
<trkpt lat="48.96184" lon="11.42771"><ele>521</ele></trkpt>
<trkpt lat="48.96163" lon="11.42742"><ele>522</ele></trkpt>
<trkpt lat="48.95965" lon="11.42598"><ele>517</ele></trkpt>
<trkpt lat="48.95945" lon="11.42577"><ele>516</ele></trkpt>
<trkpt lat="48.95929" lon="11.42554"><ele>515</ele></trkpt>
<trkpt lat="48.95861" lon="11.42415"><ele>511</ele></trkpt>
<trkpt lat="48.95853" lon="11.42391"><ele>512</ele></trkpt>
<trkpt lat="48.95851" lon="11.42362"><ele>512</ele></trkpt>
<trkpt lat="48.95837" lon="11.42358"><ele>512</ele></trkpt>
<trkpt lat="48.95800" lon="11.42375"><ele>513</ele></trkpt>
<trkpt lat="48.95712" lon="11.42379"><ele>518</ele></trkpt>
<trkpt lat="48.95696" lon="11.42376"><ele>519</ele></trkpt>
<trkpt lat="48.95670" lon="11.42362"><ele>520</ele></trkpt>
<trkpt lat="48.95623" lon="11.42308"><ele>526</ele></trkpt>
<trkpt lat="48.95592" lon="11.42289"><ele>528</ele></trkpt>
<trkpt lat="48.95580" lon="11.42274"><ele>529</ele></trkpt>
<trkpt lat="48.95468" lon="11.42082"><ele>528</ele></trkpt>
<trkpt lat="48.95344" lon="11.42002"><ele>533</ele></trkpt>
<trkpt lat="48.95319" lon="11.41972"><ele>532</ele></trkpt>
<trkpt lat="48.95301" lon="11.41937"><ele>530</ele></trkpt>
<trkpt lat="48.95293" lon="11.41902"><ele>529</ele></trkpt>
<trkpt lat="48.95224" lon="11.41918"><ele>529</ele></trkpt>
<trkpt lat="48.94999" lon="11.41987"><ele>534</ele></trkpt>
<trkpt lat="48.94975" lon="11.41991"><ele>532</ele></trkpt>
<trkpt lat="48.94939" lon="11.41987"><ele>528</ele></trkpt>
<trkpt lat="48.94921" lon="11.41980"><ele>526</ele></trkpt>
<trkpt lat="48.94907" lon="11.41964"><ele>524</ele></trkpt>
<trkpt lat="48.94882" lon="11.41915"><ele>520</ele></trkpt>
<trkpt lat="48.94914" lon="11.41603"><ele>506</ele></trkpt>
<trkpt lat="48.94975" lon="11.41057"><ele>487</ele></trkpt>
<trkpt lat="48.94990" lon="11.40999"><ele>483</ele></trkpt>
<trkpt lat="48.95007" lon="11.40972"><ele>481</ele></trkpt>
<trkpt lat="48.95081" lon="11.40907"><ele>473</ele></trkpt>
<trkpt lat="48.95104" lon="11.40876"><ele>472</ele></trkpt>
<trkpt lat="48.95137" lon="11.40821"><ele>467</ele></trkpt>
<trkpt lat="48.95156" lon="11.40803"><ele>466</ele></trkpt>
<trkpt lat="48.95165" lon="11.40696"><ele>458</ele></trkpt>
<trkpt lat="48.95206" lon="11.40530"><ele>445</ele></trkpt>
<trkpt lat="48.95233" lon="11.40340"><ele>428</ele></trkpt>
<trkpt lat="48.95228" lon="11.40171"><ele>410</ele></trkpt>
<trkpt lat="48.95231" lon="11.40152"><ele>408</ele></trkpt>
<trkpt lat="48.95251" lon="11.40078"><ele>398</ele></trkpt>
<trkpt lat="48.95254" lon="11.40056"><ele>396</ele></trkpt>
<trkpt lat="48.95251" lon="11.39992"><ele>391</ele></trkpt>
<trkpt lat="48.95239" lon="11.39949"><ele>389</ele></trkpt>
<trkpt lat="48.95223" lon="11.39903"><ele>387</ele></trkpt>
<trkpt lat="48.95179" lon="11.39818"><ele>383</ele></trkpt>
<trkpt lat="48.95172" lon="11.39789"><ele>381</ele></trkpt>
<trkpt lat="48.95172" lon="11.39712"><ele>379</ele></trkpt>
<trkpt lat="48.95180" lon="11.39609"><ele>378</ele></trkpt>
<trkpt lat="48.95149" lon="11.39578"><ele>378</ele></trkpt>
<trkpt lat="48.95098" lon="11.39541"><ele>378</ele></trkpt>
<trkpt lat="48.95023" lon="11.39500"><ele>379</ele></trkpt>
<trkpt lat="48.95025" lon="11.39627"><ele>384</ele></trkpt>
<trkpt lat="48.95022" lon="11.39644"><ele>385</ele></trkpt>
<trkpt lat="48.95011" lon="11.39665"><ele>389</ele></trkpt>
<trkpt lat="48.95014" lon="11.39695"><ele>392</ele></trkpt>
    </trkseg>
  </trk>
</gpx>
