<?xml version="1.0" encoding="UTF-8"?>
<gpx version="1.1" creator="Gravel Kompass" xmlns="http://www.topografix.com/GPX/1/1">
  <metadata><name>Burgund-Runde: Grand-Cru-Weinberge &amp; Kanal-Gravel – Etappe 1</name></metadata>
  <trk>
    <name>Etappe 1: Dijon – Chagny</name>
    <trkseg>
<trkpt lat="47.32197" lon="5.04175"><ele>245</ele></trkpt>
<trkpt lat="47.32178" lon="5.04170"><ele>245</ele></trkpt>
<trkpt lat="47.32164" lon="5.04151"><ele>245</ele></trkpt>
<trkpt lat="47.32181" lon="5.04063"><ele>244</ele></trkpt>
<trkpt lat="47.32160" lon="5.04058"><ele>244</ele></trkpt>
<trkpt lat="47.32211" lon="5.03800"><ele>244</ele></trkpt>
<trkpt lat="47.32247" lon="5.03690"><ele>245</ele></trkpt>
<trkpt lat="47.32123" lon="5.03653"><ele>243</ele></trkpt>
<trkpt lat="47.32117" lon="5.03498"><ele>243</ele></trkpt>
<trkpt lat="47.32122" lon="5.03442"><ele>243</ele></trkpt>
<trkpt lat="47.32120" lon="5.03423"><ele>243</ele></trkpt>
<trkpt lat="47.32115" lon="5.03417"><ele>243</ele></trkpt>
<trkpt lat="47.32008" lon="5.03355"><ele>240</ele></trkpt>
<trkpt lat="47.31899" lon="5.03304"><ele>239</ele></trkpt>
<trkpt lat="47.31816" lon="5.03252"><ele>238</ele></trkpt>
<trkpt lat="47.31774" lon="5.03167"><ele>239</ele></trkpt>
<trkpt lat="47.31786" lon="5.03146"><ele>239</ele></trkpt>
<trkpt lat="47.31764" lon="5.03143"><ele>239</ele></trkpt>
<trkpt lat="47.31765" lon="5.03137"><ele>239</ele></trkpt>
<trkpt lat="47.31785" lon="5.03113"><ele>239</ele></trkpt>
<trkpt lat="47.31797" lon="5.03086"><ele>238</ele></trkpt>
<trkpt lat="47.31829" lon="5.02996"><ele>238</ele></trkpt>
<trkpt lat="47.31861" lon="5.02880"><ele>238</ele></trkpt>
<trkpt lat="47.31864" lon="5.02860"><ele>238</ele></trkpt>
<trkpt lat="47.31860" lon="5.02828"><ele>238</ele></trkpt>
<trkpt lat="47.31863" lon="5.02822"><ele>238</ele></trkpt>
<trkpt lat="47.31735" lon="5.02628"><ele>238</ele></trkpt>
<trkpt lat="47.31706" lon="5.02597"><ele>237</ele></trkpt>
<trkpt lat="47.31616" lon="5.02472"><ele>240</ele></trkpt>
<trkpt lat="47.31627" lon="5.02464"><ele>239</ele></trkpt>
<trkpt lat="47.31654" lon="5.02435"><ele>238</ele></trkpt>
<trkpt lat="47.31656" lon="5.02441"><ele>238</ele></trkpt>
<trkpt lat="47.31675" lon="5.02402"><ele>238</ele></trkpt>
<trkpt lat="47.31774" lon="5.02110"><ele>238</ele></trkpt>
<trkpt lat="47.31791" lon="5.02043"><ele>238</ele></trkpt>
<trkpt lat="47.31793" lon="5.02008"><ele>238</ele></trkpt>
<trkpt lat="47.31789" lon="5.01941"><ele>238</ele></trkpt>
<trkpt lat="47.31744" lon="5.01406"><ele>239</ele></trkpt>
<trkpt lat="47.31735" lon="5.01368"><ele>240</ele></trkpt>
<trkpt lat="47.31740" lon="5.01347"><ele>240</ele></trkpt>
<trkpt lat="47.31729" lon="5.01213"><ele>241</ele></trkpt>
<trkpt lat="47.31721" lon="5.01178"><ele>241</ele></trkpt>
<trkpt lat="47.31714" lon="5.01173"><ele>241</ele></trkpt>
<trkpt lat="47.31705" lon="5.01171"><ele>241</ele></trkpt>
<trkpt lat="47.31681" lon="5.01181"><ele>241</ele></trkpt>
<trkpt lat="47.31665" lon="5.01208"><ele>242</ele></trkpt>
<trkpt lat="47.31647" lon="5.01228"><ele>242</ele></trkpt>
<trkpt lat="47.31591" lon="5.01284"><ele>244</ele></trkpt>
<trkpt lat="47.31567" lon="5.01241"><ele>243</ele></trkpt>
<trkpt lat="47.31524" lon="5.01175"><ele>244</ele></trkpt>
<trkpt lat="47.31478" lon="5.01135"><ele>246</ele></trkpt>
<trkpt lat="47.31348" lon="5.00696"><ele>254</ele></trkpt>
<trkpt lat="47.31343" lon="5.00669"><ele>256</ele></trkpt>
<trkpt lat="47.31344" lon="5.00623"><ele>257</ele></trkpt>
<trkpt lat="47.31358" lon="5.00573"><ele>258</ele></trkpt>
<trkpt lat="47.31367" lon="5.00490"><ele>262</ele></trkpt>
<trkpt lat="47.31360" lon="5.00397"><ele>270</ele></trkpt>
<trkpt lat="47.31350" lon="5.00338"><ele>276</ele></trkpt>
<trkpt lat="47.31316" lon="5.00344"><ele>273</ele></trkpt>
<trkpt lat="47.31303" lon="5.00369"><ele>270</ele></trkpt>
<trkpt lat="47.31257" lon="5.00417"><ele>269</ele></trkpt>
<trkpt lat="47.31215" lon="5.00446"><ele>270</ele></trkpt>
<trkpt lat="47.31199" lon="5.00453"><ele>270</ele></trkpt>
<trkpt lat="47.31182" lon="5.00454"><ele>270</ele></trkpt>
<trkpt lat="47.31140" lon="5.00446"><ele>271</ele></trkpt>
<trkpt lat="47.31116" lon="5.00430"><ele>270</ele></trkpt>
<trkpt lat="47.31085" lon="5.00396"><ele>271</ele></trkpt>
<trkpt lat="47.31056" lon="5.00349"><ele>271</ele></trkpt>
<trkpt lat="47.31020" lon="5.00271"><ele>272</ele></trkpt>
<trkpt lat="47.30991" lon="5.00227"><ele>272</ele></trkpt>
<trkpt lat="47.30953" lon="5.00182"><ele>275</ele></trkpt>
<trkpt lat="47.30913" lon="5.00153"><ele>279</ele></trkpt>
<trkpt lat="47.30902" lon="5.00167"><ele>280</ele></trkpt>
<trkpt lat="47.30827" lon="5.00192"><ele>286</ele></trkpt>
<trkpt lat="47.30752" lon="5.00224"><ele>292</ele></trkpt>
<trkpt lat="47.30631" lon="5.00188"><ele>304</ele></trkpt>
<trkpt lat="47.30615" lon="5.00186"><ele>304</ele></trkpt>
<trkpt lat="47.30466" lon="5.00220"><ele>308</ele></trkpt>
<trkpt lat="47.30370" lon="5.00252"><ele>304</ele></trkpt>
<trkpt lat="47.30348" lon="5.00269"><ele>302</ele></trkpt>
<trkpt lat="47.30318" lon="5.00326"><ele>294</ele></trkpt>
<trkpt lat="47.30297" lon="5.00343"><ele>291</ele></trkpt>
<trkpt lat="47.30296" lon="5.00349"><ele>290</ele></trkpt>
<trkpt lat="47.30313" lon="5.00365"><ele>288</ele></trkpt>
<trkpt lat="47.30313" lon="5.00397"><ele>284</ele></trkpt>
<trkpt lat="47.30253" lon="5.00369"><ele>284</ele></trkpt>
<trkpt lat="47.30194" lon="5.00334"><ele>283</ele></trkpt>
<trkpt lat="47.30175" lon="5.00326"><ele>283</ele></trkpt>
<trkpt lat="47.30146" lon="5.00294"><ele>286</ele></trkpt>
<trkpt lat="47.30088" lon="5.00262"><ele>285</ele></trkpt>
<trkpt lat="47.30054" lon="5.00232"><ele>285</ele></trkpt>
<trkpt lat="47.30009" lon="5.00179"><ele>286</ele></trkpt>
<trkpt lat="47.30014" lon="5.00129"><ele>290</ele></trkpt>
<trkpt lat="47.30010" lon="5.00125"><ele>290</ele></trkpt>
<trkpt lat="47.29955" lon="5.00120"><ele>290</ele></trkpt>
<trkpt lat="47.29884" lon="5.00127"><ele>288</ele></trkpt>
<trkpt lat="47.29866" lon="5.00125"><ele>286</ele></trkpt>
<trkpt lat="47.29819" lon="5.00108"><ele>283</ele></trkpt>
<trkpt lat="47.29785" lon="5.00103"><ele>282</ele></trkpt>
<trkpt lat="47.29751" lon="5.00089"><ele>280</ele></trkpt>
<trkpt lat="47.29720" lon="5.00086"><ele>280</ele></trkpt>
<trkpt lat="47.29611" lon="5.00051"><ele>279</ele></trkpt>
<trkpt lat="47.29593" lon="5.00112"><ele>275</ele></trkpt>
<trkpt lat="47.29562" lon="5.00176"><ele>272</ele></trkpt>
<trkpt lat="47.29523" lon="5.00207"><ele>270</ele></trkpt>
<trkpt lat="47.29509" lon="5.00187"><ele>270</ele></trkpt>
<trkpt lat="47.29496" lon="5.00178"><ele>270</ele></trkpt>
<trkpt lat="47.29348" lon="5.00118"><ele>276</ele></trkpt>
<trkpt lat="47.29334" lon="5.00109"><ele>276</ele></trkpt>
<trkpt lat="47.29309" lon="5.00086"><ele>277</ele></trkpt>
<trkpt lat="47.29283" lon="5.00047"><ele>278</ele></trkpt>
<trkpt lat="47.29227" lon="5.00005"><ele>280</ele></trkpt>
<trkpt lat="47.29217" lon="5.00041"><ele>278</ele></trkpt>
<trkpt lat="47.29095" lon="4.99992"><ele>276</ele></trkpt>
<trkpt lat="47.28971" lon="4.99903"><ele>276</ele></trkpt>
<trkpt lat="47.28872" lon="4.99865"><ele>278</ele></trkpt>
<trkpt lat="47.28760" lon="4.99813"><ele>280</ele></trkpt>
<trkpt lat="47.28739" lon="4.99801"><ele>280</ele></trkpt>
<trkpt lat="47.28667" lon="4.99740"><ele>280</ele></trkpt>
<trkpt lat="47.28584" lon="4.99696"><ele>282</ele></trkpt>
<trkpt lat="47.28556" lon="4.99675"><ele>282</ele></trkpt>
<trkpt lat="47.28550" lon="4.99666"><ele>283</ele></trkpt>
<trkpt lat="47.28547" lon="4.99634"><ele>284</ele></trkpt>
<trkpt lat="47.28509" lon="4.99609"><ele>284</ele></trkpt>
<trkpt lat="47.28496" lon="4.99595"><ele>284</ele></trkpt>
<trkpt lat="47.28464" lon="4.99529"><ele>286</ele></trkpt>
<trkpt lat="47.28447" lon="4.99502"><ele>287</ele></trkpt>
<trkpt lat="47.28353" lon="4.99388"><ele>287</ele></trkpt>
<trkpt lat="47.28292" lon="4.99302"><ele>287</ele></trkpt>
<trkpt lat="47.28260" lon="4.99264"><ele>286</ele></trkpt>
<trkpt lat="47.28191" lon="4.99130"><ele>287</ele></trkpt>
<trkpt lat="47.28119" lon="4.99007"><ele>287</ele></trkpt>
<trkpt lat="47.28058" lon="4.98910"><ele>286</ele></trkpt>
<trkpt lat="47.28023" lon="4.98847"><ele>287</ele></trkpt>
<trkpt lat="47.28005" lon="4.98803"><ele>287</ele></trkpt>
<trkpt lat="47.27962" lon="4.98851"><ele>286</ele></trkpt>
<trkpt lat="47.27933" lon="4.98897"><ele>285</ele></trkpt>
<trkpt lat="47.27903" lon="4.98936"><ele>284</ele></trkpt>
<trkpt lat="47.27881" lon="4.98957"><ele>284</ele></trkpt>
<trkpt lat="47.27867" lon="4.98964"><ele>284</ele></trkpt>
<trkpt lat="47.27828" lon="4.98947"><ele>284</ele></trkpt>
<trkpt lat="47.27778" lon="4.98911"><ele>283</ele></trkpt>
<trkpt lat="47.27609" lon="4.98755"><ele>282</ele></trkpt>
<trkpt lat="47.27531" lon="4.98697"><ele>281</ele></trkpt>
<trkpt lat="47.27522" lon="4.98695"><ele>281</ele></trkpt>
<trkpt lat="47.27504" lon="4.98670"><ele>281</ele></trkpt>
<trkpt lat="47.27474" lon="4.98610"><ele>283</ele></trkpt>
<trkpt lat="47.27454" lon="4.98597"><ele>284</ele></trkpt>
<trkpt lat="47.27395" lon="4.98586"><ele>284</ele></trkpt>
<trkpt lat="47.27325" lon="4.98558"><ele>284</ele></trkpt>
<trkpt lat="47.27284" lon="4.98552"><ele>284</ele></trkpt>
<trkpt lat="47.27243" lon="4.98553"><ele>282</ele></trkpt>
<trkpt lat="47.27177" lon="4.98588"><ele>281</ele></trkpt>
<trkpt lat="47.27108" lon="4.98576"><ele>281</ele></trkpt>
<trkpt lat="47.27042" lon="4.98543"><ele>282</ele></trkpt>
<trkpt lat="47.26960" lon="4.98484"><ele>285</ele></trkpt>
<trkpt lat="47.26917" lon="4.98465"><ele>286</ele></trkpt>
<trkpt lat="47.26880" lon="4.98461"><ele>286</ele></trkpt>
<trkpt lat="47.26866" lon="4.98470"><ele>286</ele></trkpt>
<trkpt lat="47.26850" lon="4.98471"><ele>286</ele></trkpt>
<trkpt lat="47.26808" lon="4.98465"><ele>285</ele></trkpt>
<trkpt lat="47.26828" lon="4.98357"><ele>288</ele></trkpt>
<trkpt lat="47.26833" lon="4.98281"><ele>292</ele></trkpt>
<trkpt lat="47.26804" lon="4.98264"><ele>291</ele></trkpt>
<trkpt lat="47.26755" lon="4.98251"><ele>292</ele></trkpt>
<trkpt lat="47.26723" lon="4.98237"><ele>291</ele></trkpt>
<trkpt lat="47.26714" lon="4.98230"><ele>291</ele></trkpt>
<trkpt lat="47.26751" lon="4.98017"><ele>298</ele></trkpt>
<trkpt lat="47.26758" lon="4.97992"><ele>299</ele></trkpt>
<trkpt lat="47.26756" lon="4.97985"><ele>300</ele></trkpt>
<trkpt lat="47.26750" lon="4.97979"><ele>300</ele></trkpt>
<trkpt lat="47.26655" lon="4.97925"><ele>302</ele></trkpt>
<trkpt lat="47.26632" lon="4.97915"><ele>302</ele></trkpt>
<trkpt lat="47.26539" lon="4.97887"><ele>298</ele></trkpt>
<trkpt lat="47.26453" lon="4.97852"><ele>298</ele></trkpt>
<trkpt lat="47.26405" lon="4.97844"><ele>297</ele></trkpt>
<trkpt lat="47.26423" lon="4.97734"><ele>302</ele></trkpt>
<trkpt lat="47.26421" lon="4.97725"><ele>303</ele></trkpt>
<trkpt lat="47.26351" lon="4.97694"><ele>305</ele></trkpt>
<trkpt lat="47.26293" lon="4.97684"><ele>305</ele></trkpt>
<trkpt lat="47.26266" lon="4.97684"><ele>304</ele></trkpt>
<trkpt lat="47.26199" lon="4.97667"><ele>305</ele></trkpt>
<trkpt lat="47.26149" lon="4.97661"><ele>304</ele></trkpt>
<trkpt lat="47.26036" lon="4.97610"><ele>306</ele></trkpt>
<trkpt lat="47.25925" lon="4.97597"><ele>306</ele></trkpt>
<trkpt lat="47.25923" lon="4.97607"><ele>305</ele></trkpt>
<trkpt lat="47.25918" lon="4.97609"><ele>305</ele></trkpt>
<trkpt lat="47.25842" lon="4.97586"><ele>306</ele></trkpt>
<trkpt lat="47.25760" lon="4.97549"><ele>308</ele></trkpt>
<trkpt lat="47.25653" lon="4.97513"><ele>310</ele></trkpt>
<trkpt lat="47.25608" lon="4.97516"><ele>309</ele></trkpt>
<trkpt lat="47.25594" lon="4.97509"><ele>309</ele></trkpt>
<trkpt lat="47.25540" lon="4.97471"><ele>310</ele></trkpt>
<trkpt lat="47.25510" lon="4.97422"><ele>311</ele></trkpt>
<trkpt lat="47.25487" lon="4.97401"><ele>312</ele></trkpt>
<trkpt lat="47.25442" lon="4.97374"><ele>310</ele></trkpt>
<trkpt lat="47.25430" lon="4.97363"><ele>309</ele></trkpt>
<trkpt lat="47.25421" lon="4.97346"><ele>310</ele></trkpt>
<trkpt lat="47.25415" lon="4.97332"><ele>311</ele></trkpt>
<trkpt lat="47.25412" lon="4.97296"><ele>312</ele></trkpt>
<trkpt lat="47.25424" lon="4.97215"><ele>318</ele></trkpt>
<trkpt lat="47.25421" lon="4.97205"><ele>318</ele></trkpt>
<trkpt lat="47.25394" lon="4.97178"><ele>317</ele></trkpt>
<trkpt lat="47.25387" lon="4.97166"><ele>318</ele></trkpt>
<trkpt lat="47.25354" lon="4.97046"><ele>322</ele></trkpt>
<trkpt lat="47.25341" lon="4.97033"><ele>321</ele></trkpt>
<trkpt lat="47.25306" lon="4.97026"><ele>318</ele></trkpt>
<trkpt lat="47.25255" lon="4.97034"><ele>314</ele></trkpt>
<trkpt lat="47.25216" lon="4.97024"><ele>314</ele></trkpt>
<trkpt lat="47.25195" lon="4.97025"><ele>314</ele></trkpt>
<trkpt lat="47.25171" lon="4.97037"><ele>314</ele></trkpt>
<trkpt lat="47.25063" lon="4.97107"><ele>316</ele></trkpt>
<trkpt lat="47.25010" lon="4.97119"><ele>314</ele></trkpt>
<trkpt lat="47.25006" lon="4.97062"><ele>317</ele></trkpt>
<trkpt lat="47.25008" lon="4.97035"><ele>318</ele></trkpt>
<trkpt lat="47.24967" lon="4.97035"><ele>318</ele></trkpt>
<trkpt lat="47.24930" lon="4.97023"><ele>317</ele></trkpt>
<trkpt lat="47.24866" lon="4.96992"><ele>314</ele></trkpt>
<trkpt lat="47.24824" lon="4.96964"><ele>313</ele></trkpt>
<trkpt lat="47.24734" lon="4.96917"><ele>309</ele></trkpt>
<trkpt lat="47.24688" lon="4.96871"><ele>310</ele></trkpt>
<trkpt lat="47.24659" lon="4.96866"><ele>312</ele></trkpt>
<trkpt lat="47.24628" lon="4.96886"><ele>313</ele></trkpt>
<trkpt lat="47.24617" lon="4.96886"><ele>314</ele></trkpt>
<trkpt lat="47.24623" lon="4.96826"><ele>316</ele></trkpt>
<trkpt lat="47.24621" lon="4.96765"><ele>320</ele></trkpt>
<trkpt lat="47.24617" lon="4.96751"><ele>320</ele></trkpt>
<trkpt lat="47.24612" lon="4.96742"><ele>322</ele></trkpt>
<trkpt lat="47.24587" lon="4.96729"><ele>323</ele></trkpt>
<trkpt lat="47.24579" lon="4.96719"><ele>324</ele></trkpt>
<trkpt lat="47.24566" lon="4.96680"><ele>326</ele></trkpt>
<trkpt lat="47.24564" lon="4.96611"><ele>329</ele></trkpt>
<trkpt lat="47.24556" lon="4.96508"><ele>333</ele></trkpt>
<trkpt lat="47.24553" lon="4.96495"><ele>335</ele></trkpt>
<trkpt lat="47.24548" lon="4.96486"><ele>336</ele></trkpt>
<trkpt lat="47.24532" lon="4.96480"><ele>338</ele></trkpt>
<trkpt lat="47.24458" lon="4.96513"><ele>346</ele></trkpt>
<trkpt lat="47.24422" lon="4.96518"><ele>349</ele></trkpt>
<trkpt lat="47.24388" lon="4.96488"><ele>354</ele></trkpt>
<trkpt lat="47.24369" lon="4.96461"><ele>356</ele></trkpt>
<trkpt lat="47.24332" lon="4.96397"><ele>362</ele></trkpt>
<trkpt lat="47.24309" lon="4.96370"><ele>364</ele></trkpt>
<trkpt lat="47.24298" lon="4.96402"><ele>360</ele></trkpt>
<trkpt lat="47.24234" lon="4.96460"><ele>347</ele></trkpt>
<trkpt lat="47.24201" lon="4.96495"><ele>340</ele></trkpt>
<trkpt lat="47.24192" lon="4.96517"><ele>337</ele></trkpt>
<trkpt lat="47.24178" lon="4.96591"><ele>327</ele></trkpt>
<trkpt lat="47.24152" lon="4.96629"><ele>323</ele></trkpt>
<trkpt lat="47.24139" lon="4.96631"><ele>322</ele></trkpt>
<trkpt lat="47.24110" lon="4.96626"><ele>321</ele></trkpt>
<trkpt lat="47.24064" lon="4.96597"><ele>319</ele></trkpt>
<trkpt lat="47.24049" lon="4.96594"><ele>319</ele></trkpt>
<trkpt lat="47.24022" lon="4.96615"><ele>318</ele></trkpt>
<trkpt lat="47.23997" lon="4.96643"><ele>316</ele></trkpt>
<trkpt lat="47.23977" lon="4.96652"><ele>316</ele></trkpt>
<trkpt lat="47.23956" lon="4.96695"><ele>312</ele></trkpt>
<trkpt lat="47.23924" lon="4.96783"><ele>305</ele></trkpt>
<trkpt lat="47.23900" lon="4.96775"><ele>304</ele></trkpt>
<trkpt lat="47.23859" lon="4.96775"><ele>304</ele></trkpt>
<trkpt lat="47.23859" lon="4.96712"><ele>306</ele></trkpt>
<trkpt lat="47.23844" lon="4.96644"><ele>312</ele></trkpt>
<trkpt lat="47.23804" lon="4.96653"><ele>312</ele></trkpt>
<trkpt lat="47.23791" lon="4.96678"><ele>311</ele></trkpt>
<trkpt lat="47.23779" lon="4.96678"><ele>312</ele></trkpt>
<trkpt lat="47.23736" lon="4.96659"><ele>316</ele></trkpt>
<trkpt lat="47.23720" lon="4.96646"><ele>317</ele></trkpt>
<trkpt lat="47.23633" lon="4.96617"><ele>320</ele></trkpt>
<trkpt lat="47.23533" lon="4.96560"><ele>323</ele></trkpt>
<trkpt lat="47.23484" lon="4.96550"><ele>322</ele></trkpt>
<trkpt lat="47.23443" lon="4.96553"><ele>320</ele></trkpt>
<trkpt lat="47.23418" lon="4.96550"><ele>319</ele></trkpt>
<trkpt lat="47.23344" lon="4.96529"><ele>316</ele></trkpt>
<trkpt lat="47.23263" lon="4.96488"><ele>316</ele></trkpt>
<trkpt lat="47.23188" lon="4.96463"><ele>312</ele></trkpt>
<trkpt lat="47.23168" lon="4.96448"><ele>313</ele></trkpt>
<trkpt lat="47.23131" lon="4.96433"><ele>311</ele></trkpt>
<trkpt lat="47.23107" lon="4.96501"><ele>308</ele></trkpt>
<trkpt lat="47.23100" lon="4.96510"><ele>307</ele></trkpt>
<trkpt lat="47.23081" lon="4.96513"><ele>305</ele></trkpt>
<trkpt lat="47.23067" lon="4.96528"><ele>304</ele></trkpt>
<trkpt lat="47.23041" lon="4.96517"><ele>304</ele></trkpt>
<trkpt lat="47.22995" lon="4.96484"><ele>302</ele></trkpt>
<trkpt lat="47.22957" lon="4.96479"><ele>301</ele></trkpt>
<trkpt lat="47.22927" lon="4.96486"><ele>299</ele></trkpt>
<trkpt lat="47.22870" lon="4.96414"><ele>299</ele></trkpt>
<trkpt lat="47.22806" lon="4.96350"><ele>297</ele></trkpt>
<trkpt lat="47.22728" lon="4.96282"><ele>296</ele></trkpt>
<trkpt lat="47.22725" lon="4.96283"><ele>296</ele></trkpt>
<trkpt lat="47.22714" lon="4.96305"><ele>293</ele></trkpt>
<trkpt lat="47.22710" lon="4.96305"><ele>293</ele></trkpt>
<trkpt lat="47.22673" lon="4.96274"><ele>292</ele></trkpt>
<trkpt lat="47.22643" lon="4.96258"><ele>291</ele></trkpt>
<trkpt lat="47.22628" lon="4.96254"><ele>290</ele></trkpt>
<trkpt lat="47.22617" lon="4.96208"><ele>291</ele></trkpt>
<trkpt lat="47.22571" lon="4.96125"><ele>292</ele></trkpt>
<trkpt lat="47.22561" lon="4.96124"><ele>292</ele></trkpt>
<trkpt lat="47.22480" lon="4.96023"><ele>294</ele></trkpt>
<trkpt lat="47.22449" lon="4.96004"><ele>297</ele></trkpt>
<trkpt lat="47.22416" lon="4.96006"><ele>298</ele></trkpt>
<trkpt lat="47.22383" lon="4.96027"><ele>300</ele></trkpt>
<trkpt lat="47.22318" lon="4.96128"><ele>308</ele></trkpt>
<trkpt lat="47.22301" lon="4.96178"><ele>306</ele></trkpt>
<trkpt lat="47.22279" lon="4.96215"><ele>308</ele></trkpt>
<trkpt lat="47.22253" lon="4.96270"><ele>310</ele></trkpt>
<trkpt lat="47.22231" lon="4.96303"><ele>312</ele></trkpt>
<trkpt lat="47.22200" lon="4.96330"><ele>312</ele></trkpt>
<trkpt lat="47.22164" lon="4.96347"><ele>313</ele></trkpt>
<trkpt lat="47.22120" lon="4.96349"><ele>314</ele></trkpt>
<trkpt lat="47.22188" lon="4.96593"><ele>290</ele></trkpt>
<trkpt lat="47.22193" lon="4.96605"><ele>289</ele></trkpt>
<trkpt lat="47.22153" lon="4.96619"><ele>289</ele></trkpt>
<trkpt lat="47.22141" lon="4.96627"><ele>289</ele></trkpt>
<trkpt lat="47.22078" lon="4.96714"><ele>284</ele></trkpt>
<trkpt lat="47.22056" lon="4.96754"><ele>281</ele></trkpt>
<trkpt lat="47.22037" lon="4.96799"><ele>279</ele></trkpt>
<trkpt lat="47.22028" lon="4.96810"><ele>278</ele></trkpt>
<trkpt lat="47.22012" lon="4.96814"><ele>278</ele></trkpt>
<trkpt lat="47.21980" lon="4.96809"><ele>278</ele></trkpt>
<trkpt lat="47.21954" lon="4.96802"><ele>278</ele></trkpt>
<trkpt lat="47.21879" lon="4.96768"><ele>278</ele></trkpt>
<trkpt lat="47.21852" lon="4.96764"><ele>277</ele></trkpt>
<trkpt lat="47.21816" lon="4.96780"><ele>275</ele></trkpt>
<trkpt lat="47.21813" lon="4.96786"><ele>275</ele></trkpt>
<trkpt lat="47.21801" lon="4.96838"><ele>274</ele></trkpt>
<trkpt lat="47.21757" lon="4.96829"><ele>272</ele></trkpt>
<trkpt lat="47.21710" lon="4.96812"><ele>274</ele></trkpt>
<trkpt lat="47.21570" lon="4.96759"><ele>277</ele></trkpt>
<trkpt lat="47.21502" lon="4.96724"><ele>276</ele></trkpt>
<trkpt lat="47.21472" lon="4.96713"><ele>274</ele></trkpt>
<trkpt lat="47.21445" lon="4.96715"><ele>274</ele></trkpt>
<trkpt lat="47.21393" lon="4.96727"><ele>275</ele></trkpt>
<trkpt lat="47.21377" lon="4.96741"><ele>274</ele></trkpt>
<trkpt lat="47.21368" lon="4.96754"><ele>274</ele></trkpt>
<trkpt lat="47.21342" lon="4.96819"><ele>270</ele></trkpt>
<trkpt lat="47.21306" lon="4.96861"><ele>267</ele></trkpt>
<trkpt lat="47.21235" lon="4.97030"><ele>260</ele></trkpt>
<trkpt lat="47.21223" lon="4.97083"><ele>259</ele></trkpt>
<trkpt lat="47.21202" lon="4.97248"><ele>257</ele></trkpt>
<trkpt lat="47.21052" lon="4.97224"><ele>258</ele></trkpt>
<trkpt lat="47.20980" lon="4.97209"><ele>258</ele></trkpt>
<trkpt lat="47.20961" lon="4.97221"><ele>258</ele></trkpt>
<trkpt lat="47.20950" lon="4.97263"><ele>254</ele></trkpt>
<trkpt lat="47.20936" lon="4.97302"><ele>251</ele></trkpt>
<trkpt lat="47.20931" lon="4.97308"><ele>251</ele></trkpt>
<trkpt lat="47.20927" lon="4.97308"><ele>251</ele></trkpt>
<trkpt lat="47.20931" lon="4.97308"><ele>251</ele></trkpt>
<trkpt lat="47.20936" lon="4.97302"><ele>251</ele></trkpt>
<trkpt lat="47.20950" lon="4.97263"><ele>254</ele></trkpt>
<trkpt lat="47.20961" lon="4.97221"><ele>258</ele></trkpt>
<trkpt lat="47.20954" lon="4.97215"><ele>258</ele></trkpt>
<trkpt lat="47.20902" lon="4.97201"><ele>260</ele></trkpt>
<trkpt lat="47.20894" lon="4.97190"><ele>261</ele></trkpt>
<trkpt lat="47.20863" lon="4.97182"><ele>261</ele></trkpt>
<trkpt lat="47.20889" lon="4.97031"><ele>267</ele></trkpt>
<trkpt lat="47.20890" lon="4.97013"><ele>267</ele></trkpt>
<trkpt lat="47.20884" lon="4.97002"><ele>267</ele></trkpt>
<trkpt lat="47.20796" lon="4.96968"><ele>266</ele></trkpt>
<trkpt lat="47.20754" lon="4.96967"><ele>264</ele></trkpt>
<trkpt lat="47.20669" lon="4.96949"><ele>265</ele></trkpt>
<trkpt lat="47.20622" lon="4.96953"><ele>264</ele></trkpt>
<trkpt lat="47.20605" lon="4.96944"><ele>264</ele></trkpt>
<trkpt lat="47.20593" lon="4.96932"><ele>263</ele></trkpt>
<trkpt lat="47.20559" lon="4.96877"><ele>262</ele></trkpt>
<trkpt lat="47.20512" lon="4.96833"><ele>262</ele></trkpt>
<trkpt lat="47.20489" lon="4.96805"><ele>263</ele></trkpt>
<trkpt lat="47.20457" lon="4.96736"><ele>264</ele></trkpt>
<trkpt lat="47.20451" lon="4.96707"><ele>266</ele></trkpt>
<trkpt lat="47.20457" lon="4.96648"><ele>267</ele></trkpt>
<trkpt lat="47.20456" lon="4.96596"><ele>268</ele></trkpt>
<trkpt lat="47.20459" lon="4.96561"><ele>270</ele></trkpt>
<trkpt lat="47.20398" lon="4.96537"><ele>270</ele></trkpt>
<trkpt lat="47.20257" lon="4.96504"><ele>272</ele></trkpt>
<trkpt lat="47.20002" lon="4.96395"><ele>278</ele></trkpt>
<trkpt lat="47.19983" lon="4.96383"><ele>278</ele></trkpt>
<trkpt lat="47.19967" lon="4.96364"><ele>278</ele></trkpt>
<trkpt lat="47.19929" lon="4.96302"><ele>280</ele></trkpt>
<trkpt lat="47.19904" lon="4.96238"><ele>282</ele></trkpt>
<trkpt lat="47.19886" lon="4.96221"><ele>283</ele></trkpt>
<trkpt lat="47.19868" lon="4.96220"><ele>282</ele></trkpt>
<trkpt lat="47.19837" lon="4.96247"><ele>279</ele></trkpt>
<trkpt lat="47.19828" lon="4.96248"><ele>279</ele></trkpt>
<trkpt lat="47.19731" lon="4.96211"><ele>274</ele></trkpt>
<trkpt lat="47.19653" lon="4.96209"><ele>271</ele></trkpt>
<trkpt lat="47.19570" lon="4.96182"><ele>268</ele></trkpt>
<trkpt lat="47.19555" lon="4.96181"><ele>267</ele></trkpt>
<trkpt lat="47.19467" lon="4.96115"><ele>268</ele></trkpt>
<trkpt lat="47.19367" lon="4.96053"><ele>267</ele></trkpt>
<trkpt lat="47.19302" lon="4.96005"><ele>269</ele></trkpt>
<trkpt lat="47.19294" lon="4.96007"><ele>269</ele></trkpt>
<trkpt lat="47.19264" lon="4.95996"><ele>270</ele></trkpt>
<trkpt lat="47.19229" lon="4.95997"><ele>270</ele></trkpt>
<trkpt lat="47.19154" lon="4.95978"><ele>271</ele></trkpt>
<trkpt lat="47.19127" lon="4.95987"><ele>270</ele></trkpt>
<trkpt lat="47.19052" lon="4.96044"><ele>268</ele></trkpt>
<trkpt lat="47.19036" lon="4.96052"><ele>268</ele></trkpt>
<trkpt lat="47.19003" lon="4.96060"><ele>268</ele></trkpt>
<trkpt lat="47.18895" lon="4.96050"><ele>268</ele></trkpt>
<trkpt lat="47.18830" lon="4.96049"><ele>267</ele></trkpt>
<trkpt lat="47.18719" lon="4.96024"><ele>265</ele></trkpt>
<trkpt lat="47.18628" lon="4.96021"><ele>263</ele></trkpt>
<trkpt lat="47.18615" lon="4.95998"><ele>263</ele></trkpt>
<trkpt lat="47.18578" lon="4.95974"><ele>262</ele></trkpt>
<trkpt lat="47.18534" lon="4.95956"><ele>262</ele></trkpt>
<trkpt lat="47.18450" lon="4.95909"><ele>265</ele></trkpt>
<trkpt lat="47.18366" lon="4.95884"><ele>265</ele></trkpt>
<trkpt lat="47.18232" lon="4.95818"><ele>267</ele></trkpt>
<trkpt lat="47.18150" lon="4.95755"><ele>272</ele></trkpt>
<trkpt lat="47.18031" lon="4.95680"><ele>276</ele></trkpt>
<trkpt lat="47.17986" lon="4.95639"><ele>277</ele></trkpt>
<trkpt lat="47.17966" lon="4.95630"><ele>277</ele></trkpt>
<trkpt lat="47.17912" lon="4.95617"><ele>274</ele></trkpt>
<trkpt lat="47.17876" lon="4.95600"><ele>272</ele></trkpt>
<trkpt lat="47.17822" lon="4.95560"><ele>270</ele></trkpt>
<trkpt lat="47.17725" lon="4.95517"><ele>269</ele></trkpt>
<trkpt lat="47.17687" lon="4.95488"><ele>268</ele></trkpt>
<trkpt lat="47.17676" lon="4.95485"><ele>268</ele></trkpt>
<trkpt lat="47.17656" lon="4.95488"><ele>266</ele></trkpt>
<trkpt lat="47.17629" lon="4.95500"><ele>264</ele></trkpt>
<trkpt lat="47.17573" lon="4.95460"><ele>262</ele></trkpt>
<trkpt lat="47.17513" lon="4.95389"><ele>262</ele></trkpt>
<trkpt lat="47.17490" lon="4.95366"><ele>263</ele></trkpt>
<trkpt lat="47.17390" lon="4.95352"><ele>262</ele></trkpt>
<trkpt lat="47.17367" lon="4.95332"><ele>264</ele></trkpt>
<trkpt lat="47.17338" lon="4.95319"><ele>266</ele></trkpt>
<trkpt lat="47.17326" lon="4.95305"><ele>267</ele></trkpt>
<trkpt lat="47.17306" lon="4.95296"><ele>267</ele></trkpt>
<trkpt lat="47.17244" lon="4.95289"><ele>266</ele></trkpt>
<trkpt lat="47.17200" lon="4.95276"><ele>266</ele></trkpt>
<trkpt lat="47.17129" lon="4.95265"><ele>265</ele></trkpt>
<trkpt lat="47.17054" lon="4.95264"><ele>264</ele></trkpt>
<trkpt lat="47.16993" lon="4.95238"><ele>262</ele></trkpt>
<trkpt lat="47.16801" lon="4.95178"><ele>262</ele></trkpt>
<trkpt lat="47.16625" lon="4.95164"><ele>264</ele></trkpt>
<trkpt lat="47.16575" lon="4.95174"><ele>264</ele></trkpt>
<trkpt lat="47.16549" lon="4.95175"><ele>264</ele></trkpt>
<trkpt lat="47.16420" lon="4.95153"><ele>262</ele></trkpt>
<trkpt lat="47.16430" lon="4.95070"><ele>262</ele></trkpt>
<trkpt lat="47.16441" lon="4.95029"><ele>262</ele></trkpt>
<trkpt lat="47.16435" lon="4.95026"><ele>263</ele></trkpt>
<trkpt lat="47.16393" lon="4.95023"><ele>264</ele></trkpt>
<trkpt lat="47.16371" lon="4.95058"><ele>264</ele></trkpt>
<trkpt lat="47.16329" lon="4.95076"><ele>264</ele></trkpt>
<trkpt lat="47.16306" lon="4.95079"><ele>263</ele></trkpt>
<trkpt lat="47.16239" lon="4.95068"><ele>262</ele></trkpt>
<trkpt lat="47.16218" lon="4.95072"><ele>261</ele></trkpt>
<trkpt lat="47.16181" lon="4.95087"><ele>261</ele></trkpt>
<trkpt lat="47.16166" lon="4.95087"><ele>261</ele></trkpt>
<trkpt lat="47.16095" lon="4.95071"><ele>260</ele></trkpt>
<trkpt lat="47.16081" lon="4.95134"><ele>257</ele></trkpt>
<trkpt lat="47.16073" lon="4.95153"><ele>256</ele></trkpt>
<trkpt lat="47.16051" lon="4.95188"><ele>253</ele></trkpt>
<trkpt lat="47.16036" lon="4.95256"><ele>250</ele></trkpt>
<trkpt lat="47.16004" lon="4.95239"><ele>249</ele></trkpt>
<trkpt lat="47.15918" lon="4.95223"><ele>248</ele></trkpt>
<trkpt lat="47.15899" lon="4.95209"><ele>248</ele></trkpt>
<trkpt lat="47.15892" lon="4.95197"><ele>249</ele></trkpt>
<trkpt lat="47.15861" lon="4.95132"><ele>252</ele></trkpt>
<trkpt lat="47.15848" lon="4.95118"><ele>252</ele></trkpt>
<trkpt lat="47.15836" lon="4.95112"><ele>253</ele></trkpt>
<trkpt lat="47.15780" lon="4.95100"><ele>255</ele></trkpt>
<trkpt lat="47.15682" lon="4.95063"><ele>255</ele></trkpt>
<trkpt lat="47.15586" lon="4.95007"><ele>252</ele></trkpt>
<trkpt lat="47.15500" lon="4.94975"><ele>251</ele></trkpt>
<trkpt lat="47.15481" lon="4.94970"><ele>251</ele></trkpt>
<trkpt lat="47.15420" lon="4.94974"><ele>249</ele></trkpt>
<trkpt lat="47.15399" lon="4.94969"><ele>249</ele></trkpt>
<trkpt lat="47.15324" lon="4.94939"><ele>250</ele></trkpt>
<trkpt lat="47.15246" lon="4.94895"><ele>252</ele></trkpt>
<trkpt lat="47.15184" lon="4.94893"><ele>253</ele></trkpt>
<trkpt lat="47.15168" lon="4.94888"><ele>253</ele></trkpt>
<trkpt lat="47.15095" lon="4.94847"><ele>256</ele></trkpt>
<trkpt lat="47.15021" lon="4.94812"><ele>258</ele></trkpt>
<trkpt lat="47.14997" lon="4.94794"><ele>257</ele></trkpt>
<trkpt lat="47.14966" lon="4.94757"><ele>258</ele></trkpt>
<trkpt lat="47.14919" lon="4.94716"><ele>257</ele></trkpt>
<trkpt lat="47.14827" lon="4.94616"><ele>255</ele></trkpt>
<trkpt lat="47.14778" lon="4.94584"><ele>254</ele></trkpt>
<trkpt lat="47.14730" lon="4.94534"><ele>254</ele></trkpt>
<trkpt lat="47.14656" lon="4.94480"><ele>252</ele></trkpt>
<trkpt lat="47.14609" lon="4.94423"><ele>251</ele></trkpt>
<trkpt lat="47.14521" lon="4.94331"><ele>248</ele></trkpt>
<trkpt lat="47.14407" lon="4.94536"><ele>247</ele></trkpt>
<trkpt lat="47.14351" lon="4.94623"><ele>246</ele></trkpt>
<trkpt lat="47.14308" lon="4.94685"><ele>246</ele></trkpt>
<trkpt lat="47.14285" lon="4.94691"><ele>245</ele></trkpt>
<trkpt lat="47.14265" lon="4.94682"><ele>245</ele></trkpt>
<trkpt lat="47.14187" lon="4.94605"><ele>245</ele></trkpt>
<trkpt lat="47.14228" lon="4.94511"><ele>245</ele></trkpt>
<trkpt lat="47.14131" lon="4.94445"><ele>246</ele></trkpt>
<trkpt lat="47.14093" lon="4.94413"><ele>243</ele></trkpt>
<trkpt lat="47.14087" lon="4.94405"><ele>244</ele></trkpt>
<trkpt lat="47.14055" lon="4.94415"><ele>243</ele></trkpt>
<trkpt lat="47.14034" lon="4.94412"><ele>243</ele></trkpt>
<trkpt lat="47.14029" lon="4.94408"><ele>242</ele></trkpt>
<trkpt lat="47.14023" lon="4.94339"><ele>243</ele></trkpt>
<trkpt lat="47.14017" lon="4.94318"><ele>243</ele></trkpt>
<trkpt lat="47.14010" lon="4.94309"><ele>243</ele></trkpt>
<trkpt lat="47.13932" lon="4.94284"><ele>245</ele></trkpt>
<trkpt lat="47.13922" lon="4.94286"><ele>245</ele></trkpt>
<trkpt lat="47.13905" lon="4.94299"><ele>245</ele></trkpt>
<trkpt lat="47.13894" lon="4.94273"><ele>246</ele></trkpt>
<trkpt lat="47.13841" lon="4.94306"><ele>246</ele></trkpt>
<trkpt lat="47.13801" lon="4.94349"><ele>244</ele></trkpt>
<trkpt lat="47.13745" lon="4.94386"><ele>244</ele></trkpt>
<trkpt lat="47.13710" lon="4.94402"><ele>244</ele></trkpt>
<trkpt lat="47.13662" lon="4.94463"><ele>244</ele></trkpt>
<trkpt lat="47.13574" lon="4.94473"><ele>246</ele></trkpt>
<trkpt lat="47.13572" lon="4.94432"><ele>247</ele></trkpt>
<trkpt lat="47.13518" lon="4.94436"><ele>247</ele></trkpt>
<trkpt lat="47.13472" lon="4.94407"><ele>250</ele></trkpt>
<trkpt lat="47.13444" lon="4.94399"><ele>251</ele></trkpt>
<trkpt lat="47.13383" lon="4.94407"><ele>249</ele></trkpt>
<trkpt lat="47.13339" lon="4.94405"><ele>249</ele></trkpt>
<trkpt lat="47.13275" lon="4.94420"><ele>247</ele></trkpt>
<trkpt lat="47.13261" lon="4.94418"><ele>246</ele></trkpt>
<trkpt lat="47.13191" lon="4.94383"><ele>247</ele></trkpt>
<trkpt lat="47.13145" lon="4.94372"><ele>248</ele></trkpt>
<trkpt lat="47.13121" lon="4.94368"><ele>248</ele></trkpt>
<trkpt lat="47.13057" lon="4.94375"><ele>248</ele></trkpt>
<trkpt lat="47.13004" lon="4.94365"><ele>247</ele></trkpt>
<trkpt lat="47.12961" lon="4.94350"><ele>246</ele></trkpt>
<trkpt lat="47.12938" lon="4.94325"><ele>246</ele></trkpt>
<trkpt lat="47.12877" lon="4.94280"><ele>246</ele></trkpt>
<trkpt lat="47.12857" lon="4.94216"><ele>249</ele></trkpt>
<trkpt lat="47.12833" lon="4.94156"><ele>252</ele></trkpt>
<trkpt lat="47.12823" lon="4.94102"><ele>257</ele></trkpt>
<trkpt lat="47.12812" lon="4.94059"><ele>262</ele></trkpt>
<trkpt lat="47.12802" lon="4.94041"><ele>264</ele></trkpt>
<trkpt lat="47.12777" lon="4.94013"><ele>264</ele></trkpt>
<trkpt lat="47.12734" lon="4.93986"><ele>262</ele></trkpt>
<trkpt lat="47.12607" lon="4.93884"><ele>261</ele></trkpt>
<trkpt lat="47.12522" lon="4.93822"><ele>260</ele></trkpt>
<trkpt lat="47.12455" lon="4.93787"><ele>258</ele></trkpt>
<trkpt lat="47.12440" lon="4.93773"><ele>258</ele></trkpt>
<trkpt lat="47.12418" lon="4.93732"><ele>258</ele></trkpt>
<trkpt lat="47.12374" lon="4.93678"><ele>260</ele></trkpt>
<trkpt lat="47.12323" lon="4.93655"><ele>260</ele></trkpt>
<trkpt lat="47.12265" lon="4.93637"><ele>260</ele></trkpt>
<trkpt lat="47.12228" lon="4.93619"><ele>261</ele></trkpt>
<trkpt lat="47.12201" lon="4.93619"><ele>260</ele></trkpt>
<trkpt lat="47.12152" lon="4.93597"><ele>261</ele></trkpt>
<trkpt lat="47.12111" lon="4.93589"><ele>260</ele></trkpt>
<trkpt lat="47.12043" lon="4.93562"><ele>263</ele></trkpt>
<trkpt lat="47.11950" lon="4.93494"><ele>268</ele></trkpt>
<trkpt lat="47.11859" lon="4.93354"><ele>272</ele></trkpt>
<trkpt lat="47.11842" lon="4.93337"><ele>271</ele></trkpt>
<trkpt lat="47.11781" lon="4.93290"><ele>270</ele></trkpt>
<trkpt lat="47.11755" lon="4.93277"><ele>269</ele></trkpt>
<trkpt lat="47.11709" lon="4.93292"><ele>267</ele></trkpt>
<trkpt lat="47.11687" lon="4.93294"><ele>266</ele></trkpt>
<trkpt lat="47.11671" lon="4.93287"><ele>266</ele></trkpt>
<trkpt lat="47.11581" lon="4.93212"><ele>266</ele></trkpt>
<trkpt lat="47.11570" lon="4.93201"><ele>267</ele></trkpt>
<trkpt lat="47.11527" lon="4.93133"><ele>272</ele></trkpt>
<trkpt lat="47.11514" lon="4.93121"><ele>273</ele></trkpt>
<trkpt lat="47.11422" lon="4.93094"><ele>265</ele></trkpt>
<trkpt lat="47.11344" lon="4.93034"><ele>261</ele></trkpt>
<trkpt lat="47.11284" lon="4.92982"><ele>259</ele></trkpt>
<trkpt lat="47.11229" lon="4.92975"><ele>252</ele></trkpt>
<trkpt lat="47.11181" lon="4.92964"><ele>246</ele></trkpt>
<trkpt lat="47.11179" lon="4.92939"><ele>248</ele></trkpt>
<trkpt lat="47.11125" lon="4.92831"><ele>250</ele></trkpt>
<trkpt lat="47.11083" lon="4.92708"><ele>261</ele></trkpt>
<trkpt lat="47.11008" lon="4.92603"><ele>262</ele></trkpt>
<trkpt lat="47.10907" lon="4.92480"><ele>258</ele></trkpt>
<trkpt lat="47.10873" lon="4.92431"><ele>256</ele></trkpt>
<trkpt lat="47.10840" lon="4.92365"><ele>257</ele></trkpt>
<trkpt lat="47.10803" lon="4.92304"><ele>256</ele></trkpt>
<trkpt lat="47.10774" lon="4.92272"><ele>255</ele></trkpt>
<trkpt lat="47.10744" lon="4.92257"><ele>254</ele></trkpt>
<trkpt lat="47.10657" lon="4.92185"><ele>251</ele></trkpt>
<trkpt lat="47.10636" lon="4.92178"><ele>250</ele></trkpt>
<trkpt lat="47.10439" lon="4.92195"><ele>245</ele></trkpt>
<trkpt lat="47.10421" lon="4.92202"><ele>244</ele></trkpt>
<trkpt lat="47.10417" lon="4.92189"><ele>244</ele></trkpt>
<trkpt lat="47.10390" lon="4.92203"><ele>243</ele></trkpt>
<trkpt lat="47.10373" lon="4.92202"><ele>242</ele></trkpt>
<trkpt lat="47.10300" lon="4.92165"><ele>241</ele></trkpt>
<trkpt lat="47.10253" lon="4.92116"><ele>239</ele></trkpt>
<trkpt lat="47.10228" lon="4.92100"><ele>238</ele></trkpt>
<trkpt lat="47.10099" lon="4.92095"><ele>234</ele></trkpt>
<trkpt lat="47.10066" lon="4.92079"><ele>232</ele></trkpt>
<trkpt lat="47.10049" lon="4.92083"><ele>232</ele></trkpt>
<trkpt lat="47.10042" lon="4.92092"><ele>232</ele></trkpt>
<trkpt lat="47.09983" lon="4.92197"><ele>231</ele></trkpt>
<trkpt lat="47.09913" lon="4.92208"><ele>231</ele></trkpt>
<trkpt lat="47.09911" lon="4.92195"><ele>232</ele></trkpt>
<trkpt lat="47.09877" lon="4.92169"><ele>232</ele></trkpt>
<trkpt lat="47.09585" lon="4.91972"><ele>236</ele></trkpt>
<trkpt lat="47.09554" lon="4.91941"><ele>236</ele></trkpt>
<trkpt lat="47.09458" lon="4.91807"><ele>237</ele></trkpt>
<trkpt lat="47.09310" lon="4.91625"><ele>238</ele></trkpt>
<trkpt lat="47.09289" lon="4.91589"><ele>238</ele></trkpt>
<trkpt lat="47.09237" lon="4.91467"><ele>237</ele></trkpt>
<trkpt lat="47.09114" lon="4.91375"><ele>236</ele></trkpt>
<trkpt lat="47.09030" lon="4.91339"><ele>235</ele></trkpt>
<trkpt lat="47.08916" lon="4.91272"><ele>235</ele></trkpt>
<trkpt lat="47.08869" lon="4.91249"><ele>234</ele></trkpt>
<trkpt lat="47.08845" lon="4.91235"><ele>234</ele></trkpt>
<trkpt lat="47.08834" lon="4.91224"><ele>234</ele></trkpt>
<trkpt lat="47.08802" lon="4.91188"><ele>234</ele></trkpt>
<trkpt lat="47.08714" lon="4.91057"><ele>234</ele></trkpt>
<trkpt lat="47.08636" lon="4.90896"><ele>236</ele></trkpt>
<trkpt lat="47.08579" lon="4.90804"><ele>238</ele></trkpt>
<trkpt lat="47.08544" lon="4.90765"><ele>237</ele></trkpt>
<trkpt lat="47.08488" lon="4.90720"><ele>237</ele></trkpt>
<trkpt lat="47.08418" lon="4.90667"><ele>237</ele></trkpt>
<trkpt lat="47.08369" lon="4.90641"><ele>237</ele></trkpt>
<trkpt lat="47.08328" lon="4.90605"><ele>238</ele></trkpt>
<trkpt lat="47.08306" lon="4.90578"><ele>238</ele></trkpt>
<trkpt lat="47.08258" lon="4.90501"><ele>238</ele></trkpt>
<trkpt lat="47.08212" lon="4.90410"><ele>238</ele></trkpt>
<trkpt lat="47.08113" lon="4.90200"><ele>239</ele></trkpt>
<trkpt lat="47.08017" lon="4.89961"><ele>234</ele></trkpt>
<trkpt lat="47.07979" lon="4.89855"><ele>231</ele></trkpt>
<trkpt lat="47.07946" lon="4.89781"><ele>230</ele></trkpt>
<trkpt lat="47.07925" lon="4.89743"><ele>229</ele></trkpt>
<trkpt lat="47.07899" lon="4.89712"><ele>228</ele></trkpt>
<trkpt lat="47.07875" lon="4.89658"><ele>228</ele></trkpt>
<trkpt lat="47.07842" lon="4.89547"><ele>227</ele></trkpt>
<trkpt lat="47.07810" lon="4.89410"><ele>228</ele></trkpt>
<trkpt lat="47.07803" lon="4.89370"><ele>228</ele></trkpt>
<trkpt lat="47.07790" lon="4.89332"><ele>228</ele></trkpt>
<trkpt lat="47.07714" lon="4.89170"><ele>230</ele></trkpt>
<trkpt lat="47.07686" lon="4.89097"><ele>230</ele></trkpt>
<trkpt lat="47.07676" lon="4.89060"><ele>230</ele></trkpt>
<trkpt lat="47.07669" lon="4.89021"><ele>230</ele></trkpt>
<trkpt lat="47.07654" lon="4.88901"><ele>229</ele></trkpt>
<trkpt lat="47.07614" lon="4.88781"><ele>228</ele></trkpt>
<trkpt lat="47.07558" lon="4.88576"><ele>226</ele></trkpt>
<trkpt lat="47.07519" lon="4.88409"><ele>225</ele></trkpt>
<trkpt lat="47.07422" lon="4.88150"><ele>224</ele></trkpt>
<trkpt lat="47.07323" lon="4.87863"><ele>221</ele></trkpt>
<trkpt lat="47.07337" lon="4.87844"><ele>222</ele></trkpt>
<trkpt lat="47.07320" lon="4.87821"><ele>222</ele></trkpt>
<trkpt lat="47.07328" lon="4.87807"><ele>222</ele></trkpt>
<trkpt lat="47.07355" lon="4.87836"><ele>222</ele></trkpt>
<trkpt lat="47.07398" lon="4.87770"><ele>223</ele></trkpt>
<trkpt lat="47.07449" lon="4.87686"><ele>227</ele></trkpt>
<trkpt lat="47.07488" lon="4.87615"><ele>232</ele></trkpt>
<trkpt lat="47.07520" lon="4.87543"><ele>239</ele></trkpt>
<trkpt lat="47.07520" lon="4.87519"><ele>241</ele></trkpt>
<trkpt lat="47.07517" lon="4.87501"><ele>242</ele></trkpt>
<trkpt lat="47.07502" lon="4.87467"><ele>244</ele></trkpt>
<trkpt lat="47.07515" lon="4.87416"><ele>248</ele></trkpt>
<trkpt lat="47.07514" lon="4.87405"><ele>249</ele></trkpt>
<trkpt lat="47.07461" lon="4.87286"><ele>254</ele></trkpt>
<trkpt lat="47.07379" lon="4.87227"><ele>252</ele></trkpt>
<trkpt lat="47.07303" lon="4.87118"><ele>252</ele></trkpt>
<trkpt lat="47.07243" lon="4.87000"><ele>253</ele></trkpt>
<trkpt lat="47.07208" lon="4.86949"><ele>254</ele></trkpt>
<trkpt lat="47.07155" lon="4.86875"><ele>254</ele></trkpt>
<trkpt lat="47.07101" lon="4.86810"><ele>253</ele></trkpt>
<trkpt lat="47.07070" lon="4.86768"><ele>253</ele></trkpt>
<trkpt lat="47.07066" lon="4.86715"><ele>254</ele></trkpt>
<trkpt lat="47.07049" lon="4.86640"><ele>256</ele></trkpt>
<trkpt lat="47.06962" lon="4.86489"><ele>259</ele></trkpt>
<trkpt lat="47.06956" lon="4.86474"><ele>259</ele></trkpt>
<trkpt lat="47.06955" lon="4.86433"><ele>261</ele></trkpt>
<trkpt lat="47.06951" lon="4.86422"><ele>261</ele></trkpt>
<trkpt lat="47.06815" lon="4.86245"><ele>260</ele></trkpt>
<trkpt lat="47.06776" lon="4.86206"><ele>259</ele></trkpt>
<trkpt lat="47.06746" lon="4.86186"><ele>257</ele></trkpt>
<trkpt lat="47.06722" lon="4.86158"><ele>257</ele></trkpt>
<trkpt lat="47.06646" lon="4.86050"><ele>254</ele></trkpt>
<trkpt lat="47.06650" lon="4.86028"><ele>255</ele></trkpt>
<trkpt lat="47.06616" lon="4.86000"><ele>253</ele></trkpt>
<trkpt lat="47.06610" lon="4.85988"><ele>253</ele></trkpt>
<trkpt lat="47.06612" lon="4.85975"><ele>253</ele></trkpt>
<trkpt lat="47.06595" lon="4.85960"><ele>252</ele></trkpt>
<trkpt lat="47.06592" lon="4.85951"><ele>252</ele></trkpt>
<trkpt lat="47.06561" lon="4.86072"><ele>248</ele></trkpt>
<trkpt lat="47.06518" lon="4.86201"><ele>243</ele></trkpt>
<trkpt lat="47.06488" lon="4.86156"><ele>242</ele></trkpt>
<trkpt lat="47.06409" lon="4.86060"><ele>240</ele></trkpt>
<trkpt lat="47.06370" lon="4.86034"><ele>238</ele></trkpt>
<trkpt lat="47.05889" lon="4.86165"><ele>230</ele></trkpt>
<trkpt lat="47.05868" lon="4.86173"><ele>230</ele></trkpt>
<trkpt lat="47.05831" lon="4.86258"><ele>228</ele></trkpt>
<trkpt lat="47.05778" lon="4.86359"><ele>227</ele></trkpt>
<trkpt lat="47.05743" lon="4.86436"><ele>226</ele></trkpt>
<trkpt lat="47.05732" lon="4.86453"><ele>226</ele></trkpt>
<trkpt lat="47.05629" lon="4.86360"><ele>225</ele></trkpt>
<trkpt lat="47.05593" lon="4.86332"><ele>225</ele></trkpt>
<trkpt lat="47.05551" lon="4.86311"><ele>226</ele></trkpt>
<trkpt lat="47.05395" lon="4.86218"><ele>228</ele></trkpt>
<trkpt lat="47.05374" lon="4.86209"><ele>228</ele></trkpt>
<trkpt lat="47.05332" lon="4.86200"><ele>229</ele></trkpt>
<trkpt lat="47.05286" lon="4.86203"><ele>230</ele></trkpt>
<trkpt lat="47.05106" lon="4.86228"><ele>228</ele></trkpt>
<trkpt lat="47.05042" lon="4.86228"><ele>229</ele></trkpt>
<trkpt lat="47.05022" lon="4.86234"><ele>229</ele></trkpt>
<trkpt lat="47.05000" lon="4.86243"><ele>230</ele></trkpt>
<trkpt lat="47.04960" lon="4.86272"><ele>230</ele></trkpt>
<trkpt lat="47.04903" lon="4.86330"><ele>230</ele></trkpt>
<trkpt lat="47.04870" lon="4.86345"><ele>230</ele></trkpt>
<trkpt lat="47.04798" lon="4.86366"><ele>230</ele></trkpt>
<trkpt lat="47.04752" lon="4.86365"><ele>230</ele></trkpt>
<trkpt lat="47.04734" lon="4.86370"><ele>230</ele></trkpt>
<trkpt lat="47.04703" lon="4.86392"><ele>231</ele></trkpt>
<trkpt lat="47.04691" lon="4.86409"><ele>231</ele></trkpt>
<trkpt lat="47.04644" lon="4.86425"><ele>231</ele></trkpt>
<trkpt lat="47.04603" lon="4.86425"><ele>231</ele></trkpt>
<trkpt lat="47.04569" lon="4.86413"><ele>230</ele></trkpt>
<trkpt lat="47.04450" lon="4.86335"><ele>232</ele></trkpt>
<trkpt lat="47.04450" lon="4.86320"><ele>232</ele></trkpt>
<trkpt lat="47.04376" lon="4.86140"><ele>232</ele></trkpt>
<trkpt lat="47.04306" lon="4.86007"><ele>230</ele></trkpt>
<trkpt lat="47.04277" lon="4.85961"><ele>229</ele></trkpt>
<trkpt lat="47.04241" lon="4.85829"><ele>229</ele></trkpt>
<trkpt lat="47.04234" lon="4.85775"><ele>229</ele></trkpt>
<trkpt lat="47.04236" lon="4.85722"><ele>229</ele></trkpt>
<trkpt lat="47.04234" lon="4.85704"><ele>229</ele></trkpt>
<trkpt lat="47.04195" lon="4.85624"><ele>228</ele></trkpt>
<trkpt lat="47.04187" lon="4.85564"><ele>226</ele></trkpt>
<trkpt lat="47.04175" lon="4.85539"><ele>225</ele></trkpt>
<trkpt lat="47.04147" lon="4.85515"><ele>225</ele></trkpt>
<trkpt lat="47.04064" lon="4.85464"><ele>225</ele></trkpt>
<trkpt lat="47.04054" lon="4.85435"><ele>225</ele></trkpt>
<trkpt lat="47.03996" lon="4.85333"><ele>226</ele></trkpt>
<trkpt lat="47.03983" lon="4.85326"><ele>226</ele></trkpt>
<trkpt lat="47.03975" lon="4.85346"><ele>226</ele></trkpt>
<trkpt lat="47.03839" lon="4.85160"><ele>227</ele></trkpt>
<trkpt lat="47.03821" lon="4.85124"><ele>228</ele></trkpt>
<trkpt lat="47.03818" lon="4.85108"><ele>228</ele></trkpt>
<trkpt lat="47.03813" lon="4.85100"><ele>228</ele></trkpt>
<trkpt lat="47.03805" lon="4.85098"><ele>228</ele></trkpt>
<trkpt lat="47.03798" lon="4.85101"><ele>228</ele></trkpt>
<trkpt lat="47.03766" lon="4.85082"><ele>228</ele></trkpt>
<trkpt lat="47.03662" lon="4.84984"><ele>228</ele></trkpt>
<trkpt lat="47.03538" lon="4.84889"><ele>227</ele></trkpt>
<trkpt lat="47.03463" lon="4.84840"><ele>226</ele></trkpt>
<trkpt lat="47.03470" lon="4.84814"><ele>226</ele></trkpt>
<trkpt lat="47.03477" lon="4.84775"><ele>226</ele></trkpt>
<trkpt lat="47.03476" lon="4.84605"><ele>226</ele></trkpt>
<trkpt lat="47.03380" lon="4.84618"><ele>226</ele></trkpt>
<trkpt lat="47.03193" lon="4.84576"><ele>224</ele></trkpt>
<trkpt lat="47.03158" lon="4.84556"><ele>224</ele></trkpt>
<trkpt lat="47.03149" lon="4.84545"><ele>224</ele></trkpt>
<trkpt lat="47.03140" lon="4.84544"><ele>224</ele></trkpt>
<trkpt lat="47.03131" lon="4.84529"><ele>224</ele></trkpt>
<trkpt lat="47.03082" lon="4.84487"><ele>223</ele></trkpt>
<trkpt lat="47.02910" lon="4.84373"><ele>222</ele></trkpt>
<trkpt lat="47.02882" lon="4.84348"><ele>221</ele></trkpt>
<trkpt lat="47.02835" lon="4.84286"><ele>222</ele></trkpt>
<trkpt lat="47.02817" lon="4.84250"><ele>221</ele></trkpt>
<trkpt lat="47.02767" lon="4.84110"><ele>222</ele></trkpt>
<trkpt lat="47.02733" lon="4.84048"><ele>222</ele></trkpt>
<trkpt lat="47.02745" lon="4.84023"><ele>222</ele></trkpt>
<trkpt lat="47.02748" lon="4.83947"><ele>222</ele></trkpt>
<trkpt lat="47.02724" lon="4.83939"><ele>221</ele></trkpt>
<trkpt lat="47.02691" lon="4.83939"><ele>221</ele></trkpt>
<trkpt lat="47.02566" lon="4.83883"><ele>219</ele></trkpt>
<trkpt lat="47.02450" lon="4.83846"><ele>219</ele></trkpt>
<trkpt lat="47.02450" lon="4.83855"><ele>219</ele></trkpt>
<trkpt lat="47.02426" lon="4.83963"><ele>218</ele></trkpt>
<trkpt lat="47.02430" lon="4.83949"><ele>218</ele></trkpt>
<trkpt lat="47.02388" lon="4.83921"><ele>219</ele></trkpt>
<trkpt lat="47.02345" lon="4.83904"><ele>218</ele></trkpt>
<trkpt lat="47.02335" lon="4.83895"><ele>218</ele></trkpt>
<trkpt lat="47.02340" lon="4.83830"><ele>218</ele></trkpt>
<trkpt lat="47.02277" lon="4.83722"><ele>216</ele></trkpt>
<trkpt lat="47.02273" lon="4.83678"><ele>215</ele></trkpt>
<trkpt lat="47.02284" lon="4.83662"><ele>215</ele></trkpt>
<trkpt lat="47.02291" lon="4.83617"><ele>215</ele></trkpt>
<trkpt lat="47.02531" lon="4.83401"><ele>219</ele></trkpt>
<trkpt lat="47.02472" lon="4.83327"><ele>217</ele></trkpt>
<trkpt lat="47.02478" lon="4.83313"><ele>218</ele></trkpt>
<trkpt lat="47.02447" lon="4.83277"><ele>219</ele></trkpt>
<trkpt lat="47.02425" lon="4.83262"><ele>218</ele></trkpt>
<trkpt lat="47.02411" lon="4.83261"><ele>218</ele></trkpt>
<trkpt lat="47.02390" lon="4.83266"><ele>218</ele></trkpt>
<trkpt lat="47.02371" lon="4.83251"><ele>219</ele></trkpt>
<trkpt lat="47.02364" lon="4.83241"><ele>219</ele></trkpt>
<trkpt lat="47.02357" lon="4.83226"><ele>219</ele></trkpt>
<trkpt lat="47.02350" lon="4.83126"><ele>218</ele></trkpt>
<trkpt lat="47.02275" lon="4.83057"><ele>219</ele></trkpt>
<trkpt lat="47.02233" lon="4.83035"><ele>218</ele></trkpt>
<trkpt lat="47.02190" lon="4.82984"><ele>219</ele></trkpt>
<trkpt lat="47.02215" lon="4.82921"><ele>219</ele></trkpt>
<trkpt lat="47.02250" lon="4.82848"><ele>220</ele></trkpt>
<trkpt lat="47.02270" lon="4.82813"><ele>221</ele></trkpt>
<trkpt lat="47.02301" lon="4.82708"><ele>222</ele></trkpt>
<trkpt lat="47.02327" lon="4.82579"><ele>223</ele></trkpt>
<trkpt lat="47.02329" lon="4.82483"><ele>224</ele></trkpt>
<trkpt lat="47.02383" lon="4.82320"><ele>227</ele></trkpt>
<trkpt lat="47.02440" lon="4.82174"><ele>229</ele></trkpt>
<trkpt lat="47.02442" lon="4.82161"><ele>229</ele></trkpt>
<trkpt lat="47.02440" lon="4.82147"><ele>230</ele></trkpt>
<trkpt lat="47.02368" lon="4.82047"><ele>232</ele></trkpt>
<trkpt lat="47.02291" lon="4.81989"><ele>234</ele></trkpt>
<trkpt lat="47.02270" lon="4.81949"><ele>234</ele></trkpt>
<trkpt lat="47.02245" lon="4.81916"><ele>235</ele></trkpt>
<trkpt lat="47.02211" lon="4.81884"><ele>234</ele></trkpt>
<trkpt lat="47.02152" lon="4.81804"><ele>236</ele></trkpt>
<trkpt lat="47.02048" lon="4.81677"><ele>235</ele></trkpt>
<trkpt lat="47.02041" lon="4.81676"><ele>235</ele></trkpt>
<trkpt lat="47.02031" lon="4.81684"><ele>234</ele></trkpt>
<trkpt lat="47.02012" lon="4.81689"><ele>234</ele></trkpt>
<trkpt lat="47.02000" lon="4.81687"><ele>233</ele></trkpt>
<trkpt lat="47.01984" lon="4.81682"><ele>233</ele></trkpt>
<trkpt lat="47.01938" lon="4.81653"><ele>232</ele></trkpt>
<trkpt lat="47.01909" lon="4.81628"><ele>232</ele></trkpt>
<trkpt lat="47.01896" lon="4.81629"><ele>232</ele></trkpt>
<trkpt lat="47.01891" lon="4.81612"><ele>232</ele></trkpt>
<trkpt lat="47.01847" lon="4.81547"><ele>232</ele></trkpt>
<trkpt lat="47.01839" lon="4.81529"><ele>232</ele></trkpt>
<trkpt lat="47.01835" lon="4.81511"><ele>232</ele></trkpt>
<trkpt lat="47.01827" lon="4.81436"><ele>233</ele></trkpt>
<trkpt lat="47.01803" lon="4.81368"><ele>234</ele></trkpt>
<trkpt lat="47.01788" lon="4.81339"><ele>234</ele></trkpt>
<trkpt lat="47.01722" lon="4.81243"><ele>236</ele></trkpt>
<trkpt lat="47.01706" lon="4.81210"><ele>237</ele></trkpt>
<trkpt lat="47.01695" lon="4.81116"><ele>239</ele></trkpt>
<trkpt lat="47.01678" lon="4.81066"><ele>241</ele></trkpt>
<trkpt lat="47.01669" lon="4.81022"><ele>242</ele></trkpt>
<trkpt lat="47.01618" lon="4.80874"><ele>246</ele></trkpt>
<trkpt lat="47.01613" lon="4.80863"><ele>246</ele></trkpt>
<trkpt lat="47.01523" lon="4.80767"><ele>247</ele></trkpt>
<trkpt lat="47.01503" lon="4.80733"><ele>248</ele></trkpt>
<trkpt lat="47.01466" lon="4.80610"><ele>250</ele></trkpt>
<trkpt lat="47.01445" lon="4.80521"><ele>250</ele></trkpt>
<trkpt lat="47.01429" lon="4.80481"><ele>250</ele></trkpt>
<trkpt lat="47.01424" lon="4.80446"><ele>250</ele></trkpt>
<trkpt lat="47.01420" lon="4.80358"><ele>251</ele></trkpt>
<trkpt lat="47.01411" lon="4.80320"><ele>251</ele></trkpt>
<trkpt lat="47.01375" lon="4.80204"><ele>252</ele></trkpt>
<trkpt lat="47.01351" lon="4.80109"><ele>254</ele></trkpt>
<trkpt lat="47.01334" lon="4.80069"><ele>254</ele></trkpt>
<trkpt lat="47.01316" lon="4.80004"><ele>256</ele></trkpt>
<trkpt lat="47.01290" lon="4.79964"><ele>256</ele></trkpt>
<trkpt lat="47.01287" lon="4.79953"><ele>256</ele></trkpt>
<trkpt lat="47.01293" lon="4.79916"><ele>260</ele></trkpt>
<trkpt lat="47.01293" lon="4.79892"><ele>260</ele></trkpt>
<trkpt lat="47.01254" lon="4.79829"><ele>258</ele></trkpt>
<trkpt lat="47.01237" lon="4.79790"><ele>258</ele></trkpt>
<trkpt lat="47.01224" lon="4.79772"><ele>257</ele></trkpt>
<trkpt lat="47.01219" lon="4.79770"><ele>257</ele></trkpt>
<trkpt lat="47.01187" lon="4.79732"><ele>255</ele></trkpt>
<trkpt lat="47.01173" lon="4.79704"><ele>254</ele></trkpt>
<trkpt lat="47.01096" lon="4.79638"><ele>251</ele></trkpt>
<trkpt lat="47.01046" lon="4.79585"><ele>250</ele></trkpt>
<trkpt lat="47.01044" lon="4.79575"><ele>250</ele></trkpt>
<trkpt lat="47.01028" lon="4.79542"><ele>250</ele></trkpt>
<trkpt lat="47.00994" lon="4.79496"><ele>248</ele></trkpt>
<trkpt lat="47.00976" lon="4.79481"><ele>248</ele></trkpt>
<trkpt lat="47.00947" lon="4.79441"><ele>249</ele></trkpt>
<trkpt lat="47.00943" lon="4.79440"><ele>249</ele></trkpt>
<trkpt lat="47.00929" lon="4.79447"><ele>248</ele></trkpt>
<trkpt lat="47.00853" lon="4.79350"><ele>250</ele></trkpt>
<trkpt lat="47.00805" lon="4.79311"><ele>252</ele></trkpt>
<trkpt lat="47.00795" lon="4.79294"><ele>252</ele></trkpt>
<trkpt lat="47.00746" lon="4.79165"><ele>255</ele></trkpt>
<trkpt lat="47.00713" lon="4.79103"><ele>258</ele></trkpt>
<trkpt lat="47.00670" lon="4.79000"><ele>263</ele></trkpt>
<trkpt lat="47.00659" lon="4.78982"><ele>264</ele></trkpt>
<trkpt lat="47.00632" lon="4.78875"><ele>269</ele></trkpt>
<trkpt lat="47.00622" lon="4.78852"><ele>270</ele></trkpt>
<trkpt lat="47.00614" lon="4.78835"><ele>271</ele></trkpt>
<trkpt lat="47.00564" lon="4.78773"><ele>273</ele></trkpt>
<trkpt lat="47.00538" lon="4.78721"><ele>276</ele></trkpt>
<trkpt lat="47.00546" lon="4.78673"><ele>281</ele></trkpt>
<trkpt lat="47.00480" lon="4.78601"><ele>285</ele></trkpt>
<trkpt lat="47.00470" lon="4.78552"><ele>288</ele></trkpt>
<trkpt lat="47.00466" lon="4.78544"><ele>288</ele></trkpt>
<trkpt lat="47.00412" lon="4.78504"><ele>289</ele></trkpt>
<trkpt lat="47.00354" lon="4.78416"><ele>290</ele></trkpt>
<trkpt lat="47.00341" lon="4.78403"><ele>290</ele></trkpt>
<trkpt lat="47.00296" lon="4.78379"><ele>288</ele></trkpt>
<trkpt lat="47.00245" lon="4.78344"><ele>287</ele></trkpt>
<trkpt lat="47.00231" lon="4.78330"><ele>287</ele></trkpt>
<trkpt lat="47.00189" lon="4.78265"><ele>286</ele></trkpt>
<trkpt lat="47.00129" lon="4.78187"><ele>288</ele></trkpt>
<trkpt lat="47.00136" lon="4.78176"><ele>288</ele></trkpt>
<trkpt lat="47.00137" lon="4.78151"><ele>290</ele></trkpt>
<trkpt lat="47.00153" lon="4.78109"><ele>292</ele></trkpt>
<trkpt lat="47.00158" lon="4.78101"><ele>293</ele></trkpt>
<trkpt lat="47.00126" lon="4.78089"><ele>291</ele></trkpt>
<trkpt lat="47.00075" lon="4.78087"><ele>288</ele></trkpt>
<trkpt lat="47.00009" lon="4.78073"><ele>285</ele></trkpt>
<trkpt lat="46.99967" lon="4.78168"><ele>280</ele></trkpt>
<trkpt lat="46.99937" lon="4.78220"><ele>277</ele></trkpt>
<trkpt lat="46.99888" lon="4.78318"><ele>271</ele></trkpt>
<trkpt lat="46.99854" lon="4.78377"><ele>268</ele></trkpt>
<trkpt lat="46.99846" lon="4.78368"><ele>268</ele></trkpt>
<trkpt lat="46.99836" lon="4.78382"><ele>266</ele></trkpt>
<trkpt lat="46.99817" lon="4.78414"><ele>265</ele></trkpt>
<trkpt lat="46.99787" lon="4.78479"><ele>262</ele></trkpt>
<trkpt lat="46.99777" lon="4.78486"><ele>262</ele></trkpt>
<trkpt lat="46.99745" lon="4.78492"><ele>260</ele></trkpt>
<trkpt lat="46.99718" lon="4.78513"><ele>258</ele></trkpt>
<trkpt lat="46.99702" lon="4.78519"><ele>257</ele></trkpt>
<trkpt lat="46.99685" lon="4.78535"><ele>255</ele></trkpt>
<trkpt lat="46.99663" lon="4.78541"><ele>254</ele></trkpt>
<trkpt lat="46.99650" lon="4.78549"><ele>254</ele></trkpt>
<trkpt lat="46.99631" lon="4.78583"><ele>252</ele></trkpt>
<trkpt lat="46.99604" lon="4.78562"><ele>251</ele></trkpt>
<trkpt lat="46.99542" lon="4.78525"><ele>250</ele></trkpt>
<trkpt lat="46.99520" lon="4.78506"><ele>249</ele></trkpt>
<trkpt lat="46.99471" lon="4.78452"><ele>248</ele></trkpt>
<trkpt lat="46.99332" lon="4.78336"><ele>248</ele></trkpt>
<trkpt lat="46.99218" lon="4.78275"><ele>245</ele></trkpt>
<trkpt lat="46.99175" lon="4.78257"><ele>244</ele></trkpt>
<trkpt lat="46.99150" lon="4.78236"><ele>244</ele></trkpt>
<trkpt lat="46.99113" lon="4.78196"><ele>244</ele></trkpt>
<trkpt lat="46.99079" lon="4.78167"><ele>244</ele></trkpt>
<trkpt lat="46.99062" lon="4.78116"><ele>245</ele></trkpt>
<trkpt lat="46.99041" lon="4.78088"><ele>245</ele></trkpt>
<trkpt lat="46.99011" lon="4.78065"><ele>245</ele></trkpt>
<trkpt lat="46.98951" lon="4.78036"><ele>244</ele></trkpt>
<trkpt lat="46.98905" lon="4.78021"><ele>242</ele></trkpt>
<trkpt lat="46.98836" lon="4.77989"><ele>241</ele></trkpt>
<trkpt lat="46.98806" lon="4.77966"><ele>241</ele></trkpt>
<trkpt lat="46.98774" lon="4.77924"><ele>242</ele></trkpt>
<trkpt lat="46.98762" lon="4.77902"><ele>242</ele></trkpt>
<trkpt lat="46.98761" lon="4.77883"><ele>242</ele></trkpt>
<trkpt lat="46.98774" lon="4.77820"><ele>244</ele></trkpt>
<trkpt lat="46.98776" lon="4.77781"><ele>245</ele></trkpt>
<trkpt lat="46.98774" lon="4.77771"><ele>245</ele></trkpt>
<trkpt lat="46.98790" lon="4.77695"><ele>246</ele></trkpt>
<trkpt lat="46.98754" lon="4.77651"><ele>246</ele></trkpt>
<trkpt lat="46.98726" lon="4.77628"><ele>246</ele></trkpt>
<trkpt lat="46.98695" lon="4.77611"><ele>246</ele></trkpt>
<trkpt lat="46.98676" lon="4.77596"><ele>246</ele></trkpt>
<trkpt lat="46.98648" lon="4.77565"><ele>247</ele></trkpt>
<trkpt lat="46.98640" lon="4.77545"><ele>247</ele></trkpt>
<trkpt lat="46.98653" lon="4.77498"><ele>248</ele></trkpt>
<trkpt lat="46.98636" lon="4.77474"><ele>248</ele></trkpt>
<trkpt lat="46.98616" lon="4.77451"><ele>248</ele></trkpt>
<trkpt lat="46.98570" lon="4.77410"><ele>247</ele></trkpt>
<trkpt lat="46.98555" lon="4.77390"><ele>247</ele></trkpt>
<trkpt lat="46.98527" lon="4.77322"><ele>246</ele></trkpt>
<trkpt lat="46.98517" lon="4.77330"><ele>246</ele></trkpt>
<trkpt lat="46.98507" lon="4.77331"><ele>245</ele></trkpt>
<trkpt lat="46.98464" lon="4.77318"><ele>244</ele></trkpt>
<trkpt lat="46.98372" lon="4.77254"><ele>244</ele></trkpt>
<trkpt lat="46.98361" lon="4.77242"><ele>245</ele></trkpt>
<trkpt lat="46.98356" lon="4.77215"><ele>245</ele></trkpt>
<trkpt lat="46.98349" lon="4.77206"><ele>245</ele></trkpt>
<trkpt lat="46.98231" lon="4.77125"><ele>246</ele></trkpt>
<trkpt lat="46.98202" lon="4.77092"><ele>246</ele></trkpt>
<trkpt lat="46.98088" lon="4.76989"><ele>245</ele></trkpt>
<trkpt lat="46.98065" lon="4.76980"><ele>245</ele></trkpt>
<trkpt lat="46.98071" lon="4.76911"><ele>245</ele></trkpt>
<trkpt lat="46.98063" lon="4.76864"><ele>244</ele></trkpt>
<trkpt lat="46.97989" lon="4.76879"><ele>246</ele></trkpt>
<trkpt lat="46.97957" lon="4.76851"><ele>246</ele></trkpt>
<trkpt lat="46.97932" lon="4.76841"><ele>246</ele></trkpt>
<trkpt lat="46.97884" lon="4.76830"><ele>246</ele></trkpt>
<trkpt lat="46.97877" lon="4.76862"><ele>247</ele></trkpt>
<trkpt lat="46.97838" lon="4.76865"><ele>248</ele></trkpt>
<trkpt lat="46.97783" lon="4.76836"><ele>244</ele></trkpt>
<trkpt lat="46.97771" lon="4.76901"><ele>249</ele></trkpt>
<trkpt lat="46.97750" lon="4.76886"><ele>246</ele></trkpt>
<trkpt lat="46.97727" lon="4.76876"><ele>245</ele></trkpt>
<trkpt lat="46.97666" lon="4.76864"><ele>238</ele></trkpt>
<trkpt lat="46.97581" lon="4.76796"><ele>236</ele></trkpt>
<trkpt lat="46.97534" lon="4.76801"><ele>237</ele></trkpt>
<trkpt lat="46.97517" lon="4.76798"><ele>236</ele></trkpt>
<trkpt lat="46.97381" lon="4.76704"><ele>237</ele></trkpt>
<trkpt lat="46.97376" lon="4.76713"><ele>237</ele></trkpt>
<trkpt lat="46.97273" lon="4.76635"><ele>237</ele></trkpt>
<trkpt lat="46.97238" lon="4.76601"><ele>236</ele></trkpt>
<trkpt lat="46.97194" lon="4.76552"><ele>236</ele></trkpt>
<trkpt lat="46.97176" lon="4.76524"><ele>236</ele></trkpt>
<trkpt lat="46.97109" lon="4.76450"><ele>236</ele></trkpt>
<trkpt lat="46.97053" lon="4.76407"><ele>235</ele></trkpt>
<trkpt lat="46.97020" lon="4.76377"><ele>234</ele></trkpt>
<trkpt lat="46.97047" lon="4.76344"><ele>236</ele></trkpt>
<trkpt lat="46.97036" lon="4.76297"><ele>236</ele></trkpt>
<trkpt lat="46.96995" lon="4.76258"><ele>235</ele></trkpt>
<trkpt lat="46.96905" lon="4.76129"><ele>236</ele></trkpt>
<trkpt lat="46.96870" lon="4.76088"><ele>239</ele></trkpt>
<trkpt lat="46.96840" lon="4.76073"><ele>241</ele></trkpt>
<trkpt lat="46.96827" lon="4.76071"><ele>241</ele></trkpt>
<trkpt lat="46.96792" lon="4.76080"><ele>240</ele></trkpt>
<trkpt lat="46.96722" lon="4.76078"><ele>240</ele></trkpt>
<trkpt lat="46.96683" lon="4.76069"><ele>240</ele></trkpt>
<trkpt lat="46.96667" lon="4.76071"><ele>240</ele></trkpt>
<trkpt lat="46.96625" lon="4.76065"><ele>239</ele></trkpt>
<trkpt lat="46.96599" lon="4.76029"><ele>240</ele></trkpt>
<trkpt lat="46.96578" lon="4.75974"><ele>242</ele></trkpt>
<trkpt lat="46.96484" lon="4.75782"><ele>246</ele></trkpt>
<trkpt lat="46.96465" lon="4.75731"><ele>247</ele></trkpt>
<trkpt lat="46.96450" lon="4.75707"><ele>247</ele></trkpt>
<trkpt lat="46.96428" lon="4.75683"><ele>248</ele></trkpt>
<trkpt lat="46.96363" lon="4.75585"><ele>253</ele></trkpt>
<trkpt lat="46.96295" lon="4.75503"><ele>254</ele></trkpt>
<trkpt lat="46.96261" lon="4.75446"><ele>255</ele></trkpt>
<trkpt lat="46.96236" lon="4.75420"><ele>256</ele></trkpt>
<trkpt lat="46.96160" lon="4.75361"><ele>258</ele></trkpt>
<trkpt lat="46.95969" lon="4.75190"><ele>258</ele></trkpt>
<trkpt lat="46.95887" lon="4.75135"><ele>256</ele></trkpt>
<trkpt lat="46.95796" lon="4.75059"><ele>256</ele></trkpt>
<trkpt lat="46.95767" lon="4.75007"><ele>257</ele></trkpt>
<trkpt lat="46.95688" lon="4.74916"><ele>261</ele></trkpt>
<trkpt lat="46.95571" lon="4.74754"><ele>265</ele></trkpt>
<trkpt lat="46.95548" lon="4.74728"><ele>264</ele></trkpt>
<trkpt lat="46.95492" lon="4.74694"><ele>262</ele></trkpt>
<trkpt lat="46.95472" lon="4.74676"><ele>262</ele></trkpt>
<trkpt lat="46.95431" lon="4.74626"><ele>257</ele></trkpt>
<trkpt lat="46.95407" lon="4.74603"><ele>254</ele></trkpt>
<trkpt lat="46.95306" lon="4.74534"><ele>252</ele></trkpt>
<trkpt lat="46.95165" lon="4.74380"><ele>250</ele></trkpt>
<trkpt lat="46.95138" lon="4.74356"><ele>250</ele></trkpt>
<trkpt lat="46.95058" lon="4.74302"><ele>249</ele></trkpt>
<trkpt lat="46.95027" lon="4.74290"><ele>249</ele></trkpt>
<trkpt lat="46.95011" lon="4.74279"><ele>249</ele></trkpt>
<trkpt lat="46.95000" lon="4.74266"><ele>250</ele></trkpt>
<trkpt lat="46.94969" lon="4.74380"><ele>243</ele></trkpt>
<trkpt lat="46.94951" lon="4.74427"><ele>240</ele></trkpt>
<trkpt lat="46.94906" lon="4.74469"><ele>237</ele></trkpt>
<trkpt lat="46.94899" lon="4.74465"><ele>237</ele></trkpt>
<trkpt lat="46.94779" lon="4.74446"><ele>241</ele></trkpt>
<trkpt lat="46.94739" lon="4.74418"><ele>242</ele></trkpt>
<trkpt lat="46.94704" lon="4.74420"><ele>243</ele></trkpt>
<trkpt lat="46.94698" lon="4.74416"><ele>243</ele></trkpt>
<trkpt lat="46.94631" lon="4.74367"><ele>244</ele></trkpt>
<trkpt lat="46.94565" lon="4.74336"><ele>242</ele></trkpt>
<trkpt lat="46.94477" lon="4.74280"><ele>243</ele></trkpt>
<trkpt lat="46.94397" lon="4.74198"><ele>246</ele></trkpt>
<trkpt lat="46.94351" lon="4.74156"><ele>246</ele></trkpt>
<trkpt lat="46.94313" lon="4.74088"><ele>247</ele></trkpt>
<trkpt lat="46.94291" lon="4.74062"><ele>247</ele></trkpt>
<trkpt lat="46.94192" lon="4.73981"><ele>246</ele></trkpt>
<trkpt lat="46.94187" lon="4.73984"><ele>245</ele></trkpt>
<trkpt lat="46.94178" lon="4.74005"><ele>244</ele></trkpt>
<trkpt lat="46.94173" lon="4.74006"><ele>244</ele></trkpt>
<trkpt lat="46.94115" lon="4.73947"><ele>241</ele></trkpt>
<trkpt lat="46.94084" lon="4.73869"><ele>238</ele></trkpt>
<trkpt lat="46.94046" lon="4.73794"><ele>236</ele></trkpt>
<trkpt lat="46.94020" lon="4.73759"><ele>236</ele></trkpt>
<trkpt lat="46.93965" lon="4.73702"><ele>236</ele></trkpt>
<trkpt lat="46.93931" lon="4.73675"><ele>238</ele></trkpt>
<trkpt lat="46.93918" lon="4.73692"><ele>238</ele></trkpt>
<trkpt lat="46.93877" lon="4.73680"><ele>237</ele></trkpt>
<trkpt lat="46.93808" lon="4.73565"><ele>238</ele></trkpt>
<trkpt lat="46.93797" lon="4.73560"><ele>238</ele></trkpt>
<trkpt lat="46.93719" lon="4.73501"><ele>237</ele></trkpt>
<trkpt lat="46.93630" lon="4.73469"><ele>237</ele></trkpt>
<trkpt lat="46.93593" lon="4.73451"><ele>237</ele></trkpt>
<trkpt lat="46.93543" lon="4.73436"><ele>238</ele></trkpt>
<trkpt lat="46.93449" lon="4.73397"><ele>236</ele></trkpt>
<trkpt lat="46.93320" lon="4.73315"><ele>232</ele></trkpt>
<trkpt lat="46.93309" lon="4.73311"><ele>232</ele></trkpt>
<trkpt lat="46.93243" lon="4.73314"><ele>230</ele></trkpt>
<trkpt lat="46.93216" lon="4.73308"><ele>230</ele></trkpt>
<trkpt lat="46.93192" lon="4.73295"><ele>229</ele></trkpt>
<trkpt lat="46.93123" lon="4.73245"><ele>228</ele></trkpt>
<trkpt lat="46.93045" lon="4.73135"><ele>226</ele></trkpt>
<trkpt lat="46.92942" lon="4.73045"><ele>227</ele></trkpt>
<trkpt lat="46.92862" lon="4.72964"><ele>225</ele></trkpt>
<trkpt lat="46.92771" lon="4.72890"><ele>225</ele></trkpt>
<trkpt lat="46.92684" lon="4.72830"><ele>225</ele></trkpt>
<trkpt lat="46.92648" lon="4.72793"><ele>225</ele></trkpt>
<trkpt lat="46.92605" lon="4.72738"><ele>224</ele></trkpt>
<trkpt lat="46.92397" lon="4.72527"><ele>224</ele></trkpt>
<trkpt lat="46.92356" lon="4.72515"><ele>224</ele></trkpt>
<trkpt lat="46.92326" lon="4.72520"><ele>224</ele></trkpt>
<trkpt lat="46.92304" lon="4.72519"><ele>224</ele></trkpt>
<trkpt lat="46.92275" lon="4.72508"><ele>224</ele></trkpt>
<trkpt lat="46.92178" lon="4.72452"><ele>226</ele></trkpt>
<trkpt lat="46.92049" lon="4.72314"><ele>229</ele></trkpt>
<trkpt lat="46.92015" lon="4.72285"><ele>229</ele></trkpt>
<trkpt lat="46.91876" lon="4.72257"><ele>225</ele></trkpt>
<trkpt lat="46.91806" lon="4.72277"><ele>222</ele></trkpt>
<trkpt lat="46.91752" lon="4.72272"><ele>220</ele></trkpt>
<trkpt lat="46.91674" lon="4.72281"><ele>218</ele></trkpt>
<trkpt lat="46.91650" lon="4.72279"><ele>217</ele></trkpt>
<trkpt lat="46.91643" lon="4.72274"><ele>217</ele></trkpt>
<trkpt lat="46.91609" lon="4.72229"><ele>216</ele></trkpt>
<trkpt lat="46.91582" lon="4.72088"><ele>218</ele></trkpt>
<trkpt lat="46.91563" lon="4.72031"><ele>217</ele></trkpt>
<trkpt lat="46.91556" lon="4.71997"><ele>217</ele></trkpt>
<trkpt lat="46.91553" lon="4.71865"><ele>216</ele></trkpt>
<trkpt lat="46.91539" lon="4.71696"><ele>217</ele></trkpt>
<trkpt lat="46.91527" lon="4.71596"><ele>219</ele></trkpt>
<trkpt lat="46.91505" lon="4.71494"><ele>220</ele></trkpt>
<trkpt lat="46.91500" lon="4.71324"><ele>217</ele></trkpt>
<trkpt lat="46.91496" lon="4.71296"><ele>218</ele></trkpt>
<trkpt lat="46.91434" lon="4.71143"><ele>220</ele></trkpt>
<trkpt lat="46.91417" lon="4.71092"><ele>222</ele></trkpt>
<trkpt lat="46.91406" lon="4.71035"><ele>225</ele></trkpt>
<trkpt lat="46.91403" lon="4.70974"><ele>227</ele></trkpt>
<trkpt lat="46.91407" lon="4.70967"><ele>227</ele></trkpt>
<trkpt lat="46.91396" lon="4.70917"><ele>229</ele></trkpt>
<trkpt lat="46.91401" lon="4.70912"><ele>230</ele></trkpt>
<trkpt lat="46.91406" lon="4.70897"><ele>231</ele></trkpt>
<trkpt lat="46.91413" lon="4.70838"><ele>232</ele></trkpt>
<trkpt lat="46.91411" lon="4.70801"><ele>233</ele></trkpt>
<trkpt lat="46.91374" lon="4.70588"><ele>234</ele></trkpt>
<trkpt lat="46.91378" lon="4.70531"><ele>235</ele></trkpt>
<trkpt lat="46.91397" lon="4.70417"><ele>238</ele></trkpt>
<trkpt lat="46.91399" lon="4.70310"><ele>238</ele></trkpt>
<trkpt lat="46.91391" lon="4.70226"><ele>237</ele></trkpt>
<trkpt lat="46.91374" lon="4.70150"><ele>238</ele></trkpt>
<trkpt lat="46.91370" lon="4.70134"><ele>237</ele></trkpt>
<trkpt lat="46.91229" lon="4.70089"><ele>227</ele></trkpt>
<trkpt lat="46.91152" lon="4.70071"><ele>223</ele></trkpt>
<trkpt lat="46.91142" lon="4.70059"><ele>222</ele></trkpt>
<trkpt lat="46.91142" lon="4.70043"><ele>222</ele></trkpt>
<trkpt lat="46.91136" lon="4.70015"><ele>222</ele></trkpt>
<trkpt lat="46.91177" lon="4.69947"><ele>223</ele></trkpt>
<trkpt lat="46.91225" lon="4.69883"><ele>225</ele></trkpt>
<trkpt lat="46.91303" lon="4.69745"><ele>228</ele></trkpt>
<trkpt lat="46.91349" lon="4.69797"><ele>231</ele></trkpt>
<trkpt lat="46.91336" lon="4.69837"><ele>231</ele></trkpt>
<trkpt lat="46.91352" lon="4.69870"><ele>232</ele></trkpt>
<trkpt lat="46.91370" lon="4.70134"><ele>237</ele></trkpt>
<trkpt lat="46.91391" lon="4.70226"><ele>237</ele></trkpt>
<trkpt lat="46.91399" lon="4.70310"><ele>238</ele></trkpt>
<trkpt lat="46.91397" lon="4.70417"><ele>238</ele></trkpt>
<trkpt lat="46.91378" lon="4.70531"><ele>235</ele></trkpt>
<trkpt lat="46.91374" lon="4.70588"><ele>234</ele></trkpt>
<trkpt lat="46.91411" lon="4.70801"><ele>233</ele></trkpt>
<trkpt lat="46.91413" lon="4.70838"><ele>232</ele></trkpt>
<trkpt lat="46.91406" lon="4.70897"><ele>231</ele></trkpt>
<trkpt lat="46.91401" lon="4.70912"><ele>230</ele></trkpt>
<trkpt lat="46.91396" lon="4.70917"><ele>229</ele></trkpt>
<trkpt lat="46.91407" lon="4.70967"><ele>227</ele></trkpt>
<trkpt lat="46.91403" lon="4.70974"><ele>227</ele></trkpt>
<trkpt lat="46.91406" lon="4.71035"><ele>225</ele></trkpt>
<trkpt lat="46.91417" lon="4.71092"><ele>222</ele></trkpt>
<trkpt lat="46.91434" lon="4.71143"><ele>220</ele></trkpt>
<trkpt lat="46.91496" lon="4.71296"><ele>218</ele></trkpt>
<trkpt lat="46.91500" lon="4.71324"><ele>217</ele></trkpt>
<trkpt lat="46.91505" lon="4.71494"><ele>220</ele></trkpt>
<trkpt lat="46.91527" lon="4.71596"><ele>219</ele></trkpt>
<trkpt lat="46.91539" lon="4.71696"><ele>217</ele></trkpt>
<trkpt lat="46.91553" lon="4.71865"><ele>216</ele></trkpt>
<trkpt lat="46.91556" lon="4.71997"><ele>217</ele></trkpt>
<trkpt lat="46.91563" lon="4.72031"><ele>217</ele></trkpt>
<trkpt lat="46.91582" lon="4.72088"><ele>218</ele></trkpt>
<trkpt lat="46.91609" lon="4.72229"><ele>216</ele></trkpt>
<trkpt lat="46.91572" lon="4.72211"><ele>216</ele></trkpt>
<trkpt lat="46.91548" lon="4.72209"><ele>215</ele></trkpt>
<trkpt lat="46.91498" lon="4.72231"><ele>214</ele></trkpt>
<trkpt lat="46.91480" lon="4.72243"><ele>214</ele></trkpt>
<trkpt lat="46.91430" lon="4.72289"><ele>211</ele></trkpt>
<trkpt lat="46.91405" lon="4.72306"><ele>211</ele></trkpt>
<trkpt lat="46.91376" lon="4.72257"><ele>211</ele></trkpt>
<trkpt lat="46.91344" lon="4.72235"><ele>211</ele></trkpt>
<trkpt lat="46.91327" lon="4.72230"><ele>212</ele></trkpt>
<trkpt lat="46.91286" lon="4.72230"><ele>210</ele></trkpt>
<trkpt lat="46.91200" lon="4.72238"><ele>210</ele></trkpt>
<trkpt lat="46.91170" lon="4.72228"><ele>208</ele></trkpt>
<trkpt lat="46.91056" lon="4.72150"><ele>211</ele></trkpt>
<trkpt lat="46.90931" lon="4.72044"><ele>211</ele></trkpt>
<trkpt lat="46.90891" lon="4.72022"><ele>211</ele></trkpt>
<trkpt lat="46.90868" lon="4.72014"><ele>211</ele></trkpt>
<trkpt lat="46.90831" lon="4.72054"><ele>211</ele></trkpt>
<trkpt lat="46.90787" lon="4.72084"><ele>212</ele></trkpt>
<trkpt lat="46.90788" lon="4.72088"><ele>212</ele></trkpt>
<trkpt lat="46.90772" lon="4.72098"><ele>213</ele></trkpt>
<trkpt lat="46.90741" lon="4.72125"><ele>216</ele></trkpt>
<trkpt lat="46.90694" lon="4.72177"><ele>221</ele></trkpt>
<trkpt lat="46.90656" lon="4.72135"><ele>224</ele></trkpt>
<trkpt lat="46.90642" lon="4.72085"><ele>226</ele></trkpt>
<trkpt lat="46.90636" lon="4.72077"><ele>226</ele></trkpt>
<trkpt lat="46.90616" lon="4.72072"><ele>226</ele></trkpt>
<trkpt lat="46.90614" lon="4.72119"><ele>226</ele></trkpt>
<trkpt lat="46.90599" lon="4.72241"><ele>224</ele></trkpt>
<trkpt lat="46.90599" lon="4.72280"><ele>224</ele></trkpt>
<trkpt lat="46.90603" lon="4.72298"><ele>225</ele></trkpt>
<trkpt lat="46.90649" lon="4.72428"><ele>224</ele></trkpt>
<trkpt lat="46.90655" lon="4.72464"><ele>224</ele></trkpt>
<trkpt lat="46.90656" lon="4.72540"><ele>224</ele></trkpt>
<trkpt lat="46.90671" lon="4.72629"><ele>224</ele></trkpt>
<trkpt lat="46.90704" lon="4.72720"><ele>224</ele></trkpt>
<trkpt lat="46.90710" lon="4.72745"><ele>224</ele></trkpt>
<trkpt lat="46.90705" lon="4.72844"><ele>224</ele></trkpt>
<trkpt lat="46.90710" lon="4.72874"><ele>224</ele></trkpt>
<trkpt lat="46.90743" lon="4.72939"><ele>225</ele></trkpt>
<trkpt lat="46.90811" lon="4.73042"><ele>224</ele></trkpt>
<trkpt lat="46.90835" lon="4.73090"><ele>224</ele></trkpt>
<trkpt lat="46.90848" lon="4.73133"><ele>224</ele></trkpt>
<trkpt lat="46.90849" lon="4.73154"><ele>224</ele></trkpt>
<trkpt lat="46.90841" lon="4.73233"><ele>224</ele></trkpt>
<trkpt lat="46.90842" lon="4.73258"><ele>224</ele></trkpt>
<trkpt lat="46.90857" lon="4.73316"><ele>224</ele></trkpt>
<trkpt lat="46.90881" lon="4.73344"><ele>224</ele></trkpt>
<trkpt lat="46.90923" lon="4.73370"><ele>224</ele></trkpt>
<trkpt lat="46.90932" lon="4.73381"><ele>224</ele></trkpt>
<trkpt lat="46.90945" lon="4.73412"><ele>224</ele></trkpt>
<trkpt lat="46.90991" lon="4.73627"><ele>224</ele></trkpt>
<trkpt lat="46.91002" lon="4.73710"><ele>225</ele></trkpt>
<trkpt lat="46.91005" lon="4.73797"><ele>226</ele></trkpt>
<trkpt lat="46.91010" lon="4.73827"><ele>227</ele></trkpt>
<trkpt lat="46.91064" lon="4.74007"><ele>227</ele></trkpt>
<trkpt lat="46.91083" lon="4.74090"><ele>225</ele></trkpt>
<trkpt lat="46.91085" lon="4.74115"><ele>224</ele></trkpt>
<trkpt lat="46.91082" lon="4.74151"><ele>224</ele></trkpt>
<trkpt lat="46.91067" lon="4.74195"><ele>224</ele></trkpt>
<trkpt lat="46.91051" lon="4.74229"><ele>224</ele></trkpt>
<trkpt lat="46.91008" lon="4.74289"><ele>224</ele></trkpt>
<trkpt lat="46.90986" lon="4.74308"><ele>225</ele></trkpt>
<trkpt lat="46.90963" lon="4.74321"><ele>225</ele></trkpt>
<trkpt lat="46.90881" lon="4.74344"><ele>225</ele></trkpt>
<trkpt lat="46.90859" lon="4.74362"><ele>225</ele></trkpt>
<trkpt lat="46.90828" lon="4.74397"><ele>225</ele></trkpt>
<trkpt lat="46.90814" lon="4.74425"><ele>224</ele></trkpt>
<trkpt lat="46.90803" lon="4.74456"><ele>224</ele></trkpt>
<trkpt lat="46.90774" lon="4.74501"><ele>225</ele></trkpt>
<trkpt lat="46.90667" lon="4.74611"><ele>227</ele></trkpt>
<trkpt lat="46.90660" lon="4.74613"><ele>226</ele></trkpt>
<trkpt lat="46.90686" lon="4.74663"><ele>224</ele></trkpt>
<trkpt lat="46.90709" lon="4.74765"><ele>221</ele></trkpt>
<trkpt lat="46.90717" lon="4.74774"><ele>220</ele></trkpt>
<trkpt lat="46.90734" lon="4.74776"><ele>217</ele></trkpt>
<trkpt lat="46.90750" lon="4.74766"><ele>217</ele></trkpt>
<trkpt lat="46.90816" lon="4.74690"><ele>213</ele></trkpt>
<trkpt lat="46.90825" lon="4.74686"><ele>214</ele></trkpt>
<trkpt lat="46.90836" lon="4.74693"><ele>213</ele></trkpt>
<trkpt lat="46.90885" lon="4.74751"><ele>209</ele></trkpt>
<trkpt lat="46.90877" lon="4.74775"><ele>210</ele></trkpt>
<trkpt lat="46.90861" lon="4.74859"><ele>209</ele></trkpt>
<trkpt lat="46.90883" lon="4.74967"><ele>209</ele></trkpt>
<trkpt lat="46.90912" lon="4.74929"><ele>208</ele></trkpt>
<trkpt lat="46.90913" lon="4.74915"><ele>208</ele></trkpt>
<trkpt lat="46.90925" lon="4.74897"><ele>209</ele></trkpt>
<trkpt lat="46.91017" lon="4.74881"><ele>209</ele></trkpt>
<trkpt lat="46.91034" lon="4.74872"><ele>210</ele></trkpt>
<trkpt lat="46.91072" lon="4.74873"><ele>209</ele></trkpt>
<trkpt lat="46.91096" lon="4.74898"><ele>208</ele></trkpt>
<trkpt lat="46.91138" lon="4.74927"><ele>208</ele></trkpt>
<trkpt lat="46.91153" lon="4.74827"><ele>209</ele></trkpt>
<trkpt lat="46.91109" lon="4.74824"><ele>210</ele></trkpt>
    </trkseg>
  </trk>
</gpx>
