<?xml version="1.0" encoding="UTF-8"?>
<gpx version="1.1" creator="Gravel Kompass" xmlns="http://www.topografix.com/GPX/1/1">
  <metadata><name>Burgund-Runde: Grand-Cru-Weinberge &amp; Kanal-Gravel – Etappe 5</name></metadata>
  <trk>
    <name>Etappe 5: Saint-Jean-de-Losne – Dijon</name>
    <trkseg>
      <trkpt lat="47.104217" lon="5.266586"><ele>182.0</ele></trkpt>
      <trkpt lat="47.104330" lon="5.266564"><ele>182.0</ele></trkpt>
      <trkpt lat="47.104489" lon="5.266550"><ele>182.0</ele></trkpt>
      <trkpt lat="47.104618" lon="5.266446"><ele>182.0</ele></trkpt>
      <trkpt lat="47.104652" lon="5.266171"><ele>182.0</ele></trkpt>
      <trkpt lat="47.104696" lon="5.265420"><ele>182.2</ele></trkpt>
      <trkpt lat="47.104718" lon="5.265283"><ele>182.8</ele></trkpt>
      <trkpt lat="47.104752" lon="5.265304"><ele>182.8</ele></trkpt>
      <trkpt lat="47.104789" lon="5.265296"><ele>182.5</ele></trkpt>
      <trkpt lat="47.104821" lon="5.265256"><ele>182.5</ele></trkpt>
      <trkpt lat="47.104832" lon="5.265197"><ele>182.2</ele></trkpt>
      <trkpt lat="47.104819" lon="5.265139"><ele>182.2</ele></trkpt>
      <trkpt lat="47.104899" lon="5.265032"><ele>182.0</ele></trkpt>
      <trkpt lat="47.104950" lon="5.264978"><ele>181.8</ele></trkpt>
      <trkpt lat="47.105322" lon="5.264672"><ele>182.0</ele></trkpt>
      <trkpt lat="47.105436" lon="5.264579"><ele>182.0</ele></trkpt>
      <trkpt lat="47.105619" lon="5.264427"><ele>182.0</ele></trkpt>
      <trkpt lat="47.105707" lon="5.264359"><ele>182.0</ele></trkpt>
      <trkpt lat="47.105837" lon="5.264259"><ele>182.5</ele></trkpt>
      <trkpt lat="47.105871" lon="5.264197"><ele>182.8</ele></trkpt>
      <trkpt lat="47.105910" lon="5.264072"><ele>183.0</ele></trkpt>
      <trkpt lat="47.105923" lon="5.263988"><ele>183.0</ele></trkpt>
      <trkpt lat="47.106002" lon="5.263989"><ele>183.0</ele></trkpt>
      <trkpt lat="47.106111" lon="5.263959"><ele>183.0</ele></trkpt>
      <trkpt lat="47.106206" lon="5.263884"><ele>182.8</ele></trkpt>
      <trkpt lat="47.106356" lon="5.263800"><ele>182.8</ele></trkpt>
      <trkpt lat="47.106567" lon="5.263639"><ele>182.8</ele></trkpt>
      <trkpt lat="47.107028" lon="5.263251"><ele>182.5</ele></trkpt>
      <trkpt lat="47.107638" lon="5.262761"><ele>182.8</ele></trkpt>
      <trkpt lat="47.107774" lon="5.262618"><ele>182.8</ele></trkpt>
      <trkpt lat="47.107883" lon="5.262510"><ele>182.8</ele></trkpt>
      <trkpt lat="47.107912" lon="5.262545"><ele>182.8</ele></trkpt>
      <trkpt lat="47.107946" lon="5.262568"><ele>182.8</ele></trkpt>
      <trkpt lat="47.107983" lon="5.262580"><ele>182.8</ele></trkpt>
      <trkpt lat="47.108021" lon="5.262578"><ele>182.8</ele></trkpt>
      <trkpt lat="47.108058" lon="5.262563"><ele>182.8</ele></trkpt>
      <trkpt lat="47.108092" lon="5.262535"><ele>182.8</ele></trkpt>
      <trkpt lat="47.108139" lon="5.262456"><ele>182.5</ele></trkpt>
      <trkpt lat="47.108152" lon="5.262407"><ele>182.8</ele></trkpt>
      <trkpt lat="47.108157" lon="5.262355"><ele>182.8</ele></trkpt>
      <trkpt lat="47.108154" lon="5.262297"><ele>182.8</ele></trkpt>
      <trkpt lat="47.108141" lon="5.262241"><ele>182.8</ele></trkpt>
      <trkpt lat="47.108119" lon="5.262193"><ele>182.8</ele></trkpt>
      <trkpt lat="47.108093" lon="5.262156"><ele>182.8</ele></trkpt>
      <trkpt lat="47.108061" lon="5.262130"><ele>182.5</ele></trkpt>
      <trkpt lat="47.108035" lon="5.262005"><ele>182.0</ele></trkpt>
      <trkpt lat="47.108020" lon="5.261907"><ele>181.8</ele></trkpt>
      <trkpt lat="47.107980" lon="5.261795"><ele>181.2</ele></trkpt>
      <trkpt lat="47.107821" lon="5.261578"><ele>181.0</ele></trkpt>
      <trkpt lat="47.107788" lon="5.261532"><ele>181.0</ele></trkpt>
      <trkpt lat="47.107618" lon="5.261192"><ele>181.2</ele></trkpt>
      <trkpt lat="47.107396" lon="5.260593"><ele>181.0</ele></trkpt>
      <trkpt lat="47.107283" lon="5.260085"><ele>181.0</ele></trkpt>
      <trkpt lat="47.107124" lon="5.259350"><ele>181.0</ele></trkpt>
      <trkpt lat="47.107263" lon="5.259282"><ele>180.8</ele></trkpt>
      <trkpt lat="47.108099" lon="5.258874"><ele>183.0</ele></trkpt>
      <trkpt lat="47.108129" lon="5.258878"><ele>183.2</ele></trkpt>
      <trkpt lat="47.108175" lon="5.258800"><ele>183.5</ele></trkpt>
      <trkpt lat="47.108223" lon="5.258749"><ele>183.8</ele></trkpt>
      <trkpt lat="47.108786" lon="5.258413"><ele>184.0</ele></trkpt>
      <trkpt lat="47.109178" lon="5.258257"><ele>183.8</ele></trkpt>
      <trkpt lat="47.109199" lon="5.258248"><ele>184.0</ele></trkpt>
      <trkpt lat="47.109227" lon="5.258239"><ele>184.0</ele></trkpt>
      <trkpt lat="47.109454" lon="5.258164"><ele>184.0</ele></trkpt>
      <trkpt lat="47.109707" lon="5.258105"><ele>184.0</ele></trkpt>
      <trkpt lat="47.110127" lon="5.258014"><ele>183.8</ele></trkpt>
      <trkpt lat="47.110440" lon="5.257970"><ele>183.8</ele></trkpt>
      <trkpt lat="47.110391" lon="5.257500"><ele>182.8</ele></trkpt>
      <trkpt lat="47.110190" lon="5.256504"><ele>182.0</ele></trkpt>
      <trkpt lat="47.109967" lon="5.254569"><ele>181.8</ele></trkpt>
      <trkpt lat="47.109825" lon="5.253178"><ele>181.5</ele></trkpt>
      <trkpt lat="47.109736" lon="5.252194"><ele>181.8</ele></trkpt>
      <trkpt lat="47.109690" lon="5.251659"><ele>182.0</ele></trkpt>
      <trkpt lat="47.109664" lon="5.251614"><ele>182.2</ele></trkpt>
      <trkpt lat="47.109613" lon="5.251590"><ele>182.5</ele></trkpt>
      <trkpt lat="47.112342" lon="5.248701"><ele>182.0</ele></trkpt>
      <trkpt lat="47.113963" lon="5.246978"><ele>182.8</ele></trkpt>
      <trkpt lat="47.115796" lon="5.245011"><ele>183.0</ele></trkpt>
      <trkpt lat="47.115983" lon="5.244780"><ele>183.2</ele></trkpt>
      <trkpt lat="47.116081" lon="5.244689"><ele>182.8</ele></trkpt>
      <trkpt lat="47.116874" lon="5.243889"><ele>183.0</ele></trkpt>
      <trkpt lat="47.117371" lon="5.243417"><ele>183.0</ele></trkpt>
      <trkpt lat="47.117816" lon="5.242859"><ele>183.0</ele></trkpt>
      <trkpt lat="47.119364" lon="5.241241"><ele>183.8</ele></trkpt>
      <trkpt lat="47.119608" lon="5.240938"><ele>183.8</ele></trkpt>
      <trkpt lat="47.119674" lon="5.240869"><ele>183.8</ele></trkpt>
      <trkpt lat="47.119789" lon="5.240787"><ele>184.2</ele></trkpt>
      <trkpt lat="47.120071" lon="5.240510"><ele>184.8</ele></trkpt>
      <trkpt lat="47.120156" lon="5.240393"><ele>184.8</ele></trkpt>
      <trkpt lat="47.120545" lon="5.239976"><ele>185.0</ele></trkpt>
      <trkpt lat="47.121067" lon="5.239436"><ele>185.0</ele></trkpt>
      <trkpt lat="47.124314" lon="5.235973"><ele>184.2</ele></trkpt>
      <trkpt lat="47.126537" lon="5.233613"><ele>184.8</ele></trkpt>
      <trkpt lat="47.130756" lon="5.229163"><ele>185.0</ele></trkpt>
      <trkpt lat="47.130869" lon="5.228988"><ele>184.8</ele></trkpt>
      <trkpt lat="47.132842" lon="5.226928"><ele>185.0</ele></trkpt>
      <trkpt lat="47.133335" lon="5.226397"><ele>186.0</ele></trkpt>
      <trkpt lat="47.134802" lon="5.224842"><ele>186.0</ele></trkpt>
      <trkpt lat="47.135344" lon="5.224275"><ele>186.0</ele></trkpt>
      <trkpt lat="47.135555" lon="5.224118"><ele>186.0</ele></trkpt>
      <trkpt lat="47.135676" lon="5.224080"><ele>186.0</ele></trkpt>
      <trkpt lat="47.135794" lon="5.224005"><ele>186.0</ele></trkpt>
      <trkpt lat="47.135975" lon="5.223767"><ele>186.0</ele></trkpt>
      <trkpt lat="47.136061" lon="5.223634"><ele>186.0</ele></trkpt>
      <trkpt lat="47.136371" lon="5.223198"><ele>187.2</ele></trkpt>
      <trkpt lat="47.136780" lon="5.222746"><ele>185.5</ele></trkpt>
      <trkpt lat="47.137366" lon="5.222121"><ele>185.0</ele></trkpt>
      <trkpt lat="47.139021" lon="5.220372"><ele>186.8</ele></trkpt>
      <trkpt lat="47.139703" lon="5.219639"><ele>186.8</ele></trkpt>
      <trkpt lat="47.140183" lon="5.219138"><ele>188.5</ele></trkpt>
      <trkpt lat="47.140950" lon="5.218329"><ele>187.5</ele></trkpt>
      <trkpt lat="47.143135" lon="5.216032"><ele>187.0</ele></trkpt>
      <trkpt lat="47.143259" lon="5.215866"><ele>187.5</ele></trkpt>
      <trkpt lat="47.143694" lon="5.215443"><ele>188.0</ele></trkpt>
      <trkpt lat="47.144068" lon="5.215026"><ele>190.0</ele></trkpt>
      <trkpt lat="47.144256" lon="5.214839"><ele>191.0</ele></trkpt>
      <trkpt lat="47.144721" lon="5.215393"><ele>188.0</ele></trkpt>
      <trkpt lat="47.144918" lon="5.215482"><ele>188.0</ele></trkpt>
      <trkpt lat="47.145186" lon="5.215542"><ele>187.2</ele></trkpt>
      <trkpt lat="47.145300" lon="5.215568"><ele>187.0</ele></trkpt>
      <trkpt lat="47.145700" lon="5.215701"><ele>187.0</ele></trkpt>
      <trkpt lat="47.146252" lon="5.216164"><ele>187.0</ele></trkpt>
      <trkpt lat="47.146565" lon="5.216427"><ele>187.0</ele></trkpt>
      <trkpt lat="47.148082" lon="5.215323"><ele>187.0</ele></trkpt>
      <trkpt lat="47.148180" lon="5.215207"><ele>187.2</ele></trkpt>
      <trkpt lat="47.148463" lon="5.214800"><ele>187.2</ele></trkpt>
      <trkpt lat="47.150140" lon="5.212200"><ele>188.0</ele></trkpt>
      <trkpt lat="47.150821" lon="5.211070"><ele>188.0</ele></trkpt>
      <trkpt lat="47.150825" lon="5.210971"><ele>188.0</ele></trkpt>
      <trkpt lat="47.150930" lon="5.210811"><ele>188.0</ele></trkpt>
      <trkpt lat="47.151025" lon="5.210569"><ele>188.0</ele></trkpt>
      <trkpt lat="47.151107" lon="5.210234"><ele>188.0</ele></trkpt>
      <trkpt lat="47.151191" lon="5.209936"><ele>188.0</ele></trkpt>
      <trkpt lat="47.151370" lon="5.209456"><ele>188.0</ele></trkpt>
      <trkpt lat="47.151315" lon="5.209400"><ele>188.0</ele></trkpt>
      <trkpt lat="47.151279" lon="5.209248"><ele>188.0</ele></trkpt>
      <trkpt lat="47.151298" lon="5.209073"><ele>188.0</ele></trkpt>
      <trkpt lat="47.151352" lon="5.208944"><ele>188.0</ele></trkpt>
      <trkpt lat="47.151408" lon="5.208834"><ele>188.0</ele></trkpt>
      <trkpt lat="47.151474" lon="5.208727"><ele>188.0</ele></trkpt>
      <trkpt lat="47.151570" lon="5.208662"><ele>188.0</ele></trkpt>
      <trkpt lat="47.151669" lon="5.208678"><ele>188.0</ele></trkpt>
      <trkpt lat="47.151808" lon="5.208729"><ele>188.2</ele></trkpt>
      <trkpt lat="47.151913" lon="5.208727"><ele>188.5</ele></trkpt>
      <trkpt lat="47.152019" lon="5.208673"><ele>188.5</ele></trkpt>
      <trkpt lat="47.152125" lon="5.208531"><ele>188.5</ele></trkpt>
      <trkpt lat="47.152198" lon="5.208327"><ele>189.0</ele></trkpt>
      <trkpt lat="47.152243" lon="5.208131"><ele>188.8</ele></trkpt>
      <trkpt lat="47.152247" lon="5.207968"><ele>188.8</ele></trkpt>
      <trkpt lat="47.152220" lon="5.207772"><ele>189.0</ele></trkpt>
      <trkpt lat="47.152159" lon="5.207534"><ele>189.0</ele></trkpt>
      <trkpt lat="47.152023" lon="5.207106"><ele>188.0</ele></trkpt>
      <trkpt lat="47.151966" lon="5.206829"><ele>188.0</ele></trkpt>
      <trkpt lat="47.151954" lon="5.206725"><ele>188.0</ele></trkpt>
      <trkpt lat="47.151984" lon="5.206615"><ele>188.0</ele></trkpt>
      <trkpt lat="47.152410" lon="5.206174"><ele>188.8</ele></trkpt>
      <trkpt lat="47.152813" lon="5.205803"><ele>190.8</ele></trkpt>
      <trkpt lat="47.152904" lon="5.205674"><ele>191.0</ele></trkpt>
      <trkpt lat="47.153055" lon="5.205470"><ele>190.5</ele></trkpt>
      <trkpt lat="47.153254" lon="5.205258"><ele>190.0</ele></trkpt>
      <trkpt lat="47.155782" lon="5.202587"><ele>189.5</ele></trkpt>
      <trkpt lat="47.157570" lon="5.200683"><ele>189.2</ele></trkpt>
      <trkpt lat="47.159397" lon="5.198786"><ele>189.0</ele></trkpt>
      <trkpt lat="47.166925" lon="5.190788"><ele>191.2</ele></trkpt>
      <trkpt lat="47.167219" lon="5.190461"><ele>192.2</ele></trkpt>
      <trkpt lat="47.167432" lon="5.190258"><ele>192.0</ele></trkpt>
      <trkpt lat="47.167767" lon="5.189911"><ele>191.0</ele></trkpt>
      <trkpt lat="47.169097" lon="5.188471"><ele>191.0</ele></trkpt>
      <trkpt lat="47.171569" lon="5.185831"><ele>192.5</ele></trkpt>
      <trkpt lat="47.174104" lon="5.183133"><ele>192.0</ele></trkpt>
      <trkpt lat="47.175785" lon="5.181331"><ele>193.0</ele></trkpt>
      <trkpt lat="47.176813" lon="5.180248"><ele>196.0</ele></trkpt>
      <trkpt lat="47.177613" lon="5.181762"><ele>193.0</ele></trkpt>
      <trkpt lat="47.178350" lon="5.183146"><ele>192.8</ele></trkpt>
      <trkpt lat="47.179360" lon="5.185056"><ele>192.0</ele></trkpt>
      <trkpt lat="47.179494" lon="5.185396"><ele>191.8</ele></trkpt>
      <trkpt lat="47.179622" lon="5.185831"><ele>191.8</ele></trkpt>
      <trkpt lat="47.180494" lon="5.188912"><ele>193.5</ele></trkpt>
      <trkpt lat="47.181044" lon="5.190924"><ele>192.2</ele></trkpt>
      <trkpt lat="47.181082" lon="5.191065"><ele>192.8</ele></trkpt>
      <trkpt lat="47.181196" lon="5.191357"><ele>193.0</ele></trkpt>
      <trkpt lat="47.181361" lon="5.191728"><ele>192.8</ele></trkpt>
      <trkpt lat="47.181708" lon="5.192510"><ele>193.0</ele></trkpt>
      <trkpt lat="47.182173" lon="5.193586"><ele>193.0</ele></trkpt>
      <trkpt lat="47.182263" lon="5.193836"><ele>193.0</ele></trkpt>
      <trkpt lat="47.182334" lon="5.194118"><ele>192.5</ele></trkpt>
      <trkpt lat="47.182348" lon="5.194188"><ele>192.2</ele></trkpt>
      <trkpt lat="47.182362" lon="5.194288"><ele>192.5</ele></trkpt>
      <trkpt lat="47.182389" lon="5.194378"><ele>192.8</ele></trkpt>
      <trkpt lat="47.182428" lon="5.194458"><ele>193.0</ele></trkpt>
      <trkpt lat="47.182493" lon="5.194531"><ele>193.0</ele></trkpt>
      <trkpt lat="47.182941" lon="5.194888"><ele>193.0</ele></trkpt>
      <trkpt lat="47.183011" lon="5.194958"><ele>193.0</ele></trkpt>
      <trkpt lat="47.183062" lon="5.195043"><ele>193.0</ele></trkpt>
      <trkpt lat="47.183110" lon="5.195169"><ele>193.0</ele></trkpt>
      <trkpt lat="47.183241" lon="5.195716"><ele>193.0</ele></trkpt>
      <trkpt lat="47.183282" lon="5.195842"><ele>193.0</ele></trkpt>
      <trkpt lat="47.183345" lon="5.195880"><ele>193.0</ele></trkpt>
      <trkpt lat="47.183401" lon="5.195932"><ele>193.0</ele></trkpt>
      <trkpt lat="47.183465" lon="5.196039"><ele>193.2</ele></trkpt>
      <trkpt lat="47.183637" lon="5.196570"><ele>193.0</ele></trkpt>
      <trkpt lat="47.183725" lon="5.196903"><ele>193.8</ele></trkpt>
      <trkpt lat="47.183921" lon="5.197759"><ele>194.8</ele></trkpt>
      <trkpt lat="47.184042" lon="5.198351"><ele>196.0</ele></trkpt>
      <trkpt lat="47.184132" lon="5.198721"><ele>197.5</ele></trkpt>
      <trkpt lat="47.184342" lon="5.199454"><ele>200.0</ele></trkpt>
      <trkpt lat="47.184386" lon="5.199625"><ele>200.0</ele></trkpt>
      <trkpt lat="47.184448" lon="5.199942"><ele>200.8</ele></trkpt>
      <trkpt lat="47.184586" lon="5.200779"><ele>202.0</ele></trkpt>
      <trkpt lat="47.184664" lon="5.201208"><ele>202.8</ele></trkpt>
      <trkpt lat="47.184712" lon="5.201346"><ele>202.8</ele></trkpt>
      <trkpt lat="47.184689" lon="5.201543"><ele>202.8</ele></trkpt>
      <trkpt lat="47.184695" lon="5.202402"><ele>202.0</ele></trkpt>
      <trkpt lat="47.184702" lon="5.202688"><ele>202.0</ele></trkpt>
      <trkpt lat="47.184630" lon="5.203366"><ele>202.0</ele></trkpt>
      <trkpt lat="47.184446" lon="5.204401"><ele>202.0</ele></trkpt>
      <trkpt lat="47.184334" lon="5.204893"><ele>201.8</ele></trkpt>
      <trkpt lat="47.183965" lon="5.206239"><ele>200.2</ele></trkpt>
      <trkpt lat="47.183728" lon="5.207069"><ele>200.0</ele></trkpt>
      <trkpt lat="47.183645" lon="5.207551"><ele>199.8</ele></trkpt>
      <trkpt lat="47.183609" lon="5.208003"><ele>199.8</ele></trkpt>
      <trkpt lat="47.183589" lon="5.208466"><ele>200.0</ele></trkpt>
      <trkpt lat="47.183603" lon="5.209042"><ele>200.0</ele></trkpt>
      <trkpt lat="47.183672" lon="5.209824"><ele>200.0</ele></trkpt>
      <trkpt lat="47.183738" lon="5.210386"><ele>200.5</ele></trkpt>
      <trkpt lat="47.183811" lon="5.210783"><ele>201.0</ele></trkpt>
      <trkpt lat="47.184033" lon="5.211746"><ele>201.5</ele></trkpt>
      <trkpt lat="47.184423" lon="5.213788"><ele>203.5</ele></trkpt>
      <trkpt lat="47.184452" lon="5.213879"><ele>203.8</ele></trkpt>
      <trkpt lat="47.184477" lon="5.213926"><ele>204.0</ele></trkpt>
      <trkpt lat="47.184508" lon="5.213944"><ele>204.0</ele></trkpt>
      <trkpt lat="47.184540" lon="5.213946"><ele>204.0</ele></trkpt>
      <trkpt lat="47.184721" lon="5.213862"><ele>203.8</ele></trkpt>
      <trkpt lat="47.184759" lon="5.213856"><ele>204.0</ele></trkpt>
      <trkpt lat="47.184804" lon="5.213871"><ele>204.2</ele></trkpt>
      <trkpt lat="47.184862" lon="5.213931"><ele>204.5</ele></trkpt>
      <trkpt lat="47.185255" lon="5.214524"><ele>205.8</ele></trkpt>
      <trkpt lat="47.185427" lon="5.214843"><ele>205.8</ele></trkpt>
      <trkpt lat="47.185778" lon="5.215612"><ele>206.0</ele></trkpt>
      <trkpt lat="47.185828" lon="5.215734"><ele>206.5</ele></trkpt>
      <trkpt lat="47.186220" lon="5.216630"><ele>207.2</ele></trkpt>
      <trkpt lat="47.186922" lon="5.217961"><ele>212.5</ele></trkpt>
      <trkpt lat="47.187291" lon="5.218636"><ele>215.5</ele></trkpt>
      <trkpt lat="47.187366" lon="5.218741"><ele>216.2</ele></trkpt>
      <trkpt lat="47.187065" lon="5.219059"><ele>215.0</ele></trkpt>
      <trkpt lat="47.185767" lon="5.220740"><ele>209.8</ele></trkpt>
      <trkpt lat="47.185215" lon="5.221454"><ele>208.0</ele></trkpt>
      <trkpt lat="47.184876" lon="5.221904"><ele>207.5</ele></trkpt>
      <trkpt lat="47.184808" lon="5.221978"><ele>207.2</ele></trkpt>
      <trkpt lat="47.184755" lon="5.222014"><ele>207.0</ele></trkpt>
      <trkpt lat="47.184349" lon="5.222206"><ele>206.5</ele></trkpt>
      <trkpt lat="47.184013" lon="5.222453"><ele>206.0</ele></trkpt>
      <trkpt lat="47.183856" lon="5.222547"><ele>205.8</ele></trkpt>
      <trkpt lat="47.183736" lon="5.222629"><ele>205.2</ele></trkpt>
      <trkpt lat="47.183230" lon="5.222975"><ele>204.5</ele></trkpt>
      <trkpt lat="47.182843" lon="5.223256"><ele>204.0</ele></trkpt>
      <trkpt lat="47.182705" lon="5.223330"><ele>204.0</ele></trkpt>
      <trkpt lat="47.182374" lon="5.223574"><ele>204.0</ele></trkpt>
      <trkpt lat="47.182082" lon="5.223771"><ele>204.0</ele></trkpt>
      <trkpt lat="47.182011" lon="5.223819"><ele>204.0</ele></trkpt>
      <trkpt lat="47.181326" lon="5.224290"><ele>204.0</ele></trkpt>
      <trkpt lat="47.181192" lon="5.224379"><ele>204.0</ele></trkpt>
      <trkpt lat="47.180378" lon="5.224926"><ele>204.2</ele></trkpt>
      <trkpt lat="47.179851" lon="5.225281"><ele>204.0</ele></trkpt>
      <trkpt lat="47.179224" lon="5.225702"><ele>204.0</ele></trkpt>
      <trkpt lat="47.178460" lon="5.226225"><ele>204.0</ele></trkpt>
      <trkpt lat="47.178402" lon="5.226266"><ele>204.0</ele></trkpt>
      <trkpt lat="47.177995" lon="5.226548"><ele>204.0</ele></trkpt>
      <trkpt lat="47.177642" lon="5.226789"><ele>204.0</ele></trkpt>
      <trkpt lat="47.177249" lon="5.227058"><ele>203.8</ele></trkpt>
      <trkpt lat="47.176885" lon="5.227287"><ele>204.0</ele></trkpt>
      <trkpt lat="47.176479" lon="5.227583"><ele>204.0</ele></trkpt>
      <trkpt lat="47.176171" lon="5.227793"><ele>203.8</ele></trkpt>
      <trkpt lat="47.176479" lon="5.227583"><ele>204.0</ele></trkpt>
      <trkpt lat="47.176885" lon="5.227287"><ele>204.0</ele></trkpt>
      <trkpt lat="47.177249" lon="5.227058"><ele>203.8</ele></trkpt>
      <trkpt lat="47.177642" lon="5.226789"><ele>204.0</ele></trkpt>
      <trkpt lat="47.177995" lon="5.226548"><ele>204.0</ele></trkpt>
      <trkpt lat="47.178402" lon="5.226266"><ele>204.0</ele></trkpt>
      <trkpt lat="47.178460" lon="5.226225"><ele>204.0</ele></trkpt>
      <trkpt lat="47.179224" lon="5.225702"><ele>204.0</ele></trkpt>
      <trkpt lat="47.179851" lon="5.225281"><ele>204.0</ele></trkpt>
      <trkpt lat="47.180378" lon="5.224926"><ele>204.2</ele></trkpt>
      <trkpt lat="47.181192" lon="5.224379"><ele>204.0</ele></trkpt>
      <trkpt lat="47.181326" lon="5.224290"><ele>204.0</ele></trkpt>
      <trkpt lat="47.182011" lon="5.223819"><ele>204.0</ele></trkpt>
      <trkpt lat="47.182082" lon="5.223771"><ele>204.0</ele></trkpt>
      <trkpt lat="47.182374" lon="5.223574"><ele>204.0</ele></trkpt>
      <trkpt lat="47.182705" lon="5.223330"><ele>204.0</ele></trkpt>
      <trkpt lat="47.182843" lon="5.223256"><ele>204.0</ele></trkpt>
      <trkpt lat="47.183230" lon="5.222975"><ele>204.5</ele></trkpt>
      <trkpt lat="47.183736" lon="5.222629"><ele>205.2</ele></trkpt>
      <trkpt lat="47.183856" lon="5.222547"><ele>205.8</ele></trkpt>
      <trkpt lat="47.184013" lon="5.222453"><ele>206.0</ele></trkpt>
      <trkpt lat="47.184349" lon="5.222206"><ele>206.5</ele></trkpt>
      <trkpt lat="47.184755" lon="5.222014"><ele>207.0</ele></trkpt>
      <trkpt lat="47.184808" lon="5.221978"><ele>207.2</ele></trkpt>
      <trkpt lat="47.184876" lon="5.221904"><ele>207.5</ele></trkpt>
      <trkpt lat="47.185215" lon="5.221454"><ele>208.0</ele></trkpt>
      <trkpt lat="47.185767" lon="5.220740"><ele>209.8</ele></trkpt>
      <trkpt lat="47.187065" lon="5.219059"><ele>215.0</ele></trkpt>
      <trkpt lat="47.187366" lon="5.218741"><ele>216.2</ele></trkpt>
      <trkpt lat="47.187406" lon="5.218682"><ele>216.2</ele></trkpt>
      <trkpt lat="47.188129" lon="5.217544"><ele>220.2</ele></trkpt>
      <trkpt lat="47.188832" lon="5.216399"><ele>223.5</ele></trkpt>
      <trkpt lat="47.190168" lon="5.214323"><ele>226.8</ele></trkpt>
      <trkpt lat="47.190331" lon="5.214034"><ele>227.0</ele></trkpt>
      <trkpt lat="47.190791" lon="5.213108"><ele>227.8</ele></trkpt>
      <trkpt lat="47.191188" lon="5.212270"><ele>228.2</ele></trkpt>
      <trkpt lat="47.191300" lon="5.212018"><ele>228.5</ele></trkpt>
      <trkpt lat="47.191330" lon="5.211908"><ele>228.5</ele></trkpt>
      <trkpt lat="47.191352" lon="5.211785"><ele>228.2</ele></trkpt>
      <trkpt lat="47.191360" lon="5.211661"><ele>228.0</ele></trkpt>
      <trkpt lat="47.191357" lon="5.211548"><ele>228.0</ele></trkpt>
      <trkpt lat="47.191325" lon="5.211228"><ele>227.8</ele></trkpt>
      <trkpt lat="47.191323" lon="5.211062"><ele>227.8</ele></trkpt>
      <trkpt lat="47.191331" lon="5.210950"><ele>227.8</ele></trkpt>
      <trkpt lat="47.191353" lon="5.210807"><ele>227.8</ele></trkpt>
      <trkpt lat="47.191384" lon="5.210669"><ele>227.2</ele></trkpt>
      <trkpt lat="47.191489" lon="5.210409"><ele>227.0</ele></trkpt>
      <trkpt lat="47.191622" lon="5.210126"><ele>226.8</ele></trkpt>
      <trkpt lat="47.191787" lon="5.209859"><ele>226.5</ele></trkpt>
      <trkpt lat="47.191956" lon="5.209644"><ele>226.8</ele></trkpt>
      <trkpt lat="47.192236" lon="5.209330"><ele>227.5</ele></trkpt>
      <trkpt lat="47.192442" lon="5.209122"><ele>227.8</ele></trkpt>
      <trkpt lat="47.192778" lon="5.208833"><ele>229.0</ele></trkpt>
      <trkpt lat="47.193410" lon="5.208321"><ele>230.8</ele></trkpt>
      <trkpt lat="47.193942" lon="5.207889"><ele>231.0</ele></trkpt>
      <trkpt lat="47.194100" lon="5.207751"><ele>231.5</ele></trkpt>
      <trkpt lat="47.194325" lon="5.207528"><ele>231.5</ele></trkpt>
      <trkpt lat="47.194581" lon="5.207239"><ele>231.5</ele></trkpt>
      <trkpt lat="47.195056" lon="5.206606"><ele>231.8</ele></trkpt>
      <trkpt lat="47.195222" lon="5.206430"><ele>231.8</ele></trkpt>
      <trkpt lat="47.195454" lon="5.206245"><ele>231.5</ele></trkpt>
      <trkpt lat="47.195633" lon="5.206086"><ele>231.5</ele></trkpt>
      <trkpt lat="47.195763" lon="5.205906"><ele>231.8</ele></trkpt>
      <trkpt lat="47.195951" lon="5.205488"><ele>232.0</ele></trkpt>
      <trkpt lat="47.196084" lon="5.205460"><ele>232.0</ele></trkpt>
      <trkpt lat="47.196223" lon="5.205409"><ele>231.8</ele></trkpt>
      <trkpt lat="47.196476" lon="5.205265"><ele>232.0</ele></trkpt>
      <trkpt lat="47.196988" lon="5.204978"><ele>233.0</ele></trkpt>
      <trkpt lat="47.197181" lon="5.204911"><ele>233.0</ele></trkpt>
      <trkpt lat="47.197291" lon="5.204892"><ele>233.0</ele></trkpt>
      <trkpt lat="47.197398" lon="5.204888"><ele>233.0</ele></trkpt>
      <trkpt lat="47.197836" lon="5.204903"><ele>232.0</ele></trkpt>
      <trkpt lat="47.197948" lon="5.204897"><ele>232.0</ele></trkpt>
      <trkpt lat="47.198121" lon="5.204856"><ele>231.8</ele></trkpt>
      <trkpt lat="47.198233" lon="5.204817"><ele>231.2</ele></trkpt>
      <trkpt lat="47.198413" lon="5.204749"><ele>230.5</ele></trkpt>
      <trkpt lat="47.198574" lon="5.204669"><ele>230.0</ele></trkpt>
      <trkpt lat="47.198735" lon="5.204603"><ele>229.5</ele></trkpt>
      <trkpt lat="47.198908" lon="5.204569"><ele>228.8</ele></trkpt>
      <trkpt lat="47.199109" lon="5.204559"><ele>228.5</ele></trkpt>
      <trkpt lat="47.199293" lon="5.204595"><ele>228.0</ele></trkpt>
      <trkpt lat="47.200191" lon="5.204829"><ele>227.2</ele></trkpt>
      <trkpt lat="47.200707" lon="5.205020"><ele>227.8</ele></trkpt>
      <trkpt lat="47.200835" lon="5.205057"><ele>227.8</ele></trkpt>
      <trkpt lat="47.200964" lon="5.205082"><ele>227.8</ele></trkpt>
      <trkpt lat="47.201504" lon="5.205088"><ele>229.0</ele></trkpt>
      <trkpt lat="47.201597" lon="5.205076"><ele>229.0</ele></trkpt>
      <trkpt lat="47.202181" lon="5.204944"><ele>230.0</ele></trkpt>
      <trkpt lat="47.202455" lon="5.204896"><ele>231.5</ele></trkpt>
      <trkpt lat="47.203074" lon="5.204872"><ele>233.0</ele></trkpt>
      <trkpt lat="47.203267" lon="5.204818"><ele>233.2</ele></trkpt>
      <trkpt lat="47.203349" lon="5.204795"><ele>233.2</ele></trkpt>
      <trkpt lat="47.203557" lon="5.204774"><ele>233.8</ele></trkpt>
      <trkpt lat="47.203706" lon="5.204767"><ele>234.0</ele></trkpt>
      <trkpt lat="47.204444" lon="5.204750"><ele>235.0</ele></trkpt>
      <trkpt lat="47.204533" lon="5.204762"><ele>235.0</ele></trkpt>
      <trkpt lat="47.204629" lon="5.204780"><ele>235.0</ele></trkpt>
      <trkpt lat="47.204878" lon="5.204845"><ele>235.0</ele></trkpt>
      <trkpt lat="47.205224" lon="5.205017"><ele>235.0</ele></trkpt>
      <trkpt lat="47.205398" lon="5.205074"><ele>235.0</ele></trkpt>
      <trkpt lat="47.205602" lon="5.205119"><ele>235.0</ele></trkpt>
      <trkpt lat="47.205807" lon="5.205105"><ele>235.0</ele></trkpt>
      <trkpt lat="47.205953" lon="5.205084"><ele>234.8</ele></trkpt>
      <trkpt lat="47.206618" lon="5.204943"><ele>235.0</ele></trkpt>
      <trkpt lat="47.206841" lon="5.204887"><ele>234.5</ele></trkpt>
      <trkpt lat="47.206927" lon="5.204854"><ele>234.5</ele></trkpt>
      <trkpt lat="47.207023" lon="5.204802"><ele>234.5</ele></trkpt>
      <trkpt lat="47.207096" lon="5.204749"><ele>234.2</ele></trkpt>
      <trkpt lat="47.207206" lon="5.204586"><ele>234.0</ele></trkpt>
      <trkpt lat="47.207328" lon="5.204327"><ele>234.0</ele></trkpt>
      <trkpt lat="47.207358" lon="5.204225"><ele>234.2</ele></trkpt>
      <trkpt lat="47.207494" lon="5.203621"><ele>234.0</ele></trkpt>
      <trkpt lat="47.207547" lon="5.203477"><ele>234.0</ele></trkpt>
      <trkpt lat="47.207614" lon="5.203347"><ele>234.2</ele></trkpt>
      <trkpt lat="47.207678" lon="5.203244"><ele>234.2</ele></trkpt>
      <trkpt lat="47.207791" lon="5.203107"><ele>233.2</ele></trkpt>
      <trkpt lat="47.207992" lon="5.202928"><ele>232.8</ele></trkpt>
      <trkpt lat="47.208627" lon="5.202328"><ele>230.2</ele></trkpt>
      <trkpt lat="47.208787" lon="5.202154"><ele>229.5</ele></trkpt>
      <trkpt lat="47.209273" lon="5.201578"><ele>225.2</ele></trkpt>
      <trkpt lat="47.209398" lon="5.201478"><ele>224.5</ele></trkpt>
      <trkpt lat="47.209556" lon="5.201391"><ele>223.0</ele></trkpt>
      <trkpt lat="47.209952" lon="5.201207"><ele>221.2</ele></trkpt>
      <trkpt lat="47.210112" lon="5.201113"><ele>220.5</ele></trkpt>
      <trkpt lat="47.210274" lon="5.200979"><ele>220.0</ele></trkpt>
      <trkpt lat="47.210490" lon="5.200750"><ele>219.0</ele></trkpt>
      <trkpt lat="47.210647" lon="5.200535"><ele>218.8</ele></trkpt>
      <trkpt lat="47.210696" lon="5.200468"><ele>218.8</ele></trkpt>
      <trkpt lat="47.211480" lon="5.199481"><ele>213.0</ele></trkpt>
      <trkpt lat="47.211823" lon="5.199096"><ele>210.2</ele></trkpt>
      <trkpt lat="47.212584" lon="5.198353"><ele>205.2</ele></trkpt>
      <trkpt lat="47.212615" lon="5.198326"><ele>203.2</ele></trkpt>
      <trkpt lat="47.213007" lon="5.197992"><ele>203.2</ele></trkpt>
      <trkpt lat="47.213792" lon="5.197382"><ele>201.2</ele></trkpt>
      <trkpt lat="47.213920" lon="5.197260"><ele>201.0</ele></trkpt>
      <trkpt lat="47.214034" lon="5.197117"><ele>200.8</ele></trkpt>
      <trkpt lat="47.214156" lon="5.196931"><ele>200.8</ele></trkpt>
      <trkpt lat="47.214263" lon="5.196703"><ele>200.0</ele></trkpt>
      <trkpt lat="47.214587" lon="5.195930"><ele>200.0</ele></trkpt>
      <trkpt lat="47.214704" lon="5.195660"><ele>199.8</ele></trkpt>
      <trkpt lat="47.214805" lon="5.195471"><ele>199.2</ele></trkpt>
      <trkpt lat="47.215044" lon="5.195090"><ele>199.0</ele></trkpt>
      <trkpt lat="47.215159" lon="5.194925"><ele>198.8</ele></trkpt>
      <trkpt lat="47.215384" lon="5.194641"><ele>199.0</ele></trkpt>
      <trkpt lat="47.215784" lon="5.194193"><ele>198.8</ele></trkpt>
      <trkpt lat="47.217022" lon="5.192803"><ele>199.0</ele></trkpt>
      <trkpt lat="47.216726" lon="5.192479"><ele>199.0</ele></trkpt>
      <trkpt lat="47.215875" lon="5.191587"><ele>199.0</ele></trkpt>
      <trkpt lat="47.214815" lon="5.190447"><ele>198.2</ele></trkpt>
      <trkpt lat="47.214726" lon="5.190358"><ele>198.5</ele></trkpt>
      <trkpt lat="47.214203" lon="5.189971"><ele>198.0</ele></trkpt>
      <trkpt lat="47.214073" lon="5.189855"><ele>198.0</ele></trkpt>
      <trkpt lat="47.212407" lon="5.188197"><ele>198.0</ele></trkpt>
      <trkpt lat="47.211931" lon="5.187704"><ele>197.5</ele></trkpt>
      <trkpt lat="47.211868" lon="5.187622"><ele>197.2</ele></trkpt>
      <trkpt lat="47.211739" lon="5.187475"><ele>197.5</ele></trkpt>
      <trkpt lat="47.211612" lon="5.187339"><ele>197.8</ele></trkpt>
      <trkpt lat="47.211544" lon="5.187232"><ele>197.8</ele></trkpt>
      <trkpt lat="47.211493" lon="5.187150"><ele>197.8</ele></trkpt>
      <trkpt lat="47.211430" lon="5.186972"><ele>198.0</ele></trkpt>
      <trkpt lat="47.211407" lon="5.186870"><ele>198.0</ele></trkpt>
      <trkpt lat="47.211401" lon="5.186774"><ele>198.0</ele></trkpt>
      <trkpt lat="47.211449" lon="5.186093"><ele>198.0</ele></trkpt>
      <trkpt lat="47.211469" lon="5.185335"><ele>198.0</ele></trkpt>
      <trkpt lat="47.211861" lon="5.185160"><ele>198.0</ele></trkpt>
      <trkpt lat="47.212229" lon="5.184914"><ele>198.0</ele></trkpt>
      <trkpt lat="47.212422" lon="5.184749"><ele>197.8</ele></trkpt>
      <trkpt lat="47.212490" lon="5.184644"><ele>198.0</ele></trkpt>
      <trkpt lat="47.212561" lon="5.184480"><ele>198.0</ele></trkpt>
      <trkpt lat="47.212677" lon="5.184411"><ele>198.0</ele></trkpt>
      <trkpt lat="47.212769" lon="5.184284"><ele>198.0</ele></trkpt>
      <trkpt lat="47.212931" lon="5.184057"><ele>198.0</ele></trkpt>
      <trkpt lat="47.213083" lon="5.183882"><ele>198.0</ele></trkpt>
      <trkpt lat="47.213204" lon="5.183777"><ele>198.0</ele></trkpt>
      <trkpt lat="47.213553" lon="5.183433"><ele>198.0</ele></trkpt>
      <trkpt lat="47.213698" lon="5.183308"><ele>198.0</ele></trkpt>
      <trkpt lat="47.213752" lon="5.183255"><ele>198.0</ele></trkpt>
      <trkpt lat="47.213800" lon="5.183194"><ele>198.0</ele></trkpt>
      <trkpt lat="47.213902" lon="5.183031"><ele>198.0</ele></trkpt>
      <trkpt lat="47.214028" lon="5.182759"><ele>198.0</ele></trkpt>
      <trkpt lat="47.213829" lon="5.182507"><ele>198.0</ele></trkpt>
      <trkpt lat="47.213737" lon="5.182355"><ele>197.8</ele></trkpt>
      <trkpt lat="47.213653" lon="5.182195"><ele>197.8</ele></trkpt>
      <trkpt lat="47.213597" lon="5.182055"><ele>198.0</ele></trkpt>
      <trkpt lat="47.213558" lon="5.181905"><ele>198.0</ele></trkpt>
      <trkpt lat="47.213510" lon="5.181683"><ele>198.0</ele></trkpt>
      <trkpt lat="47.213492" lon="5.181477"><ele>198.0</ele></trkpt>
      <trkpt lat="47.213503" lon="5.181129"><ele>198.0</ele></trkpt>
      <trkpt lat="47.213523" lon="5.180963"><ele>198.0</ele></trkpt>
      <trkpt lat="47.213597" lon="5.180542"><ele>198.0</ele></trkpt>
      <trkpt lat="47.213651" lon="5.180320"><ele>198.0</ele></trkpt>
      <trkpt lat="47.213699" lon="5.180167"><ele>198.2</ele></trkpt>
      <trkpt lat="47.213778" lon="5.179952"><ele>198.2</ele></trkpt>
      <trkpt lat="47.213884" lon="5.179696"><ele>198.8</ele></trkpt>
      <trkpt lat="47.213943" lon="5.179525"><ele>198.8</ele></trkpt>
      <trkpt lat="47.213978" lon="5.179380"><ele>198.5</ele></trkpt>
      <trkpt lat="47.213989" lon="5.179228"><ele>198.0</ele></trkpt>
      <trkpt lat="47.214273" lon="5.178670"><ele>198.2</ele></trkpt>
      <trkpt lat="47.214421" lon="5.178411"><ele>198.8</ele></trkpt>
      <trkpt lat="47.214586" lon="5.178207"><ele>199.0</ele></trkpt>
      <trkpt lat="47.214940" lon="5.177865"><ele>199.0</ele></trkpt>
      <trkpt lat="47.215290" lon="5.177586"><ele>199.0</ele></trkpt>
      <trkpt lat="47.215735" lon="5.177071"><ele>198.8</ele></trkpt>
      <trkpt lat="47.216019" lon="5.176535"><ele>199.0</ele></trkpt>
      <trkpt lat="47.216617" lon="5.175440"><ele>199.0</ele></trkpt>
      <trkpt lat="47.217447" lon="5.173895"><ele>199.0</ele></trkpt>
      <trkpt lat="47.218198" lon="5.172554"><ele>199.5</ele></trkpt>
      <trkpt lat="47.219206" lon="5.170633"><ele>200.0</ele></trkpt>
      <trkpt lat="47.219437" lon="5.170194"><ele>200.0</ele></trkpt>
      <trkpt lat="47.220894" lon="5.167512"><ele>200.8</ele></trkpt>
      <trkpt lat="47.221251" lon="5.166948"><ele>200.5</ele></trkpt>
      <trkpt lat="47.221619" lon="5.166471"><ele>200.5</ele></trkpt>
      <trkpt lat="47.222202" lon="5.165739"><ele>200.8</ele></trkpt>
      <trkpt lat="47.222674" lon="5.165181"><ele>201.0</ele></trkpt>
      <trkpt lat="47.223529" lon="5.164090"><ele>201.0</ele></trkpt>
      <trkpt lat="47.222621" lon="5.162270"><ele>200.8</ele></trkpt>
      <trkpt lat="47.222430" lon="5.161826"><ele>201.2</ele></trkpt>
      <trkpt lat="47.222076" lon="5.160792"><ele>201.0</ele></trkpt>
      <trkpt lat="47.221641" lon="5.159620"><ele>201.0</ele></trkpt>
      <trkpt lat="47.221099" lon="5.158376"><ele>201.0</ele></trkpt>
      <trkpt lat="47.220906" lon="5.157926"><ele>201.0</ele></trkpt>
      <trkpt lat="47.220302" lon="5.156677"><ele>201.0</ele></trkpt>
      <trkpt lat="47.219717" lon="5.155591"><ele>201.0</ele></trkpt>
      <trkpt lat="47.219113" lon="5.154523"><ele>201.5</ele></trkpt>
      <trkpt lat="47.218330" lon="5.153108"><ele>201.0</ele></trkpt>
      <trkpt lat="47.218023" lon="5.152431"><ele>201.0</ele></trkpt>
      <trkpt lat="47.217803" lon="5.151765"><ele>201.0</ele></trkpt>
      <trkpt lat="47.216798" lon="5.148008"><ele>201.0</ele></trkpt>
      <trkpt lat="47.216159" lon="5.145574"><ele>201.8</ele></trkpt>
      <trkpt lat="47.215866" lon="5.145139"><ele>201.2</ele></trkpt>
      <trkpt lat="47.215472" lon="5.144594"><ele>201.5</ele></trkpt>
      <trkpt lat="47.214637" lon="5.143508"><ele>201.0</ele></trkpt>
      <trkpt lat="47.214415" lon="5.143248"><ele>201.0</ele></trkpt>
      <trkpt lat="47.214151" lon="5.142993"><ele>201.0</ele></trkpt>
      <trkpt lat="47.214110" lon="5.142902"><ele>201.0</ele></trkpt>
      <trkpt lat="47.214122" lon="5.142815"><ele>201.0</ele></trkpt>
      <trkpt lat="47.214162" lon="5.142747"><ele>201.0</ele></trkpt>
      <trkpt lat="47.214218" lon="5.142689"><ele>201.0</ele></trkpt>
      <trkpt lat="47.214486" lon="5.142544"><ele>201.8</ele></trkpt>
      <trkpt lat="47.215709" lon="5.141814"><ele>201.5</ele></trkpt>
      <trkpt lat="47.216247" lon="5.141494"><ele>202.0</ele></trkpt>
      <trkpt lat="47.216354" lon="5.141432"><ele>202.0</ele></trkpt>
      <trkpt lat="47.216455" lon="5.141354"><ele>201.8</ele></trkpt>
      <trkpt lat="47.216506" lon="5.141283"><ele>201.5</ele></trkpt>
      <trkpt lat="47.216529" lon="5.141166"><ele>201.8</ele></trkpt>
      <trkpt lat="47.216450" lon="5.140834"><ele>202.0</ele></trkpt>
      <trkpt lat="47.216361" lon="5.140488"><ele>202.0</ele></trkpt>
      <trkpt lat="47.216319" lon="5.140283"><ele>202.0</ele></trkpt>
      <trkpt lat="47.216322" lon="5.140139"><ele>202.0</ele></trkpt>
      <trkpt lat="47.216323" lon="5.140067"><ele>202.0</ele></trkpt>
      <trkpt lat="47.216355" lon="5.139943"><ele>202.0</ele></trkpt>
      <trkpt lat="47.216603" lon="5.139314"><ele>202.8</ele></trkpt>
      <trkpt lat="47.216722" lon="5.139040"><ele>202.8</ele></trkpt>
      <trkpt lat="47.216760" lon="5.138911"><ele>202.5</ele></trkpt>
      <trkpt lat="47.216763" lon="5.138820"><ele>202.5</ele></trkpt>
      <trkpt lat="47.216752" lon="5.138620"><ele>202.8</ele></trkpt>
      <trkpt lat="47.216716" lon="5.138241"><ele>203.2</ele></trkpt>
      <trkpt lat="47.216674" lon="5.138058"><ele>203.8</ele></trkpt>
      <trkpt lat="47.216418" lon="5.137461"><ele>205.5</ele></trkpt>
      <trkpt lat="47.216447" lon="5.137411"><ele>205.5</ele></trkpt>
      <trkpt lat="47.217298" lon="5.136332"><ele>205.2</ele></trkpt>
      <trkpt lat="47.220402" lon="5.132481"><ele>205.5</ele></trkpt>
      <trkpt lat="47.221743" lon="5.130796"><ele>205.8</ele></trkpt>
      <trkpt lat="47.223958" lon="5.128050"><ele>205.8</ele></trkpt>
      <trkpt lat="47.224250" lon="5.127751"><ele>208.5</ele></trkpt>
      <trkpt lat="47.224287" lon="5.127676"><ele>208.8</ele></trkpt>
      <trkpt lat="47.224374" lon="5.127503"><ele>208.8</ele></trkpt>
      <trkpt lat="47.227747" lon="5.123361"><ele>207.8</ele></trkpt>
      <trkpt lat="47.235317" lon="5.113907"><ele>209.8</ele></trkpt>
      <trkpt lat="47.235173" lon="5.113665"><ele>211.2</ele></trkpt>
      <trkpt lat="47.235088" lon="5.113587"><ele>211.0</ele></trkpt>
      <trkpt lat="47.234741" lon="5.113323"><ele>209.8</ele></trkpt>
      <trkpt lat="47.234471" lon="5.113068"><ele>209.0</ele></trkpt>
      <trkpt lat="47.234493" lon="5.112993"><ele>209.0</ele></trkpt>
      <trkpt lat="47.234494" lon="5.112912"><ele>209.0</ele></trkpt>
      <trkpt lat="47.234476" lon="5.112836"><ele>209.0</ele></trkpt>
      <trkpt lat="47.234439" lon="5.112776"><ele>209.0</ele></trkpt>
      <trkpt lat="47.234391" lon="5.112740"><ele>209.0</ele></trkpt>
      <trkpt lat="47.234336" lon="5.112733"><ele>209.0</ele></trkpt>
      <trkpt lat="47.234284" lon="5.112754"><ele>209.0</ele></trkpt>
      <trkpt lat="47.234241" lon="5.112803"><ele>209.0</ele></trkpt>
      <trkpt lat="47.234213" lon="5.112871"><ele>209.0</ele></trkpt>
      <trkpt lat="47.234094" lon="5.112805"><ele>209.0</ele></trkpt>
      <trkpt lat="47.233843" lon="5.112629"><ele>208.8</ele></trkpt>
      <trkpt lat="47.233630" lon="5.112466"><ele>208.8</ele></trkpt>
      <trkpt lat="47.233465" lon="5.112346"><ele>208.5</ele></trkpt>
      <trkpt lat="47.233086" lon="5.112150"><ele>208.5</ele></trkpt>
      <trkpt lat="47.232482" lon="5.111980"><ele>208.0</ele></trkpt>
      <trkpt lat="47.232179" lon="5.111894"><ele>208.0</ele></trkpt>
      <trkpt lat="47.231527" lon="5.111621"><ele>208.0</ele></trkpt>
      <trkpt lat="47.229855" lon="5.110618"><ele>208.0</ele></trkpt>
      <trkpt lat="47.228390" lon="5.109544"><ele>208.0</ele></trkpt>
      <trkpt lat="47.228030" lon="5.109249"><ele>208.0</ele></trkpt>
      <trkpt lat="47.227917" lon="5.109150"><ele>208.0</ele></trkpt>
      <trkpt lat="47.227658" lon="5.108864"><ele>207.8</ele></trkpt>
      <trkpt lat="47.227404" lon="5.108506"><ele>208.0</ele></trkpt>
      <trkpt lat="47.226643" lon="5.106816"><ele>208.0</ele></trkpt>
      <trkpt lat="47.226390" lon="5.106285"><ele>208.0</ele></trkpt>
      <trkpt lat="47.226229" lon="5.105903"><ele>208.0</ele></trkpt>
      <trkpt lat="47.226014" lon="5.105160"><ele>208.2</ele></trkpt>
      <trkpt lat="47.225960" lon="5.105018"><ele>208.5</ele></trkpt>
      <trkpt lat="47.225806" lon="5.104685"><ele>210.5</ele></trkpt>
      <trkpt lat="47.225241" lon="5.103661"><ele>212.5</ele></trkpt>
      <trkpt lat="47.225068" lon="5.103344"><ele>211.8</ele></trkpt>
      <trkpt lat="47.224997" lon="5.103241"><ele>212.2</ele></trkpt>
      <trkpt lat="47.224918" lon="5.103147"><ele>211.2</ele></trkpt>
      <trkpt lat="47.224717" lon="5.102962"><ele>211.5</ele></trkpt>
      <trkpt lat="47.224567" lon="5.102817"><ele>210.2</ele></trkpt>
      <trkpt lat="47.224518" lon="5.102759"><ele>210.0</ele></trkpt>
      <trkpt lat="47.224437" lon="5.102643"><ele>209.2</ele></trkpt>
      <trkpt lat="47.224366" lon="5.102506"><ele>208.5</ele></trkpt>
      <trkpt lat="47.224335" lon="5.102434"><ele>208.5</ele></trkpt>
      <trkpt lat="47.224301" lon="5.102356"><ele>208.5</ele></trkpt>
      <trkpt lat="47.223894" lon="5.101397"><ele>208.0</ele></trkpt>
      <trkpt lat="47.223393" lon="5.100269"><ele>208.0</ele></trkpt>
      <trkpt lat="47.222370" lon="5.097901"><ele>208.0</ele></trkpt>
      <trkpt lat="47.222136" lon="5.097331"><ele>208.0</ele></trkpt>
      <trkpt lat="47.222122" lon="5.097284"><ele>208.0</ele></trkpt>
      <trkpt lat="47.222102" lon="5.097218"><ele>207.8</ele></trkpt>
      <trkpt lat="47.221743" lon="5.095831"><ele>207.0</ele></trkpt>
      <trkpt lat="47.221629" lon="5.095430"><ele>207.0</ele></trkpt>
      <trkpt lat="47.221464" lon="5.094928"><ele>207.0</ele></trkpt>
      <trkpt lat="47.221155" lon="5.094072"><ele>207.8</ele></trkpt>
      <trkpt lat="47.220941" lon="5.093597"><ele>207.0</ele></trkpt>
      <trkpt lat="47.220648" lon="5.093016"><ele>207.5</ele></trkpt>
      <trkpt lat="47.220310" lon="5.092437"><ele>207.8</ele></trkpt>
      <trkpt lat="47.220145" lon="5.092228"><ele>208.0</ele></trkpt>
      <trkpt lat="47.220045" lon="5.092115"><ele>208.0</ele></trkpt>
      <trkpt lat="47.220579" lon="5.091157"><ele>208.0</ele></trkpt>
      <trkpt lat="47.220747" lon="5.090894"><ele>208.0</ele></trkpt>
      <trkpt lat="47.220854" lon="5.090805"><ele>208.0</ele></trkpt>
      <trkpt lat="47.220998" lon="5.090680"><ele>208.0</ele></trkpt>
      <trkpt lat="47.221424" lon="5.090436"><ele>208.5</ele></trkpt>
      <trkpt lat="47.221545" lon="5.090304"><ele>208.8</ele></trkpt>
      <trkpt lat="47.222182" lon="5.089186"><ele>209.8</ele></trkpt>
      <trkpt lat="47.222388" lon="5.088751"><ele>210.0</ele></trkpt>
      <trkpt lat="47.222661" lon="5.088097"><ele>210.8</ele></trkpt>
      <trkpt lat="47.222827" lon="5.087810"><ele>210.8</ele></trkpt>
      <trkpt lat="47.223927" lon="5.086064"><ele>212.0</ele></trkpt>
      <trkpt lat="47.224933" lon="5.084449"><ele>212.0</ele></trkpt>
      <trkpt lat="47.225587" lon="5.083374"><ele>212.5</ele></trkpt>
      <trkpt lat="47.226144" lon="5.082499"><ele>213.8</ele></trkpt>
      <trkpt lat="47.226709" lon="5.081424"><ele>213.8</ele></trkpt>
      <trkpt lat="47.226767" lon="5.081294"><ele>214.0</ele></trkpt>
      <trkpt lat="47.227416" lon="5.079860"><ele>215.5</ele></trkpt>
      <trkpt lat="47.227964" lon="5.078479"><ele>216.0</ele></trkpt>
      <trkpt lat="47.228441" lon="5.077191"><ele>217.0</ele></trkpt>
      <trkpt lat="47.228907" lon="5.075777"><ele>217.0</ele></trkpt>
      <trkpt lat="47.229295" lon="5.074643"><ele>219.5</ele></trkpt>
      <trkpt lat="47.229448" lon="5.074106"><ele>221.0</ele></trkpt>
      <trkpt lat="47.229270" lon="5.074337"><ele>220.8</ele></trkpt>
      <trkpt lat="47.229029" lon="5.074552"><ele>219.5</ele></trkpt>
      <trkpt lat="47.228785" lon="5.074734"><ele>218.8</ele></trkpt>
      <trkpt lat="47.228483" lon="5.074975"><ele>218.0</ele></trkpt>
      <trkpt lat="47.228170" lon="5.075290"><ele>216.8</ele></trkpt>
      <trkpt lat="47.228006" lon="5.075147"><ele>216.8</ele></trkpt>
      <trkpt lat="47.226166" lon="5.073929"><ele>216.8</ele></trkpt>
      <trkpt lat="47.225456" lon="5.073442"><ele>217.2</ele></trkpt>
      <trkpt lat="47.225754" lon="5.072304"><ele>223.2</ele></trkpt>
      <trkpt lat="47.225953" lon="5.071494"><ele>227.0</ele></trkpt>
      <trkpt lat="47.226015" lon="5.071263"><ele>227.5</ele></trkpt>
      <trkpt lat="47.226052" lon="5.071167"><ele>227.8</ele></trkpt>
      <trkpt lat="47.226088" lon="5.071088"><ele>227.8</ele></trkpt>
      <trkpt lat="47.226223" lon="5.070893"><ele>228.2</ele></trkpt>
      <trkpt lat="47.226598" lon="5.070431"><ele>228.8</ele></trkpt>
      <trkpt lat="47.226840" lon="5.070165"><ele>229.5</ele></trkpt>
      <trkpt lat="47.226973" lon="5.070070"><ele>230.0</ele></trkpt>
      <trkpt lat="47.227056" lon="5.070024"><ele>230.2</ele></trkpt>
      <trkpt lat="47.227167" lon="5.069889"><ele>230.8</ele></trkpt>
      <trkpt lat="47.229118" lon="5.067395"><ele>227.5</ele></trkpt>
      <trkpt lat="47.229543" lon="5.066833"><ele>225.5</ele></trkpt>
      <trkpt lat="47.229435" lon="5.066739"><ele>225.2</ele></trkpt>
      <trkpt lat="47.228716" lon="5.065982"><ele>223.8</ele></trkpt>
      <trkpt lat="47.227120" lon="5.064348"><ele>217.0</ele></trkpt>
      <trkpt lat="47.227005" lon="5.064102"><ele>216.8</ele></trkpt>
      <trkpt lat="47.227144" lon="5.064215"><ele>217.0</ele></trkpt>
      <trkpt lat="47.227198" lon="5.064221"><ele>217.0</ele></trkpt>
      <trkpt lat="47.227270" lon="5.064229"><ele>217.0</ele></trkpt>
      <trkpt lat="47.227409" lon="5.064205"><ele>217.5</ele></trkpt>
      <trkpt lat="47.227728" lon="5.063989"><ele>218.2</ele></trkpt>
      <trkpt lat="47.227765" lon="5.063979"><ele>218.2</ele></trkpt>
      <trkpt lat="47.227877" lon="5.063951"><ele>218.5</ele></trkpt>
      <trkpt lat="47.228046" lon="5.063887"><ele>218.8</ele></trkpt>
      <trkpt lat="47.228361" lon="5.063750"><ele>220.0</ele></trkpt>
      <trkpt lat="47.228913" lon="5.063489"><ele>222.0</ele></trkpt>
      <trkpt lat="47.229193" lon="5.063391"><ele>223.0</ele></trkpt>
      <trkpt lat="47.229598" lon="5.063208"><ele>225.5</ele></trkpt>
      <trkpt lat="47.229828" lon="5.063097"><ele>226.2</ele></trkpt>
      <trkpt lat="47.230515" lon="5.062769"><ele>228.8</ele></trkpt>
      <trkpt lat="47.230611" lon="5.062731"><ele>229.0</ele></trkpt>
      <trkpt lat="47.230854" lon="5.062608"><ele>230.0</ele></trkpt>
      <trkpt lat="47.231014" lon="5.062523"><ele>230.5</ele></trkpt>
      <trkpt lat="47.231032" lon="5.062603"><ele>230.2</ele></trkpt>
      <trkpt lat="47.231056" lon="5.062646"><ele>230.2</ele></trkpt>
      <trkpt lat="47.231430" lon="5.062941"><ele>230.0</ele></trkpt>
      <trkpt lat="47.231707" lon="5.063170"><ele>230.5</ele></trkpt>
      <trkpt lat="47.232157" lon="5.063412"><ele>230.8</ele></trkpt>
      <trkpt lat="47.232283" lon="5.063488"><ele>231.0</ele></trkpt>
      <trkpt lat="47.232373" lon="5.063578"><ele>231.0</ele></trkpt>
      <trkpt lat="47.232567" lon="5.063814"><ele>230.2</ele></trkpt>
      <trkpt lat="47.232682" lon="5.063950"><ele>230.0</ele></trkpt>
      <trkpt lat="47.232694" lon="5.063969"><ele>230.0</ele></trkpt>
      <trkpt lat="47.232736" lon="5.064160"><ele>230.0</ele></trkpt>
      <trkpt lat="47.232820" lon="5.064872"><ele>229.8</ele></trkpt>
      <trkpt lat="47.232847" lon="5.064963"><ele>229.8</ele></trkpt>
      <trkpt lat="47.232880" lon="5.065004"><ele>229.5</ele></trkpt>
      <trkpt lat="47.233145" lon="5.065238"><ele>228.5</ele></trkpt>
      <trkpt lat="47.233180" lon="5.065269"><ele>228.5</ele></trkpt>
      <trkpt lat="47.233239" lon="5.065308"><ele>228.2</ele></trkpt>
      <trkpt lat="47.233389" lon="5.065408"><ele>227.8</ele></trkpt>
      <trkpt lat="47.233577" lon="5.065554"><ele>227.0</ele></trkpt>
      <trkpt lat="47.233781" lon="5.065737"><ele>226.5</ele></trkpt>
      <trkpt lat="47.233943" lon="5.065910"><ele>226.0</ele></trkpt>
      <trkpt lat="47.234515" lon="5.066634"><ele>223.5</ele></trkpt>
      <trkpt lat="47.234679" lon="5.066827"><ele>222.8</ele></trkpt>
      <trkpt lat="47.235243" lon="5.067444"><ele>221.0</ele></trkpt>
      <trkpt lat="47.235366" lon="5.067519"><ele>220.5</ele></trkpt>
      <trkpt lat="47.235602" lon="5.068492"><ele>218.8</ele></trkpt>
      <trkpt lat="47.235617" lon="5.068634"><ele>218.8</ele></trkpt>
      <trkpt lat="47.235613" lon="5.068779"><ele>218.5</ele></trkpt>
      <trkpt lat="47.235321" lon="5.071583"><ele>214.8</ele></trkpt>
      <trkpt lat="47.235306" lon="5.071949"><ele>214.8</ele></trkpt>
      <trkpt lat="47.235316" lon="5.072221"><ele>214.8</ele></trkpt>
      <trkpt lat="47.235462" lon="5.072456"><ele>214.2</ele></trkpt>
      <trkpt lat="47.235786" lon="5.073090"><ele>213.0</ele></trkpt>
      <trkpt lat="47.236358" lon="5.074133"><ele>212.8</ele></trkpt>
      <trkpt lat="47.237861" lon="5.076958"><ele>212.8</ele></trkpt>
      <trkpt lat="47.237929" lon="5.077007"><ele>212.8</ele></trkpt>
      <trkpt lat="47.237977" lon="5.077007"><ele>212.8</ele></trkpt>
      <trkpt lat="47.238088" lon="5.076895"><ele>212.5</ele></trkpt>
      <trkpt lat="47.239418" lon="5.075238"><ele>213.0</ele></trkpt>
      <trkpt lat="47.241105" lon="5.073109"><ele>214.0</ele></trkpt>
      <trkpt lat="47.242522" lon="5.071157"><ele>214.0</ele></trkpt>
      <trkpt lat="47.244022" lon="5.069374"><ele>214.8</ele></trkpt>
      <trkpt lat="47.244867" lon="5.068554"><ele>215.2</ele></trkpt>
      <trkpt lat="47.244923" lon="5.068437"><ele>215.2</ele></trkpt>
      <trkpt lat="47.244965" lon="5.068349"><ele>215.0</ele></trkpt>
      <trkpt lat="47.246353" lon="5.065084"><ele>216.5</ele></trkpt>
      <trkpt lat="47.246384" lon="5.064945"><ele>217.0</ele></trkpt>
      <trkpt lat="47.246028" lon="5.064622"><ele>216.5</ele></trkpt>
      <trkpt lat="47.245920" lon="5.064490"><ele>216.2</ele></trkpt>
      <trkpt lat="47.245853" lon="5.064311"><ele>216.5</ele></trkpt>
      <trkpt lat="47.245827" lon="5.064145"><ele>217.0</ele></trkpt>
      <trkpt lat="47.245824" lon="5.063973"><ele>217.0</ele></trkpt>
      <trkpt lat="47.246076" lon="5.063878"><ele>217.8</ele></trkpt>
      <trkpt lat="47.246268" lon="5.063844"><ele>217.5</ele></trkpt>
      <trkpt lat="47.246426" lon="5.063857"><ele>217.5</ele></trkpt>
      <trkpt lat="47.246639" lon="5.063930"><ele>217.5</ele></trkpt>
      <trkpt lat="47.247470" lon="5.064359"><ele>217.5</ele></trkpt>
      <trkpt lat="47.247870" lon="5.064612"><ele>217.5</ele></trkpt>
      <trkpt lat="47.248085" lon="5.064832"><ele>217.5</ele></trkpt>
      <trkpt lat="47.248453" lon="5.065295"><ele>217.5</ele></trkpt>
      <trkpt lat="47.249185" lon="5.066157"><ele>217.8</ele></trkpt>
      <trkpt lat="47.250645" lon="5.067820"><ele>217.5</ele></trkpt>
      <trkpt lat="47.250922" lon="5.068088"><ele>217.8</ele></trkpt>
      <trkpt lat="47.251781" lon="5.068807"><ele>217.5</ele></trkpt>
      <trkpt lat="47.252089" lon="5.069208"><ele>217.2</ele></trkpt>
      <trkpt lat="47.252643" lon="5.069988"><ele>217.0</ele></trkpt>
      <trkpt lat="47.253372" lon="5.071038"><ele>218.0</ele></trkpt>
      <trkpt lat="47.253501" lon="5.071120"><ele>218.0</ele></trkpt>
      <trkpt lat="47.253676" lon="5.071190"><ele>218.0</ele></trkpt>
      <trkpt lat="47.253711" lon="5.071206"><ele>218.0</ele></trkpt>
      <trkpt lat="47.253807" lon="5.071249"><ele>218.0</ele></trkpt>
      <trkpt lat="47.253940" lon="5.071367"><ele>218.0</ele></trkpt>
      <trkpt lat="47.254785" lon="5.072106"><ele>218.0</ele></trkpt>
      <trkpt lat="47.254864" lon="5.072130"><ele>218.0</ele></trkpt>
      <trkpt lat="47.254922" lon="5.072119"><ele>218.0</ele></trkpt>
      <trkpt lat="47.254936" lon="5.072196"><ele>218.0</ele></trkpt>
      <trkpt lat="47.254961" lon="5.072266"><ele>217.8</ele></trkpt>
      <trkpt lat="47.255004" lon="5.072332"><ele>217.5</ele></trkpt>
      <trkpt lat="47.255156" lon="5.072490"><ele>217.5</ele></trkpt>
      <trkpt lat="47.255574" lon="5.072888"><ele>218.8</ele></trkpt>
      <trkpt lat="47.255622" lon="5.072936"><ele>218.8</ele></trkpt>
      <trkpt lat="47.255684" lon="5.072995"><ele>218.8</ele></trkpt>
      <trkpt lat="47.255714" lon="5.073024"><ele>218.8</ele></trkpt>
      <trkpt lat="47.255789" lon="5.073099"><ele>218.8</ele></trkpt>
      <trkpt lat="47.255817" lon="5.073127"><ele>218.5</ele></trkpt>
      <trkpt lat="47.256168" lon="5.073472"><ele>218.0</ele></trkpt>
      <trkpt lat="47.256408" lon="5.073716"><ele>218.0</ele></trkpt>
      <trkpt lat="47.256572" lon="5.073957"><ele>218.5</ele></trkpt>
      <trkpt lat="47.256617" lon="5.074010"><ele>218.8</ele></trkpt>
      <trkpt lat="47.256711" lon="5.074112"><ele>219.0</ele></trkpt>
      <trkpt lat="47.256833" lon="5.074199"><ele>218.8</ele></trkpt>
      <trkpt lat="47.256944" lon="5.074257"><ele>218.5</ele></trkpt>
      <trkpt lat="47.257537" lon="5.074844"><ele>218.5</ele></trkpt>
      <trkpt lat="47.257942" lon="5.075231"><ele>218.5</ele></trkpt>
      <trkpt lat="47.258035" lon="5.075298"><ele>218.8</ele></trkpt>
      <trkpt lat="47.258132" lon="5.075354"><ele>219.0</ele></trkpt>
      <trkpt lat="47.258341" lon="5.075411"><ele>219.0</ele></trkpt>
      <trkpt lat="47.258522" lon="5.075431"><ele>219.0</ele></trkpt>
      <trkpt lat="47.258974" lon="5.075416"><ele>218.8</ele></trkpt>
      <trkpt lat="47.259178" lon="5.075385"><ele>219.0</ele></trkpt>
      <trkpt lat="47.259257" lon="5.075360"><ele>219.0</ele></trkpt>
      <trkpt lat="47.259333" lon="5.075325"><ele>219.0</ele></trkpt>
      <trkpt lat="47.259470" lon="5.075227"><ele>219.0</ele></trkpt>
      <trkpt lat="47.260002" lon="5.074727"><ele>219.0</ele></trkpt>
      <trkpt lat="47.260295" lon="5.074452"><ele>219.0</ele></trkpt>
      <trkpt lat="47.260328" lon="5.074432"><ele>219.0</ele></trkpt>
      <trkpt lat="47.260379" lon="5.074416"><ele>219.0</ele></trkpt>
      <trkpt lat="47.260417" lon="5.074421"><ele>219.0</ele></trkpt>
      <trkpt lat="47.260470" lon="5.074454"><ele>219.0</ele></trkpt>
      <trkpt lat="47.260521" lon="5.074510"><ele>219.0</ele></trkpt>
      <trkpt lat="47.260746" lon="5.074862"><ele>219.0</ele></trkpt>
      <trkpt lat="47.260783" lon="5.074912"><ele>219.0</ele></trkpt>
      <trkpt lat="47.260863" lon="5.074982"><ele>219.0</ele></trkpt>
      <trkpt lat="47.260983" lon="5.075028"><ele>219.0</ele></trkpt>
      <trkpt lat="47.261121" lon="5.075059"><ele>219.0</ele></trkpt>
      <trkpt lat="47.261380" lon="5.075085"><ele>219.0</ele></trkpt>
      <trkpt lat="47.261474" lon="5.075111"><ele>219.0</ele></trkpt>
      <trkpt lat="47.261605" lon="5.075182"><ele>219.2</ele></trkpt>
      <trkpt lat="47.261971" lon="5.075463"><ele>219.0</ele></trkpt>
      <trkpt lat="47.262032" lon="5.075568"><ele>219.0</ele></trkpt>
      <trkpt lat="47.262078" lon="5.075761"><ele>219.2</ele></trkpt>
      <trkpt lat="47.262274" lon="5.075527"><ele>219.2</ele></trkpt>
      <trkpt lat="47.262366" lon="5.075386"><ele>219.8</ele></trkpt>
      <trkpt lat="47.262397" lon="5.075434"><ele>219.8</ele></trkpt>
      <trkpt lat="47.262431" lon="5.075482"><ele>219.8</ele></trkpt>
      <trkpt lat="47.262483" lon="5.075529"><ele>219.8</ele></trkpt>
      <trkpt lat="47.262542" lon="5.075560"><ele>220.0</ele></trkpt>
      <trkpt lat="47.263322" lon="5.075909"><ele>220.0</ele></trkpt>
      <trkpt lat="47.263492" lon="5.076000"><ele>220.0</ele></trkpt>
      <trkpt lat="47.263685" lon="5.076172"><ele>220.0</ele></trkpt>
      <trkpt lat="47.263775" lon="5.076305"><ele>220.2</ele></trkpt>
      <trkpt lat="47.263858" lon="5.076441"><ele>220.5</ele></trkpt>
      <trkpt lat="47.264133" lon="5.077012"><ele>220.0</ele></trkpt>
      <trkpt lat="47.264307" lon="5.077304"><ele>221.5</ele></trkpt>
      <trkpt lat="47.264576" lon="5.077001"><ele>221.5</ele></trkpt>
      <trkpt lat="47.264841" lon="5.076653"><ele>221.8</ele></trkpt>
      <trkpt lat="47.265601" lon="5.075719"><ele>221.2</ele></trkpt>
      <trkpt lat="47.267218" lon="5.073709"><ele>221.2</ele></trkpt>
      <trkpt lat="47.268561" lon="5.072019"><ele>221.8</ele></trkpt>
      <trkpt lat="47.268921" lon="5.071588"><ele>221.5</ele></trkpt>
      <trkpt lat="47.269842" lon="5.070454"><ele>222.2</ele></trkpt>
      <trkpt lat="47.270246" lon="5.069897"><ele>222.2</ele></trkpt>
      <trkpt lat="47.270809" lon="5.069236"><ele>224.0</ele></trkpt>
      <trkpt lat="47.270940" lon="5.069020"><ele>223.5</ele></trkpt>
      <trkpt lat="47.272734" lon="5.066826"><ele>223.8</ele></trkpt>
      <trkpt lat="47.273786" lon="5.065525"><ele>224.0</ele></trkpt>
      <trkpt lat="47.274056" lon="5.065177"><ele>224.0</ele></trkpt>
      <trkpt lat="47.275849" lon="5.062950"><ele>225.0</ele></trkpt>
      <trkpt lat="47.275944" lon="5.062833"><ele>225.0</ele></trkpt>
      <trkpt lat="47.276000" lon="5.062780"><ele>225.0</ele></trkpt>
      <trkpt lat="47.276084" lon="5.062723"><ele>225.0</ele></trkpt>
      <trkpt lat="47.276344" lon="5.062461"><ele>225.5</ele></trkpt>
      <trkpt lat="47.276577" lon="5.062183"><ele>227.5</ele></trkpt>
      <trkpt lat="47.276617" lon="5.062011"><ele>227.0</ele></trkpt>
      <trkpt lat="47.276648" lon="5.061958"><ele>227.0</ele></trkpt>
      <trkpt lat="47.276705" lon="5.061889"><ele>227.0</ele></trkpt>
      <trkpt lat="47.276745" lon="5.061820"><ele>227.2</ele></trkpt>
      <trkpt lat="47.276753" lon="5.061792"><ele>227.2</ele></trkpt>
      <trkpt lat="47.276753" lon="5.061766"><ele>227.2</ele></trkpt>
      <trkpt lat="47.276740" lon="5.061743"><ele>227.5</ele></trkpt>
      <trkpt lat="47.276728" lon="5.061736"><ele>227.5</ele></trkpt>
      <trkpt lat="47.276693" lon="5.061734"><ele>227.5</ele></trkpt>
      <trkpt lat="47.276663" lon="5.061750"><ele>227.5</ele></trkpt>
      <trkpt lat="47.276609" lon="5.061799"><ele>227.2</ele></trkpt>
      <trkpt lat="47.276558" lon="5.061881"><ele>227.0</ele></trkpt>
      <trkpt lat="47.276470" lon="5.062049"><ele>227.5</ele></trkpt>
      <trkpt lat="47.276459" lon="5.062109"><ele>227.8</ele></trkpt>
      <trkpt lat="47.276472" lon="5.062177"><ele>228.0</ele></trkpt>
      <trkpt lat="47.276505" lon="5.062213"><ele>228.0</ele></trkpt>
      <trkpt lat="47.276692" lon="5.062250"><ele>227.0</ele></trkpt>
      <trkpt lat="47.276754" lon="5.062263"><ele>227.2</ele></trkpt>
      <trkpt lat="47.278653" lon="5.059897"><ele>226.8</ele></trkpt>
      <trkpt lat="47.280256" lon="5.057885"><ele>227.8</ele></trkpt>
      <trkpt lat="47.280326" lon="5.057797"><ele>228.0</ele></trkpt>
      <trkpt lat="47.280408" lon="5.057774"><ele>228.0</ele></trkpt>
      <trkpt lat="47.280578" lon="5.057751"><ele>228.0</ele></trkpt>
      <trkpt lat="47.280692" lon="5.057728"><ele>227.8</ele></trkpt>
      <trkpt lat="47.280753" lon="5.057678"><ele>227.8</ele></trkpt>
      <trkpt lat="47.280809" lon="5.057615"><ele>227.5</ele></trkpt>
      <trkpt lat="47.280877" lon="5.057521"><ele>227.8</ele></trkpt>
      <trkpt lat="47.280937" lon="5.057409"><ele>228.2</ele></trkpt>
      <trkpt lat="47.280952" lon="5.057229"><ele>229.0</ele></trkpt>
      <trkpt lat="47.280946" lon="5.057010"><ele>229.2</ele></trkpt>
      <trkpt lat="47.281103" lon="5.056825"><ele>229.2</ele></trkpt>
      <trkpt lat="47.282035" lon="5.055656"><ele>229.5</ele></trkpt>
      <trkpt lat="47.282204" lon="5.055487"><ele>230.0</ele></trkpt>
      <trkpt lat="47.282437" lon="5.055193"><ele>232.0</ele></trkpt>
      <trkpt lat="47.282502" lon="5.055127"><ele>232.2</ele></trkpt>
      <trkpt lat="47.282542" lon="5.055073"><ele>232.0</ele></trkpt>
      <trkpt lat="47.282599" lon="5.054988"><ele>231.8</ele></trkpt>
      <trkpt lat="47.284085" lon="5.053103"><ele>230.2</ele></trkpt>
      <trkpt lat="47.284130" lon="5.053037"><ele>230.8</ele></trkpt>
      <trkpt lat="47.284187" lon="5.052954"><ele>230.8</ele></trkpt>
      <trkpt lat="47.284439" lon="5.052642"><ele>232.5</ele></trkpt>
      <trkpt lat="47.284498" lon="5.052578"><ele>231.0</ele></trkpt>
      <trkpt lat="47.284819" lon="5.052195"><ele>229.8</ele></trkpt>
      <trkpt lat="47.287491" lon="5.048862"><ele>230.8</ele></trkpt>
      <trkpt lat="47.292404" lon="5.042734"><ele>232.0</ele></trkpt>
      <trkpt lat="47.293741" lon="5.041060"><ele>233.8</ele></trkpt>
      <trkpt lat="47.293891" lon="5.040849"><ele>233.0</ele></trkpt>
      <trkpt lat="47.294203" lon="5.040466"><ele>233.0</ele></trkpt>
      <trkpt lat="47.294296" lon="5.040380"><ele>232.5</ele></trkpt>
      <trkpt lat="47.294429" lon="5.040226"><ele>232.8</ele></trkpt>
      <trkpt lat="47.294471" lon="5.040390"><ele>233.0</ele></trkpt>
      <trkpt lat="47.294512" lon="5.040502"><ele>233.2</ele></trkpt>
      <trkpt lat="47.294571" lon="5.040574"><ele>234.0</ele></trkpt>
      <trkpt lat="47.294643" lon="5.040626"><ele>234.5</ele></trkpt>
      <trkpt lat="47.294721" lon="5.040642"><ele>235.2</ele></trkpt>
      <trkpt lat="47.294783" lon="5.040640"><ele>234.8</ele></trkpt>
      <trkpt lat="47.294825" lon="5.040601"><ele>235.0</ele></trkpt>
      <trkpt lat="47.294878" lon="5.040509"><ele>235.2</ele></trkpt>
      <trkpt lat="47.295016" lon="5.040273"><ele>238.5</ele></trkpt>
      <trkpt lat="47.295104" lon="5.040105"><ele>237.0</ele></trkpt>
      <trkpt lat="47.295206" lon="5.040217"><ele>235.2</ele></trkpt>
      <trkpt lat="47.295432" lon="5.040438"><ele>235.5</ele></trkpt>
      <trkpt lat="47.296001" lon="5.040964"><ele>233.8</ele></trkpt>
      <trkpt lat="47.296325" lon="5.041357"><ele>232.5</ele></trkpt>
      <trkpt lat="47.296446" lon="5.041504"><ele>232.2</ele></trkpt>
      <trkpt lat="47.296517" lon="5.041542"><ele>232.0</ele></trkpt>
      <trkpt lat="47.296587" lon="5.041540"><ele>232.0</ele></trkpt>
      <trkpt lat="47.296649" lon="5.041491"><ele>232.0</ele></trkpt>
      <trkpt lat="47.296702" lon="5.041414"><ele>231.5</ele></trkpt>
      <trkpt lat="47.297861" lon="5.039409"><ele>232.0</ele></trkpt>
      <trkpt lat="47.297996" lon="5.039224"><ele>232.0</ele></trkpt>
      <trkpt lat="47.298049" lon="5.039175"><ele>232.0</ele></trkpt>
      <trkpt lat="47.298131" lon="5.039147"><ele>231.2</ele></trkpt>
      <trkpt lat="47.298217" lon="5.039212"><ele>231.2</ele></trkpt>
      <trkpt lat="47.298245" lon="5.039249"><ele>231.2</ele></trkpt>
      <trkpt lat="47.298539" lon="5.039630"><ele>231.2</ele></trkpt>
      <trkpt lat="47.298943" lon="5.040156"><ele>231.2</ele></trkpt>
      <trkpt lat="47.299043" lon="5.040287"><ele>231.0</ele></trkpt>
      <trkpt lat="47.299052" lon="5.040298"><ele>231.0</ele></trkpt>
      <trkpt lat="47.299062" lon="5.040312"><ele>231.0</ele></trkpt>
      <trkpt lat="47.299088" lon="5.040346"><ele>231.0</ele></trkpt>
      <trkpt lat="47.299075" lon="5.040371"><ele>231.0</ele></trkpt>
      <trkpt lat="47.299066" lon="5.040431"><ele>231.0</ele></trkpt>
      <trkpt lat="47.299079" lon="5.040490"><ele>231.0</ele></trkpt>
      <trkpt lat="47.299111" lon="5.040528"><ele>231.0</ele></trkpt>
      <trkpt lat="47.299108" lon="5.040572"><ele>231.0</ele></trkpt>
      <trkpt lat="47.299104" lon="5.040678"><ele>231.0</ele></trkpt>
      <trkpt lat="47.299108" lon="5.040737"><ele>231.0</ele></trkpt>
      <trkpt lat="47.299119" lon="5.040790"><ele>231.0</ele></trkpt>
      <trkpt lat="47.298886" lon="5.040882"><ele>230.8</ele></trkpt>
      <trkpt lat="47.298949" lon="5.040960"><ele>230.5</ele></trkpt>
      <trkpt lat="47.299863" lon="5.042085"><ele>231.0</ele></trkpt>
      <trkpt lat="47.301002" lon="5.043622"><ele>230.8</ele></trkpt>
      <trkpt lat="47.301505" lon="5.044290"><ele>231.0</ele></trkpt>
      <trkpt lat="47.301615" lon="5.044097"><ele>231.0</ele></trkpt>
      <trkpt lat="47.301679" lon="5.044180"><ele>231.0</ele></trkpt>
      <trkpt lat="47.302014" lon="5.044619"><ele>231.0</ele></trkpt>
      <trkpt lat="47.302772" lon="5.045592"><ele>232.0</ele></trkpt>
      <trkpt lat="47.302843" lon="5.045684"><ele>232.0</ele></trkpt>
      <trkpt lat="47.302919" lon="5.045780"><ele>232.5</ele></trkpt>
      <trkpt lat="47.302989" lon="5.045870"><ele>232.5</ele></trkpt>
      <trkpt lat="47.303030" lon="5.045898"><ele>232.5</ele></trkpt>
      <trkpt lat="47.303112" lon="5.045931"><ele>232.5</ele></trkpt>
      <trkpt lat="47.303441" lon="5.046026"><ele>233.0</ele></trkpt>
      <trkpt lat="47.303459" lon="5.045955"><ele>233.0</ele></trkpt>
      <trkpt lat="47.304014" lon="5.044149"><ele>232.0</ele></trkpt>
      <trkpt lat="47.304304" lon="5.043236"><ele>232.8</ele></trkpt>
      <trkpt lat="47.304580" lon="5.042344"><ele>233.0</ele></trkpt>
      <trkpt lat="47.305765" lon="5.042823"><ele>233.0</ele></trkpt>
      <trkpt lat="47.306006" lon="5.041722"><ele>233.0</ele></trkpt>
      <trkpt lat="47.306162" lon="5.041007"><ele>234.0</ele></trkpt>
      <trkpt lat="47.306344" lon="5.040216"><ele>234.0</ele></trkpt>
      <trkpt lat="47.307159" lon="5.040612"><ele>233.8</ele></trkpt>
      <trkpt lat="47.307962" lon="5.040999"><ele>234.8</ele></trkpt>
      <trkpt lat="47.307985" lon="5.041011"><ele>234.8</ele></trkpt>
      <trkpt lat="47.308034" lon="5.041034"><ele>234.8</ele></trkpt>
      <trkpt lat="47.308098" lon="5.040846"><ele>234.8</ele></trkpt>
      <trkpt lat="47.308118" lon="5.040773"><ele>235.0</ele></trkpt>
      <trkpt lat="47.308186" lon="5.040769"><ele>235.0</ele></trkpt>
      <trkpt lat="47.308338" lon="5.040766"><ele>234.8</ele></trkpt>
      <trkpt lat="47.308397" lon="5.040775"><ele>234.8</ele></trkpt>
      <trkpt lat="47.308550" lon="5.040866"><ele>234.0</ele></trkpt>
      <trkpt lat="47.309300" lon="5.041284"><ele>234.8</ele></trkpt>
      <trkpt lat="47.309368" lon="5.041322"><ele>234.8</ele></trkpt>
      <trkpt lat="47.311505" lon="5.042539"><ele>235.8</ele></trkpt>
      <trkpt lat="47.311576" lon="5.042579"><ele>235.8</ele></trkpt>
      <trkpt lat="47.312052" lon="5.041909"><ele>236.2</ele></trkpt>
      <trkpt lat="47.312089" lon="5.041862"><ele>236.5</ele></trkpt>
      <trkpt lat="47.312545" lon="5.041291"><ele>236.5</ele></trkpt>
      <trkpt lat="47.312863" lon="5.040892"><ele>237.2</ele></trkpt>
      <trkpt lat="47.313122" lon="5.040547"><ele>238.0</ele></trkpt>
      <trkpt lat="47.313132" lon="5.040533"><ele>238.0</ele></trkpt>
      <trkpt lat="47.313191" lon="5.040455"><ele>238.0</ele></trkpt>
      <trkpt lat="47.313376" lon="5.040501"><ele>238.0</ele></trkpt>
      <trkpt lat="47.313397" lon="5.040443"><ele>238.0</ele></trkpt>
      <trkpt lat="47.315136" lon="5.038745"><ele>239.8</ele></trkpt>
      <trkpt lat="47.315227" lon="5.038665"><ele>239.8</ele></trkpt>
      <trkpt lat="47.315303" lon="5.038748"><ele>240.0</ele></trkpt>
      <trkpt lat="47.315335" lon="5.038759"><ele>240.0</ele></trkpt>
      <trkpt lat="47.315362" lon="5.038757"><ele>239.8</ele></trkpt>
      <trkpt lat="47.315385" lon="5.038753"><ele>240.0</ele></trkpt>
      <trkpt lat="47.315419" lon="5.038745"><ele>240.0</ele></trkpt>
      <trkpt lat="47.315454" lon="5.038719"><ele>240.0</ele></trkpt>
      <trkpt lat="47.315503" lon="5.038652"><ele>240.0</ele></trkpt>
      <trkpt lat="47.315527" lon="5.038605"><ele>239.8</ele></trkpt>
      <trkpt lat="47.315578" lon="5.038601"><ele>239.8</ele></trkpt>
      <trkpt lat="47.315612" lon="5.038617"><ele>239.8</ele></trkpt>
      <trkpt lat="47.316234" lon="5.039049"><ele>239.0</ele></trkpt>
      <trkpt lat="47.316527" lon="5.039240"><ele>239.0</ele></trkpt>
      <trkpt lat="47.316731" lon="5.039362"><ele>239.0</ele></trkpt>
      <trkpt lat="47.316859" lon="5.039439"><ele>239.0</ele></trkpt>
      <trkpt lat="47.316854" lon="5.039335"><ele>239.0</ele></trkpt>
      <trkpt lat="47.316788" lon="5.037829"><ele>239.0</ele></trkpt>
      <trkpt lat="47.316785" lon="5.037726"><ele>239.0</ele></trkpt>
      <trkpt lat="47.316775" lon="5.037582"><ele>239.0</ele></trkpt>
      <trkpt lat="47.316855" lon="5.037558"><ele>239.0</ele></trkpt>
      <trkpt lat="47.316965" lon="5.037525"><ele>239.0</ele></trkpt>
      <trkpt lat="47.317103" lon="5.037382"><ele>239.0</ele></trkpt>
      <trkpt lat="47.317351" lon="5.037068"><ele>239.0</ele></trkpt>
      <trkpt lat="47.317390" lon="5.037018"><ele>239.0</ele></trkpt>
      <trkpt lat="47.317420" lon="5.037052"><ele>239.0</ele></trkpt>
      <trkpt lat="47.317973" lon="5.037678"><ele>240.0</ele></trkpt>
      <trkpt lat="47.318760" lon="5.038485"><ele>241.0</ele></trkpt>
      <trkpt lat="47.319144" lon="5.038879"><ele>241.0</ele></trkpt>
      <trkpt lat="47.319188" lon="5.038924"><ele>241.0</ele></trkpt>
      <trkpt lat="47.319457" lon="5.038152"><ele>240.2</ele></trkpt>
      <trkpt lat="47.319467" lon="5.038124"><ele>240.2</ele></trkpt>
      <trkpt lat="47.319488" lon="5.038147"><ele>240.2</ele></trkpt>
      <trkpt lat="47.319504" lon="5.038166"><ele>240.5</ele></trkpt>
      <trkpt lat="47.319544" lon="5.038211"><ele>240.5</ele></trkpt>
      <trkpt lat="47.320016" lon="5.038747"><ele>241.5</ele></trkpt>
      <trkpt lat="47.320021" lon="5.038780"><ele>241.2</ele></trkpt>
      <trkpt lat="47.320042" lon="5.038907"><ele>241.0</ele></trkpt>
      <trkpt lat="47.320039" lon="5.039061"><ele>241.5</ele></trkpt>
      <trkpt lat="47.319988" lon="5.039340"><ele>241.8</ele></trkpt>
      <trkpt lat="47.319954" lon="5.039602"><ele>242.0</ele></trkpt>
      <trkpt lat="47.319930" lon="5.039860"><ele>242.2</ele></trkpt>
      <trkpt lat="47.319916" lon="5.040096"><ele>242.5</ele></trkpt>
      <trkpt lat="47.319940" lon="5.040134"><ele>242.5</ele></trkpt>
      <trkpt lat="47.320024" lon="5.040254"><ele>242.0</ele></trkpt>
      <trkpt lat="47.320115" lon="5.040364"><ele>242.2</ele></trkpt>
      <trkpt lat="47.320223" lon="5.040476"><ele>242.8</ele></trkpt>
      <trkpt lat="47.320338" lon="5.040575"><ele>242.8</ele></trkpt>
      <trkpt lat="47.320457" lon="5.040659"><ele>243.0</ele></trkpt>
      <trkpt lat="47.320514" lon="5.040781"><ele>243.0</ele></trkpt>
      <trkpt lat="47.320551" lon="5.040854"><ele>243.0</ele></trkpt>
      <trkpt lat="47.320958" lon="5.041291"><ele>244.0</ele></trkpt>
      <trkpt lat="47.320963" lon="5.041263"><ele>244.0</ele></trkpt>
      <trkpt lat="47.320970" lon="5.041238"><ele>244.0</ele></trkpt>
      <trkpt lat="47.320964" lon="5.041234"><ele>244.0</ele></trkpt>
      <trkpt lat="47.320980" lon="5.041172"><ele>244.0</ele></trkpt>
      <trkpt lat="47.321031" lon="5.041044"><ele>244.0</ele></trkpt>
      <trkpt lat="47.321078" lon="5.040973"><ele>244.0</ele></trkpt>
      <trkpt lat="47.321168" lon="5.040887"><ele>244.0</ele></trkpt>
      <trkpt lat="47.321248" lon="5.040839"><ele>244.0</ele></trkpt>
      <trkpt lat="47.321290" lon="5.040824"><ele>244.0</ele></trkpt>
      <trkpt lat="47.321345" lon="5.040821"><ele>243.8</ele></trkpt>
      <trkpt lat="47.321450" lon="5.040839"><ele>244.0</ele></trkpt>
      <trkpt lat="47.321538" lon="5.040873"><ele>244.0</ele></trkpt>
      <trkpt lat="47.321526" lon="5.040944"><ele>244.0</ele></trkpt>
      <trkpt lat="47.321440" lon="5.041436"><ele>245.0</ele></trkpt>
      <trkpt lat="47.321509" lon="5.041461"><ele>245.0</ele></trkpt>
      <trkpt lat="47.321643" lon="5.041513"><ele>245.0</ele></trkpt>
      <trkpt lat="47.321780" lon="5.041702"><ele>245.0</ele></trkpt>
      <trkpt lat="47.321962" lon="5.041772"><ele>244.8</ele></trkpt>
      <trkpt lat="47.321966" lon="5.041751"><ele>244.8</ele></trkpt>
    </trkseg>
  </trk>
</gpx>
