<?xml version="1.0" encoding="UTF-8"?>
<gpx version="1.1" creator="Gravel Kompass" xmlns="http://www.topografix.com/GPX/1/1">
  <metadata><name>Burgund-Runde: Grand-Cru-Weinberge &amp; Kanal-Gravel – Etappe 3</name></metadata>
  <trk>
    <name>Etappe 3: Cluny – Tournus</name>
    <trkseg>
<trkpt lat="46.43401" lon="4.65941"><ele>238</ele></trkpt>
<trkpt lat="46.43342" lon="4.66217"><ele>236</ele></trkpt>
<trkpt lat="46.43300" lon="4.66383"><ele>236</ele></trkpt>
<trkpt lat="46.43297" lon="4.66406"><ele>236</ele></trkpt>
<trkpt lat="46.43222" lon="4.66390"><ele>237</ele></trkpt>
<trkpt lat="46.43222" lon="4.66439"><ele>236</ele></trkpt>
<trkpt lat="46.43230" lon="4.66505"><ele>236</ele></trkpt>
<trkpt lat="46.43241" lon="4.66636"><ele>236</ele></trkpt>
<trkpt lat="46.43239" lon="4.66743"><ele>237</ele></trkpt>
<trkpt lat="46.43076" lon="4.66755"><ele>239</ele></trkpt>
<trkpt lat="46.43017" lon="4.66772"><ele>240</ele></trkpt>
<trkpt lat="46.42981" lon="4.66772"><ele>242</ele></trkpt>
<trkpt lat="46.42936" lon="4.66756"><ele>243</ele></trkpt>
<trkpt lat="46.42764" lon="4.66679"><ele>244</ele></trkpt>
<trkpt lat="46.42738" lon="4.66667"><ele>244</ele></trkpt>
<trkpt lat="46.42669" lon="4.66622"><ele>245</ele></trkpt>
<trkpt lat="46.42647" lon="4.66613"><ele>245</ele></trkpt>
<trkpt lat="46.42621" lon="4.66608"><ele>246</ele></trkpt>
<trkpt lat="46.42570" lon="4.66627"><ele>246</ele></trkpt>
<trkpt lat="46.42511" lon="4.66597"><ele>246</ele></trkpt>
<trkpt lat="46.42503" lon="4.66591"><ele>246</ele></trkpt>
<trkpt lat="46.42499" lon="4.66581"><ele>245</ele></trkpt>
<trkpt lat="46.42482" lon="4.66579"><ele>245</ele></trkpt>
<trkpt lat="46.42428" lon="4.66552"><ele>247</ele></trkpt>
<trkpt lat="46.42424" lon="4.66572"><ele>248</ele></trkpt>
<trkpt lat="46.42441" lon="4.66582"><ele>248</ele></trkpt>
<trkpt lat="46.42440" lon="4.66585"><ele>248</ele></trkpt>
<trkpt lat="46.42416" lon="4.66572"><ele>248</ele></trkpt>
<trkpt lat="46.42386" lon="4.66564"><ele>248</ele></trkpt>
<trkpt lat="46.42371" lon="4.66621"><ele>248</ele></trkpt>
<trkpt lat="46.42365" lon="4.66630"><ele>248</ele></trkpt>
<trkpt lat="46.42350" lon="4.66632"><ele>249</ele></trkpt>
<trkpt lat="46.42308" lon="4.66602"><ele>249</ele></trkpt>
<trkpt lat="46.42198" lon="4.66493"><ele>248</ele></trkpt>
<trkpt lat="46.42144" lon="4.66460"><ele>250</ele></trkpt>
<trkpt lat="46.42017" lon="4.66372"><ele>246</ele></trkpt>
<trkpt lat="46.41993" lon="4.66361"><ele>247</ele></trkpt>
<trkpt lat="46.41927" lon="4.66358"><ele>252</ele></trkpt>
<trkpt lat="46.41914" lon="4.66363"><ele>254</ele></trkpt>
<trkpt lat="46.41883" lon="4.66404"><ele>256</ele></trkpt>
<trkpt lat="46.41826" lon="4.66512"><ele>261</ele></trkpt>
<trkpt lat="46.41823" lon="4.66510"><ele>261</ele></trkpt>
<trkpt lat="46.41816" lon="4.66524"><ele>262</ele></trkpt>
<trkpt lat="46.41749" lon="4.66614"><ele>270</ele></trkpt>
<trkpt lat="46.41738" lon="4.66635"><ele>272</ele></trkpt>
<trkpt lat="46.41678" lon="4.66774"><ele>285</ele></trkpt>
<trkpt lat="46.41666" lon="4.66816"><ele>289</ele></trkpt>
<trkpt lat="46.41641" lon="4.66873"><ele>293</ele></trkpt>
<trkpt lat="46.41600" lon="4.66947"><ele>298</ele></trkpt>
<trkpt lat="46.41513" lon="4.67071"><ele>315</ele></trkpt>
<trkpt lat="46.41473" lon="4.67148"><ele>324</ele></trkpt>
<trkpt lat="46.41455" lon="4.67174"><ele>328</ele></trkpt>
<trkpt lat="46.41326" lon="4.67313"><ele>347</ele></trkpt>
<trkpt lat="46.41291" lon="4.67362"><ele>354</ele></trkpt>
<trkpt lat="46.41170" lon="4.67575"><ele>368</ele></trkpt>
<trkpt lat="46.41089" lon="4.67734"><ele>382</ele></trkpt>
<trkpt lat="46.41027" lon="4.67864"><ele>397</ele></trkpt>
<trkpt lat="46.41025" lon="4.67893"><ele>399</ele></trkpt>
<trkpt lat="46.41027" lon="4.67911"><ele>400</ele></trkpt>
<trkpt lat="46.41041" lon="4.67963"><ele>404</ele></trkpt>
<trkpt lat="46.41049" lon="4.68011"><ele>407</ele></trkpt>
<trkpt lat="46.41047" lon="4.68031"><ele>408</ele></trkpt>
<trkpt lat="46.41023" lon="4.68131"><ele>413</ele></trkpt>
<trkpt lat="46.41016" lon="4.68151"><ele>415</ele></trkpt>
<trkpt lat="46.40948" lon="4.68284"><ele>420</ele></trkpt>
<trkpt lat="46.40931" lon="4.68301"><ele>420</ele></trkpt>
<trkpt lat="46.40900" lon="4.68307"><ele>421</ele></trkpt>
<trkpt lat="46.40834" lon="4.68295"><ele>425</ele></trkpt>
<trkpt lat="46.40817" lon="4.68294"><ele>426</ele></trkpt>
<trkpt lat="46.40795" lon="4.68301"><ele>426</ele></trkpt>
<trkpt lat="46.40772" lon="4.68332"><ele>427</ele></trkpt>
<trkpt lat="46.40731" lon="4.68422"><ele>428</ele></trkpt>
<trkpt lat="46.40715" lon="4.68448"><ele>427</ele></trkpt>
<trkpt lat="46.40696" lon="4.68469"><ele>426</ele></trkpt>
<trkpt lat="46.40656" lon="4.68499"><ele>426</ele></trkpt>
<trkpt lat="46.40554" lon="4.68560"><ele>430</ele></trkpt>
<trkpt lat="46.40504" lon="4.68583"><ele>435</ele></trkpt>
<trkpt lat="46.40428" lon="4.68611"><ele>444</ele></trkpt>
<trkpt lat="46.40325" lon="4.68680"><ele>456</ele></trkpt>
<trkpt lat="46.40281" lon="4.68691"><ele>460</ele></trkpt>
<trkpt lat="46.40176" lon="4.68707"><ele>464</ele></trkpt>
<trkpt lat="46.39992" lon="4.68795"><ele>467</ele></trkpt>
<trkpt lat="46.39920" lon="4.68809"><ele>459</ele></trkpt>
<trkpt lat="46.39855" lon="4.68806"><ele>455</ele></trkpt>
<trkpt lat="46.39822" lon="4.68809"><ele>454</ele></trkpt>
<trkpt lat="46.39807" lon="4.68815"><ele>454</ele></trkpt>
<trkpt lat="46.39697" lon="4.68899"><ele>452</ele></trkpt>
<trkpt lat="46.39627" lon="4.68909"><ele>452</ele></trkpt>
<trkpt lat="46.39603" lon="4.68917"><ele>452</ele></trkpt>
<trkpt lat="46.39577" lon="4.68941"><ele>453</ele></trkpt>
<trkpt lat="46.39557" lon="4.69003"><ele>455</ele></trkpt>
<trkpt lat="46.39548" lon="4.69019"><ele>455</ele></trkpt>
<trkpt lat="46.39496" lon="4.69087"><ele>458</ele></trkpt>
<trkpt lat="46.39372" lon="4.69209"><ele>464</ele></trkpt>
<trkpt lat="46.39328" lon="4.69238"><ele>466</ele></trkpt>
<trkpt lat="46.39289" lon="4.69250"><ele>466</ele></trkpt>
<trkpt lat="46.39221" lon="4.69297"><ele>468</ele></trkpt>
<trkpt lat="46.39086" lon="4.69430"><ele>468</ele></trkpt>
<trkpt lat="46.38983" lon="4.69515"><ele>468</ele></trkpt>
<trkpt lat="46.38912" lon="4.69558"><ele>473</ele></trkpt>
<trkpt lat="46.38858" lon="4.69579"><ele>476</ele></trkpt>
<trkpt lat="46.38838" lon="4.69595"><ele>476</ele></trkpt>
<trkpt lat="46.38784" lon="4.69597"><ele>471</ele></trkpt>
<trkpt lat="46.38705" lon="4.69651"><ele>460</ele></trkpt>
<trkpt lat="46.38687" lon="4.69667"><ele>458</ele></trkpt>
<trkpt lat="46.38638" lon="4.69690"><ele>452</ele></trkpt>
<trkpt lat="46.38616" lon="4.69714"><ele>450</ele></trkpt>
<trkpt lat="46.38558" lon="4.69791"><ele>448</ele></trkpt>
<trkpt lat="46.38508" lon="4.69824"><ele>448</ele></trkpt>
<trkpt lat="46.38486" lon="4.69845"><ele>448</ele></trkpt>
<trkpt lat="46.38437" lon="4.69920"><ele>450</ele></trkpt>
<trkpt lat="46.38415" lon="4.69937"><ele>451</ele></trkpt>
<trkpt lat="46.38403" lon="4.69939"><ele>451</ele></trkpt>
<trkpt lat="46.38362" lon="4.69922"><ele>449</ele></trkpt>
<trkpt lat="46.38350" lon="4.69922"><ele>448</ele></trkpt>
<trkpt lat="46.38321" lon="4.69936"><ele>446</ele></trkpt>
<trkpt lat="46.38281" lon="4.69975"><ele>446</ele></trkpt>
<trkpt lat="46.38264" lon="4.69985"><ele>446</ele></trkpt>
<trkpt lat="46.38244" lon="4.69991"><ele>446</ele></trkpt>
<trkpt lat="46.38206" lon="4.69990"><ele>446</ele></trkpt>
<trkpt lat="46.38167" lon="4.69979"><ele>446</ele></trkpt>
<trkpt lat="46.37917" lon="4.69887"><ele>438</ele></trkpt>
<trkpt lat="46.37821" lon="4.69869"><ele>431</ele></trkpt>
<trkpt lat="46.37698" lon="4.69813"><ele>418</ele></trkpt>
<trkpt lat="46.37638" lon="4.69802"><ele>415</ele></trkpt>
<trkpt lat="46.37378" lon="4.69816"><ele>420</ele></trkpt>
<trkpt lat="46.37302" lon="4.69802"><ele>412</ele></trkpt>
<trkpt lat="46.37277" lon="4.69804"><ele>409</ele></trkpt>
<trkpt lat="46.37226" lon="4.69817"><ele>404</ele></trkpt>
<trkpt lat="46.37201" lon="4.69828"><ele>402</ele></trkpt>
<trkpt lat="46.37125" lon="4.69876"><ele>395</ele></trkpt>
<trkpt lat="46.37028" lon="4.69894"><ele>385</ele></trkpt>
<trkpt lat="46.36982" lon="4.69911"><ele>381</ele></trkpt>
<trkpt lat="46.36948" lon="4.69935"><ele>376</ele></trkpt>
<trkpt lat="46.36864" lon="4.70019"><ele>364</ele></trkpt>
<trkpt lat="46.36856" lon="4.70031"><ele>363</ele></trkpt>
<trkpt lat="46.36834" lon="4.70097"><ele>362</ele></trkpt>
<trkpt lat="46.36819" lon="4.70126"><ele>361</ele></trkpt>
<trkpt lat="46.36767" lon="4.70172"><ele>358</ele></trkpt>
<trkpt lat="46.36710" lon="4.70238"><ele>360</ele></trkpt>
<trkpt lat="46.36559" lon="4.70378"><ele>348</ele></trkpt>
<trkpt lat="46.36505" lon="4.70374"><ele>345</ele></trkpt>
<trkpt lat="46.36413" lon="4.70360"><ele>342</ele></trkpt>
<trkpt lat="46.36383" lon="4.70364"><ele>340</ele></trkpt>
<trkpt lat="46.36358" lon="4.70376"><ele>337</ele></trkpt>
<trkpt lat="46.36340" lon="4.70371"><ele>335</ele></trkpt>
<trkpt lat="46.36316" lon="4.70354"><ele>333</ele></trkpt>
<trkpt lat="46.36307" lon="4.70371"><ele>331</ele></trkpt>
<trkpt lat="46.36276" lon="4.70391"><ele>324</ele></trkpt>
<trkpt lat="46.36242" lon="4.70423"><ele>318</ele></trkpt>
<trkpt lat="46.36235" lon="4.70436"><ele>317</ele></trkpt>
<trkpt lat="46.36224" lon="4.70472"><ele>318</ele></trkpt>
<trkpt lat="46.36198" lon="4.70480"><ele>317</ele></trkpt>
<trkpt lat="46.36168" lon="4.70483"><ele>318</ele></trkpt>
<trkpt lat="46.36137" lon="4.70480"><ele>316</ele></trkpt>
<trkpt lat="46.36120" lon="4.70487"><ele>314</ele></trkpt>
<trkpt lat="46.36080" lon="4.70521"><ele>310</ele></trkpt>
<trkpt lat="46.36055" lon="4.70562"><ele>312</ele></trkpt>
<trkpt lat="46.36038" lon="4.70602"><ele>314</ele></trkpt>
<trkpt lat="46.36008" lon="4.70655"><ele>314</ele></trkpt>
<trkpt lat="46.35997" lon="4.70672"><ele>316</ele></trkpt>
<trkpt lat="46.35982" lon="4.70687"><ele>316</ele></trkpt>
<trkpt lat="46.35927" lon="4.70712"><ele>315</ele></trkpt>
<trkpt lat="46.35885" lon="4.70718"><ele>312</ele></trkpt>
<trkpt lat="46.35859" lon="4.70727"><ele>310</ele></trkpt>
<trkpt lat="46.35763" lon="4.70778"><ele>304</ele></trkpt>
<trkpt lat="46.35736" lon="4.70799"><ele>302</ele></trkpt>
<trkpt lat="46.35713" lon="4.70823"><ele>300</ele></trkpt>
<trkpt lat="46.35705" lon="4.70848"><ele>299</ele></trkpt>
<trkpt lat="46.35686" lon="4.70882"><ele>298</ele></trkpt>
<trkpt lat="46.35623" lon="4.70934"><ele>294</ele></trkpt>
<trkpt lat="46.35581" lon="4.70979"><ele>293</ele></trkpt>
<trkpt lat="46.35548" lon="4.71008"><ele>291</ele></trkpt>
<trkpt lat="46.35480" lon="4.71053"><ele>287</ele></trkpt>
<trkpt lat="46.35456" lon="4.71074"><ele>285</ele></trkpt>
<trkpt lat="46.35323" lon="4.71115"><ele>269</ele></trkpt>
<trkpt lat="46.35272" lon="4.71147"><ele>264</ele></trkpt>
<trkpt lat="46.35211" lon="4.71196"><ele>255</ele></trkpt>
<trkpt lat="46.35202" lon="4.71204"><ele>254</ele></trkpt>
<trkpt lat="46.35203" lon="4.71217"><ele>255</ele></trkpt>
<trkpt lat="46.35133" lon="4.71246"><ele>252</ele></trkpt>
<trkpt lat="46.35083" lon="4.71279"><ele>248</ele></trkpt>
<trkpt lat="46.35035" lon="4.71326"><ele>243</ele></trkpt>
<trkpt lat="46.34921" lon="4.71456"><ele>236</ele></trkpt>
<trkpt lat="46.34914" lon="4.71457"><ele>236</ele></trkpt>
<trkpt lat="46.34909" lon="4.71451"><ele>236</ele></trkpt>
<trkpt lat="46.34879" lon="4.71511"><ele>236</ele></trkpt>
<trkpt lat="46.34868" lon="4.71508"><ele>235</ele></trkpt>
<trkpt lat="46.34854" lon="4.71520"><ele>234</ele></trkpt>
<trkpt lat="46.34779" lon="4.71635"><ele>233</ele></trkpt>
<trkpt lat="46.34758" lon="4.71618"><ele>232</ele></trkpt>
<trkpt lat="46.34731" lon="4.71675"><ele>231</ele></trkpt>
<trkpt lat="46.34686" lon="4.71695"><ele>235</ele></trkpt>
<trkpt lat="46.34657" lon="4.71702"><ele>236</ele></trkpt>
<trkpt lat="46.34649" lon="4.71700"><ele>236</ele></trkpt>
<trkpt lat="46.34632" lon="4.71669"><ele>240</ele></trkpt>
<trkpt lat="46.34613" lon="4.71593"><ele>246</ele></trkpt>
<trkpt lat="46.34478" lon="4.71666"><ele>243</ele></trkpt>
<trkpt lat="46.34401" lon="4.71729"><ele>241</ele></trkpt>
<trkpt lat="46.34357" lon="4.71774"><ele>240</ele></trkpt>
<trkpt lat="46.34303" lon="4.71841"><ele>236</ele></trkpt>
<trkpt lat="46.34289" lon="4.71881"><ele>234</ele></trkpt>
<trkpt lat="46.34257" lon="4.71898"><ele>233</ele></trkpt>
<trkpt lat="46.34235" lon="4.71920"><ele>232</ele></trkpt>
<trkpt lat="46.34201" lon="4.71971"><ele>230</ele></trkpt>
<trkpt lat="46.34231" lon="4.72044"><ele>226</ele></trkpt>
<trkpt lat="46.34252" lon="4.72116"><ele>225</ele></trkpt>
<trkpt lat="46.34251" lon="4.72129"><ele>226</ele></trkpt>
<trkpt lat="46.34243" lon="4.72147"><ele>226</ele></trkpt>
<trkpt lat="46.34198" lon="4.72166"><ele>224</ele></trkpt>
<trkpt lat="46.34125" lon="4.72184"><ele>223</ele></trkpt>
<trkpt lat="46.34059" lon="4.72179"><ele>224</ele></trkpt>
<trkpt lat="46.34031" lon="4.72167"><ele>224</ele></trkpt>
<trkpt lat="46.34017" lon="4.72170"><ele>225</ele></trkpt>
<trkpt lat="46.33854" lon="4.72362"><ele>223</ele></trkpt>
<trkpt lat="46.33830" lon="4.72401"><ele>222</ele></trkpt>
<trkpt lat="46.33776" lon="4.72459"><ele>222</ele></trkpt>
<trkpt lat="46.33702" lon="4.72558"><ele>221</ele></trkpt>
<trkpt lat="46.33616" lon="4.72682"><ele>220</ele></trkpt>
<trkpt lat="46.33484" lon="4.72910"><ele>218</ele></trkpt>
<trkpt lat="46.33483" lon="4.72922"><ele>218</ele></trkpt>
<trkpt lat="46.33487" lon="4.72930"><ele>217</ele></trkpt>
<trkpt lat="46.33510" lon="4.72942"><ele>217</ele></trkpt>
<trkpt lat="46.33517" lon="4.72950"><ele>217</ele></trkpt>
<trkpt lat="46.33515" lon="4.72960"><ele>217</ele></trkpt>
<trkpt lat="46.33488" lon="4.73075"><ele>219</ele></trkpt>
<trkpt lat="46.33481" lon="4.73091"><ele>219</ele></trkpt>
<trkpt lat="46.33469" lon="4.73106"><ele>219</ele></trkpt>
<trkpt lat="46.33461" lon="4.73122"><ele>219</ele></trkpt>
<trkpt lat="46.33447" lon="4.73178"><ele>219</ele></trkpt>
<trkpt lat="46.33452" lon="4.73183"><ele>219</ele></trkpt>
<trkpt lat="46.33449" lon="4.73189"><ele>219</ele></trkpt>
<trkpt lat="46.33455" lon="4.73199"><ele>220</ele></trkpt>
<trkpt lat="46.33362" lon="4.73508"><ele>216</ele></trkpt>
<trkpt lat="46.33152" lon="4.74362"><ele>212</ele></trkpt>
<trkpt lat="46.33145" lon="4.74378"><ele>212</ele></trkpt>
<trkpt lat="46.33123" lon="4.74387"><ele>211</ele></trkpt>
<trkpt lat="46.33114" lon="4.74397"><ele>211</ele></trkpt>
<trkpt lat="46.33099" lon="4.74424"><ele>210</ele></trkpt>
<trkpt lat="46.33038" lon="4.74498"><ele>210</ele></trkpt>
<trkpt lat="46.32998" lon="4.74529"><ele>210</ele></trkpt>
<trkpt lat="46.32961" lon="4.74550"><ele>209</ele></trkpt>
<trkpt lat="46.32925" lon="4.74568"><ele>209</ele></trkpt>
<trkpt lat="46.32867" lon="4.74579"><ele>211</ele></trkpt>
<trkpt lat="46.32659" lon="4.74567"><ele>210</ele></trkpt>
<trkpt lat="46.32578" lon="4.74587"><ele>209</ele></trkpt>
<trkpt lat="46.32526" lon="4.74615"><ele>208</ele></trkpt>
<trkpt lat="46.32497" lon="4.74641"><ele>207</ele></trkpt>
<trkpt lat="46.32454" lon="4.74689"><ele>206</ele></trkpt>
<trkpt lat="46.32419" lon="4.74741"><ele>206</ele></trkpt>
<trkpt lat="46.32411" lon="4.74759"><ele>206</ele></trkpt>
<trkpt lat="46.32396" lon="4.74743"><ele>205</ele></trkpt>
<trkpt lat="46.32314" lon="4.74738"><ele>203</ele></trkpt>
<trkpt lat="46.32285" lon="4.74729"><ele>203</ele></trkpt>
<trkpt lat="46.32234" lon="4.74727"><ele>203</ele></trkpt>
<trkpt lat="46.32195" lon="4.74733"><ele>203</ele></trkpt>
<trkpt lat="46.32194" lon="4.74579"><ele>204</ele></trkpt>
<trkpt lat="46.32183" lon="4.74518"><ele>205</ele></trkpt>
<trkpt lat="46.32181" lon="4.74454"><ele>206</ele></trkpt>
<trkpt lat="46.32177" lon="4.74437"><ele>207</ele></trkpt>
<trkpt lat="46.32173" lon="4.74442"><ele>207</ele></trkpt>
<trkpt lat="46.32158" lon="4.74397"><ele>209</ele></trkpt>
<trkpt lat="46.32136" lon="4.74354"><ele>209</ele></trkpt>
<trkpt lat="46.32119" lon="4.74194"><ele>216</ele></trkpt>
<trkpt lat="46.32027" lon="4.74215"><ele>217</ele></trkpt>
<trkpt lat="46.31986" lon="4.74235"><ele>220</ele></trkpt>
<trkpt lat="46.31978" lon="4.74215"><ele>221</ele></trkpt>
<trkpt lat="46.31931" lon="4.74132"><ele>229</ele></trkpt>
<trkpt lat="46.31921" lon="4.74122"><ele>228</ele></trkpt>
<trkpt lat="46.31906" lon="4.74116"><ele>228</ele></trkpt>
<trkpt lat="46.31892" lon="4.74119"><ele>230</ele></trkpt>
<trkpt lat="46.31880" lon="4.74129"><ele>231</ele></trkpt>
<trkpt lat="46.31824" lon="4.74215"><ele>232</ele></trkpt>
<trkpt lat="46.31752" lon="4.74314"><ele>226</ele></trkpt>
<trkpt lat="46.31734" lon="4.74308"><ele>224</ele></trkpt>
<trkpt lat="46.31678" lon="4.74322"><ele>224</ele></trkpt>
<trkpt lat="46.31610" lon="4.74357"><ele>224</ele></trkpt>
<trkpt lat="46.31521" lon="4.74430"><ele>230</ele></trkpt>
<trkpt lat="46.31428" lon="4.74456"><ele>237</ele></trkpt>
<trkpt lat="46.31394" lon="4.74473"><ele>239</ele></trkpt>
<trkpt lat="46.31338" lon="4.74509"><ele>242</ele></trkpt>
<trkpt lat="46.31326" lon="4.74512"><ele>242</ele></trkpt>
<trkpt lat="46.31280" lon="4.74499"><ele>246</ele></trkpt>
<trkpt lat="46.31191" lon="4.74484"><ele>250</ele></trkpt>
<trkpt lat="46.31127" lon="4.74462"><ele>253</ele></trkpt>
<trkpt lat="46.31012" lon="4.74481"><ele>244</ele></trkpt>
<trkpt lat="46.30967" lon="4.74459"><ele>242</ele></trkpt>
<trkpt lat="46.30959" lon="4.74461"><ele>240</ele></trkpt>
<trkpt lat="46.30947" lon="4.74491"><ele>237</ele></trkpt>
<trkpt lat="46.30942" lon="4.74523"><ele>233</ele></trkpt>
<trkpt lat="46.30939" lon="4.74569"><ele>231</ele></trkpt>
<trkpt lat="46.30946" lon="4.74734"><ele>224</ele></trkpt>
<trkpt lat="46.30944" lon="4.74745"><ele>223</ele></trkpt>
<trkpt lat="46.30939" lon="4.74752"><ele>222</ele></trkpt>
<trkpt lat="46.30912" lon="4.74776"><ele>220</ele></trkpt>
<trkpt lat="46.30850" lon="4.74592"><ele>226</ele></trkpt>
<trkpt lat="46.30840" lon="4.74574"><ele>227</ele></trkpt>
<trkpt lat="46.30827" lon="4.74560"><ele>229</ele></trkpt>
<trkpt lat="46.30806" lon="4.74552"><ele>230</ele></trkpt>
<trkpt lat="46.30686" lon="4.74560"><ele>237</ele></trkpt>
<trkpt lat="46.30665" lon="4.74555"><ele>238</ele></trkpt>
<trkpt lat="46.30644" lon="4.74534"><ele>239</ele></trkpt>
<trkpt lat="46.30592" lon="4.74442"><ele>237</ele></trkpt>
<trkpt lat="46.30575" lon="4.74430"><ele>236</ele></trkpt>
<trkpt lat="46.30546" lon="4.74420"><ele>234</ele></trkpt>
<trkpt lat="46.30524" lon="4.74404"><ele>232</ele></trkpt>
<trkpt lat="46.30512" lon="4.74386"><ele>232</ele></trkpt>
<trkpt lat="46.30485" lon="4.74323"><ele>229</ele></trkpt>
<trkpt lat="46.30461" lon="4.74292"><ele>227</ele></trkpt>
<trkpt lat="46.30351" lon="4.74225"><ele>222</ele></trkpt>
<trkpt lat="46.30335" lon="4.74218"><ele>220</ele></trkpt>
<trkpt lat="46.30284" lon="4.74215"><ele>218</ele></trkpt>
<trkpt lat="46.30242" lon="4.74187"><ele>221</ele></trkpt>
<trkpt lat="46.30245" lon="4.74174"><ele>221</ele></trkpt>
<trkpt lat="46.30228" lon="4.74147"><ele>226</ele></trkpt>
<trkpt lat="46.30218" lon="4.74115"><ele>231</ele></trkpt>
<trkpt lat="46.30188" lon="4.73929"><ele>252</ele></trkpt>
<trkpt lat="46.30182" lon="4.73831"><ele>263</ele></trkpt>
<trkpt lat="46.30177" lon="4.73808"><ele>265</ele></trkpt>
<trkpt lat="46.30166" lon="4.73777"><ele>268</ele></trkpt>
<trkpt lat="46.30157" lon="4.73764"><ele>270</ele></trkpt>
<trkpt lat="46.30142" lon="4.73748"><ele>273</ele></trkpt>
<trkpt lat="46.30082" lon="4.73705"><ele>285</ele></trkpt>
<trkpt lat="46.30065" lon="4.73686"><ele>288</ele></trkpt>
<trkpt lat="46.30052" lon="4.73636"><ele>293</ele></trkpt>
<trkpt lat="46.30027" lon="4.73602"><ele>296</ele></trkpt>
<trkpt lat="46.29996" lon="4.73533"><ele>298</ele></trkpt>
<trkpt lat="46.29965" lon="4.73499"><ele>302</ele></trkpt>
<trkpt lat="46.29951" lon="4.73466"><ele>305</ele></trkpt>
<trkpt lat="46.29941" lon="4.73416"><ele>305</ele></trkpt>
<trkpt lat="46.29939" lon="4.73267"><ele>310</ele></trkpt>
<trkpt lat="46.29928" lon="4.73205"><ele>311</ele></trkpt>
<trkpt lat="46.29922" lon="4.73135"><ele>313</ele></trkpt>
<trkpt lat="46.29911" lon="4.73076"><ele>312</ele></trkpt>
<trkpt lat="46.29900" lon="4.73049"><ele>311</ele></trkpt>
<trkpt lat="46.29862" lon="4.72989"><ele>313</ele></trkpt>
<trkpt lat="46.29834" lon="4.72953"><ele>314</ele></trkpt>
<trkpt lat="46.29802" lon="4.72930"><ele>314</ele></trkpt>
<trkpt lat="46.29785" lon="4.72908"><ele>314</ele></trkpt>
<trkpt lat="46.29774" lon="4.72870"><ele>313</ele></trkpt>
<trkpt lat="46.29764" lon="4.72807"><ele>310</ele></trkpt>
<trkpt lat="46.29748" lon="4.72749"><ele>310</ele></trkpt>
<trkpt lat="46.29724" lon="4.72685"><ele>307</ele></trkpt>
<trkpt lat="46.29677" lon="4.72784"><ele>298</ele></trkpt>
<trkpt lat="46.29637" lon="4.72833"><ele>290</ele></trkpt>
<trkpt lat="46.29626" lon="4.72880"><ele>287</ele></trkpt>
<trkpt lat="46.29616" lon="4.72942"><ele>282</ele></trkpt>
<trkpt lat="46.29610" lon="4.72961"><ele>280</ele></trkpt>
<trkpt lat="46.29596" lon="4.72989"><ele>278</ele></trkpt>
<trkpt lat="46.29587" lon="4.73021"><ele>276</ele></trkpt>
<trkpt lat="46.29576" lon="4.73041"><ele>275</ele></trkpt>
<trkpt lat="46.29573" lon="4.73058"><ele>274</ele></trkpt>
<trkpt lat="46.29589" lon="4.73291"><ele>273</ele></trkpt>
<trkpt lat="46.29588" lon="4.73354"><ele>274</ele></trkpt>
<trkpt lat="46.29582" lon="4.73421"><ele>277</ele></trkpt>
<trkpt lat="46.29582" lon="4.73455"><ele>278</ele></trkpt>
<trkpt lat="46.29588" lon="4.73515"><ele>280</ele></trkpt>
<trkpt lat="46.29602" lon="4.73593"><ele>279</ele></trkpt>
<trkpt lat="46.29607" lon="4.73749"><ele>280</ele></trkpt>
<trkpt lat="46.29602" lon="4.73792"><ele>280</ele></trkpt>
<trkpt lat="46.29575" lon="4.73850"><ele>282</ele></trkpt>
<trkpt lat="46.29550" lon="4.73892"><ele>283</ele></trkpt>
<trkpt lat="46.29503" lon="4.73928"><ele>285</ele></trkpt>
<trkpt lat="46.29481" lon="4.73940"><ele>285</ele></trkpt>
<trkpt lat="46.29462" lon="4.73946"><ele>285</ele></trkpt>
<trkpt lat="46.29290" lon="4.73940"><ele>283</ele></trkpt>
<trkpt lat="46.29273" lon="4.73947"><ele>282</ele></trkpt>
<trkpt lat="46.29254" lon="4.73964"><ele>280</ele></trkpt>
<trkpt lat="46.29210" lon="4.73965"><ele>281</ele></trkpt>
<trkpt lat="46.29182" lon="4.73975"><ele>282</ele></trkpt>
<trkpt lat="46.29131" lon="4.73978"><ele>280</ele></trkpt>
<trkpt lat="46.29029" lon="4.74025"><ele>267</ele></trkpt>
<trkpt lat="46.28975" lon="4.74031"><ele>264</ele></trkpt>
<trkpt lat="46.28938" lon="4.74024"><ele>265</ele></trkpt>
<trkpt lat="46.28898" lon="4.74029"><ele>269</ele></trkpt>
<trkpt lat="46.28844" lon="4.74010"><ele>276</ele></trkpt>
<trkpt lat="46.28731" lon="4.73958"><ele>295</ele></trkpt>
<trkpt lat="46.28703" lon="4.73922"><ele>300</ele></trkpt>
<trkpt lat="46.28698" lon="4.73905"><ele>302</ele></trkpt>
<trkpt lat="46.28685" lon="4.73829"><ele>308</ele></trkpt>
<trkpt lat="46.28606" lon="4.73804"><ele>306</ele></trkpt>
<trkpt lat="46.28567" lon="4.73777"><ele>303</ele></trkpt>
<trkpt lat="46.28531" lon="4.73736"><ele>298</ele></trkpt>
<trkpt lat="46.28516" lon="4.73727"><ele>298</ele></trkpt>
<trkpt lat="46.28499" lon="4.73731"><ele>296</ele></trkpt>
<trkpt lat="46.28489" lon="4.73767"><ele>294</ele></trkpt>
<trkpt lat="46.28475" lon="4.73784"><ele>294</ele></trkpt>
<trkpt lat="46.28465" lon="4.73790"><ele>293</ele></trkpt>
<trkpt lat="46.28370" lon="4.73808"><ele>289</ele></trkpt>
<trkpt lat="46.28339" lon="4.73822"><ele>286</ele></trkpt>
<trkpt lat="46.28314" lon="4.73841"><ele>282</ele></trkpt>
<trkpt lat="46.28280" lon="4.73919"><ele>276</ele></trkpt>
<trkpt lat="46.28273" lon="4.73949"><ele>274</ele></trkpt>
<trkpt lat="46.28266" lon="4.74055"><ele>269</ele></trkpt>
<trkpt lat="46.28269" lon="4.74086"><ele>267</ele></trkpt>
<trkpt lat="46.28242" lon="4.74102"><ele>266</ele></trkpt>
<trkpt lat="46.28155" lon="4.74125"><ele>260</ele></trkpt>
<trkpt lat="46.28108" lon="4.74144"><ele>258</ele></trkpt>
<trkpt lat="46.28088" lon="4.74170"><ele>255</ele></trkpt>
<trkpt lat="46.28045" lon="4.74205"><ele>251</ele></trkpt>
<trkpt lat="46.28034" lon="4.74219"><ele>250</ele></trkpt>
<trkpt lat="46.28023" lon="4.74244"><ele>249</ele></trkpt>
<trkpt lat="46.28014" lon="4.74286"><ele>247</ele></trkpt>
<trkpt lat="46.28003" lon="4.74362"><ele>245</ele></trkpt>
<trkpt lat="46.27991" lon="4.74402"><ele>244</ele></trkpt>
<trkpt lat="46.27953" lon="4.74488"><ele>241</ele></trkpt>
<trkpt lat="46.27981" lon="4.74516"><ele>240</ele></trkpt>
<trkpt lat="46.27992" lon="4.74521"><ele>241</ele></trkpt>
<trkpt lat="46.27996" lon="4.74521"><ele>241</ele></trkpt>
<trkpt lat="46.28008" lon="4.74470"><ele>243</ele></trkpt>
<trkpt lat="46.28024" lon="4.74456"><ele>244</ele></trkpt>
<trkpt lat="46.28077" lon="4.74456"><ele>244</ele></trkpt>
<trkpt lat="46.28149" lon="4.74477"><ele>249</ele></trkpt>
<trkpt lat="46.28163" lon="4.74477"><ele>250</ele></trkpt>
<trkpt lat="46.28174" lon="4.74480"><ele>250</ele></trkpt>
<trkpt lat="46.28214" lon="4.74506"><ele>249</ele></trkpt>
<trkpt lat="46.28243" lon="4.74495"><ele>248</ele></trkpt>
<trkpt lat="46.28321" lon="4.74488"><ele>247</ele></trkpt>
<trkpt lat="46.28417" lon="4.74490"><ele>248</ele></trkpt>
<trkpt lat="46.28470" lon="4.74487"><ele>250</ele></trkpt>
<trkpt lat="46.28522" lon="4.74470"><ele>251</ele></trkpt>
<trkpt lat="46.28622" lon="4.74416"><ele>256</ele></trkpt>
<trkpt lat="46.28668" lon="4.74395"><ele>258</ele></trkpt>
<trkpt lat="46.28717" lon="4.74380"><ele>260</ele></trkpt>
<trkpt lat="46.28753" lon="4.74358"><ele>262</ele></trkpt>
<trkpt lat="46.28768" lon="4.74381"><ele>260</ele></trkpt>
<trkpt lat="46.28809" lon="4.74425"><ele>258</ele></trkpt>
<trkpt lat="46.28902" lon="4.74604"><ele>261</ele></trkpt>
<trkpt lat="46.28914" lon="4.74657"><ele>260</ele></trkpt>
<trkpt lat="46.28925" lon="4.74735"><ele>258</ele></trkpt>
<trkpt lat="46.28939" lon="4.74808"><ele>256</ele></trkpt>
<trkpt lat="46.28957" lon="4.74948"><ele>255</ele></trkpt>
<trkpt lat="46.28966" lon="4.74985"><ele>254</ele></trkpt>
<trkpt lat="46.29031" lon="4.75154"><ele>254</ele></trkpt>
<trkpt lat="46.29046" lon="4.75213"><ele>254</ele></trkpt>
<trkpt lat="46.29070" lon="4.75273"><ele>253</ele></trkpt>
<trkpt lat="46.29110" lon="4.75349"><ele>251</ele></trkpt>
<trkpt lat="46.29189" lon="4.75477"><ele>244</ele></trkpt>
<trkpt lat="46.29219" lon="4.75557"><ele>239</ele></trkpt>
<trkpt lat="46.29241" lon="4.75602"><ele>236</ele></trkpt>
<trkpt lat="46.29285" lon="4.75682"><ele>231</ele></trkpt>
<trkpt lat="46.29393" lon="4.75858"><ele>221</ele></trkpt>
<trkpt lat="46.29397" lon="4.75868"><ele>220</ele></trkpt>
<trkpt lat="46.29432" lon="4.75889"><ele>218</ele></trkpt>
<trkpt lat="46.29556" lon="4.75990"><ele>212</ele></trkpt>
<trkpt lat="46.29580" lon="4.76016"><ele>210</ele></trkpt>
<trkpt lat="46.29613" lon="4.76068"><ele>208</ele></trkpt>
<trkpt lat="46.29653" lon="4.76146"><ele>204</ele></trkpt>
<trkpt lat="46.29663" lon="4.76171"><ele>203</ele></trkpt>
<trkpt lat="46.29702" lon="4.76329"><ele>197</ele></trkpt>
<trkpt lat="46.29710" lon="4.76436"><ele>195</ele></trkpt>
<trkpt lat="46.29714" lon="4.76455"><ele>194</ele></trkpt>
<trkpt lat="46.29729" lon="4.76485"><ele>194</ele></trkpt>
<trkpt lat="46.29744" lon="4.76501"><ele>194</ele></trkpt>
<trkpt lat="46.29756" lon="4.76485"><ele>194</ele></trkpt>
<trkpt lat="46.29800" lon="4.76453"><ele>196</ele></trkpt>
<trkpt lat="46.29842" lon="4.76417"><ele>196</ele></trkpt>
<trkpt lat="46.29897" lon="4.76537"><ele>192</ele></trkpt>
<trkpt lat="46.29919" lon="4.76596"><ele>193</ele></trkpt>
<trkpt lat="46.29962" lon="4.76812"><ele>192</ele></trkpt>
<trkpt lat="46.29969" lon="4.76884"><ele>192</ele></trkpt>
<trkpt lat="46.29963" lon="4.76943"><ele>188</ele></trkpt>
<trkpt lat="46.29951" lon="4.76990"><ele>188</ele></trkpt>
<trkpt lat="46.29882" lon="4.77126"><ele>187</ele></trkpt>
<trkpt lat="46.29873" lon="4.77150"><ele>187</ele></trkpt>
<trkpt lat="46.29862" lon="4.77201"><ele>188</ele></trkpt>
<trkpt lat="46.29860" lon="4.77245"><ele>188</ele></trkpt>
<trkpt lat="46.29862" lon="4.77274"><ele>188</ele></trkpt>
<trkpt lat="46.29885" lon="4.77447"><ele>190</ele></trkpt>
<trkpt lat="46.29888" lon="4.77634"><ele>195</ele></trkpt>
<trkpt lat="46.29916" lon="4.77623"><ele>196</ele></trkpt>
<trkpt lat="46.29948" lon="4.77582"><ele>196</ele></trkpt>
<trkpt lat="46.29951" lon="4.77583"><ele>196</ele></trkpt>
<trkpt lat="46.29998" lon="4.77691"><ele>203</ele></trkpt>
<trkpt lat="46.30029" lon="4.77756"><ele>206</ele></trkpt>
<trkpt lat="46.30035" lon="4.77763"><ele>208</ele></trkpt>
<trkpt lat="46.30079" lon="4.77780"><ele>210</ele></trkpt>
<trkpt lat="46.30158" lon="4.77825"><ele>215</ele></trkpt>
<trkpt lat="46.30191" lon="4.77831"><ele>216</ele></trkpt>
<trkpt lat="46.30240" lon="4.77824"><ele>216</ele></trkpt>
<trkpt lat="46.30266" lon="4.77831"><ele>215</ele></trkpt>
<trkpt lat="46.30273" lon="4.77839"><ele>214</ele></trkpt>
<trkpt lat="46.30285" lon="4.77905"><ele>219</ele></trkpt>
<trkpt lat="46.30345" lon="4.78111"><ele>230</ele></trkpt>
<trkpt lat="46.30369" lon="4.78179"><ele>232</ele></trkpt>
<trkpt lat="46.30392" lon="4.78273"><ele>234</ele></trkpt>
<trkpt lat="46.30397" lon="4.78309"><ele>234</ele></trkpt>
<trkpt lat="46.30408" lon="4.78315"><ele>235</ele></trkpt>
<trkpt lat="46.30423" lon="4.78390"><ele>236</ele></trkpt>
<trkpt lat="46.30443" lon="4.78527"><ele>237</ele></trkpt>
<trkpt lat="46.30450" lon="4.78547"><ele>237</ele></trkpt>
<trkpt lat="46.30457" lon="4.78561"><ele>237</ele></trkpt>
<trkpt lat="46.30467" lon="4.78570"><ele>238</ele></trkpt>
<trkpt lat="46.30451" lon="4.78695"><ele>235</ele></trkpt>
<trkpt lat="46.30439" lon="4.78749"><ele>234</ele></trkpt>
<trkpt lat="46.30395" lon="4.78891"><ele>231</ele></trkpt>
<trkpt lat="46.30337" lon="4.79026"><ele>230</ele></trkpt>
<trkpt lat="46.30283" lon="4.79215"><ele>227</ele></trkpt>
<trkpt lat="46.30258" lon="4.79280"><ele>226</ele></trkpt>
<trkpt lat="46.30246" lon="4.79286"><ele>226</ele></trkpt>
<trkpt lat="46.30219" lon="4.79277"><ele>223</ele></trkpt>
<trkpt lat="46.30208" lon="4.79279"><ele>224</ele></trkpt>
<trkpt lat="46.30248" lon="4.79467"><ele>220</ele></trkpt>
<trkpt lat="46.30239" lon="4.79479"><ele>220</ele></trkpt>
<trkpt lat="46.30236" lon="4.79497"><ele>220</ele></trkpt>
<trkpt lat="46.30243" lon="4.79514"><ele>220</ele></trkpt>
<trkpt lat="46.30255" lon="4.79520"><ele>219</ele></trkpt>
<trkpt lat="46.30268" lon="4.79544"><ele>219</ele></trkpt>
<trkpt lat="46.30297" lon="4.79636"><ele>218</ele></trkpt>
<trkpt lat="46.30390" lon="4.79889"><ele>215</ele></trkpt>
<trkpt lat="46.30399" lon="4.79923"><ele>215</ele></trkpt>
<trkpt lat="46.30421" lon="4.80086"><ele>213</ele></trkpt>
<trkpt lat="46.30432" lon="4.80118"><ele>212</ele></trkpt>
<trkpt lat="46.30475" lon="4.80216"><ele>208</ele></trkpt>
<trkpt lat="46.30476" lon="4.80244"><ele>208</ele></trkpt>
<trkpt lat="46.30479" lon="4.80253"><ele>208</ele></trkpt>
<trkpt lat="46.30508" lon="4.80273"><ele>208</ele></trkpt>
<trkpt lat="46.30521" lon="4.80291"><ele>208</ele></trkpt>
<trkpt lat="46.30573" lon="4.80378"><ele>211</ele></trkpt>
<trkpt lat="46.30608" lon="4.80415"><ele>210</ele></trkpt>
<trkpt lat="46.30633" lon="4.80432"><ele>210</ele></trkpt>
<trkpt lat="46.30729" lon="4.80487"><ele>212</ele></trkpt>
<trkpt lat="46.30726" lon="4.80498"><ele>212</ele></trkpt>
<trkpt lat="46.30725" lon="4.80567"><ele>213</ele></trkpt>
<trkpt lat="46.30722" lon="4.80592"><ele>213</ele></trkpt>
<trkpt lat="46.30663" lon="4.80845"><ele>217</ele></trkpt>
<trkpt lat="46.30653" lon="4.80891"><ele>217</ele></trkpt>
<trkpt lat="46.30642" lon="4.80964"><ele>217</ele></trkpt>
<trkpt lat="46.30638" lon="4.81008"><ele>217</ele></trkpt>
<trkpt lat="46.30637" lon="4.81106"><ele>217</ele></trkpt>
<trkpt lat="46.30646" lon="4.81222"><ele>217</ele></trkpt>
<trkpt lat="46.30640" lon="4.81228"><ele>217</ele></trkpt>
<trkpt lat="46.30640" lon="4.81239"><ele>217</ele></trkpt>
<trkpt lat="46.30624" lon="4.81256"><ele>218</ele></trkpt>
<trkpt lat="46.30510" lon="4.81355"><ele>217</ele></trkpt>
<trkpt lat="46.30507" lon="4.81351"><ele>217</ele></trkpt>
<trkpt lat="46.30496" lon="4.81360"><ele>217</ele></trkpt>
<trkpt lat="46.30497" lon="4.81383"><ele>217</ele></trkpt>
<trkpt lat="46.30476" lon="4.81508"><ele>217</ele></trkpt>
<trkpt lat="46.30476" lon="4.81558"><ele>217</ele></trkpt>
<trkpt lat="46.30481" lon="4.81702"><ele>216</ele></trkpt>
<trkpt lat="46.30486" lon="4.81741"><ele>216</ele></trkpt>
<trkpt lat="46.30505" lon="4.81754"><ele>216</ele></trkpt>
<trkpt lat="46.30507" lon="4.81760"><ele>216</ele></trkpt>
<trkpt lat="46.30508" lon="4.81855"><ele>214</ele></trkpt>
<trkpt lat="46.30495" lon="4.82142"><ele>209</ele></trkpt>
<trkpt lat="46.30477" lon="4.82205"><ele>207</ele></trkpt>
<trkpt lat="46.30443" lon="4.82549"><ele>195</ele></trkpt>
<trkpt lat="46.30636" lon="4.82718"><ele>196</ele></trkpt>
<trkpt lat="46.30669" lon="4.82733"><ele>194</ele></trkpt>
<trkpt lat="46.30635" lon="4.82909"><ele>190</ele></trkpt>
<trkpt lat="46.30618" lon="4.82920"><ele>189</ele></trkpt>
<trkpt lat="46.30686" lon="4.82934"><ele>191</ele></trkpt>
<trkpt lat="46.30702" lon="4.82869"><ele>192</ele></trkpt>
<trkpt lat="46.30694" lon="4.82873"><ele>192</ele></trkpt>
<trkpt lat="46.30681" lon="4.82867"><ele>192</ele></trkpt>
<trkpt lat="46.30676" lon="4.82890"><ele>192</ele></trkpt>
<trkpt lat="46.30687" lon="4.82895"><ele>192</ele></trkpt>
<trkpt lat="46.30693" lon="4.82908"><ele>191</ele></trkpt>
<trkpt lat="46.30686" lon="4.82934"><ele>191</ele></trkpt>
<trkpt lat="46.30721" lon="4.82944"><ele>191</ele></trkpt>
<trkpt lat="46.30764" lon="4.83218"><ele>190</ele></trkpt>
<trkpt lat="46.30765" lon="4.83233"><ele>191</ele></trkpt>
<trkpt lat="46.30745" lon="4.83385"><ele>193</ele></trkpt>
<trkpt lat="46.30830" lon="4.83450"><ele>190</ele></trkpt>
<trkpt lat="46.30835" lon="4.83450"><ele>190</ele></trkpt>
<trkpt lat="46.30853" lon="4.83517"><ele>186</ele></trkpt>
<trkpt lat="46.30853" lon="4.83535"><ele>184</ele></trkpt>
<trkpt lat="46.30830" lon="4.83572"><ele>180</ele></trkpt>
<trkpt lat="46.30825" lon="4.83606"><ele>176</ele></trkpt>
<trkpt lat="46.30786" lon="4.83603"><ele>176</ele></trkpt>
<trkpt lat="46.30767" lon="4.83717"><ele>173</ele></trkpt>
<trkpt lat="46.30903" lon="4.83770"><ele>173</ele></trkpt>
<trkpt lat="46.30920" lon="4.83789"><ele>173</ele></trkpt>
<trkpt lat="46.30962" lon="4.83805"><ele>173</ele></trkpt>
<trkpt lat="46.30980" lon="4.83800"><ele>175</ele></trkpt>
<trkpt lat="46.31135" lon="4.83861"><ele>174</ele></trkpt>
<trkpt lat="46.31179" lon="4.83899"><ele>173</ele></trkpt>
<trkpt lat="46.31277" lon="4.83972"><ele>174</ele></trkpt>
<trkpt lat="46.31304" lon="4.83986"><ele>172</ele></trkpt>
<trkpt lat="46.31336" lon="4.83997"><ele>173</ele></trkpt>
<trkpt lat="46.31350" lon="4.83991"><ele>174</ele></trkpt>
<trkpt lat="46.31396" lon="4.84008"><ele>174</ele></trkpt>
<trkpt lat="46.31472" lon="4.84068"><ele>172</ele></trkpt>
<trkpt lat="46.31659" lon="4.84181"><ele>171</ele></trkpt>
<trkpt lat="46.31717" lon="4.84232"><ele>171</ele></trkpt>
<trkpt lat="46.31925" lon="4.84436"><ele>172</ele></trkpt>
<trkpt lat="46.32117" lon="4.84586"><ele>172</ele></trkpt>
<trkpt lat="46.32127" lon="4.84555"><ele>174</ele></trkpt>
<trkpt lat="46.32144" lon="4.84520"><ele>174</ele></trkpt>
<trkpt lat="46.32158" lon="4.84502"><ele>174</ele></trkpt>
<trkpt lat="46.32162" lon="4.84489"><ele>174</ele></trkpt>
<trkpt lat="46.32173" lon="4.84485"><ele>174</ele></trkpt>
<trkpt lat="46.32216" lon="4.84479"><ele>174</ele></trkpt>
<trkpt lat="46.32283" lon="4.84479"><ele>173</ele></trkpt>
<trkpt lat="46.32530" lon="4.84494"><ele>174</ele></trkpt>
<trkpt lat="46.32530" lon="4.84503"><ele>174</ele></trkpt>
<trkpt lat="46.32574" lon="4.84500"><ele>173</ele></trkpt>
<trkpt lat="46.32622" lon="4.84676"><ele>172</ele></trkpt>
<trkpt lat="46.32662" lon="4.84738"><ele>172</ele></trkpt>
<trkpt lat="46.32701" lon="4.84806"><ele>172</ele></trkpt>
<trkpt lat="46.32761" lon="4.84865"><ele>172</ele></trkpt>
<trkpt lat="46.32783" lon="4.84901"><ele>173</ele></trkpt>
<trkpt lat="46.32849" lon="4.85025"><ele>173</ele></trkpt>
<trkpt lat="46.32919" lon="4.85052"><ele>173</ele></trkpt>
<trkpt lat="46.33062" lon="4.85079"><ele>172</ele></trkpt>
<trkpt lat="46.33214" lon="4.85090"><ele>173</ele></trkpt>
<trkpt lat="46.33543" lon="4.85051"><ele>173</ele></trkpt>
<trkpt lat="46.33627" lon="4.85054"><ele>173</ele></trkpt>
<trkpt lat="46.33659" lon="4.85065"><ele>172</ele></trkpt>
<trkpt lat="46.33680" lon="4.85060"><ele>172</ele></trkpt>
<trkpt lat="46.33868" lon="4.85082"><ele>174</ele></trkpt>
<trkpt lat="46.33926" lon="4.85081"><ele>174</ele></trkpt>
<trkpt lat="46.33964" lon="4.85068"><ele>174</ele></trkpt>
<trkpt lat="46.34214" lon="4.85114"><ele>172</ele></trkpt>
<trkpt lat="46.34263" lon="4.85118"><ele>172</ele></trkpt>
<trkpt lat="46.34344" lon="4.85117"><ele>172</ele></trkpt>
<trkpt lat="46.34504" lon="4.85103"><ele>172</ele></trkpt>
<trkpt lat="46.34685" lon="4.85097"><ele>171</ele></trkpt>
<trkpt lat="46.34823" lon="4.85059"><ele>172</ele></trkpt>
<trkpt lat="46.34984" lon="4.85037"><ele>174</ele></trkpt>
<trkpt lat="46.35171" lon="4.84997"><ele>172</ele></trkpt>
<trkpt lat="46.35247" lon="4.84973"><ele>173</ele></trkpt>
<trkpt lat="46.35401" lon="4.84977"><ele>172</ele></trkpt>
<trkpt lat="46.35524" lon="4.84995"><ele>172</ele></trkpt>
<trkpt lat="46.35637" lon="4.85034"><ele>172</ele></trkpt>
<trkpt lat="46.35802" lon="4.85126"><ele>172</ele></trkpt>
<trkpt lat="46.35932" lon="4.85212"><ele>172</ele></trkpt>
<trkpt lat="46.35945" lon="4.85227"><ele>172</ele></trkpt>
<trkpt lat="46.35997" lon="4.85259"><ele>172</ele></trkpt>
<trkpt lat="46.36048" lon="4.85284"><ele>172</ele></trkpt>
<trkpt lat="46.36071" lon="4.85284"><ele>173</ele></trkpt>
<trkpt lat="46.36176" lon="4.85321"><ele>174</ele></trkpt>
<trkpt lat="46.36186" lon="4.85321"><ele>174</ele></trkpt>
<trkpt lat="46.36189" lon="4.85325"><ele>174</ele></trkpt>
<trkpt lat="46.36273" lon="4.85354"><ele>174</ele></trkpt>
<trkpt lat="46.36376" lon="4.85402"><ele>175</ele></trkpt>
<trkpt lat="46.36486" lon="4.85478"><ele>175</ele></trkpt>
<trkpt lat="46.36628" lon="4.85598"><ele>173</ele></trkpt>
<trkpt lat="46.36740" lon="4.85679"><ele>173</ele></trkpt>
<trkpt lat="46.36843" lon="4.85747"><ele>174</ele></trkpt>
<trkpt lat="46.36879" lon="4.85636"><ele>182</ele></trkpt>
<trkpt lat="46.36890" lon="4.85625"><ele>182</ele></trkpt>
<trkpt lat="46.36911" lon="4.85629"><ele>182</ele></trkpt>
<trkpt lat="46.36953" lon="4.85660"><ele>184</ele></trkpt>
<trkpt lat="46.36966" lon="4.85659"><ele>184</ele></trkpt>
<trkpt lat="46.36969" lon="4.85653"><ele>185</ele></trkpt>
<trkpt lat="46.36955" lon="4.85641"><ele>185</ele></trkpt>
<trkpt lat="46.36973" lon="4.85603"><ele>187</ele></trkpt>
<trkpt lat="46.37019" lon="4.85388"><ele>202</ele></trkpt>
<trkpt lat="46.37040" lon="4.85372"><ele>203</ele></trkpt>
<trkpt lat="46.37045" lon="4.85360"><ele>204</ele></trkpt>
<trkpt lat="46.37069" lon="4.85224"><ele>209</ele></trkpt>
<trkpt lat="46.37103" lon="4.85219"><ele>210</ele></trkpt>
<trkpt lat="46.37156" lon="4.85229"><ele>210</ele></trkpt>
<trkpt lat="46.37192" lon="4.85247"><ele>211</ele></trkpt>
<trkpt lat="46.37286" lon="4.85302"><ele>211</ele></trkpt>
<trkpt lat="46.37409" lon="4.85390"><ele>211</ele></trkpt>
<trkpt lat="46.37515" lon="4.85432"><ele>211</ele></trkpt>
<trkpt lat="46.37564" lon="4.85444"><ele>211</ele></trkpt>
<trkpt lat="46.37597" lon="4.85447"><ele>211</ele></trkpt>
<trkpt lat="46.37619" lon="4.85467"><ele>210</ele></trkpt>
<trkpt lat="46.37792" lon="4.85554"><ele>213</ele></trkpt>
<trkpt lat="46.37875" lon="4.85581"><ele>211</ele></trkpt>
<trkpt lat="46.37905" lon="4.85587"><ele>210</ele></trkpt>
<trkpt lat="46.38023" lon="4.85558"><ele>206</ele></trkpt>
<trkpt lat="46.38132" lon="4.85596"><ele>207</ele></trkpt>
<trkpt lat="46.38140" lon="4.85601"><ele>207</ele></trkpt>
<trkpt lat="46.38155" lon="4.85632"><ele>207</ele></trkpt>
<trkpt lat="46.38167" lon="4.85647"><ele>207</ele></trkpt>
<trkpt lat="46.38226" lon="4.85776"><ele>208</ele></trkpt>
<trkpt lat="46.38277" lon="4.85871"><ele>209</ele></trkpt>
<trkpt lat="46.38370" lon="4.85997"><ele>204</ele></trkpt>
<trkpt lat="46.38372" lon="4.86009"><ele>204</ele></trkpt>
<trkpt lat="46.38380" lon="4.86007"><ele>204</ele></trkpt>
<trkpt lat="46.38430" lon="4.86099"><ele>200</ele></trkpt>
<trkpt lat="46.38443" lon="4.86130"><ele>198</ele></trkpt>
<trkpt lat="46.38451" lon="4.86157"><ele>198</ele></trkpt>
<trkpt lat="46.38470" lon="4.86255"><ele>194</ele></trkpt>
<trkpt lat="46.38486" lon="4.86365"><ele>188</ele></trkpt>
<trkpt lat="46.38502" lon="4.86428"><ele>185</ele></trkpt>
<trkpt lat="46.38520" lon="4.86473"><ele>184</ele></trkpt>
<trkpt lat="46.38524" lon="4.86499"><ele>184</ele></trkpt>
<trkpt lat="46.38518" lon="4.86535"><ele>183</ele></trkpt>
<trkpt lat="46.38495" lon="4.86621"><ele>182</ele></trkpt>
<trkpt lat="46.38498" lon="4.86640"><ele>182</ele></trkpt>
<trkpt lat="46.38512" lon="4.86653"><ele>182</ele></trkpt>
<trkpt lat="46.39093" lon="4.87016"><ele>182</ele></trkpt>
<trkpt lat="46.39108" lon="4.87019"><ele>183</ele></trkpt>
<trkpt lat="46.39146" lon="4.87014"><ele>183</ele></trkpt>
<trkpt lat="46.39374" lon="4.86965"><ele>187</ele></trkpt>
<trkpt lat="46.39382" lon="4.86940"><ele>188</ele></trkpt>
<trkpt lat="46.39403" lon="4.86811"><ele>193</ele></trkpt>
<trkpt lat="46.39408" lon="4.86799"><ele>194</ele></trkpt>
<trkpt lat="46.39419" lon="4.86791"><ele>194</ele></trkpt>
<trkpt lat="46.39529" lon="4.86770"><ele>195</ele></trkpt>
<trkpt lat="46.39575" lon="4.86770"><ele>195</ele></trkpt>
<trkpt lat="46.39827" lon="4.86791"><ele>194</ele></trkpt>
<trkpt lat="46.39834" lon="4.86795"><ele>194</ele></trkpt>
<trkpt lat="46.39838" lon="4.86812"><ele>194</ele></trkpt>
<trkpt lat="46.39847" lon="4.86817"><ele>194</ele></trkpt>
<trkpt lat="46.39846" lon="4.86830"><ele>193</ele></trkpt>
<trkpt lat="46.39854" lon="4.86830"><ele>193</ele></trkpt>
<trkpt lat="46.39862" lon="4.86813"><ele>194</ele></trkpt>
<trkpt lat="46.39874" lon="4.86800"><ele>194</ele></trkpt>
<trkpt lat="46.39881" lon="4.86805"><ele>194</ele></trkpt>
<trkpt lat="46.39967" lon="4.86815"><ele>193</ele></trkpt>
<trkpt lat="46.40162" lon="4.86827"><ele>178</ele></trkpt>
<trkpt lat="46.40336" lon="4.86820"><ele>176</ele></trkpt>
<trkpt lat="46.40395" lon="4.86839"><ele>175</ele></trkpt>
<trkpt lat="46.40396" lon="4.86843"><ele>175</ele></trkpt>
<trkpt lat="46.40559" lon="4.86932"><ele>178</ele></trkpt>
<trkpt lat="46.40568" lon="4.86917"><ele>179</ele></trkpt>
<trkpt lat="46.40843" lon="4.87024"><ele>192</ele></trkpt>
<trkpt lat="46.40909" lon="4.87026"><ele>193</ele></trkpt>
<trkpt lat="46.40976" lon="4.87042"><ele>193</ele></trkpt>
<trkpt lat="46.41004" lon="4.87038"><ele>193</ele></trkpt>
<trkpt lat="46.41069" lon="4.87020"><ele>195</ele></trkpt>
<trkpt lat="46.41157" lon="4.86987"><ele>199</ele></trkpt>
<trkpt lat="46.41237" lon="4.86990"><ele>203</ele></trkpt>
<trkpt lat="46.41258" lon="4.86983"><ele>204</ele></trkpt>
<trkpt lat="46.41315" lon="4.86938"><ele>206</ele></trkpt>
<trkpt lat="46.41357" lon="4.86918"><ele>207</ele></trkpt>
<trkpt lat="46.41369" lon="4.86918"><ele>207</ele></trkpt>
<trkpt lat="46.41467" lon="4.86944"><ele>211</ele></trkpt>
<trkpt lat="46.41588" lon="4.86982"><ele>210</ele></trkpt>
<trkpt lat="46.41737" lon="4.87063"><ele>209</ele></trkpt>
<trkpt lat="46.41767" lon="4.87054"><ele>210</ele></trkpt>
<trkpt lat="46.41825" lon="4.87002"><ele>212</ele></trkpt>
<trkpt lat="46.41839" lon="4.86997"><ele>212</ele></trkpt>
<trkpt lat="46.41873" lon="4.87002"><ele>212</ele></trkpt>
<trkpt lat="46.41921" lon="4.87029"><ele>212</ele></trkpt>
<trkpt lat="46.41979" lon="4.87090"><ele>210</ele></trkpt>
<trkpt lat="46.42020" lon="4.87121"><ele>209</ele></trkpt>
<trkpt lat="46.42194" lon="4.87206"><ele>206</ele></trkpt>
<trkpt lat="46.42235" lon="4.87223"><ele>203</ele></trkpt>
<trkpt lat="46.42255" lon="4.87182"><ele>203</ele></trkpt>
<trkpt lat="46.42334" lon="4.87209"><ele>203</ele></trkpt>
<trkpt lat="46.42491" lon="4.87310"><ele>206</ele></trkpt>
<trkpt lat="46.42532" lon="4.87341"><ele>206</ele></trkpt>
<trkpt lat="46.42629" lon="4.87432"><ele>204</ele></trkpt>
<trkpt lat="46.42647" lon="4.87445"><ele>203</ele></trkpt>
<trkpt lat="46.42650" lon="4.87452"><ele>202</ele></trkpt>
<trkpt lat="46.42661" lon="4.87463"><ele>201</ele></trkpt>
<trkpt lat="46.42695" lon="4.87489"><ele>196</ele></trkpt>
<trkpt lat="46.42755" lon="4.87553"><ele>181</ele></trkpt>
<trkpt lat="46.42802" lon="4.87523"><ele>179</ele></trkpt>
<trkpt lat="46.42811" lon="4.87544"><ele>177</ele></trkpt>
<trkpt lat="46.43015" lon="4.87425"><ele>180</ele></trkpt>
<trkpt lat="46.43041" lon="4.87413"><ele>179</ele></trkpt>
<trkpt lat="46.43138" lon="4.87380"><ele>177</ele></trkpt>
<trkpt lat="46.43303" lon="4.87336"><ele>176</ele></trkpt>
<trkpt lat="46.43362" lon="4.87328"><ele>176</ele></trkpt>
<trkpt lat="46.43460" lon="4.87324"><ele>177</ele></trkpt>
<trkpt lat="46.43511" lon="4.87326"><ele>177</ele></trkpt>
<trkpt lat="46.43567" lon="4.87331"><ele>177</ele></trkpt>
<trkpt lat="46.43704" lon="4.87356"><ele>177</ele></trkpt>
<trkpt lat="46.43802" lon="4.87389"><ele>176</ele></trkpt>
<trkpt lat="46.43938" lon="4.87455"><ele>177</ele></trkpt>
<trkpt lat="46.44012" lon="4.87500"><ele>177</ele></trkpt>
<trkpt lat="46.44102" lon="4.87563"><ele>178</ele></trkpt>
<trkpt lat="46.44190" lon="4.87614"><ele>178</ele></trkpt>
<trkpt lat="46.44305" lon="4.87691"><ele>179</ele></trkpt>
<trkpt lat="46.44335" lon="4.87720"><ele>179</ele></trkpt>
<trkpt lat="46.44399" lon="4.87766"><ele>178</ele></trkpt>
<trkpt lat="46.44458" lon="4.87797"><ele>179</ele></trkpt>
<trkpt lat="46.44498" lon="4.87834"><ele>177</ele></trkpt>
<trkpt lat="46.44494" lon="4.87865"><ele>176</ele></trkpt>
<trkpt lat="46.44497" lon="4.87878"><ele>176</ele></trkpt>
<trkpt lat="46.44527" lon="4.87833"><ele>176</ele></trkpt>
<trkpt lat="46.44549" lon="4.87775"><ele>178</ele></trkpt>
<trkpt lat="46.44571" lon="4.87796"><ele>178</ele></trkpt>
<trkpt lat="46.44654" lon="4.87937"><ele>185</ele></trkpt>
<trkpt lat="46.44704" lon="4.88000"><ele>187</ele></trkpt>
<trkpt lat="46.44731" lon="4.88000"><ele>191</ele></trkpt>
<trkpt lat="46.44793" lon="4.88018"><ele>196</ele></trkpt>
<trkpt lat="46.44849" lon="4.88001"><ele>199</ele></trkpt>
<trkpt lat="46.44942" lon="4.87995"><ele>202</ele></trkpt>
<trkpt lat="46.44968" lon="4.87997"><ele>202</ele></trkpt>
<trkpt lat="46.44987" lon="4.88004"><ele>202</ele></trkpt>
<trkpt lat="46.45092" lon="4.88067"><ele>204</ele></trkpt>
<trkpt lat="46.45148" lon="4.88092"><ele>204</ele></trkpt>
<trkpt lat="46.45175" lon="4.88100"><ele>204</ele></trkpt>
<trkpt lat="46.45252" lon="4.88117"><ele>203</ele></trkpt>
<trkpt lat="46.45477" lon="4.88126"><ele>204</ele></trkpt>
<trkpt lat="46.45629" lon="4.88088"><ele>200</ele></trkpt>
<trkpt lat="46.45714" lon="4.88073"><ele>200</ele></trkpt>
<trkpt lat="46.45970" lon="4.88063"><ele>193</ele></trkpt>
<trkpt lat="46.46010" lon="4.87954"><ele>193</ele></trkpt>
<trkpt lat="46.46143" lon="4.88028"><ele>190</ele></trkpt>
<trkpt lat="46.46225" lon="4.88080"><ele>193</ele></trkpt>
<trkpt lat="46.46233" lon="4.88087"><ele>193</ele></trkpt>
<trkpt lat="46.46235" lon="4.88095"><ele>194</ele></trkpt>
<trkpt lat="46.46236" lon="4.88143"><ele>192</ele></trkpt>
<trkpt lat="46.46247" lon="4.88162"><ele>191</ele></trkpt>
<trkpt lat="46.46431" lon="4.88286"><ele>194</ele></trkpt>
<trkpt lat="46.46473" lon="4.88337"><ele>193</ele></trkpt>
<trkpt lat="46.46545" lon="4.88400"><ele>193</ele></trkpt>
<trkpt lat="46.46562" lon="4.88494"><ele>191</ele></trkpt>
<trkpt lat="46.46563" lon="4.88547"><ele>190</ele></trkpt>
<trkpt lat="46.46522" lon="4.88801"><ele>186</ele></trkpt>
<trkpt lat="46.46876" lon="4.88918"><ele>181</ele></trkpt>
<trkpt lat="46.46881" lon="4.88867"><ele>182</ele></trkpt>
<trkpt lat="46.46889" lon="4.88856"><ele>182</ele></trkpt>
<trkpt lat="46.46949" lon="4.88843"><ele>182</ele></trkpt>
<trkpt lat="46.46998" lon="4.88827"><ele>182</ele></trkpt>
<trkpt lat="46.47033" lon="4.88808"><ele>183</ele></trkpt>
<trkpt lat="46.47061" lon="4.88779"><ele>185</ele></trkpt>
<trkpt lat="46.47099" lon="4.88734"><ele>185</ele></trkpt>
<trkpt lat="46.47125" lon="4.88708"><ele>185</ele></trkpt>
<trkpt lat="46.47139" lon="4.88701"><ele>185</ele></trkpt>
<trkpt lat="46.47147" lon="4.88674"><ele>185</ele></trkpt>
<trkpt lat="46.47164" lon="4.88588"><ele>185</ele></trkpt>
<trkpt lat="46.47171" lon="4.88574"><ele>185</ele></trkpt>
<trkpt lat="46.47190" lon="4.88550"><ele>185</ele></trkpt>
<trkpt lat="46.47241" lon="4.88522"><ele>184</ele></trkpt>
<trkpt lat="46.47257" lon="4.88509"><ele>184</ele></trkpt>
<trkpt lat="46.47273" lon="4.88483"><ele>186</ele></trkpt>
<trkpt lat="46.47304" lon="4.88384"><ele>186</ele></trkpt>
<trkpt lat="46.47308" lon="4.88347"><ele>185</ele></trkpt>
<trkpt lat="46.47306" lon="4.88319"><ele>185</ele></trkpt>
<trkpt lat="46.47330" lon="4.88237"><ele>184</ele></trkpt>
<trkpt lat="46.47359" lon="4.88162"><ele>184</ele></trkpt>
<trkpt lat="46.47393" lon="4.88089"><ele>184</ele></trkpt>
<trkpt lat="46.47458" lon="4.88000"><ele>185</ele></trkpt>
<trkpt lat="46.47473" lon="4.87994"><ele>185</ele></trkpt>
<trkpt lat="46.47488" lon="4.87993"><ele>185</ele></trkpt>
<trkpt lat="46.47567" lon="4.88005"><ele>188</ele></trkpt>
<trkpt lat="46.47579" lon="4.88002"><ele>190</ele></trkpt>
<trkpt lat="46.47590" lon="4.87997"><ele>190</ele></trkpt>
<trkpt lat="46.47641" lon="4.87950"><ele>195</ele></trkpt>
<trkpt lat="46.47650" lon="4.87952"><ele>195</ele></trkpt>
<trkpt lat="46.47783" lon="4.88004"><ele>194</ele></trkpt>
<trkpt lat="46.47898" lon="4.88073"><ele>196</ele></trkpt>
<trkpt lat="46.47915" lon="4.88075"><ele>196</ele></trkpt>
<trkpt lat="46.47921" lon="4.88072"><ele>196</ele></trkpt>
<trkpt lat="46.47937" lon="4.88043"><ele>196</ele></trkpt>
<trkpt lat="46.47953" lon="4.88027"><ele>195</ele></trkpt>
<trkpt lat="46.48113" lon="4.87959"><ele>194</ele></trkpt>
<trkpt lat="46.48224" lon="4.87877"><ele>193</ele></trkpt>
<trkpt lat="46.48250" lon="4.87892"><ele>193</ele></trkpt>
<trkpt lat="46.48486" lon="4.87950"><ele>200</ele></trkpt>
<trkpt lat="46.48634" lon="4.87969"><ele>202</ele></trkpt>
<trkpt lat="46.48656" lon="4.87977"><ele>201</ele></trkpt>
<trkpt lat="46.48690" lon="4.88005"><ele>201</ele></trkpt>
<trkpt lat="46.48721" lon="4.88061"><ele>203</ele></trkpt>
<trkpt lat="46.48730" lon="4.88053"><ele>203</ele></trkpt>
<trkpt lat="46.48848" lon="4.87845"><ele>204</ele></trkpt>
<trkpt lat="46.48880" lon="4.87802"><ele>204</ele></trkpt>
<trkpt lat="46.48934" lon="4.87743"><ele>205</ele></trkpt>
<trkpt lat="46.48993" lon="4.87705"><ele>207</ele></trkpt>
<trkpt lat="46.49041" lon="4.87626"><ele>208</ele></trkpt>
<trkpt lat="46.49073" lon="4.87593"><ele>210</ele></trkpt>
<trkpt lat="46.49112" lon="4.87546"><ele>211</ele></trkpt>
<trkpt lat="46.49152" lon="4.87513"><ele>212</ele></trkpt>
<trkpt lat="46.49167" lon="4.87495"><ele>212</ele></trkpt>
<trkpt lat="46.49192" lon="4.87416"><ele>212</ele></trkpt>
<trkpt lat="46.49211" lon="4.87251"><ele>215</ele></trkpt>
<trkpt lat="46.49219" lon="4.87223"><ele>215</ele></trkpt>
<trkpt lat="46.49235" lon="4.87205"><ele>216</ele></trkpt>
<trkpt lat="46.49383" lon="4.87084"><ele>220</ele></trkpt>
<trkpt lat="46.49560" lon="4.86887"><ele>233</ele></trkpt>
<trkpt lat="46.49572" lon="4.86885"><ele>232</ele></trkpt>
<trkpt lat="46.49588" lon="4.86904"><ele>232</ele></trkpt>
<trkpt lat="46.49598" lon="4.86903"><ele>230</ele></trkpt>
<trkpt lat="46.49629" lon="4.86883"><ele>229</ele></trkpt>
<trkpt lat="46.49650" lon="4.86860"><ele>229</ele></trkpt>
<trkpt lat="46.49694" lon="4.86782"><ele>230</ele></trkpt>
<trkpt lat="46.49714" lon="4.86760"><ele>231</ele></trkpt>
<trkpt lat="46.49731" lon="4.86758"><ele>230</ele></trkpt>
<trkpt lat="46.49749" lon="4.86773"><ele>230</ele></trkpt>
<trkpt lat="46.49765" lon="4.86792"><ele>230</ele></trkpt>
<trkpt lat="46.49815" lon="4.86875"><ele>231</ele></trkpt>
<trkpt lat="46.49870" lon="4.86898"><ele>235</ele></trkpt>
<trkpt lat="46.49882" lon="4.86901"><ele>236</ele></trkpt>
<trkpt lat="46.49908" lon="4.86899"><ele>236</ele></trkpt>
<trkpt lat="46.49928" lon="4.86914"><ele>236</ele></trkpt>
<trkpt lat="46.49939" lon="4.86914"><ele>236</ele></trkpt>
<trkpt lat="46.50048" lon="4.86754"><ele>246</ele></trkpt>
<trkpt lat="46.50103" lon="4.86743"><ele>248</ele></trkpt>
<trkpt lat="46.50227" lon="4.86698"><ele>248</ele></trkpt>
<trkpt lat="46.50251" lon="4.86696"><ele>247</ele></trkpt>
<trkpt lat="46.50297" lon="4.86677"><ele>244</ele></trkpt>
<trkpt lat="46.50346" lon="4.86651"><ele>241</ele></trkpt>
<trkpt lat="46.50408" lon="4.86632"><ele>234</ele></trkpt>
<trkpt lat="46.50466" lon="4.86579"><ele>231</ele></trkpt>
<trkpt lat="46.50519" lon="4.86540"><ele>237</ele></trkpt>
<trkpt lat="46.50610" lon="4.86462"><ele>238</ele></trkpt>
<trkpt lat="46.50646" lon="4.86435"><ele>237</ele></trkpt>
<trkpt lat="46.50702" lon="4.86418"><ele>231</ele></trkpt>
<trkpt lat="46.50731" lon="4.86414"><ele>228</ele></trkpt>
<trkpt lat="46.50747" lon="4.86417"><ele>228</ele></trkpt>
<trkpt lat="46.50785" lon="4.86442"><ele>227</ele></trkpt>
<trkpt lat="46.50834" lon="4.86360"><ele>228</ele></trkpt>
<trkpt lat="46.50932" lon="4.86259"><ele>232</ele></trkpt>
<trkpt lat="46.50950" lon="4.86251"><ele>232</ele></trkpt>
<trkpt lat="46.50983" lon="4.86245"><ele>233</ele></trkpt>
<trkpt lat="46.51003" lon="4.86177"><ele>235</ele></trkpt>
<trkpt lat="46.51004" lon="4.86146"><ele>235</ele></trkpt>
<trkpt lat="46.51038" lon="4.86130"><ele>239</ele></trkpt>
<trkpt lat="46.51086" lon="4.86145"><ele>244</ele></trkpt>
<trkpt lat="46.51137" lon="4.86144"><ele>252</ele></trkpt>
<trkpt lat="46.51192" lon="4.86170"><ele>258</ele></trkpt>
<trkpt lat="46.51248" lon="4.86173"><ele>265</ele></trkpt>
<trkpt lat="46.51399" lon="4.86153"><ele>286</ele></trkpt>
<trkpt lat="46.51436" lon="4.86136"><ele>289</ele></trkpt>
<trkpt lat="46.51443" lon="4.86138"><ele>290</ele></trkpt>
<trkpt lat="46.51463" lon="4.86131"><ele>292</ele></trkpt>
<trkpt lat="46.51498" lon="4.86113"><ele>296</ele></trkpt>
<trkpt lat="46.51703" lon="4.86200"><ele>312</ele></trkpt>
<trkpt lat="46.51857" lon="4.86282"><ele>310</ele></trkpt>
<trkpt lat="46.51976" lon="4.86266"><ele>306</ele></trkpt>
<trkpt lat="46.51982" lon="4.86276"><ele>306</ele></trkpt>
<trkpt lat="46.51985" lon="4.86320"><ele>307</ele></trkpt>
<trkpt lat="46.51989" lon="4.86342"><ele>307</ele></trkpt>
<trkpt lat="46.52029" lon="4.86363"><ele>310</ele></trkpt>
<trkpt lat="46.52084" lon="4.86376"><ele>314</ele></trkpt>
<trkpt lat="46.52181" lon="4.86424"><ele>320</ele></trkpt>
<trkpt lat="46.52269" lon="4.86453"><ele>324</ele></trkpt>
<trkpt lat="46.52299" lon="4.86474"><ele>324</ele></trkpt>
<trkpt lat="46.52377" lon="4.86515"><ele>322</ele></trkpt>
<trkpt lat="46.52395" lon="4.86531"><ele>322</ele></trkpt>
<trkpt lat="46.52420" lon="4.86566"><ele>320</ele></trkpt>
<trkpt lat="46.52438" lon="4.86585"><ele>319</ele></trkpt>
<trkpt lat="46.52454" lon="4.86591"><ele>319</ele></trkpt>
<trkpt lat="46.52575" lon="4.86586"><ele>322</ele></trkpt>
<trkpt lat="46.52607" lon="4.86594"><ele>324</ele></trkpt>
<trkpt lat="46.52687" lon="4.86597"><ele>328</ele></trkpt>
<trkpt lat="46.52755" lon="4.86588"><ele>333</ele></trkpt>
<trkpt lat="46.52955" lon="4.86576"><ele>343</ele></trkpt>
<trkpt lat="46.53007" lon="4.86560"><ele>346</ele></trkpt>
<trkpt lat="46.53046" lon="4.86563"><ele>346</ele></trkpt>
<trkpt lat="46.53114" lon="4.86576"><ele>345</ele></trkpt>
<trkpt lat="46.53147" lon="4.86572"><ele>345</ele></trkpt>
<trkpt lat="46.53195" lon="4.86559"><ele>346</ele></trkpt>
<trkpt lat="46.53225" lon="4.86559"><ele>344</ele></trkpt>
<trkpt lat="46.53291" lon="4.86581"><ele>344</ele></trkpt>
<trkpt lat="46.53370" lon="4.86594"><ele>346</ele></trkpt>
<trkpt lat="46.53428" lon="4.86608"><ele>346</ele></trkpt>
<trkpt lat="46.53485" lon="4.86630"><ele>346</ele></trkpt>
<trkpt lat="46.53540" lon="4.86660"><ele>346</ele></trkpt>
<trkpt lat="46.53582" lon="4.86673"><ele>346</ele></trkpt>
<trkpt lat="46.53650" lon="4.86688"><ele>346</ele></trkpt>
<trkpt lat="46.53741" lon="4.86687"><ele>349</ele></trkpt>
<trkpt lat="46.53821" lon="4.86698"><ele>351</ele></trkpt>
<trkpt lat="46.53852" lon="4.86718"><ele>350</ele></trkpt>
<trkpt lat="46.53887" lon="4.86734"><ele>349</ele></trkpt>
<trkpt lat="46.53934" lon="4.86769"><ele>348</ele></trkpt>
<trkpt lat="46.53950" lon="4.86788"><ele>348</ele></trkpt>
<trkpt lat="46.53995" lon="4.86810"><ele>347</ele></trkpt>
<trkpt lat="46.54010" lon="4.86823"><ele>347</ele></trkpt>
<trkpt lat="46.54048" lon="4.86873"><ele>346</ele></trkpt>
<trkpt lat="46.54099" lon="4.86909"><ele>345</ele></trkpt>
<trkpt lat="46.54145" lon="4.86982"><ele>340</ele></trkpt>
<trkpt lat="46.54186" lon="4.87069"><ele>331</ele></trkpt>
<trkpt lat="46.54257" lon="4.87201"><ele>320</ele></trkpt>
<trkpt lat="46.54288" lon="4.87235"><ele>319</ele></trkpt>
<trkpt lat="46.54299" lon="4.87251"><ele>318</ele></trkpt>
<trkpt lat="46.54304" lon="4.87271"><ele>316</ele></trkpt>
<trkpt lat="46.54319" lon="4.87274"><ele>316</ele></trkpt>
<trkpt lat="46.54355" lon="4.87294"><ele>316</ele></trkpt>
<trkpt lat="46.54387" lon="4.87301"><ele>316</ele></trkpt>
<trkpt lat="46.54452" lon="4.87296"><ele>316</ele></trkpt>
<trkpt lat="46.54847" lon="4.87415"><ele>317</ele></trkpt>
<trkpt lat="46.54860" lon="4.87414"><ele>317</ele></trkpt>
<trkpt lat="46.54877" lon="4.87397"><ele>316</ele></trkpt>
<trkpt lat="46.54926" lon="4.87275"><ele>312</ele></trkpt>
<trkpt lat="46.54934" lon="4.87265"><ele>310</ele></trkpt>
<trkpt lat="46.54944" lon="4.87259"><ele>309</ele></trkpt>
<trkpt lat="46.54972" lon="4.87263"><ele>307</ele></trkpt>
<trkpt lat="46.54975" lon="4.87285"><ele>307</ele></trkpt>
<trkpt lat="46.54985" lon="4.87312"><ele>306</ele></trkpt>
<trkpt lat="46.54984" lon="4.87323"><ele>305</ele></trkpt>
<trkpt lat="46.54991" lon="4.87345"><ele>304</ele></trkpt>
<trkpt lat="46.54995" lon="4.87399"><ele>299</ele></trkpt>
<trkpt lat="46.55003" lon="4.87434"><ele>294</ele></trkpt>
<trkpt lat="46.55025" lon="4.87488"><ele>286</ele></trkpt>
<trkpt lat="46.55086" lon="4.87607"><ele>275</ele></trkpt>
<trkpt lat="46.55215" lon="4.87794"><ele>263</ele></trkpt>
<trkpt lat="46.55233" lon="4.87816"><ele>261</ele></trkpt>
<trkpt lat="46.55272" lon="4.87854"><ele>256</ele></trkpt>
<trkpt lat="46.55311" lon="4.87875"><ele>253</ele></trkpt>
<trkpt lat="46.55340" lon="4.87920"><ele>252</ele></trkpt>
<trkpt lat="46.55371" lon="4.87959"><ele>253</ele></trkpt>
<trkpt lat="46.55393" lon="4.87979"><ele>254</ele></trkpt>
<trkpt lat="46.55461" lon="4.88013"><ele>257</ele></trkpt>
<trkpt lat="46.55486" lon="4.88047"><ele>259</ele></trkpt>
<trkpt lat="46.55519" lon="4.88124"><ele>263</ele></trkpt>
<trkpt lat="46.55538" lon="4.88160"><ele>263</ele></trkpt>
<trkpt lat="46.55579" lon="4.88214"><ele>260</ele></trkpt>
<trkpt lat="46.55618" lon="4.88278"><ele>259</ele></trkpt>
<trkpt lat="46.55734" lon="4.88485"><ele>248</ele></trkpt>
<trkpt lat="46.55804" lon="4.88678"><ele>236</ele></trkpt>
<trkpt lat="46.55841" lon="4.88850"><ele>232</ele></trkpt>
<trkpt lat="46.55877" lon="4.88938"><ele>230</ele></trkpt>
<trkpt lat="46.55912" lon="4.89074"><ele>226</ele></trkpt>
<trkpt lat="46.55950" lon="4.89187"><ele>224</ele></trkpt>
<trkpt lat="46.56007" lon="4.89429"><ele>216</ele></trkpt>
<trkpt lat="46.56029" lon="4.89498"><ele>212</ele></trkpt>
<trkpt lat="46.56025" lon="4.89903"><ele>206</ele></trkpt>
<trkpt lat="46.56018" lon="4.90159"><ele>202</ele></trkpt>
<trkpt lat="46.56009" lon="4.90378"><ele>198</ele></trkpt>
<trkpt lat="46.56110" lon="4.90393"><ele>198</ele></trkpt>
<trkpt lat="46.56217" lon="4.90400"><ele>192</ele></trkpt>
<trkpt lat="46.56226" lon="4.90393"><ele>191</ele></trkpt>
<trkpt lat="46.56233" lon="4.90393"><ele>190</ele></trkpt>
<trkpt lat="46.56281" lon="4.90408"><ele>185</ele></trkpt>
<trkpt lat="46.56292" lon="4.90429"><ele>184</ele></trkpt>
<trkpt lat="46.56319" lon="4.90380"><ele>185</ele></trkpt>
<trkpt lat="46.56327" lon="4.90319"><ele>186</ele></trkpt>
<trkpt lat="46.56425" lon="4.90337"><ele>193</ele></trkpt>
<trkpt lat="46.56502" lon="4.90361"><ele>197</ele></trkpt>
<trkpt lat="46.56546" lon="4.90380"><ele>196</ele></trkpt>
<trkpt lat="46.56575" lon="4.90273"><ele>198</ele></trkpt>
<trkpt lat="46.56584" lon="4.90277"><ele>198</ele></trkpt>
<trkpt lat="46.56682" lon="4.90286"><ele>199</ele></trkpt>
<trkpt lat="46.56689" lon="4.90279"><ele>199</ele></trkpt>
<trkpt lat="46.56699" lon="4.90239"><ele>199</ele></trkpt>
<trkpt lat="46.56708" lon="4.90220"><ele>200</ele></trkpt>
<trkpt lat="46.56714" lon="4.90223"><ele>200</ele></trkpt>
<trkpt lat="46.56719" lon="4.90217"><ele>200</ele></trkpt>
<trkpt lat="46.56859" lon="4.90222"><ele>198</ele></trkpt>
    </trkseg>
  </trk>
</gpx>
