<?xml version="1.0" encoding="UTF-8"?>
<gpx version="1.1" creator="Gravel Kompass" xmlns="http://www.topografix.com/GPX/1/1">
  <metadata><name>Champagne-Gravel-Runde: Montagne de Reims, Côte des Blancs &amp; Côte des Bar – Etappe 5</name></metadata>
  <trk>
    <name>Etappe 5: Châlons-en-Champagne – Reims</name>
    <trkseg>
<trkpt lat="48.95765" lon="4.36433"><ele>83</ele></trkpt>
<trkpt lat="48.95745" lon="4.36420"><ele>83</ele></trkpt>
<trkpt lat="48.95736" lon="4.36423"><ele>83</ele></trkpt>
<trkpt lat="48.95723" lon="4.36351"><ele>84</ele></trkpt>
<trkpt lat="48.95725" lon="4.36336"><ele>84</ele></trkpt>
<trkpt lat="48.95863" lon="4.36191"><ele>83</ele></trkpt>
<trkpt lat="48.95868" lon="4.36183"><ele>83</ele></trkpt>
<trkpt lat="48.95869" lon="4.36170"><ele>83</ele></trkpt>
<trkpt lat="48.95864" lon="4.36157"><ele>82</ele></trkpt>
<trkpt lat="48.95853" lon="4.36147"><ele>82</ele></trkpt>
<trkpt lat="48.95832" lon="4.36137"><ele>83</ele></trkpt>
<trkpt lat="48.95734" lon="4.36073"><ele>84</ele></trkpt>
<trkpt lat="48.95727" lon="4.36063"><ele>84</ele></trkpt>
<trkpt lat="48.95721" lon="4.36063"><ele>84</ele></trkpt>
<trkpt lat="48.95707" lon="4.35962"><ele>83</ele></trkpt>
<trkpt lat="48.95669" lon="4.35884"><ele>83</ele></trkpt>
<trkpt lat="48.95657" lon="4.35852"><ele>84</ele></trkpt>
<trkpt lat="48.95637" lon="4.35681"><ele>84</ele></trkpt>
<trkpt lat="48.95668" lon="4.35608"><ele>83</ele></trkpt>
<trkpt lat="48.95673" lon="4.35609"><ele>83</ele></trkpt>
<trkpt lat="48.95679" lon="4.35604"><ele>83</ele></trkpt>
<trkpt lat="48.95680" lon="4.35590"><ele>83</ele></trkpt>
<trkpt lat="48.95676" lon="4.35583"><ele>83</ele></trkpt>
<trkpt lat="48.95703" lon="4.35517"><ele>81</ele></trkpt>
<trkpt lat="48.95725" lon="4.35492"><ele>82</ele></trkpt>
<trkpt lat="48.95826" lon="4.35438"><ele>82</ele></trkpt>
<trkpt lat="48.95893" lon="4.35382"><ele>82</ele></trkpt>
<trkpt lat="48.96222" lon="4.34997"><ele>81</ele></trkpt>
<trkpt lat="48.96427" lon="4.34751"><ele>81</ele></trkpt>
<trkpt lat="48.96472" lon="4.34703"><ele>81</ele></trkpt>
<trkpt lat="48.96525" lon="4.34665"><ele>81</ele></trkpt>
<trkpt lat="48.96584" lon="4.34601"><ele>81</ele></trkpt>
<trkpt lat="48.96782" lon="4.34363"><ele>81</ele></trkpt>
<trkpt lat="48.96809" lon="4.34309"><ele>81</ele></trkpt>
<trkpt lat="48.96846" lon="4.34271"><ele>81</ele></trkpt>
<trkpt lat="48.97333" lon="4.33707"><ele>80</ele></trkpt>
<trkpt lat="48.97387" lon="4.33615"><ele>80</ele></trkpt>
<trkpt lat="48.97405" lon="4.33593"><ele>81</ele></trkpt>
<trkpt lat="48.97421" lon="4.33585"><ele>82</ele></trkpt>
<trkpt lat="48.97443" lon="4.33566"><ele>82</ele></trkpt>
<trkpt lat="48.97422" lon="4.33524"><ele>82</ele></trkpt>
<trkpt lat="48.97456" lon="4.33497"><ele>80</ele></trkpt>
<trkpt lat="48.97663" lon="4.33255"><ele>80</ele></trkpt>
<trkpt lat="48.97711" lon="4.33198"><ele>81</ele></trkpt>
<trkpt lat="48.97736" lon="4.33162"><ele>80</ele></trkpt>
<trkpt lat="48.97787" lon="4.33108"><ele>80</ele></trkpt>
<trkpt lat="48.97845" lon="4.33029"><ele>80</ele></trkpt>
<trkpt lat="48.97906" lon="4.32930"><ele>80</ele></trkpt>
<trkpt lat="48.97945" lon="4.32857"><ele>81</ele></trkpt>
<trkpt lat="48.98025" lon="4.32669"><ele>81</ele></trkpt>
<trkpt lat="48.98051" lon="4.32618"><ele>80</ele></trkpt>
<trkpt lat="48.98063" lon="4.32582"><ele>81</ele></trkpt>
<trkpt lat="48.98231" lon="4.32171"><ele>80</ele></trkpt>
<trkpt lat="48.98247" lon="4.32119"><ele>82</ele></trkpt>
<trkpt lat="48.98265" lon="4.32084"><ele>81</ele></trkpt>
<trkpt lat="48.98291" lon="4.32022"><ele>81</ele></trkpt>
<trkpt lat="48.98716" lon="4.31002"><ele>80</ele></trkpt>
<trkpt lat="48.98739" lon="4.30934"><ele>81</ele></trkpt>
<trkpt lat="48.98765" lon="4.30958"><ele>80</ele></trkpt>
<trkpt lat="48.98936" lon="4.31160"><ele>80</ele></trkpt>
<trkpt lat="48.99013" lon="4.31112"><ele>80</ele></trkpt>
<trkpt lat="48.99030" lon="4.31094"><ele>80</ele></trkpt>
<trkpt lat="48.99054" lon="4.31028"><ele>80</ele></trkpt>
<trkpt lat="48.99082" lon="4.30972"><ele>80</ele></trkpt>
<trkpt lat="48.99205" lon="4.30775"><ele>81</ele></trkpt>
<trkpt lat="48.99319" lon="4.30634"><ele>80</ele></trkpt>
<trkpt lat="48.99334" lon="4.30624"><ele>80</ele></trkpt>
<trkpt lat="48.99379" lon="4.30564"><ele>80</ele></trkpt>
<trkpt lat="48.99403" lon="4.30515"><ele>79</ele></trkpt>
<trkpt lat="48.99492" lon="4.30227"><ele>79</ele></trkpt>
<trkpt lat="48.99546" lon="4.30162"><ele>78</ele></trkpt>
<trkpt lat="48.99610" lon="4.30030"><ele>79</ele></trkpt>
<trkpt lat="48.99622" lon="4.29986"><ele>79</ele></trkpt>
<trkpt lat="48.99623" lon="4.29972"><ele>79</ele></trkpt>
<trkpt lat="48.99572" lon="4.29899"><ele>79</ele></trkpt>
<trkpt lat="48.99568" lon="4.29892"><ele>79</ele></trkpt>
<trkpt lat="48.99567" lon="4.29873"><ele>79</ele></trkpt>
<trkpt lat="48.99644" lon="4.29716"><ele>80</ele></trkpt>
<trkpt lat="48.99768" lon="4.29753"><ele>80</ele></trkpt>
<trkpt lat="48.99805" lon="4.29769"><ele>81</ele></trkpt>
<trkpt lat="48.99854" lon="4.29838"><ele>80</ele></trkpt>
<trkpt lat="48.99948" lon="4.29959"><ele>80</ele></trkpt>
<trkpt lat="49.00058" lon="4.29766"><ele>82</ele></trkpt>
<trkpt lat="49.00129" lon="4.29648"><ele>80</ele></trkpt>
<trkpt lat="49.00138" lon="4.29631"><ele>80</ele></trkpt>
<trkpt lat="49.00136" lon="4.29616"><ele>81</ele></trkpt>
<trkpt lat="48.99947" lon="4.29321"><ele>78</ele></trkpt>
<trkpt lat="48.99943" lon="4.29302"><ele>79</ele></trkpt>
<trkpt lat="48.99947" lon="4.29291"><ele>79</ele></trkpt>
<trkpt lat="49.00140" lon="4.28932"><ele>78</ele></trkpt>
<trkpt lat="49.00177" lon="4.28853"><ele>78</ele></trkpt>
<trkpt lat="49.00272" lon="4.28624"><ele>78</ele></trkpt>
<trkpt lat="49.00299" lon="4.28566"><ele>78</ele></trkpt>
<trkpt lat="49.00304" lon="4.28539"><ele>78</ele></trkpt>
<trkpt lat="49.00327" lon="4.28185"><ele>78</ele></trkpt>
<trkpt lat="49.00331" lon="4.28169"><ele>78</ele></trkpt>
<trkpt lat="49.00360" lon="4.28116"><ele>78</ele></trkpt>
<trkpt lat="49.00513" lon="4.27897"><ele>78</ele></trkpt>
<trkpt lat="49.00706" lon="4.27673"><ele>78</ele></trkpt>
<trkpt lat="49.00732" lon="4.27666"><ele>78</ele></trkpt>
<trkpt lat="49.00754" lon="4.27671"><ele>78</ele></trkpt>
<trkpt lat="49.00764" lon="4.27681"><ele>78</ele></trkpt>
<trkpt lat="49.01027" lon="4.28036"><ele>78</ele></trkpt>
<trkpt lat="49.01036" lon="4.28042"><ele>78</ele></trkpt>
<trkpt lat="49.01043" lon="4.28037"><ele>78</ele></trkpt>
<trkpt lat="49.01065" lon="4.27999"><ele>79</ele></trkpt>
<trkpt lat="49.01077" lon="4.28001"><ele>79</ele></trkpt>
<trkpt lat="49.01158" lon="4.28160"><ele>80</ele></trkpt>
<trkpt lat="49.01250" lon="4.28002"><ele>80</ele></trkpt>
<trkpt lat="49.01363" lon="4.27829"><ele>81</ele></trkpt>
<trkpt lat="49.01458" lon="4.27671"><ele>80</ele></trkpt>
<trkpt lat="49.01472" lon="4.27664"><ele>80</ele></trkpt>
<trkpt lat="49.01491" lon="4.27663"><ele>79</ele></trkpt>
<trkpt lat="49.01603" lon="4.27704"><ele>80</ele></trkpt>
<trkpt lat="49.01623" lon="4.27699"><ele>80</ele></trkpt>
<trkpt lat="49.01635" lon="4.27690"><ele>79</ele></trkpt>
<trkpt lat="49.01783" lon="4.27514"><ele>79</ele></trkpt>
<trkpt lat="49.02182" lon="4.27208"><ele>88</ele></trkpt>
<trkpt lat="49.02348" lon="4.26989"><ele>94</ele></trkpt>
<trkpt lat="49.02366" lon="4.26973"><ele>95</ele></trkpt>
<trkpt lat="49.02380" lon="4.26969"><ele>95</ele></trkpt>
<trkpt lat="49.02401" lon="4.26975"><ele>95</ele></trkpt>
<trkpt lat="49.02413" lon="4.26987"><ele>96</ele></trkpt>
<trkpt lat="49.02465" lon="4.27085"><ele>96</ele></trkpt>
<trkpt lat="49.02500" lon="4.27140"><ele>97</ele></trkpt>
<trkpt lat="49.02759" lon="4.27503"><ele>96</ele></trkpt>
<trkpt lat="49.03144" lon="4.28322"><ele>98</ele></trkpt>
<trkpt lat="49.03665" lon="4.29410"><ele>104</ele></trkpt>
<trkpt lat="49.03660" lon="4.29419"><ele>104</ele></trkpt>
<trkpt lat="49.03662" lon="4.29436"><ele>103</ele></trkpt>
<trkpt lat="49.03669" lon="4.29442"><ele>103</ele></trkpt>
<trkpt lat="49.03679" lon="4.29436"><ele>103</ele></trkpt>
<trkpt lat="49.03690" lon="4.29464"><ele>103</ele></trkpt>
<trkpt lat="49.03985" lon="4.30077"><ele>108</ele></trkpt>
<trkpt lat="49.03990" lon="4.30082"><ele>108</ele></trkpt>
<trkpt lat="49.04005" lon="4.30080"><ele>108</ele></trkpt>
<trkpt lat="49.04866" lon="4.29219"><ele>125</ele></trkpt>
<trkpt lat="49.04932" lon="4.29157"><ele>121</ele></trkpt>
<trkpt lat="49.05110" lon="4.29368"><ele>124</ele></trkpt>
<trkpt lat="49.05180" lon="4.29447"><ele>125</ele></trkpt>
<trkpt lat="49.05230" lon="4.29488"><ele>125</ele></trkpt>
<trkpt lat="49.05280" lon="4.29507"><ele>125</ele></trkpt>
<trkpt lat="49.05337" lon="4.29505"><ele>124</ele></trkpt>
<trkpt lat="49.05383" lon="4.29486"><ele>122</ele></trkpt>
<trkpt lat="49.05446" lon="4.29434"><ele>117</ele></trkpt>
<trkpt lat="49.05527" lon="4.29353"><ele>111</ele></trkpt>
<trkpt lat="49.05561" lon="4.29327"><ele>110</ele></trkpt>
<trkpt lat="49.05618" lon="4.29305"><ele>108</ele></trkpt>
<trkpt lat="49.05953" lon="4.29333"><ele>107</ele></trkpt>
<trkpt lat="49.06198" lon="4.29291"><ele>103</ele></trkpt>
<trkpt lat="49.06314" lon="4.29277"><ele>100</ele></trkpt>
<trkpt lat="49.06390" lon="4.29460"><ele>101</ele></trkpt>
<trkpt lat="49.06405" lon="4.29450"><ele>100</ele></trkpt>
<trkpt lat="49.06504" lon="4.29737"><ele>102</ele></trkpt>
<trkpt lat="49.06578" lon="4.29713"><ele>106</ele></trkpt>
<trkpt lat="49.06747" lon="4.29641"><ele>112</ele></trkpt>
<trkpt lat="49.06778" lon="4.29642"><ele>113</ele></trkpt>
<trkpt lat="49.06813" lon="4.29669"><ele>114</ele></trkpt>
<trkpt lat="49.06962" lon="4.29812"><ele>118</ele></trkpt>
<trkpt lat="49.07162" lon="4.29972"><ele>121</ele></trkpt>
<trkpt lat="49.07185" lon="4.29984"><ele>121</ele></trkpt>
<trkpt lat="49.07379" lon="4.30057"><ele>126</ele></trkpt>
<trkpt lat="49.07475" lon="4.30079"><ele>127</ele></trkpt>
<trkpt lat="49.07498" lon="4.30093"><ele>127</ele></trkpt>
<trkpt lat="49.07614" lon="4.30184"><ele>129</ele></trkpt>
<trkpt lat="49.07640" lon="4.30191"><ele>130</ele></trkpt>
<trkpt lat="49.07659" lon="4.30189"><ele>130</ele></trkpt>
<trkpt lat="49.07785" lon="4.30151"><ele>134</ele></trkpt>
<trkpt lat="49.07808" lon="4.30148"><ele>135</ele></trkpt>
<trkpt lat="49.07827" lon="4.30152"><ele>135</ele></trkpt>
<trkpt lat="49.08171" lon="4.30277"><ele>126</ele></trkpt>
<trkpt lat="49.09357" lon="4.30678"><ele>121</ele></trkpt>
<trkpt lat="49.09489" lon="4.30750"><ele>120</ele></trkpt>
<trkpt lat="49.10005" lon="4.31085"><ele>109</ele></trkpt>
<trkpt lat="49.10031" lon="4.31111"><ele>109</ele></trkpt>
<trkpt lat="49.10283" lon="4.31483"><ele>107</ele></trkpt>
<trkpt lat="49.10531" lon="4.31832"><ele>106</ele></trkpt>
<trkpt lat="49.10747" lon="4.31979"><ele>102</ele></trkpt>
<trkpt lat="49.10776" lon="4.31958"><ele>102</ele></trkpt>
<trkpt lat="49.10875" lon="4.31815"><ele>103</ele></trkpt>
<trkpt lat="49.11134" lon="4.32093"><ele>108</ele></trkpt>
<trkpt lat="49.11184" lon="4.32175"><ele>110</ele></trkpt>
<trkpt lat="49.11818" lon="4.33324"><ele>121</ele></trkpt>
<trkpt lat="49.11954" lon="4.33578"><ele>122</ele></trkpt>
<trkpt lat="49.11962" lon="4.33582"><ele>122</ele></trkpt>
<trkpt lat="49.11971" lon="4.33575"><ele>123</ele></trkpt>
<trkpt lat="49.11983" lon="4.33502"><ele>123</ele></trkpt>
<trkpt lat="49.11990" lon="4.33507"><ele>123</ele></trkpt>
<trkpt lat="49.12070" lon="4.33594"><ele>124</ele></trkpt>
<trkpt lat="49.12105" lon="4.33639"><ele>124</ele></trkpt>
<trkpt lat="49.12144" lon="4.33702"><ele>125</ele></trkpt>
<trkpt lat="49.12222" lon="4.33845"><ele>127</ele></trkpt>
<trkpt lat="49.12236" lon="4.33863"><ele>127</ele></trkpt>
<trkpt lat="49.12391" lon="4.33989"><ele>126</ele></trkpt>
<trkpt lat="49.12417" lon="4.34000"><ele>126</ele></trkpt>
<trkpt lat="49.12468" lon="4.34012"><ele>126</ele></trkpt>
<trkpt lat="49.12494" lon="4.34024"><ele>125</ele></trkpt>
<trkpt lat="49.12558" lon="4.34093"><ele>124</ele></trkpt>
<trkpt lat="49.12643" lon="4.34201"><ele>122</ele></trkpt>
<trkpt lat="49.12674" lon="4.34265"><ele>121</ele></trkpt>
<trkpt lat="49.12687" lon="4.34302"><ele>121</ele></trkpt>
<trkpt lat="49.12700" lon="4.34325"><ele>121</ele></trkpt>
<trkpt lat="49.12721" lon="4.34343"><ele>120</ele></trkpt>
<trkpt lat="49.12805" lon="4.34390"><ele>118</ele></trkpt>
<trkpt lat="49.12826" lon="4.34405"><ele>118</ele></trkpt>
<trkpt lat="49.12873" lon="4.34457"><ele>116</ele></trkpt>
<trkpt lat="49.12816" lon="4.34562"><ele>118</ele></trkpt>
<trkpt lat="49.12784" lon="4.34630"><ele>119</ele></trkpt>
<trkpt lat="49.12737" lon="4.34745"><ele>121</ele></trkpt>
<trkpt lat="49.12646" lon="4.34917"><ele>126</ele></trkpt>
<trkpt lat="49.12644" lon="4.34926"><ele>126</ele></trkpt>
<trkpt lat="49.12649" lon="4.35002"><ele>126</ele></trkpt>
<trkpt lat="49.12732" lon="4.35447"><ele>126</ele></trkpt>
<trkpt lat="49.12739" lon="4.35475"><ele>125</ele></trkpt>
<trkpt lat="49.12758" lon="4.35477"><ele>124</ele></trkpt>
<trkpt lat="49.12764" lon="4.35488"><ele>124</ele></trkpt>
<trkpt lat="49.12775" lon="4.35579"><ele>125</ele></trkpt>
<trkpt lat="49.12775" lon="4.35689"><ele>124</ele></trkpt>
<trkpt lat="49.12766" lon="4.35781"><ele>124</ele></trkpt>
<trkpt lat="49.12749" lon="4.35867"><ele>124</ele></trkpt>
<trkpt lat="49.12680" lon="4.36132"><ele>122</ele></trkpt>
<trkpt lat="49.12677" lon="4.36205"><ele>122</ele></trkpt>
<trkpt lat="49.12679" lon="4.36240"><ele>121</ele></trkpt>
<trkpt lat="49.13883" lon="4.36583"><ele>112</ele></trkpt>
<trkpt lat="49.13910" lon="4.36595"><ele>112</ele></trkpt>
<trkpt lat="49.13914" lon="4.36592"><ele>112</ele></trkpt>
<trkpt lat="49.14002" lon="4.36609"><ele>112</ele></trkpt>
<trkpt lat="49.14006" lon="4.36569"><ele>112</ele></trkpt>
<trkpt lat="49.14220" lon="4.36576"><ele>114</ele></trkpt>
<trkpt lat="49.14249" lon="4.36285"><ele>114</ele></trkpt>
<trkpt lat="49.14295" lon="4.36257"><ele>116</ele></trkpt>
<trkpt lat="49.14381" lon="4.36175"><ele>117</ele></trkpt>
<trkpt lat="49.14499" lon="4.35994"><ele>117</ele></trkpt>
<trkpt lat="49.14856" lon="4.35324"><ele>116</ele></trkpt>
<trkpt lat="49.14923" lon="4.35210"><ele>116</ele></trkpt>
<trkpt lat="49.15483" lon="4.34508"><ele>122</ele></trkpt>
<trkpt lat="49.15676" lon="4.34213"><ele>124</ele></trkpt>
<trkpt lat="49.15710" lon="4.34168"><ele>124</ele></trkpt>
<trkpt lat="49.15748" lon="4.34138"><ele>125</ele></trkpt>
<trkpt lat="49.15868" lon="4.34088"><ele>122</ele></trkpt>
<trkpt lat="49.15906" lon="4.34029"><ele>122</ele></trkpt>
<trkpt lat="49.15950" lon="4.34007"><ele>122</ele></trkpt>
<trkpt lat="49.15953" lon="4.33992"><ele>122</ele></trkpt>
<trkpt lat="49.15950" lon="4.33917"><ele>122</ele></trkpt>
<trkpt lat="49.15987" lon="4.33837"><ele>122</ele></trkpt>
<trkpt lat="49.16066" lon="4.33753"><ele>123</ele></trkpt>
<trkpt lat="49.16081" lon="4.33731"><ele>123</ele></trkpt>
<trkpt lat="49.16525" lon="4.32454"><ele>145</ele></trkpt>
<trkpt lat="49.16674" lon="4.32177"><ele>148</ele></trkpt>
<trkpt lat="49.16662" lon="4.32141"><ele>148</ele></trkpt>
<trkpt lat="49.16626" lon="4.31954"><ele>150</ele></trkpt>
<trkpt lat="49.16619" lon="4.31907"><ele>150</ele></trkpt>
<trkpt lat="49.16621" lon="4.31850"><ele>152</ele></trkpt>
<trkpt lat="49.16671" lon="4.31496"><ele>161</ele></trkpt>
<trkpt lat="49.16667" lon="4.31436"><ele>161</ele></trkpt>
<trkpt lat="49.16640" lon="4.31239"><ele>163</ele></trkpt>
<trkpt lat="49.16617" lon="4.31136"><ele>164</ele></trkpt>
<trkpt lat="49.16586" lon="4.30918"><ele>165</ele></trkpt>
<trkpt lat="49.16573" lon="4.30858"><ele>164</ele></trkpt>
<trkpt lat="49.16536" lon="4.30730"><ele>164</ele></trkpt>
<trkpt lat="49.16528" lon="4.30686"><ele>164</ele></trkpt>
<trkpt lat="49.16526" lon="4.30664"><ele>163</ele></trkpt>
<trkpt lat="49.16524" lon="4.30593"><ele>161</ele></trkpt>
<trkpt lat="49.16520" lon="4.30573"><ele>161</ele></trkpt>
<trkpt lat="49.16382" lon="4.30092"><ele>149</ele></trkpt>
<trkpt lat="49.16342" lon="4.29971"><ele>146</ele></trkpt>
<trkpt lat="49.16282" lon="4.29767"><ele>138</ele></trkpt>
<trkpt lat="49.16288" lon="4.29758"><ele>138</ele></trkpt>
<trkpt lat="49.16298" lon="4.29753"><ele>138</ele></trkpt>
<trkpt lat="49.16675" lon="4.29724"><ele>131</ele></trkpt>
<trkpt lat="49.16682" lon="4.29719"><ele>131</ele></trkpt>
<trkpt lat="49.16684" lon="4.29707"><ele>131</ele></trkpt>
<trkpt lat="49.16642" lon="4.29541"><ele>127</ele></trkpt>
<trkpt lat="49.16622" lon="4.29471"><ele>126</ele></trkpt>
<trkpt lat="49.16595" lon="4.29409"><ele>125</ele></trkpt>
<trkpt lat="49.16421" lon="4.29110"><ele>120</ele></trkpt>
<trkpt lat="49.16191" lon="4.28724"><ele>123</ele></trkpt>
<trkpt lat="49.16243" lon="4.28654"><ele>121</ele></trkpt>
<trkpt lat="49.16139" lon="4.28447"><ele>123</ele></trkpt>
<trkpt lat="49.16004" lon="4.28163"><ele>121</ele></trkpt>
<trkpt lat="49.15846" lon="4.27808"><ele>114</ele></trkpt>
<trkpt lat="49.15792" lon="4.27665"><ele>111</ele></trkpt>
<trkpt lat="49.15759" lon="4.27355"><ele>109</ele></trkpt>
<trkpt lat="49.15763" lon="4.27347"><ele>108</ele></trkpt>
<trkpt lat="49.15820" lon="4.27318"><ele>110</ele></trkpt>
<trkpt lat="49.15632" lon="4.26912"><ele>103</ele></trkpt>
<trkpt lat="49.15504" lon="4.26626"><ele>103</ele></trkpt>
<trkpt lat="49.15980" lon="4.26032"><ele>101</ele></trkpt>
<trkpt lat="49.15875" lon="4.25814"><ele>99</ele></trkpt>
<trkpt lat="49.15816" lon="4.25701"><ele>99</ele></trkpt>
<trkpt lat="49.15504" lon="4.25259"><ele>96</ele></trkpt>
<trkpt lat="49.15487" lon="4.25231"><ele>96</ele></trkpt>
<trkpt lat="49.15479" lon="4.25222"><ele>96</ele></trkpt>
<trkpt lat="49.15438" lon="4.25207"><ele>95</ele></trkpt>
<trkpt lat="49.15419" lon="4.25192"><ele>95</ele></trkpt>
<trkpt lat="49.15403" lon="4.25174"><ele>95</ele></trkpt>
<trkpt lat="49.15357" lon="4.25108"><ele>94</ele></trkpt>
<trkpt lat="49.15357" lon="4.25095"><ele>94</ele></trkpt>
<trkpt lat="49.15351" lon="4.25086"><ele>94</ele></trkpt>
<trkpt lat="49.15344" lon="4.25087"><ele>94</ele></trkpt>
<trkpt lat="49.15339" lon="4.25093"><ele>94</ele></trkpt>
<trkpt lat="49.15322" lon="4.25087"><ele>94</ele></trkpt>
<trkpt lat="49.15305" lon="4.25088"><ele>95</ele></trkpt>
<trkpt lat="49.15252" lon="4.25112"><ele>95</ele></trkpt>
<trkpt lat="49.15246" lon="4.25102"><ele>95</ele></trkpt>
<trkpt lat="49.15210" lon="4.25036"><ele>94</ele></trkpt>
<trkpt lat="49.15203" lon="4.25007"><ele>94</ele></trkpt>
<trkpt lat="49.15189" lon="4.24893"><ele>94</ele></trkpt>
<trkpt lat="49.15182" lon="4.24801"><ele>94</ele></trkpt>
<trkpt lat="49.15184" lon="4.24748"><ele>94</ele></trkpt>
<trkpt lat="49.15188" lon="4.24728"><ele>94</ele></trkpt>
<trkpt lat="49.15251" lon="4.24656"><ele>95</ele></trkpt>
<trkpt lat="49.15380" lon="4.24449"><ele>94</ele></trkpt>
<trkpt lat="49.15448" lon="4.24332"><ele>95</ele></trkpt>
<trkpt lat="49.15519" lon="4.24223"><ele>94</ele></trkpt>
<trkpt lat="49.15527" lon="4.24203"><ele>92</ele></trkpt>
<trkpt lat="49.15518" lon="4.24153"><ele>94</ele></trkpt>
<trkpt lat="49.15510" lon="4.24135"><ele>94</ele></trkpt>
<trkpt lat="49.15509" lon="4.24111"><ele>94</ele></trkpt>
<trkpt lat="49.15519" lon="4.24071"><ele>94</ele></trkpt>
<trkpt lat="49.15568" lon="4.23919"><ele>94</ele></trkpt>
<trkpt lat="49.15645" lon="4.23780"><ele>94</ele></trkpt>
<trkpt lat="49.15679" lon="4.23733"><ele>94</ele></trkpt>
<trkpt lat="49.15707" lon="4.23679"><ele>94</ele></trkpt>
<trkpt lat="49.15738" lon="4.23611"><ele>93</ele></trkpt>
<trkpt lat="49.15752" lon="4.23558"><ele>94</ele></trkpt>
<trkpt lat="49.15674" lon="4.23466"><ele>95</ele></trkpt>
<trkpt lat="49.16059" lon="4.22152"><ele>93</ele></trkpt>
<trkpt lat="49.16082" lon="4.22105"><ele>94</ele></trkpt>
<trkpt lat="49.16135" lon="4.22032"><ele>94</ele></trkpt>
<trkpt lat="49.16200" lon="4.21959"><ele>94</ele></trkpt>
<trkpt lat="49.16294" lon="4.21878"><ele>95</ele></trkpt>
<trkpt lat="49.16320" lon="4.21848"><ele>94</ele></trkpt>
<trkpt lat="49.16339" lon="4.21815"><ele>94</ele></trkpt>
<trkpt lat="49.16412" lon="4.21642"><ele>93</ele></trkpt>
<trkpt lat="49.16473" lon="4.21502"><ele>92</ele></trkpt>
<trkpt lat="49.16511" lon="4.21424"><ele>92</ele></trkpt>
<trkpt lat="49.16591" lon="4.21227"><ele>92</ele></trkpt>
<trkpt lat="49.16605" lon="4.21149"><ele>92</ele></trkpt>
<trkpt lat="49.16623" lon="4.20960"><ele>92</ele></trkpt>
<trkpt lat="49.16638" lon="4.20886"><ele>92</ele></trkpt>
<trkpt lat="49.16679" lon="4.20713"><ele>92</ele></trkpt>
<trkpt lat="49.16788" lon="4.20304"><ele>92</ele></trkpt>
<trkpt lat="49.16808" lon="4.20258"><ele>92</ele></trkpt>
<trkpt lat="49.16849" lon="4.20192"><ele>93</ele></trkpt>
<trkpt lat="49.16785" lon="4.20081"><ele>96</ele></trkpt>
<trkpt lat="49.17375" lon="4.19215"><ele>93</ele></trkpt>
<trkpt lat="49.17386" lon="4.19194"><ele>94</ele></trkpt>
<trkpt lat="49.17387" lon="4.19175"><ele>94</ele></trkpt>
<trkpt lat="49.17385" lon="4.19140"><ele>94</ele></trkpt>
<trkpt lat="49.17389" lon="4.19124"><ele>94</ele></trkpt>
<trkpt lat="49.17458" lon="4.19023"><ele>94</ele></trkpt>
<trkpt lat="49.17466" lon="4.19008"><ele>94</ele></trkpt>
<trkpt lat="49.17471" lon="4.18985"><ele>94</ele></trkpt>
<trkpt lat="49.17584" lon="4.18810"><ele>93</ele></trkpt>
<trkpt lat="49.17637" lon="4.18745"><ele>92</ele></trkpt>
<trkpt lat="49.17667" lon="4.18717"><ele>92</ele></trkpt>
<trkpt lat="49.17675" lon="4.18703"><ele>92</ele></trkpt>
<trkpt lat="49.17709" lon="4.18603"><ele>93</ele></trkpt>
<trkpt lat="49.17754" lon="4.18612"><ele>91</ele></trkpt>
<trkpt lat="49.18202" lon="4.17570"><ele>90</ele></trkpt>
<trkpt lat="49.18499" lon="4.16891"><ele>92</ele></trkpt>
<trkpt lat="49.18501" lon="4.16878"><ele>92</ele></trkpt>
<trkpt lat="49.18636" lon="4.16554"><ele>91</ele></trkpt>
<trkpt lat="49.18817" lon="4.16137"><ele>91</ele></trkpt>
<trkpt lat="49.18940" lon="4.15861"><ele>92</ele></trkpt>
<trkpt lat="49.18949" lon="4.15831"><ele>92</ele></trkpt>
<trkpt lat="49.19047" lon="4.15606"><ele>89</ele></trkpt>
<trkpt lat="49.19062" lon="4.15581"><ele>90</ele></trkpt>
<trkpt lat="49.19209" lon="4.15231"><ele>89</ele></trkpt>
<trkpt lat="49.19249" lon="4.15105"><ele>89</ele></trkpt>
<trkpt lat="49.19252" lon="4.15085"><ele>89</ele></trkpt>
<trkpt lat="49.19233" lon="4.15064"><ele>89</ele></trkpt>
<trkpt lat="49.19156" lon="4.14998"><ele>89</ele></trkpt>
<trkpt lat="49.19237" lon="4.14836"><ele>89</ele></trkpt>
<trkpt lat="49.19232" lon="4.14814"><ele>89</ele></trkpt>
<trkpt lat="49.19172" lon="4.14763"><ele>90</ele></trkpt>
<trkpt lat="49.19401" lon="4.14295"><ele>89</ele></trkpt>
<trkpt lat="49.19397" lon="4.14291"><ele>89</ele></trkpt>
<trkpt lat="49.19535" lon="4.14001"><ele>88</ele></trkpt>
<trkpt lat="49.19547" lon="4.13964"><ele>90</ele></trkpt>
<trkpt lat="49.19577" lon="4.13840"><ele>89</ele></trkpt>
<trkpt lat="49.19586" lon="4.13828"><ele>89</ele></trkpt>
<trkpt lat="49.19611" lon="4.13702"><ele>89</ele></trkpt>
<trkpt lat="49.19442" lon="4.13621"><ele>91</ele></trkpt>
<trkpt lat="49.19220" lon="4.13471"><ele>97</ele></trkpt>
<trkpt lat="49.19099" lon="4.13362"><ele>94</ele></trkpt>
<trkpt lat="49.18973" lon="4.13215"><ele>94</ele></trkpt>
<trkpt lat="49.18934" lon="4.13178"><ele>93</ele></trkpt>
<trkpt lat="49.18755" lon="4.13047"><ele>93</ele></trkpt>
<trkpt lat="49.18744" lon="4.13025"><ele>93</ele></trkpt>
<trkpt lat="49.18499" lon="4.12809"><ele>96</ele></trkpt>
<trkpt lat="49.18496" lon="4.12785"><ele>96</ele></trkpt>
<trkpt lat="49.18547" lon="4.12365"><ele>98</ele></trkpt>
<trkpt lat="49.18572" lon="4.12062"><ele>101</ele></trkpt>
<trkpt lat="49.18575" lon="4.12053"><ele>102</ele></trkpt>
<trkpt lat="49.18593" lon="4.12043"><ele>102</ele></trkpt>
<trkpt lat="49.18604" lon="4.12046"><ele>102</ele></trkpt>
<trkpt lat="49.18644" lon="4.12080"><ele>102</ele></trkpt>
<trkpt lat="49.18665" lon="4.12016"><ele>100</ele></trkpt>
<trkpt lat="49.18877" lon="4.11972"><ele>97</ele></trkpt>
<trkpt lat="49.18897" lon="4.11964"><ele>96</ele></trkpt>
<trkpt lat="49.18916" lon="4.11949"><ele>96</ele></trkpt>
<trkpt lat="49.19138" lon="4.11708"><ele>92</ele></trkpt>
<trkpt lat="49.19206" lon="4.11783"><ele>92</ele></trkpt>
<trkpt lat="49.19273" lon="4.11792"><ele>91</ele></trkpt>
<trkpt lat="49.19461" lon="4.11898"><ele>89</ele></trkpt>
<trkpt lat="49.19480" lon="4.11901"><ele>89</ele></trkpt>
<trkpt lat="49.19506" lon="4.11886"><ele>88</ele></trkpt>
<trkpt lat="49.19519" lon="4.11899"><ele>88</ele></trkpt>
<trkpt lat="49.19558" lon="4.12007"><ele>92</ele></trkpt>
<trkpt lat="49.19638" lon="4.12273"><ele>96</ele></trkpt>
<trkpt lat="49.19657" lon="4.12258"><ele>94</ele></trkpt>
<trkpt lat="49.19673" lon="4.12235"><ele>92</ele></trkpt>
<trkpt lat="49.19678" lon="4.12215"><ele>90</ele></trkpt>
<trkpt lat="49.19684" lon="4.12112"><ele>89</ele></trkpt>
<trkpt lat="49.19692" lon="4.12073"><ele>90</ele></trkpt>
<trkpt lat="49.19716" lon="4.12002"><ele>89</ele></trkpt>
<trkpt lat="49.19828" lon="4.11702"><ele>88</ele></trkpt>
<trkpt lat="49.19843" lon="4.11688"><ele>89</ele></trkpt>
<trkpt lat="49.19858" lon="4.11687"><ele>90</ele></trkpt>
<trkpt lat="49.19883" lon="4.11701"><ele>90</ele></trkpt>
<trkpt lat="49.19948" lon="4.11755"><ele>91</ele></trkpt>
<trkpt lat="49.20277" lon="4.12125"><ele>88</ele></trkpt>
<trkpt lat="49.20314" lon="4.12154"><ele>88</ele></trkpt>
<trkpt lat="49.20353" lon="4.12173"><ele>88</ele></trkpt>
<trkpt lat="49.20581" lon="4.12252"><ele>85</ele></trkpt>
<trkpt lat="49.20602" lon="4.12240"><ele>85</ele></trkpt>
<trkpt lat="49.20626" lon="4.12245"><ele>84</ele></trkpt>
<trkpt lat="49.20704" lon="4.12326"><ele>85</ele></trkpt>
<trkpt lat="49.20818" lon="4.12407"><ele>86</ele></trkpt>
<trkpt lat="49.20828" lon="4.12433"><ele>86</ele></trkpt>
<trkpt lat="49.20841" lon="4.12508"><ele>85</ele></trkpt>
<trkpt lat="49.20871" lon="4.12424"><ele>86</ele></trkpt>
<trkpt lat="49.21088" lon="4.11751"><ele>85</ele></trkpt>
<trkpt lat="49.21109" lon="4.11696"><ele>85</ele></trkpt>
<trkpt lat="49.21149" lon="4.11611"><ele>85</ele></trkpt>
<trkpt lat="49.21207" lon="4.11515"><ele>85</ele></trkpt>
<trkpt lat="49.21647" lon="4.10897"><ele>84</ele></trkpt>
<trkpt lat="49.21696" lon="4.10821"><ele>84</ele></trkpt>
<trkpt lat="49.21748" lon="4.10725"><ele>85</ele></trkpt>
<trkpt lat="49.22159" lon="4.09802"><ele>84</ele></trkpt>
<trkpt lat="49.22213" lon="4.09666"><ele>84</ele></trkpt>
<trkpt lat="49.22257" lon="4.09513"><ele>87</ele></trkpt>
<trkpt lat="49.22378" lon="4.08905"><ele>84</ele></trkpt>
<trkpt lat="49.22662" lon="4.07530"><ele>85</ele></trkpt>
<trkpt lat="49.22722" lon="4.07232"><ele>85</ele></trkpt>
<trkpt lat="49.22715" lon="4.07206"><ele>84</ele></trkpt>
<trkpt lat="49.22732" lon="4.07118"><ele>84</ele></trkpt>
<trkpt lat="49.22721" lon="4.07056"><ele>86</ele></trkpt>
<trkpt lat="49.22723" lon="4.07036"><ele>86</ele></trkpt>
<trkpt lat="49.22731" lon="4.07015"><ele>85</ele></trkpt>
<trkpt lat="49.22761" lon="4.06981"><ele>84</ele></trkpt>
<trkpt lat="49.22767" lon="4.06961"><ele>84</ele></trkpt>
<trkpt lat="49.22975" lon="4.05956"><ele>84</ele></trkpt>
<trkpt lat="49.23255" lon="4.04872"><ele>85</ele></trkpt>
<trkpt lat="49.23262" lon="4.04840"><ele>85</ele></trkpt>
<trkpt lat="49.23308" lon="4.04868"><ele>86</ele></trkpt>
<trkpt lat="49.23317" lon="4.04800"><ele>84</ele></trkpt>
<trkpt lat="49.23322" lon="4.04795"><ele>84</ele></trkpt>
<trkpt lat="49.23394" lon="4.04528"><ele>83</ele></trkpt>
<trkpt lat="49.23444" lon="4.04582"><ele>86</ele></trkpt>
<trkpt lat="49.23498" lon="4.04499"><ele>87</ele></trkpt>
<trkpt lat="49.23522" lon="4.04430"><ele>87</ele></trkpt>
<trkpt lat="49.23621" lon="4.04281"><ele>88</ele></trkpt>
<trkpt lat="49.23703" lon="4.04149"><ele>85</ele></trkpt>
<trkpt lat="49.24001" lon="4.04148"><ele>88</ele></trkpt>
<trkpt lat="49.24077" lon="4.04389"><ele>96</ele></trkpt>
<trkpt lat="49.24083" lon="4.04424"><ele>97</ele></trkpt>
<trkpt lat="49.24095" lon="4.04423"><ele>97</ele></trkpt>
<trkpt lat="49.24106" lon="4.04414"><ele>97</ele></trkpt>
<trkpt lat="49.24137" lon="4.04427"><ele>98</ele></trkpt>
<trkpt lat="49.24155" lon="4.04450"><ele>98</ele></trkpt>
<trkpt lat="49.24162" lon="4.04469"><ele>98</ele></trkpt>
<trkpt lat="49.24255" lon="4.04434"><ele>100</ele></trkpt>
<trkpt lat="49.24316" lon="4.04386"><ele>100</ele></trkpt>
<trkpt lat="49.24337" lon="4.04362"><ele>99</ele></trkpt>
<trkpt lat="49.24377" lon="4.04368"><ele>99</ele></trkpt>
<trkpt lat="49.24438" lon="4.04352"><ele>98</ele></trkpt>
<trkpt lat="49.24451" lon="4.04353"><ele>98</ele></trkpt>
<trkpt lat="49.24466" lon="4.04363"><ele>98</ele></trkpt>
<trkpt lat="49.24494" lon="4.04407"><ele>97</ele></trkpt>
<trkpt lat="49.24527" lon="4.04373"><ele>95</ele></trkpt>
<trkpt lat="49.24573" lon="4.04315"><ele>93</ele></trkpt>
<trkpt lat="49.24611" lon="4.04260"><ele>92</ele></trkpt>
<trkpt lat="49.24676" lon="4.04370"><ele>94</ele></trkpt>
<trkpt lat="49.24681" lon="4.04386"><ele>95</ele></trkpt>
<trkpt lat="49.24803" lon="4.04284"><ele>92</ele></trkpt>
<trkpt lat="49.24934" lon="4.04183"><ele>91</ele></trkpt>
<trkpt lat="49.25107" lon="4.04076"><ele>88</ele></trkpt>
<trkpt lat="49.25188" lon="4.04030"><ele>89</ele></trkpt>
<trkpt lat="49.25350" lon="4.03951"><ele>91</ele></trkpt>
<trkpt lat="49.25364" lon="4.03967"><ele>91</ele></trkpt>
<trkpt lat="49.25370" lon="4.03956"><ele>91</ele></trkpt>
<trkpt lat="49.25374" lon="4.03955"><ele>91</ele></trkpt>
<trkpt lat="49.25435" lon="4.03947"><ele>90</ele></trkpt>
<trkpt lat="49.25489" lon="4.03933"><ele>90</ele></trkpt>
<trkpt lat="49.25532" lon="4.03920"><ele>89</ele></trkpt>
<trkpt lat="49.25564" lon="4.03905"><ele>88</ele></trkpt>
<trkpt lat="49.25616" lon="4.03875"><ele>87</ele></trkpt>
<trkpt lat="49.25671" lon="4.03824"><ele>86</ele></trkpt>
<trkpt lat="49.25779" lon="4.03746"><ele>87</ele></trkpt>
<trkpt lat="49.25783" lon="4.03718"><ele>87</ele></trkpt>
<trkpt lat="49.25779" lon="4.03654"><ele>87</ele></trkpt>
<trkpt lat="49.25790" lon="4.03540"><ele>88</ele></trkpt>
<trkpt lat="49.25787" lon="4.03486"><ele>88</ele></trkpt>
<trkpt lat="49.25797" lon="4.03263"><ele>86</ele></trkpt>
<trkpt lat="49.25796" lon="4.03236"><ele>86</ele></trkpt>
<trkpt lat="49.25802" lon="4.03231"><ele>86</ele></trkpt>
<trkpt lat="49.25801" lon="4.03227"><ele>86</ele></trkpt>
<trkpt lat="49.25839" lon="4.03198"><ele>87</ele></trkpt>
    </trkseg>
  </trk>
</gpx>
