<?xml version="1.0" encoding="UTF-8"?>
<gpx version="1.1" creator="Gravel Kompass" xmlns="http://www.topografix.com/GPX/1/1">
  <metadata><name>Champagne-Gravel-Runde: Montagne de Reims, Côte des Blancs &amp; Côte des Bar – Etappe 4</name></metadata>
  <trk>
    <name>Etappe 4: Troyes – Châlons-en-Champagne</name>
    <trkseg>
<trkpt lat="48.29729" lon="4.07439"><ele>109</ele></trkpt>
<trkpt lat="48.29731" lon="4.07437"><ele>109</ele></trkpt>
<trkpt lat="48.29751" lon="4.07471"><ele>109</ele></trkpt>
<trkpt lat="48.29914" lon="4.07313"><ele>108</ele></trkpt>
<trkpt lat="48.29938" lon="4.07316"><ele>109</ele></trkpt>
<trkpt lat="48.29969" lon="4.07312"><ele>109</ele></trkpt>
<trkpt lat="48.29993" lon="4.07368"><ele>108</ele></trkpt>
<trkpt lat="48.29999" lon="4.07368"><ele>108</ele></trkpt>
<trkpt lat="48.30057" lon="4.07325"><ele>108</ele></trkpt>
<trkpt lat="48.30066" lon="4.07323"><ele>108</ele></trkpt>
<trkpt lat="48.30161" lon="4.07268"><ele>104</ele></trkpt>
<trkpt lat="48.30186" lon="4.07354"><ele>105</ele></trkpt>
<trkpt lat="48.30329" lon="4.07215"><ele>104</ele></trkpt>
<trkpt lat="48.30369" lon="4.07324"><ele>105</ele></trkpt>
<trkpt lat="48.30380" lon="4.07306"><ele>105</ele></trkpt>
<trkpt lat="48.30530" lon="4.07182"><ele>104</ele></trkpt>
<trkpt lat="48.30534" lon="4.07174"><ele>104</ele></trkpt>
<trkpt lat="48.30798" lon="4.06949"><ele>104</ele></trkpt>
<trkpt lat="48.30860" lon="4.06911"><ele>105</ele></trkpt>
<trkpt lat="48.30899" lon="4.07015"><ele>103</ele></trkpt>
<trkpt lat="48.30931" lon="4.07052"><ele>103</ele></trkpt>
<trkpt lat="48.30959" lon="4.07102"><ele>103</ele></trkpt>
<trkpt lat="48.31070" lon="4.07456"><ele>103</ele></trkpt>
<trkpt lat="48.31082" lon="4.07461"><ele>103</ele></trkpt>
<trkpt lat="48.31106" lon="4.07459"><ele>103</ele></trkpt>
<trkpt lat="48.31199" lon="4.07486"><ele>103</ele></trkpt>
<trkpt lat="48.31533" lon="4.07488"><ele>103</ele></trkpt>
<trkpt lat="48.31533" lon="4.07482"><ele>103</ele></trkpt>
<trkpt lat="48.31614" lon="4.07464"><ele>103</ele></trkpt>
<trkpt lat="48.31722" lon="4.07405"><ele>104</ele></trkpt>
<trkpt lat="48.31843" lon="4.07315"><ele>102</ele></trkpt>
<trkpt lat="48.31994" lon="4.07216"><ele>102</ele></trkpt>
<trkpt lat="48.32065" lon="4.07160"><ele>102</ele></trkpt>
<trkpt lat="48.32085" lon="4.07135"><ele>102</ele></trkpt>
<trkpt lat="48.32148" lon="4.06977"><ele>102</ele></trkpt>
<trkpt lat="48.32171" lon="4.06951"><ele>104</ele></trkpt>
<trkpt lat="48.32182" lon="4.06950"><ele>102</ele></trkpt>
<trkpt lat="48.32246" lon="4.06997"><ele>103</ele></trkpt>
<trkpt lat="48.32274" lon="4.07006"><ele>103</ele></trkpt>
<trkpt lat="48.32310" lon="4.07001"><ele>103</ele></trkpt>
<trkpt lat="48.32383" lon="4.06969"><ele>102</ele></trkpt>
<trkpt lat="48.32551" lon="4.06845"><ele>102</ele></trkpt>
<trkpt lat="48.32634" lon="4.06802"><ele>104</ele></trkpt>
<trkpt lat="48.32708" lon="4.06754"><ele>107</ele></trkpt>
<trkpt lat="48.32941" lon="4.06517"><ele>102</ele></trkpt>
<trkpt lat="48.33061" lon="4.06430"><ele>100</ele></trkpt>
<trkpt lat="48.33075" lon="4.06425"><ele>101</ele></trkpt>
<trkpt lat="48.33093" lon="4.06429"><ele>102</ele></trkpt>
<trkpt lat="48.33120" lon="4.06465"><ele>102</ele></trkpt>
<trkpt lat="48.33177" lon="4.06571"><ele>102</ele></trkpt>
<trkpt lat="48.33202" lon="4.06627"><ele>101</ele></trkpt>
<trkpt lat="48.33207" lon="4.06656"><ele>101</ele></trkpt>
<trkpt lat="48.33217" lon="4.06830"><ele>102</ele></trkpt>
<trkpt lat="48.33230" lon="4.06961"><ele>101</ele></trkpt>
<trkpt lat="48.33243" lon="4.07030"><ele>102</ele></trkpt>
<trkpt lat="48.33282" lon="4.07100"><ele>101</ele></trkpt>
<trkpt lat="48.33334" lon="4.07183"><ele>102</ele></trkpt>
<trkpt lat="48.33395" lon="4.07311"><ele>102</ele></trkpt>
<trkpt lat="48.33413" lon="4.07337"><ele>103</ele></trkpt>
<trkpt lat="48.33507" lon="4.07281"><ele>103</ele></trkpt>
<trkpt lat="48.33590" lon="4.07437"><ele>111</ele></trkpt>
<trkpt lat="48.33609" lon="4.07465"><ele>112</ele></trkpt>
<trkpt lat="48.33613" lon="4.07458"><ele>111</ele></trkpt>
<trkpt lat="48.33660" lon="4.07489"><ele>112</ele></trkpt>
<trkpt lat="48.33700" lon="4.07528"><ele>114</ele></trkpt>
<trkpt lat="48.33750" lon="4.07554"><ele>113</ele></trkpt>
<trkpt lat="48.33770" lon="4.07568"><ele>112</ele></trkpt>
<trkpt lat="48.33857" lon="4.07644"><ele>110</ele></trkpt>
<trkpt lat="48.33877" lon="4.07674"><ele>110</ele></trkpt>
<trkpt lat="48.33932" lon="4.07797"><ele>112</ele></trkpt>
<trkpt lat="48.34123" lon="4.07538"><ele>112</ele></trkpt>
<trkpt lat="48.34294" lon="4.07832"><ele>117</ele></trkpt>
<trkpt lat="48.34640" lon="4.08374"><ele>128</ele></trkpt>
<trkpt lat="48.34772" lon="4.08587"><ele>133</ele></trkpt>
<trkpt lat="48.35023" lon="4.09009"><ele>142</ele></trkpt>
<trkpt lat="48.35171" lon="4.09244"><ele>145</ele></trkpt>
<trkpt lat="48.35261" lon="4.09404"><ele>145</ele></trkpt>
<trkpt lat="48.35286" lon="4.09462"><ele>144</ele></trkpt>
<trkpt lat="48.35311" lon="4.09564"><ele>143</ele></trkpt>
<trkpt lat="48.35325" lon="4.09610"><ele>142</ele></trkpt>
<trkpt lat="48.35340" lon="4.09643"><ele>141</ele></trkpt>
<trkpt lat="48.35504" lon="4.09878"><ele>134</ele></trkpt>
<trkpt lat="48.35901" lon="4.10421"><ele>132</ele></trkpt>
<trkpt lat="48.35908" lon="4.10433"><ele>132</ele></trkpt>
<trkpt lat="48.35908" lon="4.10446"><ele>132</ele></trkpt>
<trkpt lat="48.35971" lon="4.10454"><ele>133</ele></trkpt>
<trkpt lat="48.35970" lon="4.10471"><ele>133</ele></trkpt>
<trkpt lat="48.35973" lon="4.10485"><ele>132</ele></trkpt>
<trkpt lat="48.36011" lon="4.10585"><ele>132</ele></trkpt>
<trkpt lat="48.36035" lon="4.10672"><ele>132</ele></trkpt>
<trkpt lat="48.36091" lon="4.10842"><ele>131</ele></trkpt>
<trkpt lat="48.36138" lon="4.10966"><ele>131</ele></trkpt>
<trkpt lat="48.36301" lon="4.11285"><ele>132</ele></trkpt>
<trkpt lat="48.36407" lon="4.11503"><ele>132</ele></trkpt>
<trkpt lat="48.36420" lon="4.11515"><ele>132</ele></trkpt>
<trkpt lat="48.36553" lon="4.11552"><ele>133</ele></trkpt>
<trkpt lat="48.36582" lon="4.11563"><ele>134</ele></trkpt>
<trkpt lat="48.36609" lon="4.11579"><ele>134</ele></trkpt>
<trkpt lat="48.36733" lon="4.11686"><ele>135</ele></trkpt>
<trkpt lat="48.36757" lon="4.11716"><ele>136</ele></trkpt>
<trkpt lat="48.36787" lon="4.11770"><ele>136</ele></trkpt>
<trkpt lat="48.37038" lon="4.11421"><ele>141</ele></trkpt>
<trkpt lat="48.37378" lon="4.12067"><ele>162</ele></trkpt>
<trkpt lat="48.38157" lon="4.13326"><ele>190</ele></trkpt>
<trkpt lat="48.38168" lon="4.13323"><ele>189</ele></trkpt>
<trkpt lat="48.38725" lon="4.12667"><ele>176</ele></trkpt>
<trkpt lat="48.39146" lon="4.12324"><ele>177</ele></trkpt>
<trkpt lat="48.39159" lon="4.12318"><ele>178</ele></trkpt>
<trkpt lat="48.39187" lon="4.12318"><ele>180</ele></trkpt>
<trkpt lat="48.40082" lon="4.11899"><ele>156</ele></trkpt>
<trkpt lat="48.40085" lon="4.11909"><ele>156</ele></trkpt>
<trkpt lat="48.40100" lon="4.11900"><ele>156</ele></trkpt>
<trkpt lat="48.40108" lon="4.11923"><ele>156</ele></trkpt>
<trkpt lat="48.40354" lon="4.12621"><ele>158</ele></trkpt>
<trkpt lat="48.40406" lon="4.12790"><ele>160</ele></trkpt>
<trkpt lat="48.40644" lon="4.12608"><ele>147</ele></trkpt>
<trkpt lat="48.41091" lon="4.12255"><ele>140</ele></trkpt>
<trkpt lat="48.41536" lon="4.12003"><ele>140</ele></trkpt>
<trkpt lat="48.41829" lon="4.12705"><ele>133</ele></trkpt>
<trkpt lat="48.42520" lon="4.12129"><ele>139</ele></trkpt>
<trkpt lat="48.42431" lon="4.11924"><ele>136</ele></trkpt>
<trkpt lat="48.42437" lon="4.11920"><ele>136</ele></trkpt>
<trkpt lat="48.42568" lon="4.11898"><ele>133</ele></trkpt>
<trkpt lat="48.42592" lon="4.11892"><ele>132</ele></trkpt>
<trkpt lat="48.42642" lon="4.11867"><ele>130</ele></trkpt>
<trkpt lat="48.42661" lon="4.11867"><ele>129</ele></trkpt>
<trkpt lat="48.42681" lon="4.11878"><ele>129</ele></trkpt>
<trkpt lat="48.42716" lon="4.11912"><ele>127</ele></trkpt>
<trkpt lat="48.42727" lon="4.11914"><ele>127</ele></trkpt>
<trkpt lat="48.42745" lon="4.11965"><ele>127</ele></trkpt>
<trkpt lat="48.42883" lon="4.11963"><ele>125</ele></trkpt>
<trkpt lat="48.42932" lon="4.11953"><ele>124</ele></trkpt>
<trkpt lat="48.43022" lon="4.11895"><ele>126</ele></trkpt>
<trkpt lat="48.43125" lon="4.11854"><ele>128</ele></trkpt>
<trkpt lat="48.43159" lon="4.11834"><ele>128</ele></trkpt>
<trkpt lat="48.43306" lon="4.11804"><ele>126</ele></trkpt>
<trkpt lat="48.43315" lon="4.11799"><ele>126</ele></trkpt>
<trkpt lat="48.44257" lon="4.11990"><ele>121</ele></trkpt>
<trkpt lat="48.44249" lon="4.11952"><ele>121</ele></trkpt>
<trkpt lat="48.44918" lon="4.12084"><ele>120</ele></trkpt>
<trkpt lat="48.44926" lon="4.12083"><ele>120</ele></trkpt>
<trkpt lat="48.45083" lon="4.11985"><ele>124</ele></trkpt>
<trkpt lat="48.45122" lon="4.12123"><ele>122</ele></trkpt>
<trkpt lat="48.45109" lon="4.12143"><ele>122</ele></trkpt>
<trkpt lat="48.45542" lon="4.12231"><ele>113</ele></trkpt>
<trkpt lat="48.45588" lon="4.12247"><ele>112</ele></trkpt>
<trkpt lat="48.45589" lon="4.12257"><ele>112</ele></trkpt>
<trkpt lat="48.45597" lon="4.12263"><ele>112</ele></trkpt>
<trkpt lat="48.45594" lon="4.12277"><ele>112</ele></trkpt>
<trkpt lat="48.45740" lon="4.12452"><ele>109</ele></trkpt>
<trkpt lat="48.45761" lon="4.12482"><ele>109</ele></trkpt>
<trkpt lat="48.45752" lon="4.12521"><ele>109</ele></trkpt>
<trkpt lat="48.45739" lon="4.12556"><ele>109</ele></trkpt>
<trkpt lat="48.45708" lon="4.12603"><ele>109</ele></trkpt>
<trkpt lat="48.45737" lon="4.12678"><ele>109</ele></trkpt>
<trkpt lat="48.45760" lon="4.12760"><ele>110</ele></trkpt>
<trkpt lat="48.45737" lon="4.12678"><ele>109</ele></trkpt>
<trkpt lat="48.45823" lon="4.12664"><ele>110</ele></trkpt>
<trkpt lat="48.45870" lon="4.12645"><ele>110</ele></trkpt>
<trkpt lat="48.45902" lon="4.12615"><ele>111</ele></trkpt>
<trkpt lat="48.45970" lon="4.12537"><ele>115</ele></trkpt>
<trkpt lat="48.46083" lon="4.12434"><ele>118</ele></trkpt>
<trkpt lat="48.46086" lon="4.12405"><ele>117</ele></trkpt>
<trkpt lat="48.46238" lon="4.12457"><ele>119</ele></trkpt>
<trkpt lat="48.46318" lon="4.12489"><ele>117</ele></trkpt>
<trkpt lat="48.46347" lon="4.12495"><ele>118</ele></trkpt>
<trkpt lat="48.46455" lon="4.12532"><ele>122</ele></trkpt>
<trkpt lat="48.46456" lon="4.12523"><ele>122</ele></trkpt>
<trkpt lat="48.46452" lon="4.12513"><ele>122</ele></trkpt>
<trkpt lat="48.46468" lon="4.12515"><ele>123</ele></trkpt>
<trkpt lat="48.48110" lon="4.13075"><ele>122</ele></trkpt>
<trkpt lat="48.47871" lon="4.11886"><ele>113</ele></trkpt>
<trkpt lat="48.47870" lon="4.11868"><ele>113</ele></trkpt>
<trkpt lat="48.48065" lon="4.11803"><ele>108</ele></trkpt>
<trkpt lat="48.48178" lon="4.11790"><ele>106</ele></trkpt>
<trkpt lat="48.48212" lon="4.11777"><ele>105</ele></trkpt>
<trkpt lat="48.48284" lon="4.11713"><ele>104</ele></trkpt>
<trkpt lat="48.48279" lon="4.11654"><ele>104</ele></trkpt>
<trkpt lat="48.48278" lon="4.11590"><ele>104</ele></trkpt>
<trkpt lat="48.48288" lon="4.11565"><ele>104</ele></trkpt>
<trkpt lat="48.48297" lon="4.11554"><ele>104</ele></trkpt>
<trkpt lat="48.48349" lon="4.11572"><ele>104</ele></trkpt>
<trkpt lat="48.48384" lon="4.11576"><ele>104</ele></trkpt>
<trkpt lat="48.48463" lon="4.11575"><ele>104</ele></trkpt>
<trkpt lat="48.48508" lon="4.11564"><ele>104</ele></trkpt>
<trkpt lat="48.48616" lon="4.11523"><ele>104</ele></trkpt>
<trkpt lat="48.48703" lon="4.11463"><ele>104</ele></trkpt>
<trkpt lat="48.48771" lon="4.11423"><ele>105</ele></trkpt>
<trkpt lat="48.48808" lon="4.11413"><ele>105</ele></trkpt>
<trkpt lat="48.48971" lon="4.11387"><ele>103</ele></trkpt>
<trkpt lat="48.49097" lon="4.11362"><ele>103</ele></trkpt>
<trkpt lat="48.49642" lon="4.11155"><ele>102</ele></trkpt>
<trkpt lat="48.49760" lon="4.11154"><ele>102</ele></trkpt>
<trkpt lat="48.49933" lon="4.11062"><ele>100</ele></trkpt>
<trkpt lat="48.50027" lon="4.10971"><ele>99</ele></trkpt>
<trkpt lat="48.50108" lon="4.10919"><ele>100</ele></trkpt>
<trkpt lat="48.50148" lon="4.10984"><ele>98</ele></trkpt>
<trkpt lat="48.50191" lon="4.11038"><ele>98</ele></trkpt>
<trkpt lat="48.50212" lon="4.11078"><ele>98</ele></trkpt>
<trkpt lat="48.50265" lon="4.11253"><ele>104</ele></trkpt>
<trkpt lat="48.50272" lon="4.11266"><ele>105</ele></trkpt>
<trkpt lat="48.50282" lon="4.11277"><ele>105</ele></trkpt>
<trkpt lat="48.50309" lon="4.11286"><ele>106</ele></trkpt>
<trkpt lat="48.50565" lon="4.11220"><ele>104</ele></trkpt>
<trkpt lat="48.50567" lon="4.11232"><ele>104</ele></trkpt>
<trkpt lat="48.50634" lon="4.11664"><ele>107</ele></trkpt>
<trkpt lat="48.50667" lon="4.11961"><ele>108</ele></trkpt>
<trkpt lat="48.50688" lon="4.12268"><ele>109</ele></trkpt>
<trkpt lat="48.50686" lon="4.12694"><ele>109</ele></trkpt>
<trkpt lat="48.50681" lon="4.12996"><ele>109</ele></trkpt>
<trkpt lat="48.50687" lon="4.13359"><ele>109</ele></trkpt>
<trkpt lat="48.50686" lon="4.13616"><ele>109</ele></trkpt>
<trkpt lat="48.50684" lon="4.13728"><ele>110</ele></trkpt>
<trkpt lat="48.50684" lon="4.13962"><ele>110</ele></trkpt>
<trkpt lat="48.50686" lon="4.13994"><ele>111</ele></trkpt>
<trkpt lat="48.51369" lon="4.14236"><ele>119</ele></trkpt>
<trkpt lat="48.51536" lon="4.14288"><ele>122</ele></trkpt>
<trkpt lat="48.51586" lon="4.14298"><ele>122</ele></trkpt>
<trkpt lat="48.52728" lon="4.14293"><ele>102</ele></trkpt>
<trkpt lat="48.52740" lon="4.14306"><ele>101</ele></trkpt>
<trkpt lat="48.52748" lon="4.14296"><ele>102</ele></trkpt>
<trkpt lat="48.52761" lon="4.14290"><ele>102</ele></trkpt>
<trkpt lat="48.52838" lon="4.14292"><ele>102</ele></trkpt>
<trkpt lat="48.52850" lon="4.14288"><ele>103</ele></trkpt>
<trkpt lat="48.52860" lon="4.14278"><ele>104</ele></trkpt>
<trkpt lat="48.53273" lon="4.14280"><ele>100</ele></trkpt>
<trkpt lat="48.53356" lon="4.14284"><ele>98</ele></trkpt>
<trkpt lat="48.53360" lon="4.14140"><ele>99</ele></trkpt>
<trkpt lat="48.53776" lon="4.14085"><ele>89</ele></trkpt>
<trkpt lat="48.53783" lon="4.14198"><ele>90</ele></trkpt>
<trkpt lat="48.53888" lon="4.14207"><ele>89</ele></trkpt>
<trkpt lat="48.54170" lon="4.14311"><ele>89</ele></trkpt>
<trkpt lat="48.54297" lon="4.14347"><ele>88</ele></trkpt>
<trkpt lat="48.54617" lon="4.14382"><ele>89</ele></trkpt>
<trkpt lat="48.54749" lon="4.14401"><ele>90</ele></trkpt>
<trkpt lat="48.54776" lon="4.14437"><ele>89</ele></trkpt>
<trkpt lat="48.54802" lon="4.14441"><ele>89</ele></trkpt>
<trkpt lat="48.54845" lon="4.14787"><ele>88</ele></trkpt>
<trkpt lat="48.54841" lon="4.14837"><ele>88</ele></trkpt>
<trkpt lat="48.54836" lon="4.14863"><ele>89</ele></trkpt>
<trkpt lat="48.54827" lon="4.15002"><ele>88</ele></trkpt>
<trkpt lat="48.54812" lon="4.15127"><ele>88</ele></trkpt>
<trkpt lat="48.54798" lon="4.15179"><ele>89</ele></trkpt>
<trkpt lat="48.54798" lon="4.15394"><ele>88</ele></trkpt>
<trkpt lat="48.55063" lon="4.15417"><ele>91</ele></trkpt>
<trkpt lat="48.55063" lon="4.15437"><ele>91</ele></trkpt>
<trkpt lat="48.56495" lon="4.15754"><ele>114</ele></trkpt>
<trkpt lat="48.57297" lon="4.15927"><ele>133</ele></trkpt>
<trkpt lat="48.57292" lon="4.16480"><ele>132</ele></trkpt>
<trkpt lat="48.59422" lon="4.17476"><ele>128</ele></trkpt>
<trkpt lat="48.59438" lon="4.17476"><ele>127</ele></trkpt>
<trkpt lat="48.59620" lon="4.18085"><ele>136</ele></trkpt>
<trkpt lat="48.59667" lon="4.18063"><ele>136</ele></trkpt>
<trkpt lat="48.59767" lon="4.18028"><ele>141</ele></trkpt>
<trkpt lat="48.59963" lon="4.18014"><ele>145</ele></trkpt>
<trkpt lat="48.60035" lon="4.18001"><ele>143</ele></trkpt>
<trkpt lat="48.60047" lon="4.18000"><ele>142</ele></trkpt>
<trkpt lat="48.60083" lon="4.18036"><ele>141</ele></trkpt>
<trkpt lat="48.60320" lon="4.18032"><ele>140</ele></trkpt>
<trkpt lat="48.60433" lon="4.18044"><ele>139</ele></trkpt>
<trkpt lat="48.60446" lon="4.18049"><ele>140</ele></trkpt>
<trkpt lat="48.60686" lon="4.18755"><ele>146</ele></trkpt>
<trkpt lat="48.61256" lon="4.19273"><ele>137</ele></trkpt>
<trkpt lat="48.60852" lon="4.19760"><ele>126</ele></trkpt>
<trkpt lat="48.60868" lon="4.19782"><ele>125</ele></trkpt>
<trkpt lat="48.61391" lon="4.20779"><ele>130</ele></trkpt>
<trkpt lat="48.61330" lon="4.20852"><ele>127</ele></trkpt>
<trkpt lat="48.61333" lon="4.20863"><ele>127</ele></trkpt>
<trkpt lat="48.61796" lon="4.21605"><ele>121</ele></trkpt>
<trkpt lat="48.61877" lon="4.21729"><ele>120</ele></trkpt>
<trkpt lat="48.61881" lon="4.21730"><ele>120</ele></trkpt>
<trkpt lat="48.62024" lon="4.21888"><ele>123</ele></trkpt>
<trkpt lat="48.62103" lon="4.21997"><ele>125</ele></trkpt>
<trkpt lat="48.62255" lon="4.22250"><ele>131</ele></trkpt>
<trkpt lat="48.62340" lon="4.22431"><ele>134</ele></trkpt>
<trkpt lat="48.62549" lon="4.22863"><ele>138</ele></trkpt>
<trkpt lat="48.62565" lon="4.22910"><ele>136</ele></trkpt>
<trkpt lat="48.62577" lon="4.22949"><ele>135</ele></trkpt>
<trkpt lat="48.62582" lon="4.22991"><ele>133</ele></trkpt>
<trkpt lat="48.62585" lon="4.23053"><ele>131</ele></trkpt>
<trkpt lat="48.62592" lon="4.23092"><ele>127</ele></trkpt>
<trkpt lat="48.62595" lon="4.23154"><ele>123</ele></trkpt>
<trkpt lat="48.62594" lon="4.23229"><ele>120</ele></trkpt>
<trkpt lat="48.62578" lon="4.23316"><ele>116</ele></trkpt>
<trkpt lat="48.62610" lon="4.23332"><ele>115</ele></trkpt>
<trkpt lat="48.62639" lon="4.23354"><ele>114</ele></trkpt>
<trkpt lat="48.62727" lon="4.23434"><ele>112</ele></trkpt>
<trkpt lat="48.62915" lon="4.23596"><ele>112</ele></trkpt>
<trkpt lat="48.62938" lon="4.23604"><ele>112</ele></trkpt>
<trkpt lat="48.62979" lon="4.23602"><ele>112</ele></trkpt>
<trkpt lat="48.62982" lon="4.23738"><ele>112</ele></trkpt>
<trkpt lat="48.62973" lon="4.23848"><ele>113</ele></trkpt>
<trkpt lat="48.62967" lon="4.23884"><ele>113</ele></trkpt>
<trkpt lat="48.63041" lon="4.23863"><ele>114</ele></trkpt>
<trkpt lat="48.63211" lon="4.23833"><ele>114</ele></trkpt>
<trkpt lat="48.63340" lon="4.23836"><ele>116</ele></trkpt>
<trkpt lat="48.63433" lon="4.23832"><ele>118</ele></trkpt>
<trkpt lat="48.63465" lon="4.23839"><ele>119</ele></trkpt>
<trkpt lat="48.63495" lon="4.23851"><ele>119</ele></trkpt>
<trkpt lat="48.63539" lon="4.24046"><ele>125</ele></trkpt>
<trkpt lat="48.63773" lon="4.24910"><ele>146</ele></trkpt>
<trkpt lat="48.63783" lon="4.24931"><ele>146</ele></trkpt>
<trkpt lat="48.64587" lon="4.24580"><ele>133</ele></trkpt>
<trkpt lat="48.64594" lon="4.24571"><ele>134</ele></trkpt>
<trkpt lat="48.64592" lon="4.24551"><ele>135</ele></trkpt>
<trkpt lat="48.64448" lon="4.24018"><ele>136</ele></trkpt>
<trkpt lat="48.64444" lon="4.23995"><ele>136</ele></trkpt>
<trkpt lat="48.64447" lon="4.23985"><ele>136</ele></trkpt>
<trkpt lat="48.64456" lon="4.23978"><ele>136</ele></trkpt>
<trkpt lat="48.64533" lon="4.23972"><ele>138</ele></trkpt>
<trkpt lat="48.64544" lon="4.23964"><ele>138</ele></trkpt>
<trkpt lat="48.64551" lon="4.23953"><ele>138</ele></trkpt>
<trkpt lat="48.65391" lon="4.24026"><ele>124</ele></trkpt>
<trkpt lat="48.65476" lon="4.24048"><ele>127</ele></trkpt>
<trkpt lat="48.65536" lon="4.24077"><ele>128</ele></trkpt>
<trkpt lat="48.67056" lon="4.24967"><ele>151</ele></trkpt>
<trkpt lat="48.67111" lon="4.24988"><ele>150</ele></trkpt>
<trkpt lat="48.67784" lon="4.25100"><ele>135</ele></trkpt>
<trkpt lat="48.67964" lon="4.25270"><ele>134</ele></trkpt>
<trkpt lat="48.67989" lon="4.25288"><ele>134</ele></trkpt>
<trkpt lat="48.68153" lon="4.25373"><ele>133</ele></trkpt>
<trkpt lat="48.68184" lon="4.25396"><ele>134</ele></trkpt>
<trkpt lat="48.68203" lon="4.25417"><ele>134</ele></trkpt>
<trkpt lat="48.68234" lon="4.25463"><ele>134</ele></trkpt>
<trkpt lat="48.68272" lon="4.25544"><ele>135</ele></trkpt>
<trkpt lat="48.68351" lon="4.25660"><ele>136</ele></trkpt>
<trkpt lat="48.68394" lon="4.25761"><ele>141</ele></trkpt>
<trkpt lat="48.68407" lon="4.25782"><ele>142</ele></trkpt>
<trkpt lat="48.68549" lon="4.25871"><ele>139</ele></trkpt>
<trkpt lat="48.68602" lon="4.25920"><ele>138</ele></trkpt>
<trkpt lat="48.68662" lon="4.25957"><ele>137</ele></trkpt>
<trkpt lat="48.68678" lon="4.25983"><ele>137</ele></trkpt>
<trkpt lat="48.68750" lon="4.26167"><ele>139</ele></trkpt>
<trkpt lat="48.68759" lon="4.26180"><ele>139</ele></trkpt>
<trkpt lat="48.68779" lon="4.26189"><ele>139</ele></trkpt>
<trkpt lat="48.68849" lon="4.26178"><ele>142</ele></trkpt>
<trkpt lat="48.68915" lon="4.26173"><ele>145</ele></trkpt>
<trkpt lat="48.68959" lon="4.26173"><ele>147</ele></trkpt>
<trkpt lat="48.69010" lon="4.26180"><ele>149</ele></trkpt>
<trkpt lat="48.69038" lon="4.26186"><ele>150</ele></trkpt>
<trkpt lat="48.69192" lon="4.26246"><ele>156</ele></trkpt>
<trkpt lat="48.69233" lon="4.26267"><ele>158</ele></trkpt>
<trkpt lat="48.69639" lon="4.26562"><ele>183</ele></trkpt>
<trkpt lat="48.69705" lon="4.26616"><ele>185</ele></trkpt>
<trkpt lat="48.69760" lon="4.26669"><ele>185</ele></trkpt>
<trkpt lat="48.70142" lon="4.27092"><ele>190</ele></trkpt>
<trkpt lat="48.70219" lon="4.27171"><ele>191</ele></trkpt>
<trkpt lat="48.70798" lon="4.27672"><ele>187</ele></trkpt>
<trkpt lat="48.70927" lon="4.27552"><ele>190</ele></trkpt>
<trkpt lat="48.70955" lon="4.27533"><ele>191</ele></trkpt>
<trkpt lat="48.71046" lon="4.27297"><ele>200</ele></trkpt>
<trkpt lat="48.71167" lon="4.26996"><ele>196</ele></trkpt>
<trkpt lat="48.71171" lon="4.27011"><ele>196</ele></trkpt>
<trkpt lat="48.71644" lon="4.27474"><ele>194</ele></trkpt>
<trkpt lat="48.72001" lon="4.27821"><ele>204</ele></trkpt>
<trkpt lat="48.72788" lon="4.28572"><ele>200</ele></trkpt>
<trkpt lat="48.73652" lon="4.30321"><ele>163</ele></trkpt>
<trkpt lat="48.74041" lon="4.30046"><ele>174</ele></trkpt>
<trkpt lat="48.74067" lon="4.30120"><ele>171</ele></trkpt>
<trkpt lat="48.74128" lon="4.30271"><ele>166</ele></trkpt>
<trkpt lat="48.74172" lon="4.30391"><ele>164</ele></trkpt>
<trkpt lat="48.74338" lon="4.30260"><ele>166</ele></trkpt>
<trkpt lat="48.74383" lon="4.30419"><ele>162</ele></trkpt>
<trkpt lat="48.74400" lon="4.30467"><ele>162</ele></trkpt>
<trkpt lat="48.74450" lon="4.30580"><ele>162</ele></trkpt>
<trkpt lat="48.74477" lon="4.30628"><ele>161</ele></trkpt>
<trkpt lat="48.74553" lon="4.30739"><ele>160</ele></trkpt>
<trkpt lat="48.74594" lon="4.30780"><ele>159</ele></trkpt>
<trkpt lat="48.74602" lon="4.30783"><ele>159</ele></trkpt>
<trkpt lat="48.74627" lon="4.30806"><ele>158</ele></trkpt>
<trkpt lat="48.74685" lon="4.30923"><ele>153</ele></trkpt>
<trkpt lat="48.74725" lon="4.31023"><ele>152</ele></trkpt>
<trkpt lat="48.74793" lon="4.31139"><ele>155</ele></trkpt>
<trkpt lat="48.74809" lon="4.31156"><ele>155</ele></trkpt>
<trkpt lat="48.74858" lon="4.31180"><ele>156</ele></trkpt>
<trkpt lat="48.74900" lon="4.31216"><ele>156</ele></trkpt>
<trkpt lat="48.74928" lon="4.31247"><ele>156</ele></trkpt>
<trkpt lat="48.74957" lon="4.31294"><ele>156</ele></trkpt>
<trkpt lat="48.75042" lon="4.31410"><ele>158</ele></trkpt>
<trkpt lat="48.75070" lon="4.31459"><ele>159</ele></trkpt>
<trkpt lat="48.75092" lon="4.31503"><ele>160</ele></trkpt>
<trkpt lat="48.75145" lon="4.31649"><ele>161</ele></trkpt>
<trkpt lat="48.75244" lon="4.31958"><ele>165</ele></trkpt>
<trkpt lat="48.75285" lon="4.32061"><ele>166</ele></trkpt>
<trkpt lat="48.75670" lon="4.32869"><ele>175</ele></trkpt>
<trkpt lat="48.75720" lon="4.32967"><ele>176</ele></trkpt>
<trkpt lat="48.75790" lon="4.33090"><ele>178</ele></trkpt>
<trkpt lat="48.75847" lon="4.33211"><ele>179</ele></trkpt>
<trkpt lat="48.76182" lon="4.34081"><ele>194</ele></trkpt>
<trkpt lat="48.76179" lon="4.34100"><ele>194</ele></trkpt>
<trkpt lat="48.76007" lon="4.34252"><ele>195</ele></trkpt>
<trkpt lat="48.76004" lon="4.34274"><ele>195</ele></trkpt>
<trkpt lat="48.76565" lon="4.35609"><ele>162</ele></trkpt>
<trkpt lat="48.76659" lon="4.35839"><ele>157</ele></trkpt>
<trkpt lat="48.76758" lon="4.36066"><ele>159</ele></trkpt>
<trkpt lat="48.77130" lon="4.36825"><ele>150</ele></trkpt>
<trkpt lat="48.77247" lon="4.37097"><ele>148</ele></trkpt>
<trkpt lat="48.77368" lon="4.37344"><ele>147</ele></trkpt>
<trkpt lat="48.77494" lon="4.37653"><ele>146</ele></trkpt>
<trkpt lat="48.77521" lon="4.37713"><ele>145</ele></trkpt>
<trkpt lat="48.78042" lon="4.38659"><ele>136</ele></trkpt>
<trkpt lat="48.78344" lon="4.39215"><ele>134</ele></trkpt>
<trkpt lat="48.78478" lon="4.39432"><ele>133</ele></trkpt>
<trkpt lat="48.78486" lon="4.39428"><ele>133</ele></trkpt>
<trkpt lat="48.78501" lon="4.39450"><ele>132</ele></trkpt>
<trkpt lat="48.78524" lon="4.39496"><ele>130</ele></trkpt>
<trkpt lat="48.78528" lon="4.39514"><ele>129</ele></trkpt>
<trkpt lat="48.78529" lon="4.39587"><ele>128</ele></trkpt>
<trkpt lat="48.78533" lon="4.39598"><ele>128</ele></trkpt>
<trkpt lat="48.78538" lon="4.39604"><ele>128</ele></trkpt>
<trkpt lat="48.78548" lon="4.39606"><ele>128</ele></trkpt>
<trkpt lat="48.78688" lon="4.39593"><ele>131</ele></trkpt>
<trkpt lat="48.78749" lon="4.39612"><ele>137</ele></trkpt>
<trkpt lat="48.78857" lon="4.39684"><ele>137</ele></trkpt>
<trkpt lat="48.78893" lon="4.39687"><ele>138</ele></trkpt>
<trkpt lat="48.78948" lon="4.39684"><ele>138</ele></trkpt>
<trkpt lat="48.78991" lon="4.39690"><ele>135</ele></trkpt>
<trkpt lat="48.79036" lon="4.39707"><ele>134</ele></trkpt>
<trkpt lat="48.79118" lon="4.39752"><ele>139</ele></trkpt>
<trkpt lat="48.79142" lon="4.39761"><ele>141</ele></trkpt>
<trkpt lat="48.79239" lon="4.39774"><ele>148</ele></trkpt>
<trkpt lat="48.79316" lon="4.39772"><ele>149</ele></trkpt>
<trkpt lat="48.79324" lon="4.39776"><ele>149</ele></trkpt>
<trkpt lat="48.79329" lon="4.39783"><ele>149</ele></trkpt>
<trkpt lat="48.79681" lon="4.40926"><ele>160</ele></trkpt>
<trkpt lat="48.80642" lon="4.43861"><ele>150</ele></trkpt>
<trkpt lat="48.80885" lon="4.44550"><ele>158</ele></trkpt>
<trkpt lat="48.81183" lon="4.45215"><ele>159</ele></trkpt>
<trkpt lat="48.81193" lon="4.45251"><ele>158</ele></trkpt>
<trkpt lat="48.81236" lon="4.45135"><ele>158</ele></trkpt>
<trkpt lat="48.81300" lon="4.45031"><ele>160</ele></trkpt>
<trkpt lat="48.81407" lon="4.44873"><ele>154</ele></trkpt>
<trkpt lat="48.81450" lon="4.44967"><ele>150</ele></trkpt>
<trkpt lat="48.81533" lon="4.45228"><ele>138</ele></trkpt>
<trkpt lat="48.81544" lon="4.45228"><ele>136</ele></trkpt>
<trkpt lat="48.81804" lon="4.44927"><ele>145</ele></trkpt>
<trkpt lat="48.81866" lon="4.44874"><ele>143</ele></trkpt>
<trkpt lat="48.82241" lon="4.44579"><ele>116</ele></trkpt>
<trkpt lat="48.82466" lon="4.44346"><ele>111</ele></trkpt>
<trkpt lat="48.82573" lon="4.44151"><ele>115</ele></trkpt>
<trkpt lat="48.82588" lon="4.44128"><ele>115</ele></trkpt>
<trkpt lat="48.82838" lon="4.43877"><ele>104</ele></trkpt>
<trkpt lat="48.83124" lon="4.43618"><ele>102</ele></trkpt>
<trkpt lat="48.83250" lon="4.43886"><ele>102</ele></trkpt>
<trkpt lat="48.83342" lon="4.44066"><ele>102</ele></trkpt>
<trkpt lat="48.83336" lon="4.44010"><ele>103</ele></trkpt>
<trkpt lat="48.83315" lon="4.43310"><ele>116</ele></trkpt>
<trkpt lat="48.83305" lon="4.42945"><ele>125</ele></trkpt>
<trkpt lat="48.83309" lon="4.42692"><ele>128</ele></trkpt>
<trkpt lat="48.83300" lon="4.42557"><ele>129</ele></trkpt>
<trkpt lat="48.83259" lon="4.42312"><ele>132</ele></trkpt>
<trkpt lat="48.83137" lon="4.41831"><ele>145</ele></trkpt>
<trkpt lat="48.83125" lon="4.41762"><ele>146</ele></trkpt>
<trkpt lat="48.83123" lon="4.41565"><ele>150</ele></trkpt>
<trkpt lat="48.83118" lon="4.41508"><ele>151</ele></trkpt>
<trkpt lat="48.83011" lon="4.41063"><ele>151</ele></trkpt>
<trkpt lat="48.82990" lon="4.40960"><ele>151</ele></trkpt>
<trkpt lat="48.82955" lon="4.40666"><ele>153</ele></trkpt>
<trkpt lat="48.82944" lon="4.40597"><ele>153</ele></trkpt>
<trkpt lat="48.82855" lon="4.40215"><ele>155</ele></trkpt>
<trkpt lat="48.82764" lon="4.39801"><ele>156</ele></trkpt>
<trkpt lat="48.82711" lon="4.39368"><ele>156</ele></trkpt>
<trkpt lat="48.82650" lon="4.38926"><ele>162</ele></trkpt>
<trkpt lat="48.82643" lon="4.38891"><ele>163</ele></trkpt>
<trkpt lat="48.83184" lon="4.38698"><ele>155</ele></trkpt>
<trkpt lat="48.83636" lon="4.38529"><ele>152</ele></trkpt>
<trkpt lat="48.84280" lon="4.38300"><ele>140</ele></trkpt>
<trkpt lat="48.84724" lon="4.38133"><ele>132</ele></trkpt>
<trkpt lat="48.85589" lon="4.37823"><ele>116</ele></trkpt>
<trkpt lat="48.86187" lon="4.37602"><ele>108</ele></trkpt>
<trkpt lat="48.86196" lon="4.37603"><ele>108</ele></trkpt>
<trkpt lat="48.87053" lon="4.37295"><ele>120</ele></trkpt>
<trkpt lat="48.87059" lon="4.37336"><ele>120</ele></trkpt>
<trkpt lat="48.87113" lon="4.37566"><ele>119</ele></trkpt>
<trkpt lat="48.87159" lon="4.37812"><ele>117</ele></trkpt>
<trkpt lat="48.87246" lon="4.38098"><ele>115</ele></trkpt>
<trkpt lat="48.87291" lon="4.38222"><ele>113</ele></trkpt>
<trkpt lat="48.87317" lon="4.38284"><ele>113</ele></trkpt>
<trkpt lat="48.87456" lon="4.38553"><ele>111</ele></trkpt>
<trkpt lat="48.87492" lon="4.38634"><ele>110</ele></trkpt>
<trkpt lat="48.87874" lon="4.38498"><ele>104</ele></trkpt>
<trkpt lat="48.87898" lon="4.38483"><ele>105</ele></trkpt>
<trkpt lat="48.87918" lon="4.38451"><ele>106</ele></trkpt>
<trkpt lat="48.87931" lon="4.38421"><ele>106</ele></trkpt>
<trkpt lat="48.88050" lon="4.38068"><ele>116</ele></trkpt>
<trkpt lat="48.88118" lon="4.37911"><ele>123</ele></trkpt>
<trkpt lat="48.88128" lon="4.37882"><ele>124</ele></trkpt>
<trkpt lat="48.88139" lon="4.37843"><ele>126</ele></trkpt>
<trkpt lat="48.88182" lon="4.37596"><ele>130</ele></trkpt>
<trkpt lat="48.88189" lon="4.37534"><ele>132</ele></trkpt>
<trkpt lat="48.88188" lon="4.37415"><ele>134</ele></trkpt>
<trkpt lat="48.88192" lon="4.37375"><ele>134</ele></trkpt>
<trkpt lat="48.88260" lon="4.36906"><ele>139</ele></trkpt>
<trkpt lat="48.88265" lon="4.36929"><ele>139</ele></trkpt>
<trkpt lat="48.88278" lon="4.36955"><ele>138</ele></trkpt>
<trkpt lat="48.88793" lon="4.37648"><ele>132</ele></trkpt>
<trkpt lat="48.88820" lon="4.37675"><ele>131</ele></trkpt>
<trkpt lat="48.89216" lon="4.37982"><ele>128</ele></trkpt>
<trkpt lat="48.89244" lon="4.38009"><ele>128</ele></trkpt>
<trkpt lat="48.89431" lon="4.38214"><ele>128</ele></trkpt>
<trkpt lat="48.89554" lon="4.38394"><ele>128</ele></trkpt>
<trkpt lat="48.89790" lon="4.38706"><ele>124</ele></trkpt>
<trkpt lat="48.90091" lon="4.39043"><ele>110</ele></trkpt>
<trkpt lat="48.90148" lon="4.39129"><ele>108</ele></trkpt>
<trkpt lat="48.90266" lon="4.39347"><ele>104</ele></trkpt>
<trkpt lat="48.90298" lon="4.39471"><ele>99</ele></trkpt>
<trkpt lat="48.90322" lon="4.39596"><ele>94</ele></trkpt>
<trkpt lat="48.90291" lon="4.39635"><ele>90</ele></trkpt>
<trkpt lat="48.90257" lon="4.39688"><ele>88</ele></trkpt>
<trkpt lat="48.90265" lon="4.39694"><ele>87</ele></trkpt>
<trkpt lat="48.90312" lon="4.39760"><ele>85</ele></trkpt>
<trkpt lat="48.90405" lon="4.39854"><ele>85</ele></trkpt>
<trkpt lat="48.90416" lon="4.39863"><ele>86</ele></trkpt>
<trkpt lat="48.90439" lon="4.39871"><ele>85</ele></trkpt>
<trkpt lat="48.90641" lon="4.39879"><ele>84</ele></trkpt>
<trkpt lat="48.90722" lon="4.39730"><ele>84</ele></trkpt>
<trkpt lat="48.90777" lon="4.39652"><ele>84</ele></trkpt>
<trkpt lat="48.90814" lon="4.39539"><ele>83</ele></trkpt>
<trkpt lat="48.90827" lon="4.39509"><ele>84</ele></trkpt>
<trkpt lat="48.90876" lon="4.39453"><ele>83</ele></trkpt>
<trkpt lat="48.90824" lon="4.39355"><ele>83</ele></trkpt>
<trkpt lat="48.90829" lon="4.39342"><ele>83</ele></trkpt>
<trkpt lat="48.90899" lon="4.39245"><ele>83</ele></trkpt>
<trkpt lat="48.90954" lon="4.39145"><ele>83</ele></trkpt>
<trkpt lat="48.91040" lon="4.39027"><ele>84</ele></trkpt>
<trkpt lat="48.91089" lon="4.38977"><ele>84</ele></trkpt>
<trkpt lat="48.91220" lon="4.38912"><ele>84</ele></trkpt>
<trkpt lat="48.91338" lon="4.38825"><ele>83</ele></trkpt>
<trkpt lat="48.91817" lon="4.39656"><ele>83</ele></trkpt>
<trkpt lat="48.91819" lon="4.39673"><ele>84</ele></trkpt>
<trkpt lat="48.91793" lon="4.39702"><ele>84</ele></trkpt>
<trkpt lat="48.91823" lon="4.39707"><ele>84</ele></trkpt>
<trkpt lat="48.91838" lon="4.39698"><ele>84</ele></trkpt>
<trkpt lat="48.91841" lon="4.39700"><ele>84</ele></trkpt>
<trkpt lat="48.94008" lon="4.37018"><ele>82</ele></trkpt>
<trkpt lat="48.94230" lon="4.36750"><ele>84</ele></trkpt>
<trkpt lat="48.94222" lon="4.36732"><ele>83</ele></trkpt>
<trkpt lat="48.94236" lon="4.36719"><ele>84</ele></trkpt>
<trkpt lat="48.94251" lon="4.36712"><ele>84</ele></trkpt>
<trkpt lat="48.94294" lon="4.36750"><ele>84</ele></trkpt>
<trkpt lat="48.94315" lon="4.36748"><ele>83</ele></trkpt>
<trkpt lat="48.94382" lon="4.36708"><ele>82</ele></trkpt>
<trkpt lat="48.94738" lon="4.36456"><ele>82</ele></trkpt>
<trkpt lat="48.94896" lon="4.36357"><ele>83</ele></trkpt>
<trkpt lat="48.95033" lon="4.36632"><ele>83</ele></trkpt>
<trkpt lat="48.95056" lon="4.36668"><ele>84</ele></trkpt>
<trkpt lat="48.95158" lon="4.36877"><ele>84</ele></trkpt>
<trkpt lat="48.95191" lon="4.36838"><ele>84</ele></trkpt>
<trkpt lat="48.95202" lon="4.36835"><ele>84</ele></trkpt>
<trkpt lat="48.95213" lon="4.36839"><ele>84</ele></trkpt>
<trkpt lat="48.95307" lon="4.36924"><ele>84</ele></trkpt>
<trkpt lat="48.95328" lon="4.36951"><ele>84</ele></trkpt>
<trkpt lat="48.95394" lon="4.37072"><ele>84</ele></trkpt>
<trkpt lat="48.95400" lon="4.37077"><ele>84</ele></trkpt>
<trkpt lat="48.95402" lon="4.37091"><ele>84</ele></trkpt>
<trkpt lat="48.95411" lon="4.37096"><ele>84</ele></trkpt>
<trkpt lat="48.95417" lon="4.37091"><ele>84</ele></trkpt>
<trkpt lat="48.95419" lon="4.37076"><ele>84</ele></trkpt>
<trkpt lat="48.95414" lon="4.37066"><ele>84</ele></trkpt>
<trkpt lat="48.95408" lon="4.37065"><ele>84</ele></trkpt>
<trkpt lat="48.95403" lon="4.37019"><ele>84</ele></trkpt>
<trkpt lat="48.95416" lon="4.36928"><ele>84</ele></trkpt>
<trkpt lat="48.95446" lon="4.36931"><ele>84</ele></trkpt>
<trkpt lat="48.95538" lon="4.36893"><ele>85</ele></trkpt>
<trkpt lat="48.95520" lon="4.36837"><ele>85</ele></trkpt>
<trkpt lat="48.95509" lon="4.36782"><ele>84</ele></trkpt>
<trkpt lat="48.95692" lon="4.36584"><ele>83</ele></trkpt>
<trkpt lat="48.95712" lon="4.36650"><ele>84</ele></trkpt>
<trkpt lat="48.95778" lon="4.36623"><ele>83</ele></trkpt>
<trkpt lat="48.95755" lon="4.36493"><ele>83</ele></trkpt>
<trkpt lat="48.95775" lon="4.36441"><ele>83</ele></trkpt>
<trkpt lat="48.95765" lon="4.36433"><ele>83</ele></trkpt>
    </trkseg>
  </trk>
</gpx>
