<?xml version="1.0" encoding="UTF-8"?>
<gpx version="1.1" creator="Gravel Kompass" xmlns="http://www.topografix.com/GPX/1/1">
  <metadata><name>Champagne-Gravel-Runde: Montagne de Reims, Côte des Blancs &amp; Côte des Bar – Etappe 2</name></metadata>
  <trk>
    <name>Etappe 2: Épernay – Sézanne</name>
    <trkseg>
      <trkpt lat="49.041871" lon="3.960109"><ele>85.5</ele></trkpt>
      <trkpt lat="49.041774" lon="3.960463"><ele>86.5</ele></trkpt>
      <trkpt lat="49.040453" lon="3.959570"><ele>89.5</ele></trkpt>
      <trkpt lat="49.040266" lon="3.959443"><ele>90.0</ele></trkpt>
      <trkpt lat="49.039893" lon="3.959203"><ele>91.8</ele></trkpt>
      <trkpt lat="49.039853" lon="3.959178"><ele>92.0</ele></trkpt>
      <trkpt lat="49.039807" lon="3.959144"><ele>92.2</ele></trkpt>
      <trkpt lat="49.038130" lon="3.957903"><ele>96.2</ele></trkpt>
      <trkpt lat="49.038094" lon="3.957875"><ele>96.2</ele></trkpt>
      <trkpt lat="49.038102" lon="3.957837"><ele>96.0</ele></trkpt>
      <trkpt lat="49.038370" lon="3.956559"><ele>87.5</ele></trkpt>
      <trkpt lat="49.037629" lon="3.956136"><ele>86.5</ele></trkpt>
      <trkpt lat="49.037276" lon="3.955948"><ele>87.0</ele></trkpt>
      <trkpt lat="49.036736" lon="3.955441"><ele>86.8</ele></trkpt>
      <trkpt lat="49.036722" lon="3.955512"><ele>86.8</ele></trkpt>
      <trkpt lat="49.036637" lon="3.955979"><ele>91.2</ele></trkpt>
      <trkpt lat="49.036584" lon="3.956015"><ele>92.2</ele></trkpt>
      <trkpt lat="49.036511" lon="3.956033"><ele>93.2</ele></trkpt>
      <trkpt lat="49.036458" lon="3.956027"><ele>93.8</ele></trkpt>
      <trkpt lat="49.036394" lon="3.955995"><ele>94.5</ele></trkpt>
      <trkpt lat="49.036235" lon="3.955876"><ele>96.8</ele></trkpt>
      <trkpt lat="49.036165" lon="3.955851"><ele>98.0</ele></trkpt>
      <trkpt lat="49.035959" lon="3.955814"><ele>100.0</ele></trkpt>
      <trkpt lat="49.035433" lon="3.955288"><ele>102.2</ele></trkpt>
      <trkpt lat="49.035218" lon="3.955223"><ele>103.0</ele></trkpt>
      <trkpt lat="49.035153" lon="3.955148"><ele>103.2</ele></trkpt>
      <trkpt lat="49.034354" lon="3.954776"><ele>105.5</ele></trkpt>
      <trkpt lat="49.034271" lon="3.954743"><ele>105.2</ele></trkpt>
      <trkpt lat="49.033370" lon="3.954334"><ele>92.5</ele></trkpt>
      <trkpt lat="49.033316" lon="3.954316"><ele>91.8</ele></trkpt>
      <trkpt lat="49.033084" lon="3.953355"><ele>89.0</ele></trkpt>
      <trkpt lat="49.032310" lon="3.953422"><ele>85.2</ele></trkpt>
      <trkpt lat="49.032307" lon="3.953388"><ele>85.2</ele></trkpt>
      <trkpt lat="49.032293" lon="3.953352"><ele>85.2</ele></trkpt>
      <trkpt lat="49.032275" lon="3.953332"><ele>85.0</ele></trkpt>
      <trkpt lat="49.032242" lon="3.953322"><ele>85.0</ele></trkpt>
      <trkpt lat="49.032221" lon="3.953330"><ele>84.8</ele></trkpt>
      <trkpt lat="49.032200" lon="3.953352"><ele>84.8</ele></trkpt>
      <trkpt lat="49.032188" lon="3.953380"><ele>84.8</ele></trkpt>
      <trkpt lat="49.032182" lon="3.953421"><ele>84.8</ele></trkpt>
      <trkpt lat="49.032187" lon="3.953459"><ele>84.8</ele></trkpt>
      <trkpt lat="49.031626" lon="3.953543"><ele>83.0</ele></trkpt>
      <trkpt lat="49.031618" lon="3.953629"><ele>83.8</ele></trkpt>
      <trkpt lat="49.031593" lon="3.953668"><ele>83.8</ele></trkpt>
      <trkpt lat="49.031336" lon="3.953707"><ele>83.2</ele></trkpt>
      <trkpt lat="49.030787" lon="3.953790"><ele>84.0</ele></trkpt>
      <trkpt lat="49.030018" lon="3.953902"><ele>85.0</ele></trkpt>
      <trkpt lat="49.029878" lon="3.953996"><ele>85.5</ele></trkpt>
      <trkpt lat="49.029791" lon="3.954112"><ele>85.8</ele></trkpt>
      <trkpt lat="49.029653" lon="3.954289"><ele>86.5</ele></trkpt>
      <trkpt lat="49.028979" lon="3.955615"><ele>89.0</ele></trkpt>
      <trkpt lat="49.028918" lon="3.955708"><ele>89.2</ele></trkpt>
      <trkpt lat="49.028915" lon="3.955813"><ele>88.8</ele></trkpt>
      <trkpt lat="49.028954" lon="3.955862"><ele>88.5</ele></trkpt>
      <trkpt lat="49.028930" lon="3.955971"><ele>87.8</ele></trkpt>
      <trkpt lat="49.028908" lon="3.956068"><ele>87.2</ele></trkpt>
      <trkpt lat="49.028860" lon="3.956048"><ele>87.5</ele></trkpt>
      <trkpt lat="49.028783" lon="3.956046"><ele>88.2</ele></trkpt>
      <trkpt lat="49.028720" lon="3.956103"><ele>88.8</ele></trkpt>
      <trkpt lat="49.028602" lon="3.956330"><ele>88.2</ele></trkpt>
      <trkpt lat="49.028249" lon="3.957008"><ele>87.0</ele></trkpt>
      <trkpt lat="49.028133" lon="3.957087"><ele>87.8</ele></trkpt>
      <trkpt lat="49.028092" lon="3.957038"><ele>88.2</ele></trkpt>
      <trkpt lat="49.028022" lon="3.957088"><ele>88.5</ele></trkpt>
      <trkpt lat="49.027913" lon="3.957132"><ele>88.2</ele></trkpt>
      <trkpt lat="49.027285" lon="3.957382"><ele>89.2</ele></trkpt>
      <trkpt lat="49.027061" lon="3.957482"><ele>89.5</ele></trkpt>
      <trkpt lat="49.026981" lon="3.957514"><ele>89.8</ele></trkpt>
      <trkpt lat="49.026836" lon="3.957566"><ele>90.5</ele></trkpt>
      <trkpt lat="49.025974" lon="3.957955"><ele>93.8</ele></trkpt>
      <trkpt lat="49.025777" lon="3.958095"><ele>94.8</ele></trkpt>
      <trkpt lat="49.025079" lon="3.958601"><ele>97.5</ele></trkpt>
      <trkpt lat="49.024874" lon="3.958740"><ele>98.0</ele></trkpt>
      <trkpt lat="49.024703" lon="3.958852"><ele>98.2</ele></trkpt>
      <trkpt lat="49.023868" lon="3.959404"><ele>102.0</ele></trkpt>
      <trkpt lat="49.023630" lon="3.959562"><ele>102.8</ele></trkpt>
      <trkpt lat="49.023297" lon="3.959780"><ele>104.0</ele></trkpt>
      <trkpt lat="49.022959" lon="3.959992"><ele>104.5</ele></trkpt>
      <trkpt lat="49.022596" lon="3.960110"><ele>106.8</ele></trkpt>
      <trkpt lat="49.022532" lon="3.960139"><ele>107.2</ele></trkpt>
      <trkpt lat="49.022488" lon="3.960092"><ele>107.2</ele></trkpt>
      <trkpt lat="49.022434" lon="3.960066"><ele>107.5</ele></trkpt>
      <trkpt lat="49.022370" lon="3.960062"><ele>107.8</ele></trkpt>
      <trkpt lat="49.022304" lon="3.960077"><ele>108.2</ele></trkpt>
      <trkpt lat="49.022212" lon="3.960167"><ele>108.2</ele></trkpt>
      <trkpt lat="49.022167" lon="3.960267"><ele>108.0</ele></trkpt>
      <trkpt lat="49.022147" lon="3.960359"><ele>108.2</ele></trkpt>
      <trkpt lat="49.022146" lon="3.960413"><ele>108.2</ele></trkpt>
      <trkpt lat="49.022109" lon="3.960501"><ele>108.2</ele></trkpt>
      <trkpt lat="49.022030" lon="3.960641"><ele>108.5</ele></trkpt>
      <trkpt lat="49.022005" lon="3.960657"><ele>108.5</ele></trkpt>
      <trkpt lat="49.021396" lon="3.961065"><ele>110.2</ele></trkpt>
      <trkpt lat="49.021052" lon="3.961313"><ele>111.2</ele></trkpt>
      <trkpt lat="49.020921" lon="3.961437"><ele>111.5</ele></trkpt>
      <trkpt lat="49.019431" lon="3.962848"><ele>110.8</ele></trkpt>
      <trkpt lat="49.018723" lon="3.963513"><ele>112.8</ele></trkpt>
      <trkpt lat="49.018666" lon="3.963539"><ele>113.0</ele></trkpt>
      <trkpt lat="49.018582" lon="3.963593"><ele>113.0</ele></trkpt>
      <trkpt lat="49.018515" lon="3.963621"><ele>113.2</ele></trkpt>
      <trkpt lat="49.018433" lon="3.963633"><ele>113.5</ele></trkpt>
      <trkpt lat="49.018384" lon="3.963623"><ele>113.8</ele></trkpt>
      <trkpt lat="49.018335" lon="3.963639"><ele>113.8</ele></trkpt>
      <trkpt lat="49.018293" lon="3.963679"><ele>114.2</ele></trkpt>
      <trkpt lat="49.018261" lon="3.963738"><ele>114.2</ele></trkpt>
      <trkpt lat="49.018245" lon="3.963809"><ele>114.2</ele></trkpt>
      <trkpt lat="49.018187" lon="3.963923"><ele>114.2</ele></trkpt>
      <trkpt lat="49.018113" lon="3.964043"><ele>113.8</ele></trkpt>
      <trkpt lat="49.017989" lon="3.964175"><ele>113.0</ele></trkpt>
      <trkpt lat="49.017755" lon="3.964368"><ele>112.5</ele></trkpt>
      <trkpt lat="49.015393" lon="3.966124"><ele>111.0</ele></trkpt>
      <trkpt lat="49.014905" lon="3.966487"><ele>111.2</ele></trkpt>
      <trkpt lat="49.014810" lon="3.966545"><ele>111.5</ele></trkpt>
      <trkpt lat="49.014047" lon="3.967081"><ele>112.0</ele></trkpt>
      <trkpt lat="49.013687" lon="3.967467"><ele>112.0</ele></trkpt>
      <trkpt lat="49.013421" lon="3.967697"><ele>111.2</ele></trkpt>
      <trkpt lat="49.013347" lon="3.967803"><ele>111.0</ele></trkpt>
      <trkpt lat="49.013197" lon="3.967888"><ele>111.2</ele></trkpt>
      <trkpt lat="49.013123" lon="3.967941"><ele>111.2</ele></trkpt>
      <trkpt lat="49.013108" lon="3.967938"><ele>111.2</ele></trkpt>
      <trkpt lat="49.012816" lon="3.968171"><ele>111.5</ele></trkpt>
      <trkpt lat="49.012370" lon="3.968585"><ele>112.8</ele></trkpt>
      <trkpt lat="49.012104" lon="3.968808"><ele>113.2</ele></trkpt>
      <trkpt lat="49.011885" lon="3.968966"><ele>113.5</ele></trkpt>
      <trkpt lat="49.011573" lon="3.969247"><ele>114.2</ele></trkpt>
      <trkpt lat="49.011418" lon="3.969410"><ele>114.0</ele></trkpt>
      <trkpt lat="49.011249" lon="3.969653"><ele>114.5</ele></trkpt>
      <trkpt lat="49.010925" lon="3.970051"><ele>115.8</ele></trkpt>
      <trkpt lat="49.010387" lon="3.970736"><ele>119.0</ele></trkpt>
      <trkpt lat="49.010065" lon="3.971122"><ele>120.2</ele></trkpt>
      <trkpt lat="49.009281" lon="3.972177"><ele>121.8</ele></trkpt>
      <trkpt lat="49.008873" lon="3.972708"><ele>121.2</ele></trkpt>
      <trkpt lat="49.008801" lon="3.972767"><ele>121.5</ele></trkpt>
      <trkpt lat="49.007692" lon="3.970688"><ele>122.5</ele></trkpt>
      <trkpt lat="49.007608" lon="3.970560"><ele>122.8</ele></trkpt>
      <trkpt lat="49.005985" lon="3.969647"><ele>132.8</ele></trkpt>
      <trkpt lat="49.004854" lon="3.969019"><ele>138.5</ele></trkpt>
      <trkpt lat="49.003705" lon="3.968376"><ele>142.5</ele></trkpt>
      <trkpt lat="49.002972" lon="3.967961"><ele>145.2</ele></trkpt>
      <trkpt lat="49.002854" lon="3.967882"><ele>145.5</ele></trkpt>
      <trkpt lat="49.002800" lon="3.967874"><ele>145.8</ele></trkpt>
      <trkpt lat="49.002758" lon="3.967885"><ele>145.8</ele></trkpt>
      <trkpt lat="49.002726" lon="3.967839"><ele>145.8</ele></trkpt>
      <trkpt lat="49.002670" lon="3.967805"><ele>145.5</ele></trkpt>
      <trkpt lat="49.002029" lon="3.967579"><ele>140.8</ele></trkpt>
      <trkpt lat="49.000976" lon="3.967189"><ele>132.2</ele></trkpt>
      <trkpt lat="49.000947" lon="3.967196"><ele>132.2</ele></trkpt>
      <trkpt lat="49.000901" lon="3.967180"><ele>132.0</ele></trkpt>
      <trkpt lat="48.998847" lon="3.966509"><ele>140.2</ele></trkpt>
      <trkpt lat="48.998608" lon="3.966468"><ele>143.0</ele></trkpt>
      <trkpt lat="48.998238" lon="3.966302"><ele>146.2</ele></trkpt>
      <trkpt lat="48.998140" lon="3.966216"><ele>147.0</ele></trkpt>
      <trkpt lat="48.997435" lon="3.966045"><ele>151.5</ele></trkpt>
      <trkpt lat="48.996939" lon="3.965245"><ele>152.5</ele></trkpt>
      <trkpt lat="48.996352" lon="3.965162"><ele>151.8</ele></trkpt>
      <trkpt lat="48.996346" lon="3.965754"><ele>155.5</ele></trkpt>
      <trkpt lat="48.996350" lon="3.966182"><ele>158.0</ele></trkpt>
      <trkpt lat="48.996277" lon="3.966597"><ele>157.8</ele></trkpt>
      <trkpt lat="48.996143" lon="3.966561"><ele>158.8</ele></trkpt>
      <trkpt lat="48.995887" lon="3.966512"><ele>161.8</ele></trkpt>
      <trkpt lat="48.995755" lon="3.966440"><ele>163.0</ele></trkpt>
      <trkpt lat="48.995651" lon="3.966313"><ele>163.8</ele></trkpt>
      <trkpt lat="48.995570" lon="3.966214"><ele>164.8</ele></trkpt>
      <trkpt lat="48.995526" lon="3.966177"><ele>165.2</ele></trkpt>
      <trkpt lat="48.995480" lon="3.966149"><ele>165.8</ele></trkpt>
      <trkpt lat="48.995378" lon="3.966121"><ele>166.8</ele></trkpt>
      <trkpt lat="48.995323" lon="3.966123"><ele>167.5</ele></trkpt>
      <trkpt lat="48.995270" lon="3.966136"><ele>168.0</ele></trkpt>
      <trkpt lat="48.995222" lon="3.966164"><ele>169.0</ele></trkpt>
      <trkpt lat="48.995173" lon="3.966197"><ele>170.2</ele></trkpt>
      <trkpt lat="48.995117" lon="3.966202"><ele>171.2</ele></trkpt>
      <trkpt lat="48.995089" lon="3.966196"><ele>171.8</ele></trkpt>
      <trkpt lat="48.994982" lon="3.966134"><ele>173.2</ele></trkpt>
      <trkpt lat="48.994864" lon="3.966031"><ele>174.5</ele></trkpt>
      <trkpt lat="48.994556" lon="3.965790"><ele>177.0</ele></trkpt>
      <trkpt lat="48.994401" lon="3.965612"><ele>178.0</ele></trkpt>
      <trkpt lat="48.994190" lon="3.965223"><ele>180.5</ele></trkpt>
      <trkpt lat="48.994139" lon="3.965401"><ele>181.5</ele></trkpt>
      <trkpt lat="48.994123" lon="3.965728"><ele>182.5</ele></trkpt>
      <trkpt lat="48.994184" lon="3.966351"><ele>184.5</ele></trkpt>
      <trkpt lat="48.994217" lon="3.966958"><ele>183.2</ele></trkpt>
      <trkpt lat="48.994218" lon="3.967088"><ele>182.8</ele></trkpt>
      <trkpt lat="48.994190" lon="3.967772"><ele>181.5</ele></trkpt>
      <trkpt lat="48.994102" lon="3.968929"><ele>184.0</ele></trkpt>
      <trkpt lat="48.994079" lon="3.969194"><ele>184.5</ele></trkpt>
      <trkpt lat="48.993938" lon="3.970292"><ele>184.2</ele></trkpt>
      <trkpt lat="48.993908" lon="3.970592"><ele>184.5</ele></trkpt>
      <trkpt lat="48.993876" lon="3.971475"><ele>186.2</ele></trkpt>
      <trkpt lat="48.993869" lon="3.972166"><ele>188.0</ele></trkpt>
      <trkpt lat="48.993873" lon="3.972772"><ele>189.0</ele></trkpt>
      <trkpt lat="48.993874" lon="3.972800"><ele>189.0</ele></trkpt>
      <trkpt lat="48.993821" lon="3.973688"><ele>189.2</ele></trkpt>
      <trkpt lat="48.993726" lon="3.974312"><ele>189.0</ele></trkpt>
      <trkpt lat="48.993613" lon="3.974940"><ele>188.8</ele></trkpt>
      <trkpt lat="48.993276" lon="3.975982"><ele>188.5</ele></trkpt>
      <trkpt lat="48.993165" lon="3.976292"><ele>187.8</ele></trkpt>
      <trkpt lat="48.993115" lon="3.976318"><ele>188.0</ele></trkpt>
      <trkpt lat="48.993094" lon="3.976322"><ele>188.0</ele></trkpt>
      <trkpt lat="48.993075" lon="3.976315"><ele>188.0</ele></trkpt>
      <trkpt lat="48.992784" lon="3.975894"><ele>190.8</ele></trkpt>
      <trkpt lat="48.992717" lon="3.975802"><ele>191.2</ele></trkpt>
      <trkpt lat="48.992685" lon="3.975776"><ele>191.5</ele></trkpt>
      <trkpt lat="48.992624" lon="3.975818"><ele>191.5</ele></trkpt>
      <trkpt lat="48.992184" lon="3.976354"><ele>191.5</ele></trkpt>
      <trkpt lat="48.991845" lon="3.976824"><ele>192.0</ele></trkpt>
      <trkpt lat="48.991441" lon="3.977529"><ele>192.2</ele></trkpt>
      <trkpt lat="48.991383" lon="3.977603"><ele>192.5</ele></trkpt>
      <trkpt lat="48.991036" lon="3.977822"><ele>196.2</ele></trkpt>
      <trkpt lat="48.990989" lon="3.977884"><ele>196.8</ele></trkpt>
      <trkpt lat="48.990920" lon="3.978005"><ele>197.0</ele></trkpt>
      <trkpt lat="48.990619" lon="3.978448"><ele>197.0</ele></trkpt>
      <trkpt lat="48.990538" lon="3.978600"><ele>196.0</ele></trkpt>
      <trkpt lat="48.990359" lon="3.978784"><ele>195.5</ele></trkpt>
      <trkpt lat="48.990267" lon="3.978829"><ele>195.5</ele></trkpt>
      <trkpt lat="48.989666" lon="3.978954"><ele>194.2</ele></trkpt>
      <trkpt lat="48.989564" lon="3.978894"><ele>194.2</ele></trkpt>
      <trkpt lat="48.989474" lon="3.978783"><ele>195.2</ele></trkpt>
      <trkpt lat="48.989163" lon="3.978319"><ele>198.0</ele></trkpt>
      <trkpt lat="48.989041" lon="3.978169"><ele>199.0</ele></trkpt>
      <trkpt lat="48.988898" lon="3.978067"><ele>199.8</ele></trkpt>
      <trkpt lat="48.988595" lon="3.978753"><ele>194.0</ele></trkpt>
      <trkpt lat="48.988130" lon="3.979906"><ele>194.5</ele></trkpt>
      <trkpt lat="48.987756" lon="3.979428"><ele>199.2</ele></trkpt>
      <trkpt lat="48.987672" lon="3.979759"><ele>200.0</ele></trkpt>
      <trkpt lat="48.987472" lon="3.980565"><ele>199.2</ele></trkpt>
      <trkpt lat="48.987392" lon="3.980927"><ele>199.0</ele></trkpt>
      <trkpt lat="48.987313" lon="3.981500"><ele>197.5</ele></trkpt>
      <trkpt lat="48.987235" lon="3.982433"><ele>197.8</ele></trkpt>
      <trkpt lat="48.987197" lon="3.983011"><ele>197.0</ele></trkpt>
      <trkpt lat="48.987176" lon="3.983182"><ele>196.8</ele></trkpt>
      <trkpt lat="48.987105" lon="3.983530"><ele>195.2</ele></trkpt>
      <trkpt lat="48.986971" lon="3.984116"><ele>194.8</ele></trkpt>
      <trkpt lat="48.986945" lon="3.984285"><ele>195.2</ele></trkpt>
      <trkpt lat="48.986934" lon="3.984417"><ele>195.8</ele></trkpt>
      <trkpt lat="48.986939" lon="3.984508"><ele>196.0</ele></trkpt>
      <trkpt lat="48.986970" lon="3.984746"><ele>195.5</ele></trkpt>
      <trkpt lat="48.987036" lon="3.985175"><ele>195.8</ele></trkpt>
      <trkpt lat="48.987085" lon="3.985457"><ele>195.2</ele></trkpt>
      <trkpt lat="48.987148" lon="3.985716"><ele>195.0</ele></trkpt>
      <trkpt lat="48.987178" lon="3.985779"><ele>195.0</ele></trkpt>
      <trkpt lat="48.987236" lon="3.985977"><ele>194.8</ele></trkpt>
      <trkpt lat="48.987371" lon="3.986452"><ele>193.2</ele></trkpt>
      <trkpt lat="48.987466" lon="3.986833"><ele>192.2</ele></trkpt>
      <trkpt lat="48.987604" lon="3.987287"><ele>192.2</ele></trkpt>
      <trkpt lat="48.987616" lon="3.987388"><ele>192.5</ele></trkpt>
      <trkpt lat="48.987621" lon="3.987429"><ele>192.5</ele></trkpt>
      <trkpt lat="48.987475" lon="3.988545"><ele>196.0</ele></trkpt>
      <trkpt lat="48.987419" lon="3.988713"><ele>196.8</ele></trkpt>
      <trkpt lat="48.987353" lon="3.988865"><ele>197.0</ele></trkpt>
      <trkpt lat="48.987320" lon="3.988941"><ele>197.2</ele></trkpt>
      <trkpt lat="48.987259" lon="3.989033"><ele>197.8</ele></trkpt>
      <trkpt lat="48.987208" lon="3.989143"><ele>198.0</ele></trkpt>
      <trkpt lat="48.987044" lon="3.989569"><ele>199.5</ele></trkpt>
      <trkpt lat="48.986958" lon="3.989727"><ele>199.8</ele></trkpt>
      <trkpt lat="48.986828" lon="3.989877"><ele>201.8</ele></trkpt>
      <trkpt lat="48.986627" lon="3.990071"><ele>204.2</ele></trkpt>
      <trkpt lat="48.986541" lon="3.990254"><ele>204.8</ele></trkpt>
      <trkpt lat="48.986513" lon="3.990348"><ele>205.0</ele></trkpt>
      <trkpt lat="48.986466" lon="3.990405"><ele>205.5</ele></trkpt>
      <trkpt lat="48.986491" lon="3.990134"><ele>206.2</ele></trkpt>
      <trkpt lat="48.986490" lon="3.989872"><ele>207.5</ele></trkpt>
      <trkpt lat="48.986439" lon="3.989603"><ele>209.5</ele></trkpt>
      <trkpt lat="48.986227" lon="3.989011"><ele>216.0</ele></trkpt>
      <trkpt lat="48.986154" lon="3.988817"><ele>218.0</ele></trkpt>
      <trkpt lat="48.985927" lon="3.988267"><ele>224.2</ele></trkpt>
      <trkpt lat="48.985729" lon="3.987813"><ele>227.2</ele></trkpt>
      <trkpt lat="48.985654" lon="3.987641"><ele>229.0</ele></trkpt>
      <trkpt lat="48.985601" lon="3.987531"><ele>230.8</ele></trkpt>
      <trkpt lat="48.985544" lon="3.987456"><ele>232.0</ele></trkpt>
      <trkpt lat="48.985467" lon="3.987406"><ele>232.8</ele></trkpt>
      <trkpt lat="48.985382" lon="3.987387"><ele>233.5</ele></trkpt>
      <trkpt lat="48.985334" lon="3.987387"><ele>234.0</ele></trkpt>
      <trkpt lat="48.984522" lon="3.987410"><ele>238.0</ele></trkpt>
      <trkpt lat="48.983826" lon="3.987479"><ele>237.2</ele></trkpt>
      <trkpt lat="48.983099" lon="3.987535"><ele>236.8</ele></trkpt>
      <trkpt lat="48.982352" lon="3.987574"><ele>237.8</ele></trkpt>
      <trkpt lat="48.981723" lon="3.987610"><ele>237.5</ele></trkpt>
      <trkpt lat="48.981645" lon="3.987615"><ele>237.5</ele></trkpt>
      <trkpt lat="48.980996" lon="3.987645"><ele>237.2</ele></trkpt>
      <trkpt lat="48.980949" lon="3.987638"><ele>237.5</ele></trkpt>
      <trkpt lat="48.980644" lon="3.987673"><ele>237.2</ele></trkpt>
      <trkpt lat="48.979711" lon="3.987744"><ele>239.0</ele></trkpt>
      <trkpt lat="48.979393" lon="3.987782"><ele>239.8</ele></trkpt>
      <trkpt lat="48.979154" lon="3.987797"><ele>240.0</ele></trkpt>
      <trkpt lat="48.978722" lon="3.987777"><ele>240.0</ele></trkpt>
      <trkpt lat="48.978635" lon="3.987780"><ele>240.0</ele></trkpt>
      <trkpt lat="48.978402" lon="3.987796"><ele>240.0</ele></trkpt>
      <trkpt lat="48.978168" lon="3.987790"><ele>240.0</ele></trkpt>
      <trkpt lat="48.977960" lon="3.987815"><ele>240.0</ele></trkpt>
      <trkpt lat="48.977748" lon="3.987882"><ele>240.0</ele></trkpt>
      <trkpt lat="48.977631" lon="3.987952"><ele>240.0</ele></trkpt>
      <trkpt lat="48.977702" lon="3.988410"><ele>241.0</ele></trkpt>
      <trkpt lat="48.977658" lon="3.990685"><ele>240.5</ele></trkpt>
      <trkpt lat="48.977653" lon="3.990731"><ele>240.5</ele></trkpt>
      <trkpt lat="48.974569" lon="3.990448"><ele>243.0</ele></trkpt>
      <trkpt lat="48.974315" lon="3.990444"><ele>243.0</ele></trkpt>
      <trkpt lat="48.970985" lon="3.990146"><ele>242.0</ele></trkpt>
      <trkpt lat="48.970690" lon="3.990111"><ele>242.0</ele></trkpt>
      <trkpt lat="48.970593" lon="3.990114"><ele>242.0</ele></trkpt>
      <trkpt lat="48.970380" lon="3.990152"><ele>242.0</ele></trkpt>
      <trkpt lat="48.970162" lon="3.990302"><ele>242.0</ele></trkpt>
      <trkpt lat="48.970012" lon="3.990455"><ele>242.0</ele></trkpt>
      <trkpt lat="48.969774" lon="3.990646"><ele>242.0</ele></trkpt>
      <trkpt lat="48.969638" lon="3.990730"><ele>242.0</ele></trkpt>
      <trkpt lat="48.969682" lon="3.990957"><ele>241.0</ele></trkpt>
      <trkpt lat="48.971004" lon="3.997709"><ele>241.0</ele></trkpt>
      <trkpt lat="48.970897" lon="3.999007"><ele>234.5</ele></trkpt>
      <trkpt lat="48.970884" lon="3.999276"><ele>232.8</ele></trkpt>
      <trkpt lat="48.970637" lon="3.999371"><ele>233.8</ele></trkpt>
      <trkpt lat="48.969648" lon="4.000218"><ele>233.2</ele></trkpt>
      <trkpt lat="48.969417" lon="4.000378"><ele>234.2</ele></trkpt>
      <trkpt lat="48.968951" lon="4.000414"><ele>237.8</ele></trkpt>
      <trkpt lat="48.967559" lon="4.001867"><ele>239.0</ele></trkpt>
      <trkpt lat="48.967491" lon="4.001937"><ele>239.0</ele></trkpt>
      <trkpt lat="48.966999" lon="4.002507"><ele>238.5</ele></trkpt>
      <trkpt lat="48.966493" lon="4.003105"><ele>238.5</ele></trkpt>
      <trkpt lat="48.965528" lon="4.003877"><ele>239.0</ele></trkpt>
      <trkpt lat="48.965427" lon="4.004287"><ele>235.5</ele></trkpt>
      <trkpt lat="48.965166" lon="4.004613"><ele>231.2</ele></trkpt>
      <trkpt lat="48.964891" lon="4.004553"><ele>231.0</ele></trkpt>
      <trkpt lat="48.964626" lon="4.004215"><ele>232.2</ele></trkpt>
      <trkpt lat="48.964483" lon="4.004007"><ele>232.0</ele></trkpt>
      <trkpt lat="48.964084" lon="4.002865"><ele>235.2</ele></trkpt>
      <trkpt lat="48.962773" lon="4.002153"><ele>228.8</ele></trkpt>
      <trkpt lat="48.962275" lon="4.001979"><ele>231.0</ele></trkpt>
      <trkpt lat="48.961953" lon="4.002142"><ele>227.5</ele></trkpt>
      <trkpt lat="48.961669" lon="4.002258"><ele>223.0</ele></trkpt>
      <trkpt lat="48.961582" lon="4.002241"><ele>222.2</ele></trkpt>
      <trkpt lat="48.961391" lon="4.002178"><ele>220.8</ele></trkpt>
      <trkpt lat="48.961365" lon="4.002197"><ele>220.2</ele></trkpt>
      <trkpt lat="48.961346" lon="4.002243"><ele>219.2</ele></trkpt>
      <trkpt lat="48.961308" lon="4.002597"><ele>215.8</ele></trkpt>
      <trkpt lat="48.961235" lon="4.002551"><ele>216.2</ele></trkpt>
      <trkpt lat="48.961153" lon="4.002468"><ele>217.0</ele></trkpt>
      <trkpt lat="48.961045" lon="4.002316"><ele>217.5</ele></trkpt>
      <trkpt lat="48.960875" lon="4.002057"><ele>219.0</ele></trkpt>
      <trkpt lat="48.960750" lon="4.001893"><ele>220.2</ele></trkpt>
      <trkpt lat="48.960503" lon="4.001683"><ele>221.5</ele></trkpt>
      <trkpt lat="48.960363" lon="4.001581"><ele>221.8</ele></trkpt>
      <trkpt lat="48.960004" lon="4.001331"><ele>219.2</ele></trkpt>
      <trkpt lat="48.959805" lon="4.001224"><ele>217.5</ele></trkpt>
      <trkpt lat="48.959703" lon="4.001169"><ele>216.2</ele></trkpt>
      <trkpt lat="48.959583" lon="4.001086"><ele>214.5</ele></trkpt>
      <trkpt lat="48.959432" lon="4.000944"><ele>213.5</ele></trkpt>
      <trkpt lat="48.959226" lon="4.000727"><ele>212.0</ele></trkpt>
      <trkpt lat="48.958750" lon="4.000057"><ele>215.5</ele></trkpt>
      <trkpt lat="48.958574" lon="3.999809"><ele>217.2</ele></trkpt>
      <trkpt lat="48.958469" lon="3.999681"><ele>218.5</ele></trkpt>
      <trkpt lat="48.958328" lon="3.999573"><ele>219.0</ele></trkpt>
      <trkpt lat="48.957771" lon="3.999182"><ele>220.8</ele></trkpt>
      <trkpt lat="48.957236" lon="3.998887"><ele>225.8</ele></trkpt>
      <trkpt lat="48.956996" lon="3.998731"><ele>226.8</ele></trkpt>
      <trkpt lat="48.956408" lon="3.998266"><ele>228.2</ele></trkpt>
      <trkpt lat="48.956209" lon="3.998122"><ele>226.8</ele></trkpt>
      <trkpt lat="48.956099" lon="3.998028"><ele>226.0</ele></trkpt>
      <trkpt lat="48.956114" lon="3.998171"><ele>226.0</ele></trkpt>
      <trkpt lat="48.956181" lon="3.998327"><ele>224.0</ele></trkpt>
      <trkpt lat="48.956357" lon="3.998735"><ele>224.0</ele></trkpt>
      <trkpt lat="48.956411" lon="3.998815"><ele>223.0</ele></trkpt>
      <trkpt lat="48.956678" lon="3.999162"><ele>220.0</ele></trkpt>
      <trkpt lat="48.956815" lon="3.999378"><ele>216.2</ele></trkpt>
      <trkpt lat="48.957128" lon="3.999911"><ele>211.0</ele></trkpt>
      <trkpt lat="48.957286" lon="4.000179"><ele>209.0</ele></trkpt>
      <trkpt lat="48.957405" lon="4.000346"><ele>208.0</ele></trkpt>
      <trkpt lat="48.957513" lon="4.000511"><ele>206.5</ele></trkpt>
      <trkpt lat="48.957666" lon="4.000792"><ele>205.2</ele></trkpt>
      <trkpt lat="48.957715" lon="4.000967"><ele>204.0</ele></trkpt>
      <trkpt lat="48.957758" lon="4.001210"><ele>202.0</ele></trkpt>
      <trkpt lat="48.957823" lon="4.001525"><ele>199.8</ele></trkpt>
      <trkpt lat="48.957838" lon="4.001597"><ele>199.0</ele></trkpt>
      <trkpt lat="48.957857" lon="4.001762"><ele>197.8</ele></trkpt>
      <trkpt lat="48.957878" lon="4.002241"><ele>192.2</ele></trkpt>
      <trkpt lat="48.957976" lon="4.002835"><ele>183.5</ele></trkpt>
      <trkpt lat="48.958017" lon="4.003190"><ele>177.8</ele></trkpt>
      <trkpt lat="48.958033" lon="4.003408"><ele>174.8</ele></trkpt>
      <trkpt lat="48.958160" lon="4.004185"><ele>165.8</ele></trkpt>
      <trkpt lat="48.958166" lon="4.004265"><ele>165.2</ele></trkpt>
      <trkpt lat="48.958158" lon="4.004287"><ele>164.8</ele></trkpt>
      <trkpt lat="48.958132" lon="4.004307"><ele>164.2</ele></trkpt>
      <trkpt lat="48.957629" lon="4.004620"><ele>158.0</ele></trkpt>
      <trkpt lat="48.957597" lon="4.004644"><ele>157.8</ele></trkpt>
      <trkpt lat="48.957575" lon="4.004674"><ele>157.5</ele></trkpt>
      <trkpt lat="48.957561" lon="4.004711"><ele>157.2</ele></trkpt>
      <trkpt lat="48.957554" lon="4.004758"><ele>156.8</ele></trkpt>
      <trkpt lat="48.957592" lon="4.005393"><ele>153.0</ele></trkpt>
      <trkpt lat="48.957141" lon="4.005610"><ele>151.5</ele></trkpt>
      <trkpt lat="48.956304" lon="4.005972"><ele>155.8</ele></trkpt>
      <trkpt lat="48.956097" lon="4.005447"><ele>159.8</ele></trkpt>
      <trkpt lat="48.955996" lon="4.005266"><ele>161.8</ele></trkpt>
      <trkpt lat="48.955857" lon="4.005071"><ele>163.5</ele></trkpt>
      <trkpt lat="48.955404" lon="4.004572"><ele>168.5</ele></trkpt>
      <trkpt lat="48.955172" lon="4.004320"><ele>171.2</ele></trkpt>
      <trkpt lat="48.955109" lon="4.004352"><ele>171.2</ele></trkpt>
      <trkpt lat="48.954139" lon="4.005152"><ele>167.0</ele></trkpt>
      <trkpt lat="48.953980" lon="4.005241"><ele>167.5</ele></trkpt>
      <trkpt lat="48.953722" lon="4.005463"><ele>167.8</ele></trkpt>
      <trkpt lat="48.953513" lon="4.005706"><ele>168.5</ele></trkpt>
      <trkpt lat="48.953397" lon="4.005864"><ele>169.0</ele></trkpt>
      <trkpt lat="48.953348" lon="4.005974"><ele>169.2</ele></trkpt>
      <trkpt lat="48.953210" lon="4.006225"><ele>169.8</ele></trkpt>
      <trkpt lat="48.952991" lon="4.006554"><ele>170.5</ele></trkpt>
      <trkpt lat="48.952410" lon="4.007599"><ele>168.8</ele></trkpt>
      <trkpt lat="48.952023" lon="4.008222"><ele>167.0</ele></trkpt>
      <trkpt lat="48.951932" lon="4.008327"><ele>167.0</ele></trkpt>
      <trkpt lat="48.951799" lon="4.008500"><ele>167.5</ele></trkpt>
      <trkpt lat="48.951248" lon="4.009290"><ele>175.0</ele></trkpt>
      <trkpt lat="48.950859" lon="4.009837"><ele>172.5</ele></trkpt>
      <trkpt lat="48.950367" lon="4.010347"><ele>169.5</ele></trkpt>
      <trkpt lat="48.950071" lon="4.010708"><ele>168.2</ele></trkpt>
      <trkpt lat="48.949834" lon="4.011090"><ele>166.8</ele></trkpt>
      <trkpt lat="48.949705" lon="4.011146"><ele>167.8</ele></trkpt>
      <trkpt lat="48.949617" lon="4.011169"><ele>168.5</ele></trkpt>
      <trkpt lat="48.949541" lon="4.011181"><ele>169.2</ele></trkpt>
      <trkpt lat="48.949478" lon="4.011177"><ele>169.8</ele></trkpt>
      <trkpt lat="48.949326" lon="4.011187"><ele>171.2</ele></trkpt>
      <trkpt lat="48.949212" lon="4.011213"><ele>172.2</ele></trkpt>
      <trkpt lat="48.949094" lon="4.011270"><ele>172.5</ele></trkpt>
      <trkpt lat="48.948755" lon="4.011493"><ele>173.0</ele></trkpt>
      <trkpt lat="48.948692" lon="4.011524"><ele>173.0</ele></trkpt>
      <trkpt lat="48.948557" lon="4.011561"><ele>173.5</ele></trkpt>
      <trkpt lat="48.948377" lon="4.011571"><ele>175.2</ele></trkpt>
      <trkpt lat="48.948130" lon="4.011607"><ele>178.2</ele></trkpt>
      <trkpt lat="48.948029" lon="4.011669"><ele>179.2</ele></trkpt>
      <trkpt lat="48.947785" lon="4.011937"><ele>183.8</ele></trkpt>
      <trkpt lat="48.947690" lon="4.012021"><ele>185.2</ele></trkpt>
      <trkpt lat="48.947475" lon="4.012082"><ele>187.5</ele></trkpt>
      <trkpt lat="48.947399" lon="4.012123"><ele>187.8</ele></trkpt>
      <trkpt lat="48.947352" lon="4.012148"><ele>187.8</ele></trkpt>
      <trkpt lat="48.947271" lon="4.012162"><ele>188.0</ele></trkpt>
      <trkpt lat="48.947065" lon="4.012170"><ele>188.2</ele></trkpt>
      <trkpt lat="48.946876" lon="4.012220"><ele>188.5</ele></trkpt>
      <trkpt lat="48.946571" lon="4.012359"><ele>189.0</ele></trkpt>
      <trkpt lat="48.946445" lon="4.012431"><ele>188.5</ele></trkpt>
      <trkpt lat="48.946229" lon="4.012589"><ele>187.8</ele></trkpt>
      <trkpt lat="48.945698" lon="4.013026"><ele>184.2</ele></trkpt>
      <trkpt lat="48.945582" lon="4.013137"><ele>183.2</ele></trkpt>
      <trkpt lat="48.945521" lon="4.013212"><ele>183.0</ele></trkpt>
      <trkpt lat="48.945227" lon="4.013624"><ele>181.2</ele></trkpt>
      <trkpt lat="48.945093" lon="4.013824"><ele>180.2</ele></trkpt>
      <trkpt lat="48.944891" lon="4.014065"><ele>179.2</ele></trkpt>
      <trkpt lat="48.944790" lon="4.014167"><ele>178.0</ele></trkpt>
      <trkpt lat="48.944722" lon="4.014205"><ele>177.5</ele></trkpt>
      <trkpt lat="48.944652" lon="4.014194"><ele>177.5</ele></trkpt>
      <trkpt lat="48.944612" lon="4.014175"><ele>177.5</ele></trkpt>
      <trkpt lat="48.944548" lon="4.014104"><ele>177.8</ele></trkpt>
      <trkpt lat="48.944517" lon="4.014081"><ele>177.8</ele></trkpt>
      <trkpt lat="48.944468" lon="4.014067"><ele>177.8</ele></trkpt>
      <trkpt lat="48.943945" lon="4.014043"><ele>175.8</ele></trkpt>
      <trkpt lat="48.943785" lon="4.014028"><ele>175.5</ele></trkpt>
      <trkpt lat="48.943527" lon="4.013949"><ele>175.5</ele></trkpt>
      <trkpt lat="48.943128" lon="4.013776"><ele>177.8</ele></trkpt>
      <trkpt lat="48.942974" lon="4.013831"><ele>177.5</ele></trkpt>
      <trkpt lat="48.942786" lon="4.013865"><ele>177.0</ele></trkpt>
      <trkpt lat="48.942494" lon="4.013852"><ele>176.2</ele></trkpt>
      <trkpt lat="48.942347" lon="4.013879"><ele>176.5</ele></trkpt>
      <trkpt lat="48.942224" lon="4.013929"><ele>176.5</ele></trkpt>
      <trkpt lat="48.941483" lon="4.014296"><ele>177.5</ele></trkpt>
      <trkpt lat="48.941129" lon="4.014488"><ele>178.2</ele></trkpt>
      <trkpt lat="48.940981" lon="4.014592"><ele>178.8</ele></trkpt>
      <trkpt lat="48.940738" lon="4.014747"><ele>182.2</ele></trkpt>
      <trkpt lat="48.940661" lon="4.014825"><ele>183.5</ele></trkpt>
      <trkpt lat="48.940555" lon="4.015003"><ele>184.8</ele></trkpt>
      <trkpt lat="48.940475" lon="4.015111"><ele>185.2</ele></trkpt>
      <trkpt lat="48.940348" lon="4.015231"><ele>186.0</ele></trkpt>
      <trkpt lat="48.940314" lon="4.015240"><ele>186.8</ele></trkpt>
      <trkpt lat="48.940280" lon="4.015368"><ele>185.8</ele></trkpt>
      <trkpt lat="48.940249" lon="4.015539"><ele>184.2</ele></trkpt>
      <trkpt lat="48.940237" lon="4.015708"><ele>182.2</ele></trkpt>
      <trkpt lat="48.940244" lon="4.015877"><ele>180.0</ele></trkpt>
      <trkpt lat="48.940339" lon="4.016678"><ele>170.0</ele></trkpt>
      <trkpt lat="48.940390" lon="4.017144"><ele>166.8</ele></trkpt>
      <trkpt lat="48.940438" lon="4.017402"><ele>164.8</ele></trkpt>
      <trkpt lat="48.940478" lon="4.017686"><ele>162.2</ele></trkpt>
      <trkpt lat="48.940517" lon="4.017843"><ele>161.0</ele></trkpt>
      <trkpt lat="48.940338" lon="4.017812"><ele>162.5</ele></trkpt>
      <trkpt lat="48.940326" lon="4.017810"><ele>162.5</ele></trkpt>
      <trkpt lat="48.940004" lon="4.017728"><ele>164.5</ele></trkpt>
      <trkpt lat="48.939904" lon="4.017678"><ele>165.0</ele></trkpt>
      <trkpt lat="48.939765" lon="4.017606"><ele>165.2</ele></trkpt>
      <trkpt lat="48.939585" lon="4.017528"><ele>165.2</ele></trkpt>
      <trkpt lat="48.939356" lon="4.017405"><ele>165.5</ele></trkpt>
      <trkpt lat="48.939264" lon="4.017332"><ele>165.8</ele></trkpt>
      <trkpt lat="48.939167" lon="4.017246"><ele>165.8</ele></trkpt>
      <trkpt lat="48.939019" lon="4.017088"><ele>165.2</ele></trkpt>
      <trkpt lat="48.938644" lon="4.016611"><ele>165.2</ele></trkpt>
      <trkpt lat="48.938531" lon="4.016487"><ele>166.5</ele></trkpt>
      <trkpt lat="48.938383" lon="4.016329"><ele>167.2</ele></trkpt>
      <trkpt lat="48.938315" lon="4.016270"><ele>167.5</ele></trkpt>
      <trkpt lat="48.938251" lon="4.016227"><ele>168.2</ele></trkpt>
      <trkpt lat="48.938142" lon="4.016165"><ele>168.8</ele></trkpt>
      <trkpt lat="48.937983" lon="4.016125"><ele>169.0</ele></trkpt>
      <trkpt lat="48.937775" lon="4.016133"><ele>169.8</ele></trkpt>
      <trkpt lat="48.937508" lon="4.016214"><ele>172.5</ele></trkpt>
      <trkpt lat="48.937360" lon="4.016238"><ele>174.5</ele></trkpt>
      <trkpt lat="48.937268" lon="4.016235"><ele>175.8</ele></trkpt>
      <trkpt lat="48.937169" lon="4.016219"><ele>176.8</ele></trkpt>
      <trkpt lat="48.936900" lon="4.016101"><ele>178.2</ele></trkpt>
      <trkpt lat="48.936738" lon="4.015943"><ele>180.0</ele></trkpt>
      <trkpt lat="48.936688" lon="4.015880"><ele>180.5</ele></trkpt>
      <trkpt lat="48.936650" lon="4.015814"><ele>180.8</ele></trkpt>
      <trkpt lat="48.936195" lon="4.015133"><ele>180.2</ele></trkpt>
      <trkpt lat="48.936005" lon="4.014934"><ele>179.8</ele></trkpt>
      <trkpt lat="48.935816" lon="4.014776"><ele>179.5</ele></trkpt>
      <trkpt lat="48.935296" lon="4.014484"><ele>180.8</ele></trkpt>
      <trkpt lat="48.935124" lon="4.014433"><ele>181.0</ele></trkpt>
      <trkpt lat="48.934591" lon="4.014347"><ele>183.0</ele></trkpt>
      <trkpt lat="48.934128" lon="4.014242"><ele>185.2</ele></trkpt>
      <trkpt lat="48.933517" lon="4.014157"><ele>184.0</ele></trkpt>
      <trkpt lat="48.933282" lon="4.014087"><ele>183.8</ele></trkpt>
      <trkpt lat="48.933029" lon="4.013998"><ele>183.0</ele></trkpt>
      <trkpt lat="48.932740" lon="4.013870"><ele>182.0</ele></trkpt>
      <trkpt lat="48.932493" lon="4.013773"><ele>181.8</ele></trkpt>
      <trkpt lat="48.932153" lon="4.013660"><ele>180.5</ele></trkpt>
      <trkpt lat="48.932090" lon="4.013644"><ele>180.2</ele></trkpt>
      <trkpt lat="48.931388" lon="4.013534"><ele>177.2</ele></trkpt>
      <trkpt lat="48.931363" lon="4.013520"><ele>177.0</ele></trkpt>
      <trkpt lat="48.930827" lon="4.013247"><ele>172.5</ele></trkpt>
      <trkpt lat="48.930213" lon="4.012958"><ele>167.0</ele></trkpt>
      <trkpt lat="48.929840" lon="4.012646"><ele>165.0</ele></trkpt>
      <trkpt lat="48.929646" lon="4.012497"><ele>163.5</ele></trkpt>
      <trkpt lat="48.929560" lon="4.012461"><ele>163.5</ele></trkpt>
      <trkpt lat="48.929477" lon="4.012445"><ele>163.2</ele></trkpt>
      <trkpt lat="48.929219" lon="4.012453"><ele>163.0</ele></trkpt>
      <trkpt lat="48.929053" lon="4.012495"><ele>163.8</ele></trkpt>
      <trkpt lat="48.928966" lon="4.012527"><ele>164.2</ele></trkpt>
      <trkpt lat="48.928899" lon="4.012569"><ele>164.8</ele></trkpt>
      <trkpt lat="48.928824" lon="4.012598"><ele>165.5</ele></trkpt>
      <trkpt lat="48.928409" lon="4.012689"><ele>168.8</ele></trkpt>
      <trkpt lat="48.928186" lon="4.012707"><ele>168.5</ele></trkpt>
      <trkpt lat="48.928007" lon="4.012722"><ele>167.8</ele></trkpt>
      <trkpt lat="48.927599" lon="4.012629"><ele>166.0</ele></trkpt>
      <trkpt lat="48.927443" lon="4.012593"><ele>166.2</ele></trkpt>
      <trkpt lat="48.927260" lon="4.012614"><ele>166.5</ele></trkpt>
      <trkpt lat="48.926759" lon="4.013043"><ele>173.2</ele></trkpt>
      <trkpt lat="48.926534" lon="4.013151"><ele>175.0</ele></trkpt>
      <trkpt lat="48.926474" lon="4.013154"><ele>175.2</ele></trkpt>
      <trkpt lat="48.925586" lon="4.013205"><ele>172.5</ele></trkpt>
      <trkpt lat="48.924972" lon="4.013220"><ele>170.0</ele></trkpt>
      <trkpt lat="48.924369" lon="4.013235"><ele>164.0</ele></trkpt>
      <trkpt lat="48.923919" lon="4.013247"><ele>162.0</ele></trkpt>
      <trkpt lat="48.923481" lon="4.013172"><ele>160.8</ele></trkpt>
      <trkpt lat="48.922452" lon="4.012646"><ele>158.2</ele></trkpt>
      <trkpt lat="48.922363" lon="4.012613"><ele>158.0</ele></trkpt>
      <trkpt lat="48.922281" lon="4.012581"><ele>157.8</ele></trkpt>
      <trkpt lat="48.922153" lon="4.012483"><ele>157.8</ele></trkpt>
      <trkpt lat="48.921867" lon="4.012099"><ele>156.2</ele></trkpt>
      <trkpt lat="48.921465" lon="4.011810"><ele>153.5</ele></trkpt>
      <trkpt lat="48.920224" lon="4.011005"><ele>156.2</ele></trkpt>
      <trkpt lat="48.919380" lon="4.010470"><ele>157.2</ele></trkpt>
      <trkpt lat="48.918913" lon="4.010243"><ele>159.0</ele></trkpt>
      <trkpt lat="48.918497" lon="4.009718"><ele>157.8</ele></trkpt>
      <trkpt lat="48.918049" lon="4.008959"><ele>155.5</ele></trkpt>
      <trkpt lat="48.917743" lon="4.008441"><ele>155.2</ele></trkpt>
      <trkpt lat="48.916967" lon="4.007754"><ele>154.2</ele></trkpt>
      <trkpt lat="48.916121" lon="4.007529"><ele>152.0</ele></trkpt>
      <trkpt lat="48.916033" lon="4.007602"><ele>151.5</ele></trkpt>
      <trkpt lat="48.915762" lon="4.007829"><ele>149.5</ele></trkpt>
      <trkpt lat="48.915554" lon="4.007989"><ele>148.0</ele></trkpt>
      <trkpt lat="48.915224" lon="4.008244"><ele>146.0</ele></trkpt>
      <trkpt lat="48.914859" lon="4.008527"><ele>143.2</ele></trkpt>
      <trkpt lat="48.914451" lon="4.008824"><ele>140.2</ele></trkpt>
      <trkpt lat="48.914182" lon="4.009020"><ele>139.0</ele></trkpt>
      <trkpt lat="48.913590" lon="4.009600"><ele>135.2</ele></trkpt>
      <trkpt lat="48.912494" lon="4.010280"><ele>128.8</ele></trkpt>
      <trkpt lat="48.912428" lon="4.010322"><ele>128.5</ele></trkpt>
      <trkpt lat="48.912039" lon="4.010050"><ele>126.0</ele></trkpt>
      <trkpt lat="48.911848" lon="4.009889"><ele>124.8</ele></trkpt>
      <trkpt lat="48.911609" lon="4.009621"><ele>123.5</ele></trkpt>
      <trkpt lat="48.911037" lon="4.009042"><ele>120.5</ele></trkpt>
      <trkpt lat="48.910400" lon="4.008484"><ele>118.0</ele></trkpt>
      <trkpt lat="48.910142" lon="4.008258"><ele>117.5</ele></trkpt>
      <trkpt lat="48.909408" lon="4.007186"><ele>116.8</ele></trkpt>
      <trkpt lat="48.909098" lon="4.007143"><ele>116.0</ele></trkpt>
      <trkpt lat="48.908852" lon="4.007067"><ele>115.5</ele></trkpt>
      <trkpt lat="48.908530" lon="4.006839"><ele>114.8</ele></trkpt>
      <trkpt lat="48.908479" lon="4.006552"><ele>115.2</ele></trkpt>
      <trkpt lat="48.908401" lon="4.005903"><ele>113.2</ele></trkpt>
      <trkpt lat="48.908383" lon="4.005838"><ele>113.0</ele></trkpt>
      <trkpt lat="48.908352" lon="4.005726"><ele>112.5</ele></trkpt>
      <trkpt lat="48.908372" lon="4.005564"><ele>112.0</ele></trkpt>
      <trkpt lat="48.908334" lon="4.005205"><ele>112.0</ele></trkpt>
      <trkpt lat="48.908007" lon="4.003353"><ele>113.8</ele></trkpt>
      <trkpt lat="48.907950" lon="4.003028"><ele>114.0</ele></trkpt>
      <trkpt lat="48.907897" lon="4.002670"><ele>114.0</ele></trkpt>
      <trkpt lat="48.907826" lon="4.002379"><ele>114.5</ele></trkpt>
      <trkpt lat="48.907871" lon="4.002209"><ele>115.0</ele></trkpt>
      <trkpt lat="48.907735" lon="4.001657"><ele>115.8</ele></trkpt>
      <trkpt lat="48.907747" lon="4.001614"><ele>115.8</ele></trkpt>
      <trkpt lat="48.907748" lon="4.001568"><ele>115.8</ele></trkpt>
      <trkpt lat="48.907740" lon="4.001523"><ele>115.8</ele></trkpt>
      <trkpt lat="48.907723" lon="4.001485"><ele>115.8</ele></trkpt>
      <trkpt lat="48.907699" lon="4.001457"><ele>115.8</ele></trkpt>
      <trkpt lat="48.907668" lon="4.001441"><ele>115.8</ele></trkpt>
      <trkpt lat="48.907541" lon="4.001066"><ele>118.8</ele></trkpt>
      <trkpt lat="48.907668" lon="4.001441"><ele>115.8</ele></trkpt>
      <trkpt lat="48.907636" lon="4.001442"><ele>115.8</ele></trkpt>
      <trkpt lat="48.907606" lon="4.001460"><ele>115.8</ele></trkpt>
      <trkpt lat="48.907581" lon="4.001493"><ele>115.5</ele></trkpt>
      <trkpt lat="48.907566" lon="4.001536"><ele>115.5</ele></trkpt>
      <trkpt lat="48.907560" lon="4.001585"><ele>115.2</ele></trkpt>
      <trkpt lat="48.907572" lon="4.001652"><ele>115.2</ele></trkpt>
      <trkpt lat="48.907479" lon="4.001745"><ele>114.8</ele></trkpt>
      <trkpt lat="48.907158" lon="4.002120"><ele>113.2</ele></trkpt>
      <trkpt lat="48.906874" lon="4.002484"><ele>111.8</ele></trkpt>
      <trkpt lat="48.906780" lon="4.002627"><ele>110.8</ele></trkpt>
      <trkpt lat="48.906644" lon="4.002525"><ele>110.8</ele></trkpt>
      <trkpt lat="48.906427" lon="4.002400"><ele>109.5</ele></trkpt>
      <trkpt lat="48.906318" lon="4.002377"><ele>109.2</ele></trkpt>
      <trkpt lat="48.905891" lon="4.002279"><ele>108.8</ele></trkpt>
      <trkpt lat="48.905384" lon="4.002311"><ele>108.0</ele></trkpt>
      <trkpt lat="48.905323" lon="4.002109"><ele>108.2</ele></trkpt>
      <trkpt lat="48.905171" lon="4.001649"><ele>109.0</ele></trkpt>
      <trkpt lat="48.905131" lon="4.001495"><ele>109.0</ele></trkpt>
      <trkpt lat="48.905066" lon="4.001321"><ele>109.0</ele></trkpt>
      <trkpt lat="48.904986" lon="4.001244"><ele>109.0</ele></trkpt>
      <trkpt lat="48.904915" lon="4.001199"><ele>109.0</ele></trkpt>
      <trkpt lat="48.904786" lon="4.001197"><ele>109.0</ele></trkpt>
      <trkpt lat="48.904504" lon="4.001165"><ele>109.5</ele></trkpt>
      <trkpt lat="48.904316" lon="4.001130"><ele>109.8</ele></trkpt>
      <trkpt lat="48.904195" lon="4.001114"><ele>109.8</ele></trkpt>
      <trkpt lat="48.903678" lon="4.001141"><ele>110.8</ele></trkpt>
      <trkpt lat="48.903279" lon="4.001166"><ele>111.8</ele></trkpt>
      <trkpt lat="48.903157" lon="4.001173"><ele>111.8</ele></trkpt>
      <trkpt lat="48.903055" lon="4.001158"><ele>112.0</ele></trkpt>
      <trkpt lat="48.902842" lon="4.001129"><ele>112.0</ele></trkpt>
      <trkpt lat="48.902704" lon="4.001107"><ele>112.0</ele></trkpt>
      <trkpt lat="48.902174" lon="4.001078"><ele>112.0</ele></trkpt>
      <trkpt lat="48.901173" lon="4.001062"><ele>112.8</ele></trkpt>
      <trkpt lat="48.900871" lon="4.001038"><ele>113.0</ele></trkpt>
      <trkpt lat="48.900479" lon="4.001029"><ele>113.0</ele></trkpt>
      <trkpt lat="48.900006" lon="4.001034"><ele>112.2</ele></trkpt>
      <trkpt lat="48.898929" lon="4.001007"><ele>111.2</ele></trkpt>
      <trkpt lat="48.896906" lon="4.000966"><ele>113.5</ele></trkpt>
      <trkpt lat="48.895951" lon="4.000935"><ele>113.8</ele></trkpt>
      <trkpt lat="48.895268" lon="4.000913"><ele>115.0</ele></trkpt>
      <trkpt lat="48.895065" lon="4.000907"><ele>115.8</ele></trkpt>
      <trkpt lat="48.893703" lon="4.000933"><ele>122.0</ele></trkpt>
      <trkpt lat="48.892455" lon="4.001121"><ele>116.5</ele></trkpt>
      <trkpt lat="48.892113" lon="4.001180"><ele>114.8</ele></trkpt>
      <trkpt lat="48.892014" lon="4.001545"><ele>113.2</ele></trkpt>
      <trkpt lat="48.891357" lon="4.003683"><ele>109.0</ele></trkpt>
      <trkpt lat="48.891340" lon="4.003737"><ele>109.0</ele></trkpt>
      <trkpt lat="48.890568" lon="4.003793"><ele>109.0</ele></trkpt>
      <trkpt lat="48.888888" lon="4.003937"><ele>111.0</ele></trkpt>
      <trkpt lat="48.886875" lon="4.004094"><ele>113.0</ele></trkpt>
      <trkpt lat="48.886658" lon="4.004124"><ele>113.8</ele></trkpt>
      <trkpt lat="48.885994" lon="4.004166"><ele>114.0</ele></trkpt>
      <trkpt lat="48.884050" lon="4.004248"><ele>112.8</ele></trkpt>
      <trkpt lat="48.883756" lon="4.004260"><ele>112.8</ele></trkpt>
      <trkpt lat="48.883605" lon="4.004283"><ele>112.5</ele></trkpt>
      <trkpt lat="48.883469" lon="4.004321"><ele>112.2</ele></trkpt>
      <trkpt lat="48.883380" lon="4.004363"><ele>112.2</ele></trkpt>
      <trkpt lat="48.883352" lon="4.004311"><ele>112.2</ele></trkpt>
      <trkpt lat="48.883320" lon="4.004255"><ele>112.5</ele></trkpt>
      <trkpt lat="48.883237" lon="4.004119"><ele>113.0</ele></trkpt>
      <trkpt lat="48.882927" lon="4.003605"><ele>113.0</ele></trkpt>
      <trkpt lat="48.882640" lon="4.003131"><ele>113.8</ele></trkpt>
      <trkpt lat="48.882559" lon="4.002999"><ele>114.0</ele></trkpt>
      <trkpt lat="48.882518" lon="4.002931"><ele>114.2</ele></trkpt>
      <trkpt lat="48.882237" lon="4.002466"><ele>115.0</ele></trkpt>
      <trkpt lat="48.881826" lon="4.001720"><ele>115.2</ele></trkpt>
      <trkpt lat="48.881400" lon="4.001037"><ele>115.0</ele></trkpt>
      <trkpt lat="48.881112" lon="4.000575"><ele>114.0</ele></trkpt>
      <trkpt lat="48.880767" lon="4.001047"><ele>111.8</ele></trkpt>
      <trkpt lat="48.880725" lon="4.001168"><ele>111.2</ele></trkpt>
      <trkpt lat="48.880668" lon="4.001369"><ele>111.0</ele></trkpt>
      <trkpt lat="48.880634" lon="4.001704"><ele>110.2</ele></trkpt>
      <trkpt lat="48.880054" lon="4.001938"><ele>109.0</ele></trkpt>
      <trkpt lat="48.879385" lon="4.002375"><ele>110.0</ele></trkpt>
      <trkpt lat="48.879150" lon="4.002513"><ele>110.0</ele></trkpt>
      <trkpt lat="48.879052" lon="4.002614"><ele>110.0</ele></trkpt>
      <trkpt lat="48.878961" lon="4.002737"><ele>110.0</ele></trkpt>
      <trkpt lat="48.878864" lon="4.002596"><ele>110.0</ele></trkpt>
      <trkpt lat="48.878759" lon="4.002700"><ele>110.2</ele></trkpt>
      <trkpt lat="48.878581" lon="4.002780"><ele>111.2</ele></trkpt>
      <trkpt lat="48.878271" lon="4.003095"><ele>114.2</ele></trkpt>
      <trkpt lat="48.877699" lon="4.003616"><ele>117.2</ele></trkpt>
      <trkpt lat="48.877584" lon="4.003622"><ele>117.5</ele></trkpt>
      <trkpt lat="48.877817" lon="4.003944"><ele>116.8</ele></trkpt>
      <trkpt lat="48.878100" lon="4.004505"><ele>115.8</ele></trkpt>
      <trkpt lat="48.878059" lon="4.004540"><ele>120.8</ele></trkpt>
      <trkpt lat="48.877412" lon="4.005104"><ele>120.8</ele></trkpt>
      <trkpt lat="48.877383" lon="4.005131"><ele>121.0</ele></trkpt>
      <trkpt lat="48.877346" lon="4.005162"><ele>121.2</ele></trkpt>
      <trkpt lat="48.876389" lon="4.006022"><ele>125.2</ele></trkpt>
      <trkpt lat="48.874264" lon="4.008152"><ele>118.0</ele></trkpt>
      <trkpt lat="48.871978" lon="4.010462"><ele>117.8</ele></trkpt>
      <trkpt lat="48.871739" lon="4.010692"><ele>117.8</ele></trkpt>
      <trkpt lat="48.868444" lon="4.013614"><ele>128.5</ele></trkpt>
      <trkpt lat="48.867401" lon="4.014596"><ele>129.0</ele></trkpt>
      <trkpt lat="48.866133" lon="4.015790"><ele>125.0</ele></trkpt>
      <trkpt lat="48.864365" lon="4.017274"><ele>132.2</ele></trkpt>
      <trkpt lat="48.863894" lon="4.017710"><ele>133.0</ele></trkpt>
      <trkpt lat="48.861932" lon="4.019691"><ele>136.0</ele></trkpt>
      <trkpt lat="48.861762" lon="4.019861"><ele>136.8</ele></trkpt>
      <trkpt lat="48.861143" lon="4.020460"><ele>140.8</ele></trkpt>
      <trkpt lat="48.859452" lon="4.021467"><ele>152.8</ele></trkpt>
      <trkpt lat="48.857542" lon="4.022551"><ele>158.0</ele></trkpt>
      <trkpt lat="48.855469" lon="4.023240"><ele>156.8</ele></trkpt>
      <trkpt lat="48.851555" lon="4.024580"><ele>152.0</ele></trkpt>
      <trkpt lat="48.851172" lon="4.024711"><ele>152.0</ele></trkpt>
      <trkpt lat="48.850524" lon="4.024907"><ele>152.0</ele></trkpt>
      <trkpt lat="48.846418" lon="4.025678"><ele>157.8</ele></trkpt>
      <trkpt lat="48.845653" lon="4.025807"><ele>159.5</ele></trkpt>
      <trkpt lat="48.844501" lon="4.025964"><ele>159.0</ele></trkpt>
      <trkpt lat="48.842408" lon="4.026177"><ele>155.8</ele></trkpt>
      <trkpt lat="48.841600" lon="4.026237"><ele>155.0</ele></trkpt>
      <trkpt lat="48.841103" lon="4.026213"><ele>154.0</ele></trkpt>
      <trkpt lat="48.840646" lon="4.026093"><ele>154.0</ele></trkpt>
      <trkpt lat="48.840176" lon="4.025844"><ele>152.8</ele></trkpt>
      <trkpt lat="48.839648" lon="4.025431"><ele>152.0</ele></trkpt>
      <trkpt lat="48.839229" lon="4.025046"><ele>151.8</ele></trkpt>
      <trkpt lat="48.838308" lon="4.026020"><ele>150.0</ele></trkpt>
      <trkpt lat="48.838154" lon="4.026121"><ele>150.0</ele></trkpt>
      <trkpt lat="48.838061" lon="4.025910"><ele>150.0</ele></trkpt>
      <trkpt lat="48.837984" lon="4.025770"><ele>150.0</ele></trkpt>
      <trkpt lat="48.837882" lon="4.025689"><ele>150.0</ele></trkpt>
      <trkpt lat="48.837448" lon="4.025552"><ele>150.0</ele></trkpt>
      <trkpt lat="48.837229" lon="4.025445"><ele>150.5</ele></trkpt>
      <trkpt lat="48.837071" lon="4.025219"><ele>150.5</ele></trkpt>
      <trkpt lat="48.836883" lon="4.025183"><ele>151.0</ele></trkpt>
      <trkpt lat="48.835583" lon="4.024725"><ele>150.8</ele></trkpt>
      <trkpt lat="48.835163" lon="4.023562"><ele>149.5</ele></trkpt>
      <trkpt lat="48.834867" lon="4.022596"><ele>150.0</ele></trkpt>
      <trkpt lat="48.834817" lon="4.022469"><ele>150.0</ele></trkpt>
      <trkpt lat="48.834754" lon="4.022344"><ele>150.5</ele></trkpt>
      <trkpt lat="48.834224" lon="4.021525"><ele>150.0</ele></trkpt>
      <trkpt lat="48.833924" lon="4.021221"><ele>150.0</ele></trkpt>
      <trkpt lat="48.833731" lon="4.020928"><ele>149.8</ele></trkpt>
      <trkpt lat="48.833558" lon="4.020617"><ele>149.8</ele></trkpt>
      <trkpt lat="48.832735" lon="4.019187"><ele>149.8</ele></trkpt>
      <trkpt lat="48.832690" lon="4.018981"><ele>149.0</ele></trkpt>
      <trkpt lat="48.832735" lon="4.018506"><ele>149.0</ele></trkpt>
      <trkpt lat="48.830505" lon="4.020776"><ele>148.0</ele></trkpt>
      <trkpt lat="48.826965" lon="4.024372"><ele>146.8</ele></trkpt>
      <trkpt lat="48.825599" lon="4.025760"><ele>150.5</ele></trkpt>
      <trkpt lat="48.825260" lon="4.025974"><ele>152.0</ele></trkpt>
      <trkpt lat="48.823893" lon="4.026336"><ele>157.0</ele></trkpt>
      <trkpt lat="48.823776" lon="4.026363"><ele>157.2</ele></trkpt>
      <trkpt lat="48.823623" lon="4.026378"><ele>157.8</ele></trkpt>
      <trkpt lat="48.823592" lon="4.026238"><ele>157.2</ele></trkpt>
      <trkpt lat="48.823465" lon="4.025922"><ele>157.0</ele></trkpt>
      <trkpt lat="48.823176" lon="4.025142"><ele>157.0</ele></trkpt>
      <trkpt lat="48.822737" lon="4.024021"><ele>156.0</ele></trkpt>
      <trkpt lat="48.822185" lon="4.022565"><ele>154.8</ele></trkpt>
      <trkpt lat="48.821688" lon="4.021188"><ele>154.0</ele></trkpt>
      <trkpt lat="48.820869" lon="4.019016"><ele>152.0</ele></trkpt>
      <trkpt lat="48.820563" lon="4.018132"><ele>152.0</ele></trkpt>
      <trkpt lat="48.820459" lon="4.017915"><ele>151.5</ele></trkpt>
      <trkpt lat="48.820384" lon="4.017792"><ele>151.2</ele></trkpt>
      <trkpt lat="48.820258" lon="4.017644"><ele>151.0</ele></trkpt>
      <trkpt lat="48.819647" lon="4.016987"><ele>150.0</ele></trkpt>
      <trkpt lat="48.818925" lon="4.016158"><ele>148.8</ele></trkpt>
      <trkpt lat="48.818320" lon="4.015512"><ele>147.8</ele></trkpt>
      <trkpt lat="48.818677" lon="4.014773"><ele>147.0</ele></trkpt>
      <trkpt lat="48.818732" lon="4.014663"><ele>146.0</ele></trkpt>
      <trkpt lat="48.819369" lon="4.013402"><ele>146.0</ele></trkpt>
      <trkpt lat="48.819996" lon="4.012209"><ele>145.0</ele></trkpt>
      <trkpt lat="48.820669" lon="4.010953"><ele>145.2</ele></trkpt>
      <trkpt lat="48.821194" lon="4.009944"><ele>145.0</ele></trkpt>
      <trkpt lat="48.820296" lon="4.008903"><ele>145.8</ele></trkpt>
      <trkpt lat="48.819225" lon="4.007702"><ele>146.0</ele></trkpt>
      <trkpt lat="48.816864" lon="4.005021"><ele>146.0</ele></trkpt>
      <trkpt lat="48.815828" lon="4.003744"><ele>146.0</ele></trkpt>
      <trkpt lat="48.814220" lon="4.001711"><ele>145.8</ele></trkpt>
      <trkpt lat="48.813413" lon="4.000696"><ele>145.8</ele></trkpt>
      <trkpt lat="48.813318" lon="4.000556"><ele>145.8</ele></trkpt>
      <trkpt lat="48.813522" lon="3.999359"><ele>146.0</ele></trkpt>
      <trkpt lat="48.813314" lon="3.997433"><ele>145.8</ele></trkpt>
      <trkpt lat="48.813182" lon="3.996206"><ele>146.0</ele></trkpt>
      <trkpt lat="48.813074" lon="3.995207"><ele>145.0</ele></trkpt>
      <trkpt lat="48.812941" lon="3.993985"><ele>144.0</ele></trkpt>
      <trkpt lat="48.812940" lon="3.993940"><ele>144.0</ele></trkpt>
      <trkpt lat="48.813079" lon="3.993296"><ele>143.8</ele></trkpt>
      <trkpt lat="48.812882" lon="3.992974"><ele>143.0</ele></trkpt>
      <trkpt lat="48.812761" lon="3.992755"><ele>143.0</ele></trkpt>
      <trkpt lat="48.812567" lon="3.992374"><ele>143.0</ele></trkpt>
      <trkpt lat="48.812507" lon="3.992272"><ele>143.0</ele></trkpt>
      <trkpt lat="48.812458" lon="3.992215"><ele>143.0</ele></trkpt>
      <trkpt lat="48.812418" lon="3.992181"><ele>143.0</ele></trkpt>
      <trkpt lat="48.812397" lon="3.992054"><ele>143.0</ele></trkpt>
      <trkpt lat="48.812117" lon="3.991328"><ele>143.0</ele></trkpt>
      <trkpt lat="48.811913" lon="3.990874"><ele>143.0</ele></trkpt>
      <trkpt lat="48.811553" lon="3.990398"><ele>143.0</ele></trkpt>
      <trkpt lat="48.811394" lon="3.990231"><ele>143.0</ele></trkpt>
      <trkpt lat="48.811211" lon="3.990100"><ele>143.0</ele></trkpt>
      <trkpt lat="48.811018" lon="3.990073"><ele>143.0</ele></trkpt>
      <trkpt lat="48.810402" lon="3.989950"><ele>143.0</ele></trkpt>
      <trkpt lat="48.809995" lon="3.989931"><ele>143.0</ele></trkpt>
      <trkpt lat="48.809812" lon="3.989912"><ele>143.0</ele></trkpt>
      <trkpt lat="48.809581" lon="3.989865"><ele>143.0</ele></trkpt>
      <trkpt lat="48.809516" lon="3.989854"><ele>143.0</ele></trkpt>
      <trkpt lat="48.808404" lon="3.989317"><ele>142.5</ele></trkpt>
      <trkpt lat="48.808199" lon="3.989178"><ele>142.5</ele></trkpt>
      <trkpt lat="48.808134" lon="3.989107"><ele>142.5</ele></trkpt>
      <trkpt lat="48.808077" lon="3.989024"><ele>142.8</ele></trkpt>
      <trkpt lat="48.806783" lon="3.986599"><ele>143.0</ele></trkpt>
      <trkpt lat="48.806565" lon="3.986118"><ele>143.0</ele></trkpt>
      <trkpt lat="48.806071" lon="3.984826"><ele>144.0</ele></trkpt>
      <trkpt lat="48.806019" lon="3.984671"><ele>144.0</ele></trkpt>
      <trkpt lat="48.805466" lon="3.983182"><ele>144.0</ele></trkpt>
      <trkpt lat="48.804606" lon="3.980844"><ele>144.0</ele></trkpt>
      <trkpt lat="48.804503" lon="3.980530"><ele>144.8</ele></trkpt>
      <trkpt lat="48.804401" lon="3.980028"><ele>144.0</ele></trkpt>
      <trkpt lat="48.804285" lon="3.979367"><ele>144.0</ele></trkpt>
      <trkpt lat="48.804133" lon="3.978589"><ele>144.8</ele></trkpt>
      <trkpt lat="48.804063" lon="3.978316"><ele>144.8</ele></trkpt>
      <trkpt lat="48.802739" lon="3.974303"><ele>144.0</ele></trkpt>
      <trkpt lat="48.802703" lon="3.974230"><ele>144.0</ele></trkpt>
      <trkpt lat="48.801681" lon="3.970932"><ele>144.0</ele></trkpt>
      <trkpt lat="48.800843" lon="3.968229"><ele>146.0</ele></trkpt>
      <trkpt lat="48.799682" lon="3.964589"><ele>146.0</ele></trkpt>
      <trkpt lat="48.798449" lon="3.960580"><ele>145.5</ele></trkpt>
      <trkpt lat="48.798123" lon="3.959495"><ele>145.8</ele></trkpt>
      <trkpt lat="48.798566" lon="3.959074"><ele>145.0</ele></trkpt>
      <trkpt lat="48.800545" lon="3.957211"><ele>143.0</ele></trkpt>
      <trkpt lat="48.801001" lon="3.956811"><ele>143.2</ele></trkpt>
      <trkpt lat="48.801000" lon="3.956527"><ele>142.2</ele></trkpt>
      <trkpt lat="48.801212" lon="3.948096"><ele>141.8</ele></trkpt>
      <trkpt lat="48.801311" lon="3.944084"><ele>142.0</ele></trkpt>
      <trkpt lat="48.801611" lon="3.933878"><ele>141.8</ele></trkpt>
      <trkpt lat="48.801701" lon="3.929673"><ele>142.0</ele></trkpt>
      <trkpt lat="48.801582" lon="3.929481"><ele>142.0</ele></trkpt>
      <trkpt lat="48.801414" lon="3.929375"><ele>142.0</ele></trkpt>
      <trkpt lat="48.800937" lon="3.929284"><ele>142.2</ele></trkpt>
      <trkpt lat="48.800849" lon="3.929369"><ele>142.2</ele></trkpt>
      <trkpt lat="48.800825" lon="3.929209"><ele>142.8</ele></trkpt>
      <trkpt lat="48.801021" lon="3.926766"><ele>143.0</ele></trkpt>
      <trkpt lat="48.801212" lon="3.925703"><ele>143.0</ele></trkpt>
      <trkpt lat="48.801242" lon="3.924898"><ele>143.0</ele></trkpt>
      <trkpt lat="48.801211" lon="3.923865"><ele>143.0</ele></trkpt>
      <trkpt lat="48.801108" lon="3.922581"><ele>143.0</ele></trkpt>
      <trkpt lat="48.801021" lon="3.921606"><ele>144.0</ele></trkpt>
      <trkpt lat="48.800625" lon="3.917310"><ele>146.0</ele></trkpt>
      <trkpt lat="48.800394" lon="3.915062"><ele>145.0</ele></trkpt>
      <trkpt lat="48.796862" lon="3.915402"><ele>153.0</ele></trkpt>
      <trkpt lat="48.796867" lon="3.915231"><ele>153.2</ele></trkpt>
      <trkpt lat="48.796266" lon="3.909235"><ele>157.0</ele></trkpt>
      <trkpt lat="48.793901" lon="3.909753"><ele>153.0</ele></trkpt>
      <trkpt lat="48.793199" lon="3.902933"><ele>148.0</ele></trkpt>
      <trkpt lat="48.793003" lon="3.902991"><ele>147.0</ele></trkpt>
      <trkpt lat="48.792364" lon="3.903139"><ele>145.5</ele></trkpt>
      <trkpt lat="48.789823" lon="3.903812"><ele>141.2</ele></trkpt>
      <trkpt lat="48.789601" lon="3.903907"><ele>141.0</ele></trkpt>
      <trkpt lat="48.789072" lon="3.904020"><ele>141.0</ele></trkpt>
      <trkpt lat="48.788958" lon="3.904006"><ele>141.0</ele></trkpt>
      <trkpt lat="48.788801" lon="3.903928"><ele>141.0</ele></trkpt>
      <trkpt lat="48.788573" lon="3.903780"><ele>141.0</ele></trkpt>
      <trkpt lat="48.788251" lon="3.903589"><ele>141.0</ele></trkpt>
      <trkpt lat="48.788074" lon="3.903528"><ele>141.0</ele></trkpt>
      <trkpt lat="48.787665" lon="3.903480"><ele>141.5</ele></trkpt>
      <trkpt lat="48.787646" lon="3.903228"><ele>141.0</ele></trkpt>
      <trkpt lat="48.787634" lon="3.902772"><ele>141.0</ele></trkpt>
      <trkpt lat="48.787557" lon="3.900687"><ele>141.0</ele></trkpt>
      <trkpt lat="48.787534" lon="3.900156"><ele>141.0</ele></trkpt>
      <trkpt lat="48.787511" lon="3.899236"><ele>141.0</ele></trkpt>
      <trkpt lat="48.787495" lon="3.898818"><ele>141.0</ele></trkpt>
      <trkpt lat="48.787464" lon="3.898316"><ele>141.0</ele></trkpt>
      <trkpt lat="48.787352" lon="3.895525"><ele>141.0</ele></trkpt>
      <trkpt lat="48.785187" lon="3.895711"><ele>143.0</ele></trkpt>
      <trkpt lat="48.784400" lon="3.886721"><ele>149.0</ele></trkpt>
      <trkpt lat="48.783736" lon="3.882764"><ele>147.5</ele></trkpt>
      <trkpt lat="48.785158" lon="3.882205"><ele>143.8</ele></trkpt>
      <trkpt lat="48.785058" lon="3.881303"><ele>143.5</ele></trkpt>
      <trkpt lat="48.785694" lon="3.878661"><ele>143.2</ele></trkpt>
      <trkpt lat="48.785837" lon="3.878019"><ele>143.0</ele></trkpt>
      <trkpt lat="48.786490" lon="3.875058"><ele>142.5</ele></trkpt>
      <trkpt lat="48.786501" lon="3.875009"><ele>142.5</ele></trkpt>
      <trkpt lat="48.787127" lon="3.874821"><ele>142.0</ele></trkpt>
      <trkpt lat="48.787225" lon="3.874828"><ele>141.8</ele></trkpt>
      <trkpt lat="48.787563" lon="3.874786"><ele>141.0</ele></trkpt>
      <trkpt lat="48.788018" lon="3.874710"><ele>140.0</ele></trkpt>
      <trkpt lat="48.788288" lon="3.874657"><ele>140.0</ele></trkpt>
      <trkpt lat="48.788442" lon="3.873936"><ele>140.5</ele></trkpt>
      <trkpt lat="48.788465" lon="3.873399"><ele>140.0</ele></trkpt>
      <trkpt lat="48.788467" lon="3.873349"><ele>140.0</ele></trkpt>
      <trkpt lat="48.788443" lon="3.872891"><ele>140.0</ele></trkpt>
      <trkpt lat="48.788382" lon="3.872339"><ele>140.0</ele></trkpt>
      <trkpt lat="48.788396" lon="3.872126"><ele>140.0</ele></trkpt>
      <trkpt lat="48.788343" lon="3.871053"><ele>140.8</ele></trkpt>
      <trkpt lat="48.788269" lon="3.869284"><ele>140.0</ele></trkpt>
      <trkpt lat="48.788178" lon="3.867602"><ele>140.0</ele></trkpt>
      <trkpt lat="48.788080" lon="3.864763"><ele>140.8</ele></trkpt>
      <trkpt lat="48.787929" lon="3.861553"><ele>141.0</ele></trkpt>
      <trkpt lat="48.787909" lon="3.861263"><ele>141.0</ele></trkpt>
      <trkpt lat="48.787916" lon="3.860484"><ele>140.5</ele></trkpt>
      <trkpt lat="48.787838" lon="3.859623"><ele>141.0</ele></trkpt>
      <trkpt lat="48.787527" lon="3.857373"><ele>142.0</ele></trkpt>
      <trkpt lat="48.787210" lon="3.855728"><ele>142.0</ele></trkpt>
      <trkpt lat="48.787495" lon="3.855590"><ele>142.0</ele></trkpt>
      <trkpt lat="48.787341" lon="3.854899"><ele>142.0</ele></trkpt>
      <trkpt lat="48.787254" lon="3.854605"><ele>142.0</ele></trkpt>
      <trkpt lat="48.787147" lon="3.854325"><ele>141.8</ele></trkpt>
      <trkpt lat="48.786790" lon="3.853724"><ele>141.0</ele></trkpt>
      <trkpt lat="48.786538" lon="3.853239"><ele>140.8</ele></trkpt>
      <trkpt lat="48.786415" lon="3.852969"><ele>140.8</ele></trkpt>
      <trkpt lat="48.786324" lon="3.852753"><ele>141.0</ele></trkpt>
      <trkpt lat="48.785993" lon="3.851823"><ele>141.0</ele></trkpt>
      <trkpt lat="48.785975" lon="3.851738"><ele>141.0</ele></trkpt>
      <trkpt lat="48.785965" lon="3.851623"><ele>141.0</ele></trkpt>
      <trkpt lat="48.786006" lon="3.851350"><ele>141.0</ele></trkpt>
      <trkpt lat="48.786278" lon="3.849056"><ele>140.5</ele></trkpt>
      <trkpt lat="48.786518" lon="3.847079"><ele>141.0</ele></trkpt>
      <trkpt lat="48.786568" lon="3.846803"><ele>141.2</ele></trkpt>
      <trkpt lat="48.786684" lon="3.846340"><ele>142.0</ele></trkpt>
      <trkpt lat="48.788006" lon="3.842218"><ele>143.0</ele></trkpt>
      <trkpt lat="48.787446" lon="3.840817"><ele>144.0</ele></trkpt>
      <trkpt lat="48.786737" lon="3.839072"><ele>146.0</ele></trkpt>
      <trkpt lat="48.786138" lon="3.837626"><ele>150.2</ele></trkpt>
      <trkpt lat="48.785532" lon="3.836127"><ele>160.0</ele></trkpt>
      <trkpt lat="48.784869" lon="3.834554"><ele>165.5</ele></trkpt>
      <trkpt lat="48.784272" lon="3.833069"><ele>162.2</ele></trkpt>
      <trkpt lat="48.783365" lon="3.830881"><ele>154.0</ele></trkpt>
      <trkpt lat="48.782318" lon="3.831487"><ele>153.0</ele></trkpt>
      <trkpt lat="48.781709" lon="3.829928"><ele>148.2</ele></trkpt>
      <trkpt lat="48.779199" lon="3.823220"><ele>144.8</ele></trkpt>
      <trkpt lat="48.778193" lon="3.820576"><ele>147.0</ele></trkpt>
      <trkpt lat="48.777959" lon="3.819916"><ele>147.0</ele></trkpt>
      <trkpt lat="48.777070" lon="3.819471"><ele>148.0</ele></trkpt>
      <trkpt lat="48.776380" lon="3.819139"><ele>148.0</ele></trkpt>
      <trkpt lat="48.776256" lon="3.819074"><ele>148.2</ele></trkpt>
      <trkpt lat="48.775648" lon="3.818755"><ele>148.8</ele></trkpt>
      <trkpt lat="48.774926" lon="3.818138"><ele>150.0</ele></trkpt>
      <trkpt lat="48.774588" lon="3.817688"><ele>150.2</ele></trkpt>
      <trkpt lat="48.773256" lon="3.815617"><ele>154.2</ele></trkpt>
      <trkpt lat="48.768418" lon="3.808094"><ele>177.2</ele></trkpt>
      <trkpt lat="48.767472" lon="3.806623"><ele>186.0</ele></trkpt>
      <trkpt lat="48.767226" lon="3.806240"><ele>187.5</ele></trkpt>
      <trkpt lat="48.766763" lon="3.805520"><ele>192.0</ele></trkpt>
      <trkpt lat="48.766609" lon="3.805179"><ele>194.5</ele></trkpt>
      <trkpt lat="48.766575" lon="3.804797"><ele>195.5</ele></trkpt>
      <trkpt lat="48.766506" lon="3.804168"><ele>198.5</ele></trkpt>
      <trkpt lat="48.766311" lon="3.803844"><ele>202.8</ele></trkpt>
      <trkpt lat="48.766092" lon="3.803670"><ele>207.2</ele></trkpt>
      <trkpt lat="48.765840" lon="3.803730"><ele>208.0</ele></trkpt>
      <trkpt lat="48.765566" lon="3.803935"><ele>207.2</ele></trkpt>
      <trkpt lat="48.765176" lon="3.804178"><ele>207.8</ele></trkpt>
      <trkpt lat="48.764715" lon="3.804392"><ele>210.5</ele></trkpt>
      <trkpt lat="48.764376" lon="3.804360"><ele>215.8</ele></trkpt>
      <trkpt lat="48.763812" lon="3.804181"><ele>222.5</ele></trkpt>
      <trkpt lat="48.762796" lon="3.803799"><ele>225.2</ele></trkpt>
      <trkpt lat="48.762740" lon="3.803808"><ele>225.0</ele></trkpt>
      <trkpt lat="48.762664" lon="3.803763"><ele>224.8</ele></trkpt>
      <trkpt lat="48.762519" lon="3.803636"><ele>223.2</ele></trkpt>
      <trkpt lat="48.762471" lon="3.803555"><ele>222.8</ele></trkpt>
      <trkpt lat="48.761971" lon="3.802820"><ele>219.0</ele></trkpt>
      <trkpt lat="48.761918" lon="3.802733"><ele>218.8</ele></trkpt>
      <trkpt lat="48.761864" lon="3.802625"><ele>218.5</ele></trkpt>
      <trkpt lat="48.761678" lon="3.802224"><ele>219.0</ele></trkpt>
      <trkpt lat="48.761555" lon="3.801932"><ele>218.5</ele></trkpt>
      <trkpt lat="48.761408" lon="3.801640"><ele>219.0</ele></trkpt>
      <trkpt lat="48.761211" lon="3.801178"><ele>219.8</ele></trkpt>
      <trkpt lat="48.761097" lon="3.800872"><ele>220.5</ele></trkpt>
      <trkpt lat="48.761046" lon="3.800712"><ele>220.2</ele></trkpt>
      <trkpt lat="48.761016" lon="3.800580"><ele>220.2</ele></trkpt>
      <trkpt lat="48.761013" lon="3.800418"><ele>220.8</ele></trkpt>
      <trkpt lat="48.760931" lon="3.800028"><ele>221.0</ele></trkpt>
      <trkpt lat="48.760861" lon="3.799562"><ele>219.2</ele></trkpt>
      <trkpt lat="48.760740" lon="3.799628"><ele>218.8</ele></trkpt>
      <trkpt lat="48.760626" lon="3.799765"><ele>218.0</ele></trkpt>
      <trkpt lat="48.760384" lon="3.800140"><ele>213.0</ele></trkpt>
      <trkpt lat="48.760304" lon="3.800483"><ele>206.8</ele></trkpt>
      <trkpt lat="48.760257" lon="3.800875"><ele>203.2</ele></trkpt>
      <trkpt lat="48.760238" lon="3.801064"><ele>201.8</ele></trkpt>
      <trkpt lat="48.760254" lon="3.801374"><ele>198.8</ele></trkpt>
      <trkpt lat="48.760370" lon="3.802409"><ele>188.8</ele></trkpt>
      <trkpt lat="48.760389" lon="3.802594"><ele>186.8</ele></trkpt>
      <trkpt lat="48.760400" lon="3.802944"><ele>184.2</ele></trkpt>
      <trkpt lat="48.760339" lon="3.803109"><ele>182.8</ele></trkpt>
      <trkpt lat="48.760227" lon="3.803350"><ele>181.8</ele></trkpt>
      <trkpt lat="48.759740" lon="3.803738"><ele>179.5</ele></trkpt>
      <trkpt lat="48.759191" lon="3.804017"><ele>177.5</ele></trkpt>
      <trkpt lat="48.759179" lon="3.803977"><ele>177.2</ele></trkpt>
      <trkpt lat="48.759161" lon="3.803869"><ele>176.8</ele></trkpt>
      <trkpt lat="48.758665" lon="3.803370"><ele>171.5</ele></trkpt>
      <trkpt lat="48.758414" lon="3.803088"><ele>168.5</ele></trkpt>
      <trkpt lat="48.758269" lon="3.802886"><ele>167.5</ele></trkpt>
      <trkpt lat="48.758026" lon="3.802458"><ele>166.8</ele></trkpt>
      <trkpt lat="48.757904" lon="3.802310"><ele>166.2</ele></trkpt>
      <trkpt lat="48.757750" lon="3.802235"><ele>165.8</ele></trkpt>
      <trkpt lat="48.757653" lon="3.802261"><ele>165.0</ele></trkpt>
      <trkpt lat="48.757004" lon="3.802811"><ele>160.2</ele></trkpt>
      <trkpt lat="48.756734" lon="3.802443"><ele>159.5</ele></trkpt>
      <trkpt lat="48.756373" lon="3.802062"><ele>159.5</ele></trkpt>
      <trkpt lat="48.756237" lon="3.801818"><ele>159.8</ele></trkpt>
      <trkpt lat="48.756134" lon="3.801564"><ele>160.0</ele></trkpt>
      <trkpt lat="48.755500" lon="3.800566"><ele>158.8</ele></trkpt>
      <trkpt lat="48.755241" lon="3.800174"><ele>159.0</ele></trkpt>
      <trkpt lat="48.754700" lon="3.799584"><ele>158.8</ele></trkpt>
      <trkpt lat="48.754511" lon="3.799265"><ele>158.2</ele></trkpt>
      <trkpt lat="48.754242" lon="3.798704"><ele>157.8</ele></trkpt>
      <trkpt lat="48.753939" lon="3.798258"><ele>156.5</ele></trkpt>
      <trkpt lat="48.753651" lon="3.797905"><ele>155.2</ele></trkpt>
      <trkpt lat="48.753069" lon="3.796921"><ele>153.0</ele></trkpt>
      <trkpt lat="48.752246" lon="3.795527"><ele>152.2</ele></trkpt>
      <trkpt lat="48.750399" lon="3.791914"><ele>146.8</ele></trkpt>
      <trkpt lat="48.750100" lon="3.791343"><ele>144.5</ele></trkpt>
      <trkpt lat="48.749597" lon="3.790385"><ele>141.2</ele></trkpt>
      <trkpt lat="48.749035" lon="3.789187"><ele>137.5</ele></trkpt>
      <trkpt lat="48.747178" lon="3.785482"><ele>129.0</ele></trkpt>
      <trkpt lat="48.746224" lon="3.783578"><ele>128.2</ele></trkpt>
      <trkpt lat="48.744533" lon="3.780236"><ele>126.5</ele></trkpt>
      <trkpt lat="48.744413" lon="3.780021"><ele>127.0</ele></trkpt>
      <trkpt lat="48.743912" lon="3.779938"><ele>129.8</ele></trkpt>
      <trkpt lat="48.743831" lon="3.779884"><ele>130.2</ele></trkpt>
      <trkpt lat="48.743746" lon="3.779801"><ele>131.0</ele></trkpt>
      <trkpt lat="48.743667" lon="3.779700"><ele>131.5</ele></trkpt>
      <trkpt lat="48.743608" lon="3.779558"><ele>131.2</ele></trkpt>
      <trkpt lat="48.743411" lon="3.779081"><ele>130.8</ele></trkpt>
      <trkpt lat="48.743343" lon="3.778944"><ele>130.8</ele></trkpt>
      <trkpt lat="48.743256" lon="3.778766"><ele>130.5</ele></trkpt>
      <trkpt lat="48.743151" lon="3.778579"><ele>129.8</ele></trkpt>
      <trkpt lat="48.742453" lon="3.777355"><ele>130.0</ele></trkpt>
      <trkpt lat="48.742422" lon="3.777288"><ele>130.0</ele></trkpt>
      <trkpt lat="48.742407" lon="3.777229"><ele>130.0</ele></trkpt>
      <trkpt lat="48.742400" lon="3.777167"><ele>130.0</ele></trkpt>
      <trkpt lat="48.742287" lon="3.777046"><ele>130.2</ele></trkpt>
      <trkpt lat="48.741806" lon="3.776203"><ele>132.5</ele></trkpt>
      <trkpt lat="48.741319" lon="3.775474"><ele>134.2</ele></trkpt>
      <trkpt lat="48.741291" lon="3.775291"><ele>134.8</ele></trkpt>
      <trkpt lat="48.741325" lon="3.775096"><ele>135.0</ele></trkpt>
      <trkpt lat="48.741368" lon="3.775022"><ele>135.0</ele></trkpt>
      <trkpt lat="48.741602" lon="3.774619"><ele>136.0</ele></trkpt>
      <trkpt lat="48.742231" lon="3.773668"><ele>133.8</ele></trkpt>
      <trkpt lat="48.742312" lon="3.773584"><ele>133.5</ele></trkpt>
      <trkpt lat="48.742230" lon="3.773430"><ele>134.5</ele></trkpt>
      <trkpt lat="48.742048" lon="3.772982"><ele>135.5</ele></trkpt>
      <trkpt lat="48.741871" lon="3.772579"><ele>137.0</ele></trkpt>
      <trkpt lat="48.739266" lon="3.766995"><ele>159.2</ele></trkpt>
      <trkpt lat="48.739235" lon="3.766316"><ele>160.0</ele></trkpt>
      <trkpt lat="48.739186" lon="3.765871"><ele>160.5</ele></trkpt>
      <trkpt lat="48.739101" lon="3.765558"><ele>161.8</ele></trkpt>
      <trkpt lat="48.738864" lon="3.764683"><ele>164.0</ele></trkpt>
      <trkpt lat="48.738405" lon="3.763743"><ele>166.8</ele></trkpt>
      <trkpt lat="48.738021" lon="3.763107"><ele>167.0</ele></trkpt>
      <trkpt lat="48.737052" lon="3.761500"><ele>167.2</ele></trkpt>
      <trkpt lat="48.734584" lon="3.760823"><ele>157.5</ele></trkpt>
      <trkpt lat="48.734042" lon="3.760674"><ele>154.8</ele></trkpt>
      <trkpt lat="48.733059" lon="3.759166"><ele>155.0</ele></trkpt>
      <trkpt lat="48.733675" lon="3.757571"><ele>163.8</ele></trkpt>
      <trkpt lat="48.732954" lon="3.755967"><ele>159.2</ele></trkpt>
      <trkpt lat="48.732834" lon="3.755669"><ele>159.0</ele></trkpt>
      <trkpt lat="48.732549" lon="3.755148"><ele>161.5</ele></trkpt>
      <trkpt lat="48.732122" lon="3.754500"><ele>165.5</ele></trkpt>
      <trkpt lat="48.728997" lon="3.744614"><ele>161.5</ele></trkpt>
      <trkpt lat="48.728780" lon="3.744147"><ele>159.0</ele></trkpt>
      <trkpt lat="48.727773" lon="3.741872"><ele>145.8</ele></trkpt>
      <trkpt lat="48.727298" lon="3.739551"><ele>135.2</ele></trkpt>
      <trkpt lat="48.727746" lon="3.734081"><ele>133.5</ele></trkpt>
      <trkpt lat="48.728437" lon="3.733197"><ele>136.2</ele></trkpt>
      <trkpt lat="48.729149" lon="3.732066"><ele>141.0</ele></trkpt>
      <trkpt lat="48.729299" lon="3.731890"><ele>141.8</ele></trkpt>
      <trkpt lat="48.729351" lon="3.731736"><ele>142.2</ele></trkpt>
      <trkpt lat="48.729421" lon="3.731585"><ele>143.5</ele></trkpt>
      <trkpt lat="48.729505" lon="3.731434"><ele>144.5</ele></trkpt>
      <trkpt lat="48.729891" lon="3.730832"><ele>148.8</ele></trkpt>
      <trkpt lat="48.729908" lon="3.730805"><ele>148.8</ele></trkpt>
      <trkpt lat="48.729834" lon="3.730705"><ele>147.0</ele></trkpt>
      <trkpt lat="48.729793" lon="3.730656"><ele>145.8</ele></trkpt>
      <trkpt lat="48.729470" lon="3.730305"><ele>147.0</ele></trkpt>
      <trkpt lat="48.729422" lon="3.730244"><ele>147.8</ele></trkpt>
      <trkpt lat="48.729102" lon="3.729880"><ele>147.2</ele></trkpt>
      <trkpt lat="48.728658" lon="3.729414"><ele>146.2</ele></trkpt>
      <trkpt lat="48.728034" lon="3.728792"><ele>143.0</ele></trkpt>
      <trkpt lat="48.727804" lon="3.728511"><ele>142.0</ele></trkpt>
      <trkpt lat="48.727655" lon="3.728253"><ele>140.8</ele></trkpt>
      <trkpt lat="48.727043" lon="3.726993"><ele>133.5</ele></trkpt>
      <trkpt lat="48.726973" lon="3.726870"><ele>132.5</ele></trkpt>
      <trkpt lat="48.726912" lon="3.726783"><ele>131.5</ele></trkpt>
      <trkpt lat="48.726775" lon="3.726653"><ele>129.5</ele></trkpt>
      <trkpt lat="48.726611" lon="3.726527"><ele>128.2</ele></trkpt>
      <trkpt lat="48.726574" lon="3.726498"><ele>128.0</ele></trkpt>
      <trkpt lat="48.726606" lon="3.726389"><ele>127.8</ele></trkpt>
      <trkpt lat="48.726573" lon="3.726343"><ele>127.5</ele></trkpt>
      <trkpt lat="48.726532" lon="3.726289"><ele>127.2</ele></trkpt>
      <trkpt lat="48.726386" lon="3.726165"><ele>126.8</ele></trkpt>
      <trkpt lat="48.725792" lon="3.725832"><ele>126.0</ele></trkpt>
      <trkpt lat="48.725686" lon="3.725744"><ele>126.2</ele></trkpt>
      <trkpt lat="48.725609" lon="3.725657"><ele>126.5</ele></trkpt>
      <trkpt lat="48.725246" lon="3.725119"><ele>128.0</ele></trkpt>
      <trkpt lat="48.725264" lon="3.724855"><ele>128.5</ele></trkpt>
      <trkpt lat="48.725260" lon="3.724752"><ele>129.0</ele></trkpt>
      <trkpt lat="48.725247" lon="3.724653"><ele>129.2</ele></trkpt>
      <trkpt lat="48.725222" lon="3.724567"><ele>129.8</ele></trkpt>
      <trkpt lat="48.725189" lon="3.724494"><ele>130.2</ele></trkpt>
      <trkpt lat="48.725123" lon="3.724383"><ele>131.2</ele></trkpt>
      <trkpt lat="48.724911" lon="3.724155"><ele>134.2</ele></trkpt>
      <trkpt lat="48.724777" lon="3.724023"><ele>135.0</ele></trkpt>
      <trkpt lat="48.724705" lon="3.723950"><ele>135.8</ele></trkpt>
      <trkpt lat="48.724653" lon="3.723899"><ele>136.0</ele></trkpt>
      <trkpt lat="48.724539" lon="3.723800"><ele>136.8</ele></trkpt>
      <trkpt lat="48.724523" lon="3.723785"><ele>136.8</ele></trkpt>
      <trkpt lat="48.724317" lon="3.723600"><ele>138.2</ele></trkpt>
      <trkpt lat="48.724250" lon="3.723527"><ele>139.0</ele></trkpt>
      <trkpt lat="48.724217" lon="3.723476"><ele>139.2</ele></trkpt>
      <trkpt lat="48.724032" lon="3.723134"><ele>139.5</ele></trkpt>
      <trkpt lat="48.723959" lon="3.723056"><ele>139.2</ele></trkpt>
      <trkpt lat="48.723731" lon="3.722922"><ele>137.8</ele></trkpt>
      <trkpt lat="48.723565" lon="3.722869"><ele>136.8</ele></trkpt>
      <trkpt lat="48.723541" lon="3.722862"><ele>136.5</ele></trkpt>
      <trkpt lat="48.723561" lon="3.722761"><ele>136.8</ele></trkpt>
      <trkpt lat="48.723574" lon="3.722643"><ele>136.8</ele></trkpt>
      <trkpt lat="48.723582" lon="3.722370"><ele>137.2</ele></trkpt>
      <trkpt lat="48.723557" lon="3.721974"><ele>137.8</ele></trkpt>
      <trkpt lat="48.723544" lon="3.721846"><ele>138.0</ele></trkpt>
      <trkpt lat="48.723499" lon="3.721850"><ele>137.8</ele></trkpt>
      <trkpt lat="48.723329" lon="3.721865"><ele>137.2</ele></trkpt>
      <trkpt lat="48.722943" lon="3.721875"><ele>135.5</ele></trkpt>
      <trkpt lat="48.722829" lon="3.721838"><ele>135.0</ele></trkpt>
      <trkpt lat="48.722594" lon="3.721733"><ele>134.8</ele></trkpt>
      <trkpt lat="48.722440" lon="3.721657"><ele>135.0</ele></trkpt>
      <trkpt lat="48.722295" lon="3.721594"><ele>135.0</ele></trkpt>
      <trkpt lat="48.722250" lon="3.721575"><ele>135.0</ele></trkpt>
      <trkpt lat="48.721920" lon="3.721431"><ele>134.8</ele></trkpt>
      <trkpt lat="48.721832" lon="3.721425"><ele>134.8</ele></trkpt>
      <trkpt lat="48.721784" lon="3.721462"><ele>134.5</ele></trkpt>
      <trkpt lat="48.721665" lon="3.721571"><ele>134.2</ele></trkpt>
      <trkpt lat="48.721379" lon="3.721915"><ele>134.0</ele></trkpt>
      <trkpt lat="48.721348" lon="3.721956"><ele>134.0</ele></trkpt>
      <trkpt lat="48.721311" lon="3.721779"><ele>134.8</ele></trkpt>
      <trkpt lat="48.721210" lon="3.721293"><ele>136.5</ele></trkpt>
      <trkpt lat="48.721158" lon="3.721032"><ele>137.0</ele></trkpt>
      <trkpt lat="48.721140" lon="3.720919"><ele>137.5</ele></trkpt>
      <trkpt lat="48.721150" lon="3.720845"><ele>137.8</ele></trkpt>
      <trkpt lat="48.721116" lon="3.720808"><ele>138.0</ele></trkpt>
      <trkpt lat="48.721068" lon="3.720734"><ele>138.5</ele></trkpt>
      <trkpt lat="48.721028" lon="3.720652"><ele>138.8</ele></trkpt>
      <trkpt lat="48.720863" lon="3.720300"><ele>140.8</ele></trkpt>
      <trkpt lat="48.720688" lon="3.719948"><ele>142.5</ele></trkpt>
      <trkpt lat="48.720706" lon="3.719926"><ele>142.5</ele></trkpt>
      <trkpt lat="48.720723" lon="3.719906"><ele>142.5</ele></trkpt>
      <trkpt lat="48.721107" lon="3.719465"><ele>142.0</ele></trkpt>
      <trkpt lat="48.721002" lon="3.719247"><ele>142.8</ele></trkpt>
    </trkseg>
  </trk>
</gpx>
