<?xml version="1.0" encoding="UTF-8"?>
<gpx version="1.1" creator="Gravel Kompass" xmlns="http://www.topografix.com/GPX/1/1">
  <metadata><name>Champagne-Gravel-Runde: Montagne de Reims, Côte des Blancs &amp; Côte des Bar – Etappe 1</name></metadata>
  <trk>
    <name>Etappe 1: Reims – Épernay</name>
    <trkseg>
<trkpt lat="49.25839" lon="4.03198"><ele>87</ele></trkpt>
<trkpt lat="49.25781" lon="4.03247"><ele>86</ele></trkpt>
<trkpt lat="49.25750" lon="4.03156"><ele>85</ele></trkpt>
<trkpt lat="49.25664" lon="4.03216"><ele>85</ele></trkpt>
<trkpt lat="49.25658" lon="4.03214"><ele>85</ele></trkpt>
<trkpt lat="49.25653" lon="4.03221"><ele>85</ele></trkpt>
<trkpt lat="49.25644" lon="4.03258"><ele>85</ele></trkpt>
<trkpt lat="49.25608" lon="4.03290"><ele>86</ele></trkpt>
<trkpt lat="49.25599" lon="4.03315"><ele>86</ele></trkpt>
<trkpt lat="49.25464" lon="4.03443"><ele>87</ele></trkpt>
<trkpt lat="49.25452" lon="4.03466"><ele>87</ele></trkpt>
<trkpt lat="49.25453" lon="4.03476"><ele>87</ele></trkpt>
<trkpt lat="49.25449" lon="4.03510"><ele>87</ele></trkpt>
<trkpt lat="49.25275" lon="4.03672"><ele>89</ele></trkpt>
<trkpt lat="49.25271" lon="4.03681"><ele>89</ele></trkpt>
<trkpt lat="49.25241" lon="4.03709"><ele>88</ele></trkpt>
<trkpt lat="49.25183" lon="4.03752"><ele>88</ele></trkpt>
<trkpt lat="49.25149" lon="4.03766"><ele>87</ele></trkpt>
<trkpt lat="49.25091" lon="4.03825"><ele>87</ele></trkpt>
<trkpt lat="49.24755" lon="4.04119"><ele>90</ele></trkpt>
<trkpt lat="49.24667" lon="4.03909"><ele>87</ele></trkpt>
<trkpt lat="49.24636" lon="4.03942"><ele>87</ele></trkpt>
<trkpt lat="49.24564" lon="4.03995"><ele>87</ele></trkpt>
<trkpt lat="49.24526" lon="4.03897"><ele>86</ele></trkpt>
<trkpt lat="49.24317" lon="4.04021"><ele>90</ele></trkpt>
<trkpt lat="49.24289" lon="4.03925"><ele>87</ele></trkpt>
<trkpt lat="49.24237" lon="4.03725"><ele>82</ele></trkpt>
<trkpt lat="49.24226" lon="4.03707"><ele>81</ele></trkpt>
<trkpt lat="49.24200" lon="4.03687"><ele>81</ele></trkpt>
<trkpt lat="49.24196" lon="4.03681"><ele>81</ele></trkpt>
<trkpt lat="49.24183" lon="4.03621"><ele>82</ele></trkpt>
<trkpt lat="49.24176" lon="4.03606"><ele>82</ele></trkpt>
<trkpt lat="49.24156" lon="4.03506"><ele>81</ele></trkpt>
<trkpt lat="49.24139" lon="4.03449"><ele>80</ele></trkpt>
<trkpt lat="49.24046" lon="4.03287"><ele>80</ele></trkpt>
<trkpt lat="49.23912" lon="4.03411"><ele>79</ele></trkpt>
<trkpt lat="49.23739" lon="4.03472"><ele>80</ele></trkpt>
<trkpt lat="49.23630" lon="4.03567"><ele>80</ele></trkpt>
<trkpt lat="49.23625" lon="4.03578"><ele>80</ele></trkpt>
<trkpt lat="49.23556" lon="4.03641"><ele>80</ele></trkpt>
<trkpt lat="49.23446" lon="4.03783"><ele>80</ele></trkpt>
<trkpt lat="49.22977" lon="4.04131"><ele>80</ele></trkpt>
<trkpt lat="49.22859" lon="4.04250"><ele>81</ele></trkpt>
<trkpt lat="49.22742" lon="4.04441"><ele>81</ele></trkpt>
<trkpt lat="49.22693" lon="4.04537"><ele>80</ele></trkpt>
<trkpt lat="49.22580" lon="4.04714"><ele>81</ele></trkpt>
<trkpt lat="49.22566" lon="4.04711"><ele>81</ele></trkpt>
<trkpt lat="49.22496" lon="4.04770"><ele>82</ele></trkpt>
<trkpt lat="49.22489" lon="4.04781"><ele>82</ele></trkpt>
<trkpt lat="49.22390" lon="4.05013"><ele>84</ele></trkpt>
<trkpt lat="49.22324" lon="4.05110"><ele>83</ele></trkpt>
<trkpt lat="49.22320" lon="4.05108"><ele>84</ele></trkpt>
<trkpt lat="49.22297" lon="4.05201"><ele>84</ele></trkpt>
<trkpt lat="49.22258" lon="4.05341"><ele>84</ele></trkpt>
<trkpt lat="49.22210" lon="4.05458"><ele>84</ele></trkpt>
<trkpt lat="49.22202" lon="4.05463"><ele>84</ele></trkpt>
<trkpt lat="49.22182" lon="4.05509"><ele>83</ele></trkpt>
<trkpt lat="49.22161" lon="4.05535"><ele>83</ele></trkpt>
<trkpt lat="49.22118" lon="4.05558"><ele>84</ele></trkpt>
<trkpt lat="49.22111" lon="4.05546"><ele>84</ele></trkpt>
<trkpt lat="49.22097" lon="4.05537"><ele>85</ele></trkpt>
<trkpt lat="49.21742" lon="4.05181"><ele>88</ele></trkpt>
<trkpt lat="49.21693" lon="4.05110"><ele>89</ele></trkpt>
<trkpt lat="49.21688" lon="4.05101"><ele>89</ele></trkpt>
<trkpt lat="49.21687" lon="4.05084"><ele>89</ele></trkpt>
<trkpt lat="49.21659" lon="4.05070"><ele>89</ele></trkpt>
<trkpt lat="49.21656" lon="4.05061"><ele>89</ele></trkpt>
<trkpt lat="49.21645" lon="4.05049"><ele>89</ele></trkpt>
<trkpt lat="49.21631" lon="4.05048"><ele>89</ele></trkpt>
<trkpt lat="49.21625" lon="4.05052"><ele>88</ele></trkpt>
<trkpt lat="49.21608" lon="4.05075"><ele>88</ele></trkpt>
<trkpt lat="49.21585" lon="4.05081"><ele>88</ele></trkpt>
<trkpt lat="49.21519" lon="4.05083"><ele>88</ele></trkpt>
<trkpt lat="49.21496" lon="4.05064"><ele>88</ele></trkpt>
<trkpt lat="49.21471" lon="4.05081"><ele>89</ele></trkpt>
<trkpt lat="49.21384" lon="4.05084"><ele>92</ele></trkpt>
<trkpt lat="49.21372" lon="4.05088"><ele>92</ele></trkpt>
<trkpt lat="49.21184" lon="4.05093"><ele>100</ele></trkpt>
<trkpt lat="49.21176" lon="4.05074"><ele>100</ele></trkpt>
<trkpt lat="49.21166" lon="4.05070"><ele>100</ele></trkpt>
<trkpt lat="49.21158" lon="4.05075"><ele>100</ele></trkpt>
<trkpt lat="49.21151" lon="4.05094"><ele>100</ele></trkpt>
<trkpt lat="49.20968" lon="4.05099"><ele>102</ele></trkpt>
<trkpt lat="49.20962" lon="4.05084"><ele>102</ele></trkpt>
<trkpt lat="49.20955" lon="4.05081"><ele>102</ele></trkpt>
<trkpt lat="49.20954" lon="4.04907"><ele>96</ele></trkpt>
<trkpt lat="49.20951" lon="4.04866"><ele>97</ele></trkpt>
<trkpt lat="49.20941" lon="4.04824"><ele>97</ele></trkpt>
<trkpt lat="49.20929" lon="4.04795"><ele>97</ele></trkpt>
<trkpt lat="49.20900" lon="4.04758"><ele>98</ele></trkpt>
<trkpt lat="49.20635" lon="4.04482"><ele>106</ele></trkpt>
<trkpt lat="49.20548" lon="4.04403"><ele>107</ele></trkpt>
<trkpt lat="49.20517" lon="4.04379"><ele>108</ele></trkpt>
<trkpt lat="49.20461" lon="4.04354"><ele>110</ele></trkpt>
<trkpt lat="49.20289" lon="4.04246"><ele>112</ele></trkpt>
<trkpt lat="49.20198" lon="4.04161"><ele>114</ele></trkpt>
<trkpt lat="49.20151" lon="4.04126"><ele>116</ele></trkpt>
<trkpt lat="49.20016" lon="4.04083"><ele>121</ele></trkpt>
<trkpt lat="49.19974" lon="4.04075"><ele>122</ele></trkpt>
<trkpt lat="49.19843" lon="4.04073"><ele>122</ele></trkpt>
<trkpt lat="49.19742" lon="4.04066"><ele>122</ele></trkpt>
<trkpt lat="49.19667" lon="4.04067"><ele>124</ele></trkpt>
<trkpt lat="49.19588" lon="4.04099"><ele>124</ele></trkpt>
<trkpt lat="49.19530" lon="4.04102"><ele>124</ele></trkpt>
<trkpt lat="49.19509" lon="4.04108"><ele>124</ele></trkpt>
<trkpt lat="49.19499" lon="4.04082"><ele>125</ele></trkpt>
<trkpt lat="49.19470" lon="4.04059"><ele>126</ele></trkpt>
<trkpt lat="49.19461" lon="4.04046"><ele>126</ele></trkpt>
<trkpt lat="49.19458" lon="4.04036"><ele>126</ele></trkpt>
<trkpt lat="49.19457" lon="4.04015"><ele>127</ele></trkpt>
<trkpt lat="49.19453" lon="4.04007"><ele>127</ele></trkpt>
<trkpt lat="49.19394" lon="4.03991"><ele>127</ele></trkpt>
<trkpt lat="49.19416" lon="4.03936"><ele>129</ele></trkpt>
<trkpt lat="49.19418" lon="4.03925"><ele>130</ele></trkpt>
<trkpt lat="49.19417" lon="4.03917"><ele>130</ele></trkpt>
<trkpt lat="49.19412" lon="4.03912"><ele>130</ele></trkpt>
<trkpt lat="49.19367" lon="4.03913"><ele>130</ele></trkpt>
<trkpt lat="49.19367" lon="4.03895"><ele>131</ele></trkpt>
<trkpt lat="49.19138" lon="4.03903"><ele>132</ele></trkpt>
<trkpt lat="49.19014" lon="4.03920"><ele>133</ele></trkpt>
<trkpt lat="49.18263" lon="4.04047"><ele>143</ele></trkpt>
<trkpt lat="49.18252" lon="4.04052"><ele>142</ele></trkpt>
<trkpt lat="49.18255" lon="4.04064"><ele>142</ele></trkpt>
<trkpt lat="49.18248" lon="4.04085"><ele>143</ele></trkpt>
<trkpt lat="49.18234" lon="4.04112"><ele>143</ele></trkpt>
<trkpt lat="49.18217" lon="4.04134"><ele>144</ele></trkpt>
<trkpt lat="49.18164" lon="4.04166"><ele>144</ele></trkpt>
<trkpt lat="49.18020" lon="4.04204"><ele>144</ele></trkpt>
<trkpt lat="49.17852" lon="4.04233"><ele>148</ele></trkpt>
<trkpt lat="49.17795" lon="4.04252"><ele>150</ele></trkpt>
<trkpt lat="49.17763" lon="4.04258"><ele>150</ele></trkpt>
<trkpt lat="49.17700" lon="4.04249"><ele>149</ele></trkpt>
<trkpt lat="49.17565" lon="4.04247"><ele>146</ele></trkpt>
<trkpt lat="49.17466" lon="4.04229"><ele>144</ele></trkpt>
<trkpt lat="49.17413" lon="4.04214"><ele>144</ele></trkpt>
<trkpt lat="49.17359" lon="4.04221"><ele>142</ele></trkpt>
<trkpt lat="49.17171" lon="4.04260"><ele>143</ele></trkpt>
<trkpt lat="49.17041" lon="4.04246"><ele>153</ele></trkpt>
<trkpt lat="49.17036" lon="4.04250"><ele>153</ele></trkpt>
<trkpt lat="49.17030" lon="4.04263"><ele>152</ele></trkpt>
<trkpt lat="49.17026" lon="4.04265"><ele>152</ele></trkpt>
<trkpt lat="49.16904" lon="4.04241"><ele>152</ele></trkpt>
<trkpt lat="49.16872" lon="4.04353"><ele>144</ele></trkpt>
<trkpt lat="49.16844" lon="4.04345"><ele>145</ele></trkpt>
<trkpt lat="49.16713" lon="4.04288"><ele>150</ele></trkpt>
<trkpt lat="49.16576" lon="4.04224"><ele>158</ele></trkpt>
<trkpt lat="49.16572" lon="4.04222"><ele>158</ele></trkpt>
<trkpt lat="49.16573" lon="4.04204"><ele>159</ele></trkpt>
<trkpt lat="49.16556" lon="4.04211"><ele>159</ele></trkpt>
<trkpt lat="49.16459" lon="4.04199"><ele>165</ele></trkpt>
<trkpt lat="49.16451" lon="4.04254"><ele>164</ele></trkpt>
<trkpt lat="49.16482" lon="4.04398"><ele>158</ele></trkpt>
<trkpt lat="49.16475" lon="4.04462"><ele>158</ele></trkpt>
<trkpt lat="49.16514" lon="4.04499"><ele>157</ele></trkpt>
<trkpt lat="49.16513" lon="4.04511"><ele>157</ele></trkpt>
<trkpt lat="49.16509" lon="4.04519"><ele>158</ele></trkpt>
<trkpt lat="49.16499" lon="4.04564"><ele>160</ele></trkpt>
<trkpt lat="49.16492" lon="4.04577"><ele>161</ele></trkpt>
<trkpt lat="49.16468" lon="4.04691"><ele>161</ele></trkpt>
<trkpt lat="49.16459" lon="4.04753"><ele>159</ele></trkpt>
<trkpt lat="49.16448" lon="4.04897"><ele>160</ele></trkpt>
<trkpt lat="49.16405" lon="4.04892"><ele>164</ele></trkpt>
<trkpt lat="49.16350" lon="4.04910"><ele>169</ele></trkpt>
<trkpt lat="49.16351" lon="4.04903"><ele>169</ele></trkpt>
<trkpt lat="49.16302" lon="4.04923"><ele>174</ele></trkpt>
<trkpt lat="49.16277" lon="4.04939"><ele>177</ele></trkpt>
<trkpt lat="49.16262" lon="4.04974"><ele>177</ele></trkpt>
<trkpt lat="49.16233" lon="4.05013"><ele>178</ele></trkpt>
<trkpt lat="49.16157" lon="4.05096"><ele>171</ele></trkpt>
<trkpt lat="49.16111" lon="4.05206"><ele>170</ele></trkpt>
<trkpt lat="49.16089" lon="4.05243"><ele>171</ele></trkpt>
<trkpt lat="49.16080" lon="4.05253"><ele>172</ele></trkpt>
<trkpt lat="49.16059" lon="4.05260"><ele>172</ele></trkpt>
<trkpt lat="49.16007" lon="4.05256"><ele>170</ele></trkpt>
<trkpt lat="49.15968" lon="4.05265"><ele>168</ele></trkpt>
<trkpt lat="49.15873" lon="4.05373"><ele>167</ele></trkpt>
<trkpt lat="49.15875" lon="4.05375"><ele>167</ele></trkpt>
<trkpt lat="49.15845" lon="4.05435"><ele>165</ele></trkpt>
<trkpt lat="49.15796" lon="4.05574"><ele>170</ele></trkpt>
<trkpt lat="49.15763" lon="4.05699"><ele>164</ele></trkpt>
<trkpt lat="49.15755" lon="4.05717"><ele>163</ele></trkpt>
<trkpt lat="49.15708" lon="4.05785"><ele>160</ele></trkpt>
<trkpt lat="49.15708" lon="4.05814"><ele>160</ele></trkpt>
<trkpt lat="49.15719" lon="4.05867"><ele>158</ele></trkpt>
<trkpt lat="49.15712" lon="4.05920"><ele>158</ele></trkpt>
<trkpt lat="49.15704" lon="4.05940"><ele>159</ele></trkpt>
<trkpt lat="49.15655" lon="4.06026"><ele>161</ele></trkpt>
<trkpt lat="49.15637" lon="4.06071"><ele>160</ele></trkpt>
<trkpt lat="49.15602" lon="4.06182"><ele>160</ele></trkpt>
<trkpt lat="49.15591" lon="4.06208"><ele>160</ele></trkpt>
<trkpt lat="49.15581" lon="4.06219"><ele>160</ele></trkpt>
<trkpt lat="49.15558" lon="4.06267"><ele>164</ele></trkpt>
<trkpt lat="49.15541" lon="4.06274"><ele>166</ele></trkpt>
<trkpt lat="49.15529" lon="4.06273"><ele>167</ele></trkpt>
<trkpt lat="49.15507" lon="4.06261"><ele>169</ele></trkpt>
<trkpt lat="49.15504" lon="4.06254"><ele>169</ele></trkpt>
<trkpt lat="49.15476" lon="4.06241"><ele>172</ele></trkpt>
<trkpt lat="49.15466" lon="4.06246"><ele>174</ele></trkpt>
<trkpt lat="49.15433" lon="4.06323"><ele>175</ele></trkpt>
<trkpt lat="49.15437" lon="4.06391"><ele>171</ele></trkpt>
<trkpt lat="49.15456" lon="4.06441"><ele>168</ele></trkpt>
<trkpt lat="49.15443" lon="4.06476"><ele>167</ele></trkpt>
<trkpt lat="49.15427" lon="4.06503"><ele>168</ele></trkpt>
<trkpt lat="49.15396" lon="4.06540"><ele>168</ele></trkpt>
<trkpt lat="49.15368" lon="4.06585"><ele>168</ele></trkpt>
<trkpt lat="49.15374" lon="4.06611"><ele>168</ele></trkpt>
<trkpt lat="49.15410" lon="4.06707"><ele>170</ele></trkpt>
<trkpt lat="49.15421" lon="4.06713"><ele>171</ele></trkpt>
<trkpt lat="49.15439" lon="4.06708"><ele>170</ele></trkpt>
<trkpt lat="49.15466" lon="4.06712"><ele>171</ele></trkpt>
<trkpt lat="49.15475" lon="4.06722"><ele>173</ele></trkpt>
<trkpt lat="49.15483" lon="4.06741"><ele>175</ele></trkpt>
<trkpt lat="49.15480" lon="4.06761"><ele>175</ele></trkpt>
<trkpt lat="49.15457" lon="4.06854"><ele>177</ele></trkpt>
<trkpt lat="49.15433" lon="4.07012"><ele>176</ele></trkpt>
<trkpt lat="49.15399" lon="4.07134"><ele>168</ele></trkpt>
<trkpt lat="49.15371" lon="4.07296"><ele>167</ele></trkpt>
<trkpt lat="49.15364" lon="4.07353"><ele>164</ele></trkpt>
<trkpt lat="49.15356" lon="4.07473"><ele>170</ele></trkpt>
<trkpt lat="49.15352" lon="4.07599"><ele>172</ele></trkpt>
<trkpt lat="49.15347" lon="4.07624"><ele>172</ele></trkpt>
<trkpt lat="49.15329" lon="4.07668"><ele>170</ele></trkpt>
<trkpt lat="49.15322" lon="4.07736"><ele>165</ele></trkpt>
<trkpt lat="49.15324" lon="4.07745"><ele>164</ele></trkpt>
<trkpt lat="49.15366" lon="4.07764"><ele>162</ele></trkpt>
<trkpt lat="49.15400" lon="4.07802"><ele>157</ele></trkpt>
<trkpt lat="49.15427" lon="4.07810"><ele>155</ele></trkpt>
<trkpt lat="49.15443" lon="4.07823"><ele>152</ele></trkpt>
<trkpt lat="49.15460" lon="4.07827"><ele>150</ele></trkpt>
<trkpt lat="49.15454" lon="4.07934"><ele>147</ele></trkpt>
<trkpt lat="49.15450" lon="4.07955"><ele>147</ele></trkpt>
<trkpt lat="49.15438" lon="4.07988"><ele>147</ele></trkpt>
<trkpt lat="49.15499" lon="4.08007"><ele>145</ele></trkpt>
<trkpt lat="49.15494" lon="4.08073"><ele>146</ele></trkpt>
<trkpt lat="49.15527" lon="4.08088"><ele>146</ele></trkpt>
<trkpt lat="49.15558" lon="4.08138"><ele>145</ele></trkpt>
<trkpt lat="49.15585" lon="4.08161"><ele>144</ele></trkpt>
<trkpt lat="49.15648" lon="4.08260"><ele>143</ele></trkpt>
<trkpt lat="49.15660" lon="4.08286"><ele>142</ele></trkpt>
<trkpt lat="49.15669" lon="4.08315"><ele>141</ele></trkpt>
<trkpt lat="49.15663" lon="4.08365"><ele>140</ele></trkpt>
<trkpt lat="49.15669" lon="4.08374"><ele>140</ele></trkpt>
<trkpt lat="49.15697" lon="4.08391"><ele>139</ele></trkpt>
<trkpt lat="49.15679" lon="4.08488"><ele>140</ele></trkpt>
<trkpt lat="49.15680" lon="4.08510"><ele>140</ele></trkpt>
<trkpt lat="49.15720" lon="4.08697"><ele>141</ele></trkpt>
<trkpt lat="49.15728" lon="4.08721"><ele>142</ele></trkpt>
<trkpt lat="49.15740" lon="4.08738"><ele>143</ele></trkpt>
<trkpt lat="49.15791" lon="4.08774"><ele>146</ele></trkpt>
<trkpt lat="49.15799" lon="4.08783"><ele>147</ele></trkpt>
<trkpt lat="49.15853" lon="4.08971"><ele>151</ele></trkpt>
<trkpt lat="49.15905" lon="4.09168"><ele>150</ele></trkpt>
<trkpt lat="49.15902" lon="4.09248"><ele>150</ele></trkpt>
<trkpt lat="49.15857" lon="4.09520"><ele>146</ele></trkpt>
<trkpt lat="49.15851" lon="4.09589"><ele>144</ele></trkpt>
<trkpt lat="49.15848" lon="4.09601"><ele>144</ele></trkpt>
<trkpt lat="49.15840" lon="4.09615"><ele>144</ele></trkpt>
<trkpt lat="49.15814" lon="4.09644"><ele>145</ele></trkpt>
<trkpt lat="49.15803" lon="4.09668"><ele>146</ele></trkpt>
<trkpt lat="49.15767" lon="4.09837"><ele>154</ele></trkpt>
<trkpt lat="49.15763" lon="4.09888"><ele>154</ele></trkpt>
<trkpt lat="49.15761" lon="4.10079"><ele>149</ele></trkpt>
<trkpt lat="49.15746" lon="4.10188"><ele>152</ele></trkpt>
<trkpt lat="49.15747" lon="4.10210"><ele>154</ele></trkpt>
<trkpt lat="49.15751" lon="4.10229"><ele>156</ele></trkpt>
<trkpt lat="49.15882" lon="4.10205"><ele>159</ele></trkpt>
<trkpt lat="49.15796" lon="4.10446"><ele>170</ele></trkpt>
<trkpt lat="49.15792" lon="4.10506"><ele>171</ele></trkpt>
<trkpt lat="49.15789" lon="4.10699"><ele>169</ele></trkpt>
<trkpt lat="49.15802" lon="4.11035"><ele>168</ele></trkpt>
<trkpt lat="49.15897" lon="4.11082"><ele>168</ele></trkpt>
<trkpt lat="49.15906" lon="4.11188"><ele>167</ele></trkpt>
<trkpt lat="49.15911" lon="4.11280"><ele>165</ele></trkpt>
<trkpt lat="49.15908" lon="4.11352"><ele>162</ele></trkpt>
<trkpt lat="49.15911" lon="4.11392"><ele>160</ele></trkpt>
<trkpt lat="49.15918" lon="4.11434"><ele>158</ele></trkpt>
<trkpt lat="49.15916" lon="4.11447"><ele>158</ele></trkpt>
<trkpt lat="49.15906" lon="4.11444"><ele>158</ele></trkpt>
<trkpt lat="49.15880" lon="4.11449"><ele>158</ele></trkpt>
<trkpt lat="49.15796" lon="4.11501"><ele>160</ele></trkpt>
<trkpt lat="49.15821" lon="4.11558"><ele>158</ele></trkpt>
<trkpt lat="49.15843" lon="4.11589"><ele>156</ele></trkpt>
<trkpt lat="49.15965" lon="4.11740"><ele>153</ele></trkpt>
<trkpt lat="49.16089" lon="4.11834"><ele>159</ele></trkpt>
<trkpt lat="49.16231" lon="4.12199"><ele>159</ele></trkpt>
<trkpt lat="49.16251" lon="4.12277"><ele>164</ele></trkpt>
<trkpt lat="49.16277" lon="4.12427"><ele>176</ele></trkpt>
<trkpt lat="49.16294" lon="4.12476"><ele>180</ele></trkpt>
<trkpt lat="49.16323" lon="4.12539"><ele>180</ele></trkpt>
<trkpt lat="49.16360" lon="4.12647"><ele>176</ele></trkpt>
<trkpt lat="49.16381" lon="4.12739"><ele>172</ele></trkpt>
<trkpt lat="49.16384" lon="4.12829"><ele>170</ele></trkpt>
<trkpt lat="49.16381" lon="4.12830"><ele>170</ele></trkpt>
<trkpt lat="49.16396" lon="4.12918"><ele>167</ele></trkpt>
<trkpt lat="49.16439" lon="4.12954"><ele>164</ele></trkpt>
<trkpt lat="49.16448" lon="4.12986"><ele>164</ele></trkpt>
<trkpt lat="49.16456" lon="4.12997"><ele>163</ele></trkpt>
<trkpt lat="49.16518" lon="4.13005"><ele>158</ele></trkpt>
<trkpt lat="49.16564" lon="4.13108"><ele>156</ele></trkpt>
<trkpt lat="49.16704" lon="4.13252"><ele>151</ele></trkpt>
<trkpt lat="49.16741" lon="4.13305"><ele>151</ele></trkpt>
<trkpt lat="49.16783" lon="4.13338"><ele>150</ele></trkpt>
<trkpt lat="49.16917" lon="4.13476"><ele>149</ele></trkpt>
<trkpt lat="49.16931" lon="4.13693"><ele>160</ele></trkpt>
<trkpt lat="49.16926" lon="4.13774"><ele>158</ele></trkpt>
<trkpt lat="49.16882" lon="4.13925"><ele>154</ele></trkpt>
<trkpt lat="49.16798" lon="4.14143"><ele>149</ele></trkpt>
<trkpt lat="49.16790" lon="4.14178"><ele>147</ele></trkpt>
<trkpt lat="49.16707" lon="4.14381"><ele>137</ele></trkpt>
<trkpt lat="49.16656" lon="4.14518"><ele>132</ele></trkpt>
<trkpt lat="49.16604" lon="4.14644"><ele>129</ele></trkpt>
<trkpt lat="49.16590" lon="4.14688"><ele>129</ele></trkpt>
<trkpt lat="49.16566" lon="4.14783"><ele>130</ele></trkpt>
<trkpt lat="49.16548" lon="4.14878"><ele>127</ele></trkpt>
<trkpt lat="49.16517" lon="4.15149"><ele>132</ele></trkpt>
<trkpt lat="49.16358" lon="4.14988"><ele>142</ele></trkpt>
<trkpt lat="49.16340" lon="4.14973"><ele>143</ele></trkpt>
<trkpt lat="49.16240" lon="4.14903"><ele>150</ele></trkpt>
<trkpt lat="49.16206" lon="4.14885"><ele>152</ele></trkpt>
<trkpt lat="49.16088" lon="4.14850"><ele>158</ele></trkpt>
<trkpt lat="49.16084" lon="4.14829"><ele>157</ele></trkpt>
<trkpt lat="49.16085" lon="4.14802"><ele>157</ele></trkpt>
<trkpt lat="49.16098" lon="4.14710"><ele>157</ele></trkpt>
<trkpt lat="49.16042" lon="4.14698"><ele>160</ele></trkpt>
<trkpt lat="49.15993" lon="4.14679"><ele>166</ele></trkpt>
<trkpt lat="49.15991" lon="4.14676"><ele>166</ele></trkpt>
<trkpt lat="49.15990" lon="4.14648"><ele>166</ele></trkpt>
<trkpt lat="49.15974" lon="4.14642"><ele>168</ele></trkpt>
<trkpt lat="49.15914" lon="4.14574"><ele>175</ele></trkpt>
<trkpt lat="49.15875" lon="4.14545"><ele>180</ele></trkpt>
<trkpt lat="49.15862" lon="4.14544"><ele>181</ele></trkpt>
<trkpt lat="49.15853" lon="4.14550"><ele>182</ele></trkpt>
<trkpt lat="49.15836" lon="4.14530"><ele>184</ele></trkpt>
<trkpt lat="49.15832" lon="4.14510"><ele>185</ele></trkpt>
<trkpt lat="49.15833" lon="4.14485"><ele>186</ele></trkpt>
<trkpt lat="49.15758" lon="4.14412"><ele>199</ele></trkpt>
<trkpt lat="49.15732" lon="4.14361"><ele>204</ele></trkpt>
<trkpt lat="49.15716" lon="4.14344"><ele>208</ele></trkpt>
<trkpt lat="49.15687" lon="4.14330"><ele>217</ele></trkpt>
<trkpt lat="49.15691" lon="4.14348"><ele>216</ele></trkpt>
<trkpt lat="49.15686" lon="4.14480"><ele>217</ele></trkpt>
<trkpt lat="49.15668" lon="4.14600"><ele>221</ele></trkpt>
<trkpt lat="49.15660" lon="4.14638"><ele>221</ele></trkpt>
<trkpt lat="49.15638" lon="4.14675"><ele>223</ele></trkpt>
<trkpt lat="49.15602" lon="4.14769"><ele>225</ele></trkpt>
<trkpt lat="49.15601" lon="4.14964"><ele>224</ele></trkpt>
<trkpt lat="49.15575" lon="4.15034"><ele>226</ele></trkpt>
<trkpt lat="49.15546" lon="4.15159"><ele>226</ele></trkpt>
<trkpt lat="49.15525" lon="4.15202"><ele>226</ele></trkpt>
<trkpt lat="49.15508" lon="4.15218"><ele>225</ele></trkpt>
<trkpt lat="49.15480" lon="4.15226"><ele>224</ele></trkpt>
<trkpt lat="49.15344" lon="4.15194"><ele>225</ele></trkpt>
<trkpt lat="49.15248" lon="4.15185"><ele>220</ele></trkpt>
<trkpt lat="49.15163" lon="4.15166"><ele>226</ele></trkpt>
<trkpt lat="49.15049" lon="4.15224"><ele>222</ele></trkpt>
<trkpt lat="49.14977" lon="4.15270"><ele>223</ele></trkpt>
<trkpt lat="49.14938" lon="4.15303"><ele>222</ele></trkpt>
<trkpt lat="49.14914" lon="4.15351"><ele>218</ele></trkpt>
<trkpt lat="49.14903" lon="4.15393"><ele>218</ele></trkpt>
<trkpt lat="49.14900" lon="4.15432"><ele>218</ele></trkpt>
<trkpt lat="49.14916" lon="4.15566"><ele>215</ele></trkpt>
<trkpt lat="49.14904" lon="4.15605"><ele>220</ele></trkpt>
<trkpt lat="49.14904" lon="4.15667"><ele>222</ele></trkpt>
<trkpt lat="49.14909" lon="4.15685"><ele>220</ele></trkpt>
<trkpt lat="49.14924" lon="4.15714"><ele>216</ele></trkpt>
<trkpt lat="49.14986" lon="4.15775"><ele>206</ele></trkpt>
<trkpt lat="49.15001" lon="4.15795"><ele>206</ele></trkpt>
<trkpt lat="49.15015" lon="4.15863"><ele>206</ele></trkpt>
<trkpt lat="49.15009" lon="4.15914"><ele>206</ele></trkpt>
<trkpt lat="49.14995" lon="4.15942"><ele>207</ele></trkpt>
<trkpt lat="49.14985" lon="4.15953"><ele>208</ele></trkpt>
<trkpt lat="49.14953" lon="4.15966"><ele>208</ele></trkpt>
<trkpt lat="49.14951" lon="4.15984"><ele>206</ele></trkpt>
<trkpt lat="49.14869" lon="4.15948"><ele>207</ele></trkpt>
<trkpt lat="49.14847" lon="4.15948"><ele>208</ele></trkpt>
<trkpt lat="49.14761" lon="4.15970"><ele>206</ele></trkpt>
<trkpt lat="49.14745" lon="4.15968"><ele>206</ele></trkpt>
<trkpt lat="49.14729" lon="4.15959"><ele>206</ele></trkpt>
<trkpt lat="49.14652" lon="4.15903"><ele>210</ele></trkpt>
<trkpt lat="49.14588" lon="4.15892"><ele>212</ele></trkpt>
<trkpt lat="49.14578" lon="4.15892"><ele>212</ele></trkpt>
<trkpt lat="49.14554" lon="4.15904"><ele>212</ele></trkpt>
<trkpt lat="49.14521" lon="4.15938"><ele>211</ele></trkpt>
<trkpt lat="49.14502" lon="4.15971"><ele>210</ele></trkpt>
<trkpt lat="49.14471" lon="4.16052"><ele>208</ele></trkpt>
<trkpt lat="49.14440" lon="4.16107"><ele>206</ele></trkpt>
<trkpt lat="49.14345" lon="4.16204"><ele>207</ele></trkpt>
<trkpt lat="49.14326" lon="4.16232"><ele>206</ele></trkpt>
<trkpt lat="49.14300" lon="4.16293"><ele>206</ele></trkpt>
<trkpt lat="49.14287" lon="4.16348"><ele>206</ele></trkpt>
<trkpt lat="49.14270" lon="4.16511"><ele>209</ele></trkpt>
<trkpt lat="49.14257" lon="4.16577"><ele>208</ele></trkpt>
<trkpt lat="49.14217" lon="4.16695"><ele>206</ele></trkpt>
<trkpt lat="49.14211" lon="4.16739"><ele>204</ele></trkpt>
<trkpt lat="49.14218" lon="4.16884"><ele>202</ele></trkpt>
<trkpt lat="49.14213" lon="4.16930"><ele>203</ele></trkpt>
<trkpt lat="49.14195" lon="4.16977"><ele>202</ele></trkpt>
<trkpt lat="49.14183" lon="4.16998"><ele>202</ele></trkpt>
<trkpt lat="49.14153" lon="4.17035"><ele>201</ele></trkpt>
<trkpt lat="49.14089" lon="4.17081"><ele>202</ele></trkpt>
<trkpt lat="49.14052" lon="4.17096"><ele>202</ele></trkpt>
<trkpt lat="49.13969" lon="4.17116"><ele>200</ele></trkpt>
<trkpt lat="49.13915" lon="4.17143"><ele>198</ele></trkpt>
<trkpt lat="49.13833" lon="4.17215"><ele>199</ele></trkpt>
<trkpt lat="49.13797" lon="4.17241"><ele>199</ele></trkpt>
<trkpt lat="49.13710" lon="4.17282"><ele>196</ele></trkpt>
<trkpt lat="49.13688" lon="4.17300"><ele>196</ele></trkpt>
<trkpt lat="49.13662" lon="4.17337"><ele>196</ele></trkpt>
<trkpt lat="49.13641" lon="4.17389"><ele>196</ele></trkpt>
<trkpt lat="49.13632" lon="4.17445"><ele>196</ele></trkpt>
<trkpt lat="49.13631" lon="4.17481"><ele>196</ele></trkpt>
<trkpt lat="49.13672" lon="4.17871"><ele>191</ele></trkpt>
<trkpt lat="49.13668" lon="4.17918"><ele>191</ele></trkpt>
<trkpt lat="49.13657" lon="4.17957"><ele>191</ele></trkpt>
<trkpt lat="49.13641" lon="4.17985"><ele>191</ele></trkpt>
<trkpt lat="49.13622" lon="4.18011"><ele>190</ele></trkpt>
<trkpt lat="49.13600" lon="4.18026"><ele>188</ele></trkpt>
<trkpt lat="49.13545" lon="4.18047"><ele>186</ele></trkpt>
<trkpt lat="49.13525" lon="4.18059"><ele>187</ele></trkpt>
<trkpt lat="49.13508" lon="4.18080"><ele>187</ele></trkpt>
<trkpt lat="49.13481" lon="4.18137"><ele>187</ele></trkpt>
<trkpt lat="49.13473" lon="4.18180"><ele>185</ele></trkpt>
<trkpt lat="49.13451" lon="4.18634"><ele>178</ele></trkpt>
<trkpt lat="49.13442" lon="4.18681"><ele>178</ele></trkpt>
<trkpt lat="49.13433" lon="4.18704"><ele>178</ele></trkpt>
<trkpt lat="49.13416" lon="4.18733"><ele>178</ele></trkpt>
<trkpt lat="49.13388" lon="4.18760"><ele>177</ele></trkpt>
<trkpt lat="49.13322" lon="4.18790"><ele>175</ele></trkpt>
<trkpt lat="49.13284" lon="4.18814"><ele>172</ele></trkpt>
<trkpt lat="49.13217" lon="4.18845"><ele>174</ele></trkpt>
<trkpt lat="49.13174" lon="4.18851"><ele>177</ele></trkpt>
<trkpt lat="49.13123" lon="4.18873"><ele>178</ele></trkpt>
<trkpt lat="49.13089" lon="4.18878"><ele>177</ele></trkpt>
<trkpt lat="49.12988" lon="4.18856"><ele>179</ele></trkpt>
<trkpt lat="49.12941" lon="4.18860"><ele>180</ele></trkpt>
<trkpt lat="49.12911" lon="4.18870"><ele>180</ele></trkpt>
<trkpt lat="49.12850" lon="4.18917"><ele>180</ele></trkpt>
<trkpt lat="49.12704" lon="4.19071"><ele>182</ele></trkpt>
<trkpt lat="49.12669" lon="4.19093"><ele>184</ele></trkpt>
<trkpt lat="49.12645" lon="4.19097"><ele>186</ele></trkpt>
<trkpt lat="49.12605" lon="4.19085"><ele>189</ele></trkpt>
<trkpt lat="49.12577" lon="4.19061"><ele>190</ele></trkpt>
<trkpt lat="49.12561" lon="4.19039"><ele>191</ele></trkpt>
<trkpt lat="49.12513" lon="4.18942"><ele>190</ele></trkpt>
<trkpt lat="49.12493" lon="4.18910"><ele>191</ele></trkpt>
<trkpt lat="49.12470" lon="4.18889"><ele>193</ele></trkpt>
<trkpt lat="49.12403" lon="4.18840"><ele>196</ele></trkpt>
<trkpt lat="49.12328" lon="4.18754"><ele>193</ele></trkpt>
<trkpt lat="49.12299" lon="4.18727"><ele>193</ele></trkpt>
<trkpt lat="49.12276" lon="4.18719"><ele>193</ele></trkpt>
<trkpt lat="49.12237" lon="4.18719"><ele>191</ele></trkpt>
<trkpt lat="49.12207" lon="4.18734"><ele>189</ele></trkpt>
<trkpt lat="49.12184" lon="4.18755"><ele>191</ele></trkpt>
<trkpt lat="49.12173" lon="4.18773"><ele>193</ele></trkpt>
<trkpt lat="49.12156" lon="4.18829"><ele>194</ele></trkpt>
<trkpt lat="49.12149" lon="4.18884"><ele>195</ele></trkpt>
<trkpt lat="49.12141" lon="4.19037"><ele>192</ele></trkpt>
<trkpt lat="49.12123" lon="4.19119"><ele>193</ele></trkpt>
<trkpt lat="49.12077" lon="4.19182"><ele>197</ele></trkpt>
<trkpt lat="49.12044" lon="4.19205"><ele>197</ele></trkpt>
<trkpt lat="49.12018" lon="4.19210"><ele>197</ele></trkpt>
<trkpt lat="49.11946" lon="4.19207"><ele>195</ele></trkpt>
<trkpt lat="49.11930" lon="4.19212"><ele>194</ele></trkpt>
<trkpt lat="49.11874" lon="4.19206"><ele>194</ele></trkpt>
<trkpt lat="49.11818" lon="4.19208"><ele>196</ele></trkpt>
<trkpt lat="49.11785" lon="4.19224"><ele>192</ele></trkpt>
<trkpt lat="49.11761" lon="4.19248"><ele>187</ele></trkpt>
<trkpt lat="49.11751" lon="4.19269"><ele>186</ele></trkpt>
<trkpt lat="49.11739" lon="4.19308"><ele>186</ele></trkpt>
<trkpt lat="49.11734" lon="4.19345"><ele>187</ele></trkpt>
<trkpt lat="49.11738" lon="4.19393"><ele>188</ele></trkpt>
<trkpt lat="49.11787" lon="4.19567"><ele>186</ele></trkpt>
<trkpt lat="49.11786" lon="4.19619"><ele>186</ele></trkpt>
<trkpt lat="49.11780" lon="4.19653"><ele>185</ele></trkpt>
<trkpt lat="49.11771" lon="4.19683"><ele>185</ele></trkpt>
<trkpt lat="49.11751" lon="4.19727"><ele>186</ele></trkpt>
<trkpt lat="49.11721" lon="4.19763"><ele>186</ele></trkpt>
<trkpt lat="49.11706" lon="4.19775"><ele>186</ele></trkpt>
<trkpt lat="49.11626" lon="4.19821"><ele>188</ele></trkpt>
<trkpt lat="49.11603" lon="4.19827"><ele>187</ele></trkpt>
<trkpt lat="49.11577" lon="4.19826"><ele>186</ele></trkpt>
<trkpt lat="49.11566" lon="4.19808"><ele>186</ele></trkpt>
<trkpt lat="49.11566" lon="4.19786"><ele>187</ele></trkpt>
<trkpt lat="49.11547" lon="4.19653"><ele>191</ele></trkpt>
<trkpt lat="49.11505" lon="4.19494"><ele>192</ele></trkpt>
<trkpt lat="49.11475" lon="4.19447"><ele>191</ele></trkpt>
<trkpt lat="49.11448" lon="4.19413"><ele>188</ele></trkpt>
<trkpt lat="49.11424" lon="4.19395"><ele>186</ele></trkpt>
<trkpt lat="49.11324" lon="4.19335"><ele>187</ele></trkpt>
<trkpt lat="49.11297" lon="4.19311"><ele>188</ele></trkpt>
<trkpt lat="49.11246" lon="4.19243"><ele>191</ele></trkpt>
<trkpt lat="49.11210" lon="4.19180"><ele>194</ele></trkpt>
<trkpt lat="49.11152" lon="4.19100"><ele>196</ele></trkpt>
<trkpt lat="49.11115" lon="4.19032"><ele>195</ele></trkpt>
<trkpt lat="49.11065" lon="4.18924"><ele>192</ele></trkpt>
<trkpt lat="49.11045" lon="4.18874"><ele>190</ele></trkpt>
<trkpt lat="49.11012" lon="4.18810"><ele>190</ele></trkpt>
<trkpt lat="49.10995" lon="4.18744"><ele>192</ele></trkpt>
<trkpt lat="49.10987" lon="4.18696"><ele>193</ele></trkpt>
<trkpt lat="49.10981" lon="4.18624"><ele>193</ele></trkpt>
<trkpt lat="49.10982" lon="4.18538"><ele>188</ele></trkpt>
<trkpt lat="49.10985" lon="4.18493"><ele>188</ele></trkpt>
<trkpt lat="49.10993" lon="4.18452"><ele>188</ele></trkpt>
<trkpt lat="49.10992" lon="4.18425"><ele>188</ele></trkpt>
<trkpt lat="49.10955" lon="4.18362"><ele>190</ele></trkpt>
<trkpt lat="49.10936" lon="4.18274"><ele>187</ele></trkpt>
<trkpt lat="49.10923" lon="4.18231"><ele>185</ele></trkpt>
<trkpt lat="49.10906" lon="4.18214"><ele>182</ele></trkpt>
<trkpt lat="49.10862" lon="4.18191"><ele>177</ele></trkpt>
<trkpt lat="49.10851" lon="4.18161"><ele>177</ele></trkpt>
<trkpt lat="49.10835" lon="4.18079"><ele>176</ele></trkpt>
<trkpt lat="49.10820" lon="4.18048"><ele>176</ele></trkpt>
<trkpt lat="49.10701" lon="4.17957"><ele>178</ele></trkpt>
<trkpt lat="49.10649" lon="4.17929"><ele>180</ele></trkpt>
<trkpt lat="49.10605" lon="4.17879"><ele>183</ele></trkpt>
<trkpt lat="49.10520" lon="4.17759"><ele>196</ele></trkpt>
<trkpt lat="49.10515" lon="4.17758"><ele>196</ele></trkpt>
<trkpt lat="49.10458" lon="4.17805"><ele>198</ele></trkpt>
<trkpt lat="49.10387" lon="4.17848"><ele>195</ele></trkpt>
<trkpt lat="49.10372" lon="4.17862"><ele>195</ele></trkpt>
<trkpt lat="49.10350" lon="4.17901"><ele>193</ele></trkpt>
<trkpt lat="49.10342" lon="4.17902"><ele>193</ele></trkpt>
<trkpt lat="49.10271" lon="4.17843"><ele>189</ele></trkpt>
<trkpt lat="49.10200" lon="4.17767"><ele>187</ele></trkpt>
<trkpt lat="49.10152" lon="4.17701"><ele>189</ele></trkpt>
<trkpt lat="49.10049" lon="4.17490"><ele>189</ele></trkpt>
<trkpt lat="49.10041" lon="4.17489"><ele>188</ele></trkpt>
<trkpt lat="49.10006" lon="4.17523"><ele>183</ele></trkpt>
<trkpt lat="49.09911" lon="4.17630"><ele>176</ele></trkpt>
<trkpt lat="49.09814" lon="4.17779"><ele>166</ele></trkpt>
<trkpt lat="49.09766" lon="4.17862"><ele>162</ele></trkpt>
<trkpt lat="49.09755" lon="4.17904"><ele>160</ele></trkpt>
<trkpt lat="49.09692" lon="4.17852"><ele>158</ele></trkpt>
<trkpt lat="49.09648" lon="4.17800"><ele>157</ele></trkpt>
<trkpt lat="49.09562" lon="4.17681"><ele>156</ele></trkpt>
<trkpt lat="49.09535" lon="4.17653"><ele>154</ele></trkpt>
<trkpt lat="49.09461" lon="4.17602"><ele>151</ele></trkpt>
<trkpt lat="49.09405" lon="4.17575"><ele>148</ele></trkpt>
<trkpt lat="49.09327" lon="4.17547"><ele>145</ele></trkpt>
<trkpt lat="49.08514" lon="4.17306"><ele>114</ele></trkpt>
<trkpt lat="49.08487" lon="4.17289"><ele>112</ele></trkpt>
<trkpt lat="49.08459" lon="4.17256"><ele>110</ele></trkpt>
<trkpt lat="49.08405" lon="4.17159"><ele>107</ele></trkpt>
<trkpt lat="49.08401" lon="4.17124"><ele>107</ele></trkpt>
<trkpt lat="49.08340" lon="4.16806"><ele>108</ele></trkpt>
<trkpt lat="49.08291" lon="4.16561"><ele>114</ele></trkpt>
<trkpt lat="49.08262" lon="4.16448"><ele>118</ele></trkpt>
<trkpt lat="49.08282" lon="4.16420"><ele>118</ele></trkpt>
<trkpt lat="49.08248" lon="4.16398"><ele>118</ele></trkpt>
<trkpt lat="49.08195" lon="4.16210"><ele>121</ele></trkpt>
<trkpt lat="49.08148" lon="4.15914"><ele>122</ele></trkpt>
<trkpt lat="49.08114" lon="4.15724"><ele>124</ele></trkpt>
<trkpt lat="49.08065" lon="4.15566"><ele>120</ele></trkpt>
<trkpt lat="49.07989" lon="4.15348"><ele>113</ele></trkpt>
<trkpt lat="49.08035" lon="4.15294"><ele>114</ele></trkpt>
<trkpt lat="49.08082" lon="4.15217"><ele>115</ele></trkpt>
<trkpt lat="49.08163" lon="4.15102"><ele>117</ele></trkpt>
<trkpt lat="49.08234" lon="4.14994"><ele>118</ele></trkpt>
<trkpt lat="49.08199" lon="4.14933"><ele>119</ele></trkpt>
<trkpt lat="49.08136" lon="4.14841"><ele>120</ele></trkpt>
<trkpt lat="49.08123" lon="4.14806"><ele>120</ele></trkpt>
<trkpt lat="49.08117" lon="4.14770"><ele>121</ele></trkpt>
<trkpt lat="49.08120" lon="4.14740"><ele>121</ele></trkpt>
<trkpt lat="49.08101" lon="4.14728"><ele>121</ele></trkpt>
<trkpt lat="49.08137" lon="4.14288"><ele>122</ele></trkpt>
<trkpt lat="49.08193" lon="4.13928"><ele>120</ele></trkpt>
<trkpt lat="49.08232" lon="4.13747"><ele>118</ele></trkpt>
<trkpt lat="49.08268" lon="4.13595"><ele>119</ele></trkpt>
<trkpt lat="49.08308" lon="4.13328"><ele>122</ele></trkpt>
<trkpt lat="49.08307" lon="4.12980"><ele>125</ele></trkpt>
<trkpt lat="49.08299" lon="4.12821"><ele>128</ele></trkpt>
<trkpt lat="49.08300" lon="4.12689"><ele>132</ele></trkpt>
<trkpt lat="49.08294" lon="4.12520"><ele>140</ele></trkpt>
<trkpt lat="49.08300" lon="4.12464"><ele>142</ele></trkpt>
<trkpt lat="49.08308" lon="4.12429"><ele>144</ele></trkpt>
<trkpt lat="49.08346" lon="4.12305"><ele>150</ele></trkpt>
<trkpt lat="49.08361" lon="4.12177"><ele>154</ele></trkpt>
<trkpt lat="49.08365" lon="4.12108"><ele>155</ele></trkpt>
<trkpt lat="49.08363" lon="4.12046"><ele>154</ele></trkpt>
<trkpt lat="49.08356" lon="4.11969"><ele>152</ele></trkpt>
<trkpt lat="49.08338" lon="4.11863"><ele>149</ele></trkpt>
<trkpt lat="49.08337" lon="4.11783"><ele>146</ele></trkpt>
<trkpt lat="49.08339" lon="4.11726"><ele>144</ele></trkpt>
<trkpt lat="49.08371" lon="4.11656"><ele>142</ele></trkpt>
<trkpt lat="49.08409" lon="4.11553"><ele>140</ele></trkpt>
<trkpt lat="49.08514" lon="4.11352"><ele>134</ele></trkpt>
<trkpt lat="49.08567" lon="4.11081"><ele>121</ele></trkpt>
<trkpt lat="49.08605" lon="4.10924"><ele>116</ele></trkpt>
<trkpt lat="49.08613" lon="4.10880"><ele>114</ele></trkpt>
<trkpt lat="49.08625" lon="4.10772"><ele>113</ele></trkpt>
<trkpt lat="49.08637" lon="4.10726"><ele>111</ele></trkpt>
<trkpt lat="49.08645" lon="4.10710"><ele>111</ele></trkpt>
<trkpt lat="49.08680" lon="4.10670"><ele>109</ele></trkpt>
<trkpt lat="49.08762" lon="4.10592"><ele>105</ele></trkpt>
<trkpt lat="49.08672" lon="4.10437"><ele>108</ele></trkpt>
<trkpt lat="49.08540" lon="4.10192"><ele>106</ele></trkpt>
<trkpt lat="49.08489" lon="4.10090"><ele>106</ele></trkpt>
<trkpt lat="49.08438" lon="4.09958"><ele>108</ele></trkpt>
<trkpt lat="49.08423" lon="4.09908"><ele>108</ele></trkpt>
<trkpt lat="49.08365" lon="4.09546"><ele>104</ele></trkpt>
<trkpt lat="49.08264" lon="4.09254"><ele>100</ele></trkpt>
<trkpt lat="49.08255" lon="4.09240"><ele>101</ele></trkpt>
<trkpt lat="49.08204" lon="4.09088"><ele>104</ele></trkpt>
<trkpt lat="49.08086" lon="4.08687"><ele>100</ele></trkpt>
<trkpt lat="49.07983" lon="4.08305"><ele>101</ele></trkpt>
<trkpt lat="49.07959" lon="4.08195"><ele>101</ele></trkpt>
<trkpt lat="49.07932" lon="4.08174"><ele>102</ele></trkpt>
<trkpt lat="49.07920" lon="4.08156"><ele>103</ele></trkpt>
<trkpt lat="49.07916" lon="4.08136"><ele>102</ele></trkpt>
<trkpt lat="49.07934" lon="4.08075"><ele>101</ele></trkpt>
<trkpt lat="49.07929" lon="4.08038"><ele>100</ele></trkpt>
<trkpt lat="49.07796" lon="4.07536"><ele>104</ele></trkpt>
<trkpt lat="49.07653" lon="4.06972"><ele>125</ele></trkpt>
<trkpt lat="49.07627" lon="4.06890"><ele>127</ele></trkpt>
<trkpt lat="49.07365" lon="4.06180"><ele>107</ele></trkpt>
<trkpt lat="49.07274" lon="4.05945"><ele>97</ele></trkpt>
<trkpt lat="49.07222" lon="4.05798"><ele>96</ele></trkpt>
<trkpt lat="49.07141" lon="4.05754"><ele>101</ele></trkpt>
<trkpt lat="49.07042" lon="4.05710"><ele>104</ele></trkpt>
<trkpt lat="49.06957" lon="4.05681"><ele>108</ele></trkpt>
<trkpt lat="49.06892" lon="4.05654"><ele>106</ele></trkpt>
<trkpt lat="49.06760" lon="4.05625"><ele>107</ele></trkpt>
<trkpt lat="49.06435" lon="4.05597"><ele>98</ele></trkpt>
<trkpt lat="49.06231" lon="4.05518"><ele>85</ele></trkpt>
<trkpt lat="49.06243" lon="4.05504"><ele>86</ele></trkpt>
<trkpt lat="49.06269" lon="4.05484"><ele>86</ele></trkpt>
<trkpt lat="49.06163" lon="4.05418"><ele>82</ele></trkpt>
<trkpt lat="49.06135" lon="4.05386"><ele>81</ele></trkpt>
<trkpt lat="49.06102" lon="4.05319"><ele>80</ele></trkpt>
<trkpt lat="49.06051" lon="4.05242"><ele>78</ele></trkpt>
<trkpt lat="49.06044" lon="4.05192"><ele>78</ele></trkpt>
<trkpt lat="49.05996" lon="4.05128"><ele>78</ele></trkpt>
<trkpt lat="49.05982" lon="4.05139"><ele>78</ele></trkpt>
<trkpt lat="49.05976" lon="4.05129"><ele>78</ele></trkpt>
<trkpt lat="49.05944" lon="4.05025"><ele>82</ele></trkpt>
<trkpt lat="49.05905" lon="4.04956"><ele>92</ele></trkpt>
<trkpt lat="49.05900" lon="4.04926"><ele>94</ele></trkpt>
<trkpt lat="49.05900" lon="4.04856"><ele>96</ele></trkpt>
<trkpt lat="49.05883" lon="4.04547"><ele>103</ele></trkpt>
<trkpt lat="49.05892" lon="4.04205"><ele>110</ele></trkpt>
<trkpt lat="49.05899" lon="4.04138"><ele>110</ele></trkpt>
<trkpt lat="49.05881" lon="4.03988"><ele>105</ele></trkpt>
<trkpt lat="49.05878" lon="4.03988"><ele>106</ele></trkpt>
<trkpt lat="49.05875" lon="4.03971"><ele>104</ele></trkpt>
<trkpt lat="49.05841" lon="4.03892"><ele>103</ele></trkpt>
<trkpt lat="49.05783" lon="4.03738"><ele>98</ele></trkpt>
<trkpt lat="49.05760" lon="4.03662"><ele>97</ele></trkpt>
<trkpt lat="49.05699" lon="4.03420"><ele>98</ele></trkpt>
<trkpt lat="49.05690" lon="4.03410"><ele>97</ele></trkpt>
<trkpt lat="49.05669" lon="4.03407"><ele>96</ele></trkpt>
<trkpt lat="49.05667" lon="4.03360"><ele>96</ele></trkpt>
<trkpt lat="49.05647" lon="4.03225"><ele>98</ele></trkpt>
<trkpt lat="49.05587" lon="4.03009"><ele>102</ele></trkpt>
<trkpt lat="49.05482" lon="4.02566"><ele>90</ele></trkpt>
<trkpt lat="49.05444" lon="4.02426"><ele>88</ele></trkpt>
<trkpt lat="49.05438" lon="4.02420"><ele>88</ele></trkpt>
<trkpt lat="49.05424" lon="4.02418"><ele>88</ele></trkpt>
<trkpt lat="49.05330" lon="4.02418"><ele>83</ele></trkpt>
<trkpt lat="49.05219" lon="4.02409"><ele>79</ele></trkpt>
<trkpt lat="49.05251" lon="4.02056"><ele>77</ele></trkpt>
<trkpt lat="49.05255" lon="4.01995"><ele>76</ele></trkpt>
<trkpt lat="49.05256" lon="4.01889"><ele>76</ele></trkpt>
<trkpt lat="49.05266" lon="4.01781"><ele>79</ele></trkpt>
<trkpt lat="49.05265" lon="4.01761"><ele>80</ele></trkpt>
<trkpt lat="49.05082" lon="4.01042"><ele>75</ele></trkpt>
<trkpt lat="49.05078" lon="4.01032"><ele>75</ele></trkpt>
<trkpt lat="49.04974" lon="4.00982"><ele>74</ele></trkpt>
<trkpt lat="49.05006" lon="4.00838"><ele>72</ele></trkpt>
<trkpt lat="49.05013" lon="4.00835"><ele>72</ele></trkpt>
<trkpt lat="49.05019" lon="4.00810"><ele>72</ele></trkpt>
<trkpt lat="49.05024" lon="4.00812"><ele>72</ele></trkpt>
<trkpt lat="49.05033" lon="4.00801"><ele>74</ele></trkpt>
<trkpt lat="49.05039" lon="4.00783"><ele>75</ele></trkpt>
<trkpt lat="49.05042" lon="4.00764"><ele>74</ele></trkpt>
<trkpt lat="49.05040" lon="4.00729"><ele>73</ele></trkpt>
<trkpt lat="49.05106" lon="4.00399"><ele>72</ele></trkpt>
<trkpt lat="49.05102" lon="4.00394"><ele>72</ele></trkpt>
<trkpt lat="49.05122" lon="4.00311"><ele>73</ele></trkpt>
<trkpt lat="49.05175" lon="4.00347"><ele>73</ele></trkpt>
<trkpt lat="49.05198" lon="4.00225"><ele>72</ele></trkpt>
<trkpt lat="49.05265" lon="3.99926"><ele>71</ele></trkpt>
<trkpt lat="49.05265" lon="3.99865"><ele>72</ele></trkpt>
<trkpt lat="49.05295" lon="3.99739"><ele>71</ele></trkpt>
<trkpt lat="49.05301" lon="3.99689"><ele>71</ele></trkpt>
<trkpt lat="49.05397" lon="3.99307"><ele>72</ele></trkpt>
<trkpt lat="49.05415" lon="3.99254"><ele>74</ele></trkpt>
<trkpt lat="49.05393" lon="3.99174"><ele>73</ele></trkpt>
<trkpt lat="49.05418" lon="3.99132"><ele>71</ele></trkpt>
<trkpt lat="49.05932" lon="3.97170"><ele>70</ele></trkpt>
<trkpt lat="49.05986" lon="3.96953"><ele>70</ele></trkpt>
<trkpt lat="49.05998" lon="3.96876"><ele>70</ele></trkpt>
<trkpt lat="49.06003" lon="3.96795"><ele>70</ele></trkpt>
<trkpt lat="49.06004" lon="3.96435"><ele>71</ele></trkpt>
<trkpt lat="49.06010" lon="3.96317"><ele>70</ele></trkpt>
<trkpt lat="49.06017" lon="3.96264"><ele>70</ele></trkpt>
<trkpt lat="49.06040" lon="3.96154"><ele>70</ele></trkpt>
<trkpt lat="49.06056" lon="3.96102"><ele>70</ele></trkpt>
<trkpt lat="49.06086" lon="3.96026"><ele>70</ele></trkpt>
<trkpt lat="49.06129" lon="3.95948"><ele>70</ele></trkpt>
<trkpt lat="49.06229" lon="3.95779"><ele>70</ele></trkpt>
<trkpt lat="49.06652" lon="3.95040"><ele>70</ele></trkpt>
<trkpt lat="49.06697" lon="3.94955"><ele>70</ele></trkpt>
<trkpt lat="49.06720" lon="3.94986"><ele>72</ele></trkpt>
<trkpt lat="49.06900" lon="3.95151"><ele>70</ele></trkpt>
<trkpt lat="49.06914" lon="3.95150"><ele>69</ele></trkpt>
<trkpt lat="49.06934" lon="3.95127"><ele>69</ele></trkpt>
<trkpt lat="49.06968" lon="3.95097"><ele>70</ele></trkpt>
<trkpt lat="49.07182" lon="3.94980"><ele>73</ele></trkpt>
<trkpt lat="49.07219" lon="3.94969"><ele>76</ele></trkpt>
<trkpt lat="49.07282" lon="3.94979"><ele>83</ele></trkpt>
<trkpt lat="49.07314" lon="3.94848"><ele>79</ele></trkpt>
<trkpt lat="49.07328" lon="3.94751"><ele>80</ele></trkpt>
<trkpt lat="49.07381" lon="3.94779"><ele>81</ele></trkpt>
<trkpt lat="49.07427" lon="3.94795"><ele>84</ele></trkpt>
<trkpt lat="49.07481" lon="3.94820"><ele>86</ele></trkpt>
<trkpt lat="49.07574" lon="3.94830"><ele>89</ele></trkpt>
<trkpt lat="49.07628" lon="3.94846"><ele>91</ele></trkpt>
<trkpt lat="49.07631" lon="3.94843"><ele>91</ele></trkpt>
<trkpt lat="49.07635" lon="3.94826"><ele>92</ele></trkpt>
<trkpt lat="49.07671" lon="3.94582"><ele>111</ele></trkpt>
<trkpt lat="49.07676" lon="3.94579"><ele>111</ele></trkpt>
<trkpt lat="49.07734" lon="3.94590"><ele>112</ele></trkpt>
<trkpt lat="49.07807" lon="3.94625"><ele>113</ele></trkpt>
<trkpt lat="49.07859" lon="3.94643"><ele>114</ele></trkpt>
<trkpt lat="49.07869" lon="3.94647"><ele>114</ele></trkpt>
<trkpt lat="49.07919" lon="3.94694"><ele>117</ele></trkpt>
<trkpt lat="49.07995" lon="3.94603"><ele>129</ele></trkpt>
<trkpt lat="49.08057" lon="3.94516"><ele>141</ele></trkpt>
<trkpt lat="49.08085" lon="3.94543"><ele>142</ele></trkpt>
<trkpt lat="49.08100" lon="3.94545"><ele>144</ele></trkpt>
<trkpt lat="49.08163" lon="3.94463"><ele>160</ele></trkpt>
<trkpt lat="49.08203" lon="3.94445"><ele>169</ele></trkpt>
<trkpt lat="49.08196" lon="3.94347"><ele>175</ele></trkpt>
<trkpt lat="49.08186" lon="3.94304"><ele>178</ele></trkpt>
<trkpt lat="49.08238" lon="3.94256"><ele>187</ele></trkpt>
<trkpt lat="49.08245" lon="3.94258"><ele>187</ele></trkpt>
<trkpt lat="49.08257" lon="3.94304"><ele>186</ele></trkpt>
<trkpt lat="49.08299" lon="3.94432"><ele>184</ele></trkpt>
<trkpt lat="49.08225" lon="3.94516"><ele>175</ele></trkpt>
<trkpt lat="49.08221" lon="3.94519"><ele>175</ele></trkpt>
<trkpt lat="49.08203" lon="3.94445"><ele>169</ele></trkpt>
<trkpt lat="49.08163" lon="3.94463"><ele>160</ele></trkpt>
<trkpt lat="49.08100" lon="3.94545"><ele>144</ele></trkpt>
<trkpt lat="49.08085" lon="3.94543"><ele>142</ele></trkpt>
<trkpt lat="49.08057" lon="3.94516"><ele>141</ele></trkpt>
<trkpt lat="49.07995" lon="3.94603"><ele>129</ele></trkpt>
<trkpt lat="49.07919" lon="3.94694"><ele>117</ele></trkpt>
<trkpt lat="49.07869" lon="3.94647"><ele>114</ele></trkpt>
<trkpt lat="49.07859" lon="3.94643"><ele>114</ele></trkpt>
<trkpt lat="49.07807" lon="3.94625"><ele>113</ele></trkpt>
<trkpt lat="49.07734" lon="3.94590"><ele>112</ele></trkpt>
<trkpt lat="49.07676" lon="3.94579"><ele>111</ele></trkpt>
<trkpt lat="49.07671" lon="3.94582"><ele>111</ele></trkpt>
<trkpt lat="49.07635" lon="3.94826"><ele>92</ele></trkpt>
<trkpt lat="49.07631" lon="3.94843"><ele>91</ele></trkpt>
<trkpt lat="49.07628" lon="3.94846"><ele>91</ele></trkpt>
<trkpt lat="49.07574" lon="3.94830"><ele>89</ele></trkpt>
<trkpt lat="49.07481" lon="3.94820"><ele>86</ele></trkpt>
<trkpt lat="49.07427" lon="3.94795"><ele>84</ele></trkpt>
<trkpt lat="49.07381" lon="3.94779"><ele>81</ele></trkpt>
<trkpt lat="49.07328" lon="3.94751"><ele>80</ele></trkpt>
<trkpt lat="49.07314" lon="3.94848"><ele>79</ele></trkpt>
<trkpt lat="49.07282" lon="3.94979"><ele>83</ele></trkpt>
<trkpt lat="49.07219" lon="3.94969"><ele>76</ele></trkpt>
<trkpt lat="49.07182" lon="3.94980"><ele>73</ele></trkpt>
<trkpt lat="49.06968" lon="3.95097"><ele>70</ele></trkpt>
<trkpt lat="49.06934" lon="3.95127"><ele>69</ele></trkpt>
<trkpt lat="49.06914" lon="3.95150"><ele>69</ele></trkpt>
<trkpt lat="49.06900" lon="3.95151"><ele>70</ele></trkpt>
<trkpt lat="49.06720" lon="3.94986"><ele>72</ele></trkpt>
<trkpt lat="49.06697" lon="3.94955"><ele>70</ele></trkpt>
<trkpt lat="49.06652" lon="3.95040"><ele>70</ele></trkpt>
<trkpt lat="49.06229" lon="3.95779"><ele>70</ele></trkpt>
<trkpt lat="49.06129" lon="3.95948"><ele>70</ele></trkpt>
<trkpt lat="49.06086" lon="3.96026"><ele>70</ele></trkpt>
<trkpt lat="49.06070" lon="3.96063"><ele>70</ele></trkpt>
<trkpt lat="49.06041" lon="3.96153"><ele>70</ele></trkpt>
<trkpt lat="49.06021" lon="3.96136"><ele>70</ele></trkpt>
<trkpt lat="49.06011" lon="3.96116"><ele>69</ele></trkpt>
<trkpt lat="49.06005" lon="3.96084"><ele>69</ele></trkpt>
<trkpt lat="49.06014" lon="3.96050"><ele>69</ele></trkpt>
<trkpt lat="49.06010" lon="3.96038"><ele>69</ele></trkpt>
<trkpt lat="49.05911" lon="3.95972"><ele>69</ele></trkpt>
<trkpt lat="49.05892" lon="3.96028"><ele>69</ele></trkpt>
<trkpt lat="49.05870" lon="3.96070"><ele>69</ele></trkpt>
<trkpt lat="49.05834" lon="3.96125"><ele>69</ele></trkpt>
<trkpt lat="49.05767" lon="3.96177"><ele>69</ele></trkpt>
<trkpt lat="49.05753" lon="3.96183"><ele>69</ele></trkpt>
<trkpt lat="49.05715" lon="3.96190"><ele>70</ele></trkpt>
<trkpt lat="49.05662" lon="3.96189"><ele>69</ele></trkpt>
<trkpt lat="49.05580" lon="3.96154"><ele>68</ele></trkpt>
<trkpt lat="49.05515" lon="3.96131"><ele>69</ele></trkpt>
<trkpt lat="49.05465" lon="3.96129"><ele>70</ele></trkpt>
<trkpt lat="49.05440" lon="3.96131"><ele>69</ele></trkpt>
<trkpt lat="49.05328" lon="3.96179"><ele>69</ele></trkpt>
<trkpt lat="49.05223" lon="3.96205"><ele>70</ele></trkpt>
<trkpt lat="49.05190" lon="3.96224"><ele>71</ele></trkpt>
<trkpt lat="49.05162" lon="3.96252"><ele>70</ele></trkpt>
<trkpt lat="49.05085" lon="3.96353"><ele>70</ele></trkpt>
<trkpt lat="49.05057" lon="3.96366"><ele>71</ele></trkpt>
<trkpt lat="49.04924" lon="3.96421"><ele>70</ele></trkpt>
<trkpt lat="49.04858" lon="3.96437"><ele>70</ele></trkpt>
<trkpt lat="49.04816" lon="3.96436"><ele>70</ele></trkpt>
<trkpt lat="49.04777" lon="3.96442"><ele>70</ele></trkpt>
<trkpt lat="49.04713" lon="3.96459"><ele>71</ele></trkpt>
<trkpt lat="49.04686" lon="3.96477"><ele>72</ele></trkpt>
<trkpt lat="49.04626" lon="3.96379"><ele>73</ele></trkpt>
<trkpt lat="49.04616" lon="3.96377"><ele>74</ele></trkpt>
<trkpt lat="49.04595" lon="3.96333"><ele>74</ele></trkpt>
<trkpt lat="49.04586" lon="3.96299"><ele>75</ele></trkpt>
<trkpt lat="49.04561" lon="3.96199"><ele>74</ele></trkpt>
<trkpt lat="49.04576" lon="3.96094"><ele>73</ele></trkpt>
<trkpt lat="49.04554" lon="3.95941"><ele>73</ele></trkpt>
<trkpt lat="49.04553" lon="3.95936"><ele>73</ele></trkpt>
<trkpt lat="49.04547" lon="3.95932"><ele>73</ele></trkpt>
<trkpt lat="49.04543" lon="3.95909"><ele>73</ele></trkpt>
<trkpt lat="49.04552" lon="3.95888"><ele>73</ele></trkpt>
<trkpt lat="49.04543" lon="3.95847"><ele>73</ele></trkpt>
<trkpt lat="49.04536" lon="3.95827"><ele>74</ele></trkpt>
<trkpt lat="49.04528" lon="3.95824"><ele>74</ele></trkpt>
<trkpt lat="49.04519" lon="3.95790"><ele>74</ele></trkpt>
<trkpt lat="49.04500" lon="3.95764"><ele>73</ele></trkpt>
<trkpt lat="49.04496" lon="3.95714"><ele>74</ele></trkpt>
<trkpt lat="49.04490" lon="3.95701"><ele>74</ele></trkpt>
<trkpt lat="49.04444" lon="3.95714"><ele>75</ele></trkpt>
<trkpt lat="49.04438" lon="3.95711"><ele>75</ele></trkpt>
<trkpt lat="49.04402" lon="3.95664"><ele>77</ele></trkpt>
<trkpt lat="49.04369" lon="3.95629"><ele>77</ele></trkpt>
<trkpt lat="49.04363" lon="3.95676"><ele>77</ele></trkpt>
<trkpt lat="49.04347" lon="3.95681"><ele>78</ele></trkpt>
<trkpt lat="49.04339" lon="3.95703"><ele>78</ele></trkpt>
<trkpt lat="49.04341" lon="3.95721"><ele>78</ele></trkpt>
<trkpt lat="49.04355" lon="3.95736"><ele>78</ele></trkpt>
<trkpt lat="49.04336" lon="3.95845"><ele>79</ele></trkpt>
<trkpt lat="49.04262" lon="3.95808"><ele>80</ele></trkpt>
<trkpt lat="49.04243" lon="3.95809"><ele>81</ele></trkpt>
<trkpt lat="49.04187" lon="3.96011"><ele>86</ele></trkpt>
    </trkseg>
  </trk>
</gpx>
