<?xml version="1.0" encoding="UTF-8"?>
<gpx version="1.1" creator="Gravel Kompass" xmlns="http://www.topografix.com/GPX/1/1">
  <metadata><name>Eichenau – Wieskirche: Lechtal, Pfaffenwinkel &amp; Ammersee – Etappe 2</name></metadata>
  <trk>
    <name>Etappe 2: Schongau – Weilheim in Oberbayern</name>
    <trkseg>
<trkpt lat="47.81111" lon="10.90229"><ele>679</ele></trkpt>
<trkpt lat="47.81078" lon="10.90218"><ele>679</ele></trkpt>
<trkpt lat="47.81040" lon="10.90199"><ele>678</ele></trkpt>
<trkpt lat="47.81052" lon="10.90187"><ele>680</ele></trkpt>
<trkpt lat="47.81057" lon="10.90170"><ele>680</ele></trkpt>
<trkpt lat="47.81070" lon="10.90155"><ele>680</ele></trkpt>
<trkpt lat="47.81029" lon="10.90159"><ele>679</ele></trkpt>
<trkpt lat="47.80994" lon="10.90175"><ele>678</ele></trkpt>
<trkpt lat="47.80977" lon="10.90172"><ele>678</ele></trkpt>
<trkpt lat="47.80971" lon="10.90165"><ele>678</ele></trkpt>
<trkpt lat="47.80901" lon="10.89950"><ele>670</ele></trkpt>
<trkpt lat="47.80880" lon="10.89890"><ele>670</ele></trkpt>
<trkpt lat="47.80853" lon="10.89827"><ele>670</ele></trkpt>
<trkpt lat="47.80809" lon="10.89755"><ele>671</ele></trkpt>
<trkpt lat="47.80760" lon="10.89697"><ele>671</ele></trkpt>
<trkpt lat="47.80685" lon="10.89627"><ele>672</ele></trkpt>
<trkpt lat="47.80634" lon="10.89590"><ele>671</ele></trkpt>
<trkpt lat="47.80570" lon="10.89556"><ele>672</ele></trkpt>
<trkpt lat="47.80527" lon="10.89545"><ele>672</ele></trkpt>
<trkpt lat="47.80486" lon="10.89541"><ele>672</ele></trkpt>
<trkpt lat="47.80444" lon="10.89544"><ele>672</ele></trkpt>
<trkpt lat="47.80401" lon="10.89554"><ele>673</ele></trkpt>
<trkpt lat="47.80338" lon="10.89595"><ele>674</ele></trkpt>
<trkpt lat="47.80309" lon="10.89627"><ele>676</ele></trkpt>
<trkpt lat="47.80278" lon="10.89690"><ele>676</ele></trkpt>
<trkpt lat="47.80253" lon="10.89757"><ele>676</ele></trkpt>
<trkpt lat="47.80203" lon="10.89928"><ele>675</ele></trkpt>
<trkpt lat="47.80175" lon="10.89959"><ele>679</ele></trkpt>
<trkpt lat="47.80166" lon="10.89977"><ele>678</ele></trkpt>
<trkpt lat="47.80152" lon="10.90021"><ele>681</ele></trkpt>
<trkpt lat="47.80143" lon="10.90086"><ele>684</ele></trkpt>
<trkpt lat="47.80132" lon="10.90123"><ele>686</ele></trkpt>
<trkpt lat="47.80118" lon="10.90155"><ele>686</ele></trkpt>
<trkpt lat="47.80073" lon="10.90221"><ele>692</ele></trkpt>
<trkpt lat="47.80047" lon="10.90244"><ele>694</ele></trkpt>
<trkpt lat="47.80016" lon="10.90269"><ele>696</ele></trkpt>
<trkpt lat="47.80001" lon="10.90271"><ele>698</ele></trkpt>
<trkpt lat="47.79992" lon="10.90264"><ele>697</ele></trkpt>
<trkpt lat="47.79979" lon="10.90197"><ele>698</ele></trkpt>
<trkpt lat="47.79964" lon="10.90063"><ele>697</ele></trkpt>
<trkpt lat="47.79891" lon="10.89776"><ele>708</ele></trkpt>
<trkpt lat="47.79885" lon="10.89737"><ele>708</ele></trkpt>
<trkpt lat="47.79887" lon="10.89674"><ele>711</ele></trkpt>
<trkpt lat="47.79890" lon="10.89654"><ele>712</ele></trkpt>
<trkpt lat="47.79899" lon="10.89618"><ele>713</ele></trkpt>
<trkpt lat="47.79915" lon="10.89585"><ele>714</ele></trkpt>
<trkpt lat="47.79929" lon="10.89561"><ele>715</ele></trkpt>
<trkpt lat="47.79979" lon="10.89501"><ele>716</ele></trkpt>
<trkpt lat="47.80058" lon="10.89425"><ele>716</ele></trkpt>
<trkpt lat="47.80087" lon="10.89387"><ele>716</ele></trkpt>
<trkpt lat="47.80114" lon="10.89345"><ele>716</ele></trkpt>
<trkpt lat="47.80200" lon="10.89177"><ele>715</ele></trkpt>
<trkpt lat="47.80232" lon="10.89141"><ele>714</ele></trkpt>
<trkpt lat="47.80253" lon="10.89121"><ele>713</ele></trkpt>
<trkpt lat="47.80378" lon="10.89045"><ele>712</ele></trkpt>
<trkpt lat="47.80430" lon="10.88998"><ele>711</ele></trkpt>
<trkpt lat="47.80539" lon="10.88885"><ele>713</ele></trkpt>
<trkpt lat="47.80574" lon="10.88862"><ele>712</ele></trkpt>
<trkpt lat="47.80651" lon="10.88847"><ele>712</ele></trkpt>
<trkpt lat="47.80698" lon="10.88851"><ele>712</ele></trkpt>
<trkpt lat="47.80717" lon="10.88861"><ele>711</ele></trkpt>
<trkpt lat="47.80762" lon="10.88899"><ele>711</ele></trkpt>
<trkpt lat="47.80763" lon="10.88889"><ele>712</ele></trkpt>
<trkpt lat="47.80779" lon="10.88885"><ele>713</ele></trkpt>
<trkpt lat="47.80780" lon="10.88843"><ele>717</ele></trkpt>
<trkpt lat="47.80791" lon="10.88707"><ele>725</ele></trkpt>
<trkpt lat="47.80791" lon="10.88657"><ele>727</ele></trkpt>
<trkpt lat="47.80784" lon="10.88550"><ele>730</ele></trkpt>
<trkpt lat="47.80783" lon="10.88503"><ele>731</ele></trkpt>
<trkpt lat="47.80778" lon="10.88477"><ele>732</ele></trkpt>
<trkpt lat="47.80749" lon="10.88147"><ele>732</ele></trkpt>
<trkpt lat="47.80751" lon="10.88132"><ele>732</ele></trkpt>
<trkpt lat="47.80757" lon="10.88114"><ele>731</ele></trkpt>
<trkpt lat="47.80749" lon="10.88009"><ele>730</ele></trkpt>
<trkpt lat="47.80722" lon="10.87654"><ele>731</ele></trkpt>
<trkpt lat="47.80717" lon="10.87638"><ele>731</ele></trkpt>
<trkpt lat="47.80720" lon="10.87629"><ele>731</ele></trkpt>
<trkpt lat="47.80729" lon="10.87618"><ele>731</ele></trkpt>
<trkpt lat="47.80728" lon="10.87594"><ele>731</ele></trkpt>
<trkpt lat="47.80709" lon="10.87563"><ele>731</ele></trkpt>
<trkpt lat="47.80678" lon="10.87233"><ele>730</ele></trkpt>
<trkpt lat="47.80658" lon="10.87235"><ele>730</ele></trkpt>
<trkpt lat="47.80657" lon="10.87220"><ele>730</ele></trkpt>
<trkpt lat="47.80585" lon="10.87193"><ele>730</ele></trkpt>
<trkpt lat="47.79879" lon="10.86892"><ele>738</ele></trkpt>
<trkpt lat="47.79408" lon="10.86559"><ele>748</ele></trkpt>
<trkpt lat="47.79370" lon="10.86542"><ele>750</ele></trkpt>
<trkpt lat="47.79308" lon="10.86541"><ele>751</ele></trkpt>
<trkpt lat="47.79286" lon="10.86537"><ele>751</ele></trkpt>
<trkpt lat="47.79268" lon="10.86528"><ele>752</ele></trkpt>
<trkpt lat="47.79247" lon="10.86512"><ele>753</ele></trkpt>
<trkpt lat="47.79229" lon="10.86506"><ele>753</ele></trkpt>
<trkpt lat="47.79201" lon="10.86504"><ele>753</ele></trkpt>
<trkpt lat="47.79163" lon="10.86473"><ele>753</ele></trkpt>
<trkpt lat="47.79072" lon="10.86376"><ele>750</ele></trkpt>
<trkpt lat="47.79005" lon="10.86244"><ele>745</ele></trkpt>
<trkpt lat="47.78917" lon="10.86120"><ele>750</ele></trkpt>
<trkpt lat="47.78906" lon="10.86103"><ele>750</ele></trkpt>
<trkpt lat="47.78879" lon="10.86041"><ele>757</ele></trkpt>
<trkpt lat="47.78869" lon="10.86027"><ele>758</ele></trkpt>
<trkpt lat="47.78818" lon="10.86002"><ele>755</ele></trkpt>
<trkpt lat="47.78766" lon="10.85893"><ele>751</ele></trkpt>
<trkpt lat="47.78761" lon="10.85876"><ele>750</ele></trkpt>
<trkpt lat="47.78757" lon="10.85832"><ele>750</ele></trkpt>
<trkpt lat="47.78753" lon="10.85821"><ele>750</ele></trkpt>
<trkpt lat="47.78701" lon="10.85726"><ele>750</ele></trkpt>
<trkpt lat="47.78670" lon="10.85680"><ele>752</ele></trkpt>
<trkpt lat="47.78646" lon="10.85630"><ele>754</ele></trkpt>
<trkpt lat="47.78625" lon="10.85595"><ele>756</ele></trkpt>
<trkpt lat="47.78608" lon="10.85581"><ele>756</ele></trkpt>
<trkpt lat="47.78584" lon="10.85570"><ele>756</ele></trkpt>
<trkpt lat="47.78570" lon="10.85532"><ele>756</ele></trkpt>
<trkpt lat="47.78546" lon="10.85483"><ele>756</ele></trkpt>
<trkpt lat="47.78503" lon="10.85431"><ele>756</ele></trkpt>
<trkpt lat="47.78453" lon="10.85342"><ele>758</ele></trkpt>
<trkpt lat="47.78426" lon="10.85272"><ele>759</ele></trkpt>
<trkpt lat="47.78405" lon="10.85229"><ele>760</ele></trkpt>
<trkpt lat="47.78381" lon="10.85195"><ele>759</ele></trkpt>
<trkpt lat="47.78367" lon="10.85168"><ele>758</ele></trkpt>
<trkpt lat="47.78304" lon="10.85016"><ele>754</ele></trkpt>
<trkpt lat="47.78271" lon="10.84978"><ele>754</ele></trkpt>
<trkpt lat="47.78258" lon="10.84936"><ele>756</ele></trkpt>
<trkpt lat="47.78222" lon="10.84890"><ele>757</ele></trkpt>
<trkpt lat="47.78185" lon="10.84824"><ele>756</ele></trkpt>
<trkpt lat="47.78176" lon="10.84796"><ele>755</ele></trkpt>
<trkpt lat="47.78171" lon="10.84742"><ele>755</ele></trkpt>
<trkpt lat="47.78161" lon="10.84698"><ele>753</ele></trkpt>
<trkpt lat="47.78119" lon="10.84599"><ele>749</ele></trkpt>
<trkpt lat="47.78091" lon="10.84500"><ele>750</ele></trkpt>
<trkpt lat="47.78070" lon="10.84445"><ele>752</ele></trkpt>
<trkpt lat="47.78047" lon="10.84406"><ele>753</ele></trkpt>
<trkpt lat="47.77935" lon="10.84255"><ele>758</ele></trkpt>
<trkpt lat="47.77856" lon="10.84092"><ele>762</ele></trkpt>
<trkpt lat="47.77808" lon="10.83933"><ele>760</ele></trkpt>
<trkpt lat="47.77789" lon="10.83849"><ele>759</ele></trkpt>
<trkpt lat="47.77713" lon="10.83618"><ele>759</ele></trkpt>
<trkpt lat="47.77662" lon="10.83476"><ele>756</ele></trkpt>
<trkpt lat="47.77647" lon="10.83420"><ele>756</ele></trkpt>
<trkpt lat="47.77645" lon="10.83233"><ele>756</ele></trkpt>
<trkpt lat="47.77648" lon="10.82967"><ele>752</ele></trkpt>
<trkpt lat="47.77654" lon="10.82786"><ele>750</ele></trkpt>
<trkpt lat="47.77651" lon="10.82737"><ele>750</ele></trkpt>
<trkpt lat="47.77636" lon="10.82594"><ele>744</ele></trkpt>
<trkpt lat="47.77628" lon="10.82479"><ele>741</ele></trkpt>
<trkpt lat="47.77633" lon="10.82411"><ele>740</ele></trkpt>
<trkpt lat="47.77631" lon="10.82300"><ele>740</ele></trkpt>
<trkpt lat="47.77634" lon="10.82270"><ele>740</ele></trkpt>
<trkpt lat="47.77654" lon="10.82196"><ele>740</ele></trkpt>
<trkpt lat="47.77475" lon="10.82128"><ele>738</ele></trkpt>
<trkpt lat="47.77462" lon="10.82118"><ele>738</ele></trkpt>
<trkpt lat="47.77412" lon="10.82065"><ele>738</ele></trkpt>
<trkpt lat="47.77350" lon="10.82012"><ele>737</ele></trkpt>
<trkpt lat="47.77281" lon="10.81999"><ele>737</ele></trkpt>
<trkpt lat="47.77239" lon="10.81971"><ele>738</ele></trkpt>
<trkpt lat="47.77234" lon="10.81955"><ele>740</ele></trkpt>
<trkpt lat="47.77233" lon="10.81937"><ele>741</ele></trkpt>
<trkpt lat="47.77031" lon="10.81852"><ele>738</ele></trkpt>
<trkpt lat="47.76972" lon="10.81837"><ele>738</ele></trkpt>
<trkpt lat="47.76953" lon="10.81837"><ele>738</ele></trkpt>
<trkpt lat="47.76929" lon="10.81848"><ele>737</ele></trkpt>
<trkpt lat="47.76880" lon="10.81892"><ele>737</ele></trkpt>
<trkpt lat="47.76787" lon="10.81910"><ele>737</ele></trkpt>
<trkpt lat="47.76730" lon="10.81940"><ele>738</ele></trkpt>
<trkpt lat="47.76665" lon="10.81945"><ele>736</ele></trkpt>
<trkpt lat="47.76657" lon="10.81941"><ele>736</ele></trkpt>
<trkpt lat="47.76623" lon="10.81885"><ele>735</ele></trkpt>
<trkpt lat="47.76600" lon="10.81853"><ele>735</ele></trkpt>
<trkpt lat="47.76568" lon="10.81833"><ele>735</ele></trkpt>
<trkpt lat="47.76534" lon="10.81829"><ele>735</ele></trkpt>
<trkpt lat="47.76513" lon="10.81838"><ele>734</ele></trkpt>
<trkpt lat="47.76490" lon="10.81859"><ele>736</ele></trkpt>
<trkpt lat="47.76424" lon="10.81945"><ele>741</ele></trkpt>
<trkpt lat="47.76381" lon="10.81956"><ele>743</ele></trkpt>
<trkpt lat="47.76310" lon="10.81962"><ele>745</ele></trkpt>
<trkpt lat="47.76121" lon="10.81946"><ele>746</ele></trkpt>
<trkpt lat="47.76068" lon="10.81932"><ele>746</ele></trkpt>
<trkpt lat="47.76029" lon="10.81918"><ele>747</ele></trkpt>
<trkpt lat="47.75882" lon="10.81845"><ele>748</ele></trkpt>
<trkpt lat="47.75794" lon="10.81808"><ele>749</ele></trkpt>
<trkpt lat="47.75772" lon="10.81803"><ele>749</ele></trkpt>
<trkpt lat="47.75739" lon="10.81807"><ele>747</ele></trkpt>
<trkpt lat="47.75661" lon="10.81847"><ele>743</ele></trkpt>
<trkpt lat="47.75471" lon="10.81880"><ele>746</ele></trkpt>
<trkpt lat="47.75383" lon="10.81916"><ele>748</ele></trkpt>
<trkpt lat="47.75154" lon="10.82080"><ele>745</ele></trkpt>
<trkpt lat="47.75088" lon="10.82135"><ele>742</ele></trkpt>
<trkpt lat="47.74945" lon="10.82284"><ele>740</ele></trkpt>
<trkpt lat="47.74925" lon="10.82300"><ele>740</ele></trkpt>
<trkpt lat="47.74865" lon="10.82323"><ele>738</ele></trkpt>
<trkpt lat="47.74848" lon="10.82337"><ele>738</ele></trkpt>
<trkpt lat="47.74817" lon="10.82376"><ele>732</ele></trkpt>
<trkpt lat="47.74801" lon="10.82389"><ele>728</ele></trkpt>
<trkpt lat="47.74679" lon="10.82437"><ele>716</ele></trkpt>
<trkpt lat="47.74533" lon="10.82488"><ele>713</ele></trkpt>
<trkpt lat="47.74370" lon="10.82455"><ele>712</ele></trkpt>
<trkpt lat="47.74358" lon="10.82456"><ele>712</ele></trkpt>
<trkpt lat="47.74347" lon="10.82464"><ele>711</ele></trkpt>
<trkpt lat="47.74305" lon="10.82534"><ele>711</ele></trkpt>
<trkpt lat="47.74296" lon="10.82544"><ele>710</ele></trkpt>
<trkpt lat="47.74280" lon="10.82546"><ele>709</ele></trkpt>
<trkpt lat="47.74250" lon="10.82535"><ele>709</ele></trkpt>
<trkpt lat="47.74210" lon="10.82510"><ele>708</ele></trkpt>
<trkpt lat="47.74176" lon="10.82500"><ele>708</ele></trkpt>
<trkpt lat="47.74158" lon="10.82500"><ele>708</ele></trkpt>
<trkpt lat="47.74072" lon="10.82451"><ele>711</ele></trkpt>
<trkpt lat="47.73998" lon="10.82399"><ele>715</ele></trkpt>
<trkpt lat="47.73970" lon="10.82365"><ele>716</ele></trkpt>
<trkpt lat="47.73945" lon="10.82321"><ele>718</ele></trkpt>
<trkpt lat="47.73907" lon="10.82283"><ele>719</ele></trkpt>
<trkpt lat="47.73853" lon="10.82243"><ele>720</ele></trkpt>
<trkpt lat="47.73754" lon="10.82181"><ele>721</ele></trkpt>
<trkpt lat="47.73721" lon="10.82156"><ele>722</ele></trkpt>
<trkpt lat="47.73680" lon="10.82132"><ele>721</ele></trkpt>
<trkpt lat="47.73666" lon="10.82131"><ele>720</ele></trkpt>
<trkpt lat="47.73559" lon="10.82170"><ele>720</ele></trkpt>
<trkpt lat="47.73503" lon="10.82212"><ele>720</ele></trkpt>
<trkpt lat="47.73463" lon="10.82247"><ele>721</ele></trkpt>
<trkpt lat="47.73439" lon="10.82273"><ele>720</ele></trkpt>
<trkpt lat="47.73322" lon="10.82428"><ele>719</ele></trkpt>
<trkpt lat="47.73306" lon="10.82443"><ele>719</ele></trkpt>
<trkpt lat="47.73144" lon="10.82511"><ele>719</ele></trkpt>
<trkpt lat="47.73107" lon="10.82538"><ele>719</ele></trkpt>
<trkpt lat="47.73087" lon="10.82558"><ele>720</ele></trkpt>
<trkpt lat="47.73036" lon="10.82631"><ele>720</ele></trkpt>
<trkpt lat="47.72951" lon="10.82768"><ele>720</ele></trkpt>
<trkpt lat="47.72897" lon="10.82814"><ele>720</ele></trkpt>
<trkpt lat="47.72864" lon="10.82832"><ele>721</ele></trkpt>
<trkpt lat="47.72849" lon="10.82834"><ele>721</ele></trkpt>
<trkpt lat="47.72774" lon="10.82831"><ele>721</ele></trkpt>
<trkpt lat="47.72709" lon="10.82848"><ele>720</ele></trkpt>
<trkpt lat="47.72659" lon="10.82850"><ele>720</ele></trkpt>
<trkpt lat="47.72606" lon="10.82848"><ele>717</ele></trkpt>
<trkpt lat="47.72359" lon="10.82821"><ele>716</ele></trkpt>
<trkpt lat="47.72309" lon="10.82832"><ele>716</ele></trkpt>
<trkpt lat="47.72253" lon="10.82868"><ele>716</ele></trkpt>
<trkpt lat="47.72232" lon="10.82875"><ele>716</ele></trkpt>
<trkpt lat="47.72194" lon="10.82877"><ele>718</ele></trkpt>
<trkpt lat="47.72151" lon="10.82869"><ele>718</ele></trkpt>
<trkpt lat="47.72049" lon="10.82822"><ele>718</ele></trkpt>
<trkpt lat="47.72002" lon="10.82784"><ele>719</ele></trkpt>
<trkpt lat="47.71973" lon="10.82750"><ele>719</ele></trkpt>
<trkpt lat="47.71934" lon="10.82690"><ele>720</ele></trkpt>
<trkpt lat="47.71894" lon="10.82636"><ele>720</ele></trkpt>
<trkpt lat="47.71867" lon="10.82606"><ele>720</ele></trkpt>
<trkpt lat="47.71792" lon="10.82543"><ele>720</ele></trkpt>
<trkpt lat="47.71764" lon="10.82509"><ele>720</ele></trkpt>
<trkpt lat="47.71755" lon="10.82498"><ele>720</ele></trkpt>
<trkpt lat="47.71728" lon="10.82446"><ele>720</ele></trkpt>
<trkpt lat="47.71699" lon="10.82453"><ele>721</ele></trkpt>
<trkpt lat="47.71613" lon="10.82561"><ele>721</ele></trkpt>
<trkpt lat="47.71552" lon="10.82623"><ele>722</ele></trkpt>
<trkpt lat="47.71516" lon="10.82642"><ele>723</ele></trkpt>
<trkpt lat="47.71471" lon="10.82650"><ele>721</ele></trkpt>
<trkpt lat="47.71427" lon="10.82668"><ele>720</ele></trkpt>
<trkpt lat="47.71365" lon="10.82721"><ele>718</ele></trkpt>
<trkpt lat="47.71267" lon="10.82852"><ele>717</ele></trkpt>
<trkpt lat="47.71169" lon="10.83027"><ele>720</ele></trkpt>
<trkpt lat="47.71149" lon="10.83055"><ele>721</ele></trkpt>
<trkpt lat="47.71104" lon="10.83054"><ele>724</ele></trkpt>
<trkpt lat="47.71053" lon="10.83031"><ele>724</ele></trkpt>
<trkpt lat="47.70927" lon="10.82931"><ele>723</ele></trkpt>
<trkpt lat="47.70870" lon="10.82867"><ele>724</ele></trkpt>
<trkpt lat="47.70843" lon="10.82823"><ele>724</ele></trkpt>
<trkpt lat="47.70828" lon="10.82788"><ele>723</ele></trkpt>
<trkpt lat="47.70821" lon="10.82754"><ele>722</ele></trkpt>
<trkpt lat="47.70808" lon="10.82732"><ele>723</ele></trkpt>
<trkpt lat="47.70770" lon="10.82699"><ele>724</ele></trkpt>
<trkpt lat="47.70743" lon="10.82687"><ele>727</ele></trkpt>
<trkpt lat="47.70704" lon="10.82682"><ele>729</ele></trkpt>
<trkpt lat="47.70683" lon="10.82684"><ele>729</ele></trkpt>
<trkpt lat="47.70664" lon="10.82691"><ele>730</ele></trkpt>
<trkpt lat="47.70646" lon="10.82699"><ele>730</ele></trkpt>
<trkpt lat="47.70632" lon="10.82712"><ele>730</ele></trkpt>
<trkpt lat="47.70607" lon="10.82770"><ele>730</ele></trkpt>
<trkpt lat="47.70566" lon="10.82840"><ele>732</ele></trkpt>
<trkpt lat="47.70557" lon="10.82849"><ele>732</ele></trkpt>
<trkpt lat="47.70416" lon="10.82916"><ele>742</ele></trkpt>
<trkpt lat="47.70352" lon="10.82962"><ele>744</ele></trkpt>
<trkpt lat="47.70321" lon="10.82992"><ele>744</ele></trkpt>
<trkpt lat="47.70259" lon="10.83076"><ele>746</ele></trkpt>
<trkpt lat="47.70235" lon="10.83103"><ele>746</ele></trkpt>
<trkpt lat="47.70209" lon="10.83120"><ele>746</ele></trkpt>
<trkpt lat="47.70199" lon="10.83120"><ele>746</ele></trkpt>
<trkpt lat="47.70162" lon="10.83103"><ele>747</ele></trkpt>
<trkpt lat="47.70099" lon="10.83085"><ele>748</ele></trkpt>
<trkpt lat="47.70000" lon="10.83101"><ele>748</ele></trkpt>
<trkpt lat="47.69929" lon="10.83102"><ele>748</ele></trkpt>
<trkpt lat="47.69880" lon="10.83089"><ele>748</ele></trkpt>
<trkpt lat="47.69823" lon="10.83052"><ele>746</ele></trkpt>
<trkpt lat="47.69786" lon="10.83036"><ele>746</ele></trkpt>
<trkpt lat="47.69751" lon="10.83031"><ele>748</ele></trkpt>
<trkpt lat="47.69669" lon="10.83034"><ele>748</ele></trkpt>
<trkpt lat="47.69650" lon="10.83029"><ele>748</ele></trkpt>
<trkpt lat="47.69621" lon="10.83010"><ele>748</ele></trkpt>
<trkpt lat="47.69594" lon="10.83014"><ele>748</ele></trkpt>
<trkpt lat="47.69644" lon="10.83574"><ele>751</ele></trkpt>
<trkpt lat="47.69682" lon="10.84193"><ele>754</ele></trkpt>
<trkpt lat="47.69685" lon="10.84215"><ele>754</ele></trkpt>
<trkpt lat="47.69698" lon="10.84253"><ele>755</ele></trkpt>
<trkpt lat="47.69681" lon="10.84276"><ele>754</ele></trkpt>
<trkpt lat="47.69679" lon="10.84283"><ele>754</ele></trkpt>
<trkpt lat="47.69684" lon="10.84484"><ele>756</ele></trkpt>
<trkpt lat="47.69664" lon="10.84612"><ele>757</ele></trkpt>
<trkpt lat="47.69667" lon="10.84624"><ele>757</ele></trkpt>
<trkpt lat="47.69673" lon="10.84628"><ele>757</ele></trkpt>
<trkpt lat="47.69709" lon="10.84627"><ele>757</ele></trkpt>
<trkpt lat="47.69728" lon="10.84638"><ele>757</ele></trkpt>
<trkpt lat="47.69721" lon="10.84673"><ele>758</ele></trkpt>
<trkpt lat="47.69727" lon="10.84809"><ele>759</ele></trkpt>
<trkpt lat="47.69674" lon="10.84818"><ele>759</ele></trkpt>
<trkpt lat="47.69651" lon="10.84826"><ele>759</ele></trkpt>
<trkpt lat="47.69648" lon="10.84834"><ele>759</ele></trkpt>
<trkpt lat="47.69648" lon="10.84844"><ele>759</ele></trkpt>
<trkpt lat="47.69705" lon="10.85218"><ele>763</ele></trkpt>
<trkpt lat="47.69729" lon="10.85238"><ele>763</ele></trkpt>
<trkpt lat="47.69749" lon="10.85266"><ele>763</ele></trkpt>
<trkpt lat="47.69760" lon="10.85310"><ele>763</ele></trkpt>
<trkpt lat="47.69747" lon="10.85336"><ele>763</ele></trkpt>
<trkpt lat="47.69740" lon="10.85369"><ele>764</ele></trkpt>
<trkpt lat="47.69721" lon="10.85628"><ele>766</ele></trkpt>
<trkpt lat="47.69740" lon="10.85959"><ele>768</ele></trkpt>
<trkpt lat="47.69738" lon="10.86014"><ele>770</ele></trkpt>
<trkpt lat="47.69728" lon="10.86065"><ele>769</ele></trkpt>
<trkpt lat="47.69724" lon="10.86062"><ele>769</ele></trkpt>
<trkpt lat="47.69706" lon="10.86067"><ele>771</ele></trkpt>
<trkpt lat="47.69594" lon="10.86067"><ele>770</ele></trkpt>
<trkpt lat="47.69556" lon="10.86062"><ele>771</ele></trkpt>
<trkpt lat="47.69556" lon="10.86093"><ele>772</ele></trkpt>
<trkpt lat="47.69513" lon="10.86101"><ele>772</ele></trkpt>
<trkpt lat="47.69425" lon="10.86132"><ele>774</ele></trkpt>
<trkpt lat="47.69420" lon="10.86140"><ele>774</ele></trkpt>
<trkpt lat="47.69376" lon="10.86148"><ele>775</ele></trkpt>
<trkpt lat="47.69292" lon="10.86146"><ele>776</ele></trkpt>
<trkpt lat="47.69265" lon="10.86211"><ele>778</ele></trkpt>
<trkpt lat="47.69252" lon="10.86228"><ele>780</ele></trkpt>
<trkpt lat="47.69140" lon="10.86298"><ele>788</ele></trkpt>
<trkpt lat="47.69075" lon="10.86347"><ele>793</ele></trkpt>
<trkpt lat="47.69030" lon="10.86356"><ele>796</ele></trkpt>
<trkpt lat="47.68978" lon="10.86374"><ele>798</ele></trkpt>
<trkpt lat="47.68946" lon="10.86405"><ele>798</ele></trkpt>
<trkpt lat="47.68916" lon="10.86420"><ele>800</ele></trkpt>
<trkpt lat="47.68823" lon="10.86496"><ele>804</ele></trkpt>
<trkpt lat="47.68812" lon="10.86514"><ele>804</ele></trkpt>
<trkpt lat="47.68796" lon="10.86560"><ele>808</ele></trkpt>
<trkpt lat="47.68782" lon="10.86577"><ele>809</ele></trkpt>
<trkpt lat="47.68729" lon="10.86610"><ele>810</ele></trkpt>
<trkpt lat="47.68662" lon="10.86635"><ele>810</ele></trkpt>
<trkpt lat="47.68624" lon="10.86637"><ele>811</ele></trkpt>
<trkpt lat="47.68605" lon="10.86646"><ele>813</ele></trkpt>
<trkpt lat="47.68590" lon="10.86660"><ele>815</ele></trkpt>
<trkpt lat="47.68551" lon="10.86709"><ele>818</ele></trkpt>
<trkpt lat="47.68527" lon="10.86727"><ele>818</ele></trkpt>
<trkpt lat="47.68463" lon="10.86736"><ele>818</ele></trkpt>
<trkpt lat="47.68463" lon="10.86807"><ele>819</ele></trkpt>
<trkpt lat="47.68456" lon="10.86841"><ele>818</ele></trkpt>
<trkpt lat="47.68434" lon="10.86899"><ele>812</ele></trkpt>
<trkpt lat="47.68425" lon="10.86944"><ele>808</ele></trkpt>
<trkpt lat="47.68413" lon="10.87080"><ele>808</ele></trkpt>
<trkpt lat="47.68402" lon="10.87163"><ele>812</ele></trkpt>
<trkpt lat="47.68372" lon="10.87266"><ele>824</ele></trkpt>
<trkpt lat="47.68362" lon="10.87327"><ele>830</ele></trkpt>
<trkpt lat="47.68369" lon="10.87421"><ele>832</ele></trkpt>
<trkpt lat="47.68376" lon="10.87466"><ele>833</ele></trkpt>
<trkpt lat="47.68391" lon="10.87533"><ele>835</ele></trkpt>
<trkpt lat="47.68395" lon="10.87576"><ele>836</ele></trkpt>
<trkpt lat="47.68391" lon="10.87603"><ele>837</ele></trkpt>
<trkpt lat="47.68383" lon="10.87630"><ele>837</ele></trkpt>
<trkpt lat="47.68344" lon="10.87689"><ele>840</ele></trkpt>
<trkpt lat="47.68335" lon="10.87724"><ele>839</ele></trkpt>
<trkpt lat="47.68328" lon="10.87880"><ele>841</ele></trkpt>
<trkpt lat="47.68296" lon="10.87877"><ele>842</ele></trkpt>
<trkpt lat="47.68199" lon="10.87918"><ele>846</ele></trkpt>
<trkpt lat="47.68181" lon="10.87914"><ele>846</ele></trkpt>
<trkpt lat="47.68152" lon="10.87890"><ele>847</ele></trkpt>
<trkpt lat="47.68120" lon="10.87892"><ele>849</ele></trkpt>
<trkpt lat="47.68049" lon="10.87911"><ele>854</ele></trkpt>
<trkpt lat="47.68015" lon="10.87934"><ele>855</ele></trkpt>
<trkpt lat="47.67997" lon="10.87938"><ele>854</ele></trkpt>
<trkpt lat="47.67954" lon="10.87933"><ele>852</ele></trkpt>
<trkpt lat="47.67936" lon="10.87926"><ele>851</ele></trkpt>
<trkpt lat="47.67903" lon="10.87904"><ele>850</ele></trkpt>
<trkpt lat="47.67869" lon="10.87897"><ele>849</ele></trkpt>
<trkpt lat="47.67835" lon="10.87878"><ele>848</ele></trkpt>
<trkpt lat="47.67809" lon="10.87874"><ele>846</ele></trkpt>
<trkpt lat="47.67773" lon="10.87898"><ele>846</ele></trkpt>
<trkpt lat="47.67732" lon="10.87948"><ele>846</ele></trkpt>
<trkpt lat="47.67717" lon="10.87961"><ele>846</ele></trkpt>
<trkpt lat="47.67641" lon="10.87998"><ele>847</ele></trkpt>
<trkpt lat="47.67625" lon="10.88015"><ele>847</ele></trkpt>
<trkpt lat="47.67595" lon="10.88069"><ele>847</ele></trkpt>
<trkpt lat="47.67552" lon="10.88118"><ele>846</ele></trkpt>
<trkpt lat="47.67533" lon="10.88168"><ele>843</ele></trkpt>
<trkpt lat="47.67522" lon="10.88187"><ele>843</ele></trkpt>
<trkpt lat="47.67501" lon="10.88205"><ele>843</ele></trkpt>
<trkpt lat="47.67468" lon="10.88219"><ele>843</ele></trkpt>
<trkpt lat="47.67457" lon="10.88232"><ele>844</ele></trkpt>
<trkpt lat="47.67452" lon="10.88245"><ele>844</ele></trkpt>
<trkpt lat="47.67450" lon="10.88465"><ele>849</ele></trkpt>
<trkpt lat="47.67439" lon="10.88546"><ele>848</ele></trkpt>
<trkpt lat="47.67435" lon="10.88610"><ele>846</ele></trkpt>
<trkpt lat="47.67364" lon="10.88878"><ele>852</ele></trkpt>
<trkpt lat="47.67341" lon="10.88990"><ele>854</ele></trkpt>
<trkpt lat="47.67316" lon="10.89076"><ele>856</ele></trkpt>
<trkpt lat="47.67312" lon="10.89104"><ele>856</ele></trkpt>
<trkpt lat="47.67317" lon="10.89152"><ele>856</ele></trkpt>
<trkpt lat="47.67338" lon="10.89256"><ele>856</ele></trkpt>
<trkpt lat="47.67348" lon="10.89284"><ele>856</ele></trkpt>
<trkpt lat="47.67382" lon="10.89343"><ele>858</ele></trkpt>
<trkpt lat="47.67409" lon="10.89376"><ele>857</ele></trkpt>
<trkpt lat="47.67441" lon="10.89430"><ele>856</ele></trkpt>
<trkpt lat="47.67477" lon="10.89469"><ele>859</ele></trkpt>
<trkpt lat="47.67500" lon="10.89488"><ele>860</ele></trkpt>
<trkpt lat="47.67576" lon="10.89577"><ele>861</ele></trkpt>
<trkpt lat="47.67592" lon="10.89590"><ele>861</ele></trkpt>
<trkpt lat="47.67634" lon="10.89608"><ele>860</ele></trkpt>
<trkpt lat="47.67659" lon="10.89625"><ele>861</ele></trkpt>
<trkpt lat="47.67685" lon="10.89674"><ele>862</ele></trkpt>
<trkpt lat="47.67744" lon="10.89838"><ele>862</ele></trkpt>
<trkpt lat="47.67753" lon="10.89851"><ele>862</ele></trkpt>
<trkpt lat="47.67877" lon="10.89896"><ele>865</ele></trkpt>
<trkpt lat="47.67934" lon="10.89903"><ele>868</ele></trkpt>
<trkpt lat="47.67939" lon="10.89912"><ele>868</ele></trkpt>
<trkpt lat="47.68009" lon="10.89973"><ele>870</ele></trkpt>
<trkpt lat="47.68062" lon="10.90003"><ele>873</ele></trkpt>
<trkpt lat="47.68112" lon="10.89996"><ele>869</ele></trkpt>
<trkpt lat="47.68138" lon="10.89983"><ele>867</ele></trkpt>
<trkpt lat="47.68164" lon="10.89960"><ele>866</ele></trkpt>
<trkpt lat="47.68177" lon="10.89968"><ele>866</ele></trkpt>
<trkpt lat="47.68185" lon="10.89980"><ele>866</ele></trkpt>
<trkpt lat="47.68191" lon="10.89968"><ele>865</ele></trkpt>
<trkpt lat="47.68202" lon="10.89962"><ele>864</ele></trkpt>
<trkpt lat="47.68208" lon="10.89947"><ele>864</ele></trkpt>
<trkpt lat="47.68278" lon="10.89889"><ele>862</ele></trkpt>
<trkpt lat="47.68286" lon="10.89911"><ele>861</ele></trkpt>
<trkpt lat="47.68304" lon="10.89899"><ele>860</ele></trkpt>
<trkpt lat="47.68312" lon="10.89902"><ele>860</ele></trkpt>
<trkpt lat="47.68335" lon="10.89946"><ele>861</ele></trkpt>
<trkpt lat="47.68297" lon="10.89975"><ele>862</ele></trkpt>
<trkpt lat="47.68257" lon="10.90012"><ele>864</ele></trkpt>
<trkpt lat="47.68289" lon="10.90070"><ele>866</ele></trkpt>
<trkpt lat="47.68354" lon="10.90104"><ele>868</ele></trkpt>
<trkpt lat="47.68412" lon="10.90095"><ele>869</ele></trkpt>
<trkpt lat="47.68427" lon="10.90104"><ele>870</ele></trkpt>
<trkpt lat="47.68439" lon="10.90120"><ele>871</ele></trkpt>
<trkpt lat="47.68452" lon="10.90155"><ele>873</ele></trkpt>
<trkpt lat="47.68454" lon="10.90176"><ele>874</ele></trkpt>
<trkpt lat="47.68452" lon="10.90237"><ele>874</ele></trkpt>
<trkpt lat="47.68470" lon="10.90388"><ele>870</ele></trkpt>
<trkpt lat="47.68480" lon="10.90413"><ele>869</ele></trkpt>
<trkpt lat="47.68552" lon="10.90528"><ele>861</ele></trkpt>
<trkpt lat="47.68568" lon="10.90545"><ele>860</ele></trkpt>
<trkpt lat="47.68585" lon="10.90549"><ele>859</ele></trkpt>
<trkpt lat="47.68642" lon="10.90543"><ele>859</ele></trkpt>
<trkpt lat="47.68657" lon="10.90568"><ele>858</ele></trkpt>
<trkpt lat="47.68662" lon="10.90587"><ele>858</ele></trkpt>
<trkpt lat="47.68657" lon="10.90624"><ele>858</ele></trkpt>
<trkpt lat="47.68763" lon="10.90570"><ele>858</ele></trkpt>
<trkpt lat="47.68657" lon="10.90624"><ele>858</ele></trkpt>
<trkpt lat="47.68644" lon="10.90638"><ele>858</ele></trkpt>
<trkpt lat="47.68630" lon="10.90661"><ele>859</ele></trkpt>
<trkpt lat="47.68623" lon="10.90683"><ele>859</ele></trkpt>
<trkpt lat="47.68599" lon="10.90775"><ele>860</ele></trkpt>
<trkpt lat="47.68686" lon="10.90913"><ele>866</ele></trkpt>
<trkpt lat="47.68691" lon="10.90925"><ele>867</ele></trkpt>
<trkpt lat="47.68699" lon="10.90973"><ele>870</ele></trkpt>
<trkpt lat="47.68698" lon="10.91000"><ele>872</ele></trkpt>
<trkpt lat="47.68691" lon="10.91030"><ele>872</ele></trkpt>
<trkpt lat="47.68641" lon="10.91158"><ele>874</ele></trkpt>
<trkpt lat="47.68637" lon="10.91183"><ele>874</ele></trkpt>
<trkpt lat="47.68638" lon="10.91218"><ele>875</ele></trkpt>
<trkpt lat="47.68658" lon="10.91286"><ele>875</ele></trkpt>
<trkpt lat="47.68700" lon="10.91382"><ele>874</ele></trkpt>
<trkpt lat="47.68714" lon="10.91435"><ele>872</ele></trkpt>
<trkpt lat="47.68720" lon="10.91471"><ele>870</ele></trkpt>
<trkpt lat="47.68727" lon="10.91551"><ele>871</ele></trkpt>
<trkpt lat="47.68728" lon="10.91700"><ele>868</ele></trkpt>
<trkpt lat="47.68731" lon="10.91708"><ele>868</ele></trkpt>
<trkpt lat="47.68739" lon="10.91713"><ele>867</ele></trkpt>
<trkpt lat="47.68799" lon="10.91731"><ele>860</ele></trkpt>
<trkpt lat="47.68858" lon="10.91719"><ele>855</ele></trkpt>
<trkpt lat="47.68874" lon="10.91720"><ele>854</ele></trkpt>
<trkpt lat="47.68911" lon="10.91744"><ele>852</ele></trkpt>
<trkpt lat="47.68922" lon="10.91767"><ele>848</ele></trkpt>
<trkpt lat="47.68926" lon="10.91814"><ele>844</ele></trkpt>
<trkpt lat="47.68944" lon="10.91821"><ele>842</ele></trkpt>
<trkpt lat="47.68958" lon="10.91855"><ele>841</ele></trkpt>
<trkpt lat="47.68984" lon="10.92022"><ele>840</ele></trkpt>
<trkpt lat="47.68993" lon="10.92052"><ele>841</ele></trkpt>
<trkpt lat="47.69002" lon="10.92064"><ele>841</ele></trkpt>
<trkpt lat="47.69014" lon="10.92073"><ele>841</ele></trkpt>
<trkpt lat="47.69026" lon="10.92075"><ele>841</ele></trkpt>
<trkpt lat="47.69187" lon="10.92088"><ele>840</ele></trkpt>
<trkpt lat="47.69242" lon="10.92106"><ele>840</ele></trkpt>
<trkpt lat="47.69269" lon="10.92121"><ele>840</ele></trkpt>
<trkpt lat="47.69357" lon="10.92194"><ele>842</ele></trkpt>
<trkpt lat="47.69436" lon="10.92249"><ele>847</ele></trkpt>
<trkpt lat="47.69483" lon="10.92272"><ele>849</ele></trkpt>
<trkpt lat="47.69529" lon="10.92288"><ele>852</ele></trkpt>
<trkpt lat="47.69592" lon="10.92330"><ele>856</ele></trkpt>
<trkpt lat="47.69665" lon="10.92353"><ele>858</ele></trkpt>
<trkpt lat="47.69678" lon="10.92361"><ele>859</ele></trkpt>
<trkpt lat="47.69701" lon="10.92383"><ele>860</ele></trkpt>
<trkpt lat="47.69723" lon="10.92444"><ele>865</ele></trkpt>
<trkpt lat="47.69749" lon="10.92492"><ele>864</ele></trkpt>
<trkpt lat="47.69798" lon="10.92558"><ele>866</ele></trkpt>
<trkpt lat="47.69815" lon="10.92574"><ele>867</ele></trkpt>
<trkpt lat="47.69823" lon="10.92561"><ele>865</ele></trkpt>
<trkpt lat="47.69843" lon="10.92552"><ele>862</ele></trkpt>
<trkpt lat="47.69892" lon="10.92543"><ele>858</ele></trkpt>
<trkpt lat="47.69965" lon="10.92540"><ele>855</ele></trkpt>
<trkpt lat="47.70005" lon="10.92544"><ele>852</ele></trkpt>
<trkpt lat="47.70131" lon="10.92571"><ele>840</ele></trkpt>
<trkpt lat="47.70200" lon="10.92593"><ele>838</ele></trkpt>
<trkpt lat="47.70311" lon="10.92582"><ele>838</ele></trkpt>
<trkpt lat="47.70349" lon="10.92584"><ele>837</ele></trkpt>
<trkpt lat="47.70392" lon="10.92647"><ele>840</ele></trkpt>
<trkpt lat="47.70416" lon="10.92672"><ele>837</ele></trkpt>
<trkpt lat="47.70428" lon="10.92680"><ele>837</ele></trkpt>
<trkpt lat="47.70439" lon="10.92682"><ele>836</ele></trkpt>
<trkpt lat="47.70440" lon="10.92720"><ele>836</ele></trkpt>
<trkpt lat="47.70446" lon="10.92774"><ele>836</ele></trkpt>
<trkpt lat="47.70478" lon="10.92931"><ele>836</ele></trkpt>
<trkpt lat="47.70487" lon="10.92993"><ele>836</ele></trkpt>
<trkpt lat="47.70523" lon="10.92916"><ele>834</ele></trkpt>
<trkpt lat="47.70543" lon="10.92903"><ele>834</ele></trkpt>
<trkpt lat="47.70591" lon="10.92894"><ele>834</ele></trkpt>
<trkpt lat="47.70682" lon="10.92864"><ele>836</ele></trkpt>
<trkpt lat="47.70704" lon="10.92878"><ele>838</ele></trkpt>
<trkpt lat="47.70780" lon="10.92877"><ele>836</ele></trkpt>
<trkpt lat="47.70819" lon="10.92847"><ele>832</ele></trkpt>
<trkpt lat="47.70835" lon="10.92842"><ele>831</ele></trkpt>
<trkpt lat="47.70880" lon="10.92853"><ele>832</ele></trkpt>
<trkpt lat="47.70895" lon="10.92863"><ele>831</ele></trkpt>
<trkpt lat="47.70898" lon="10.92840"><ele>830</ele></trkpt>
<trkpt lat="47.70934" lon="10.92847"><ele>830</ele></trkpt>
<trkpt lat="47.71019" lon="10.92935"><ele>828</ele></trkpt>
<trkpt lat="47.71030" lon="10.92972"><ele>828</ele></trkpt>
<trkpt lat="47.71029" lon="10.93008"><ele>828</ele></trkpt>
<trkpt lat="47.71031" lon="10.93020"><ele>827</ele></trkpt>
<trkpt lat="47.71051" lon="10.93045"><ele>827</ele></trkpt>
<trkpt lat="47.71077" lon="10.93123"><ele>827</ele></trkpt>
<trkpt lat="47.71086" lon="10.93126"><ele>827</ele></trkpt>
<trkpt lat="47.71088" lon="10.93137"><ele>827</ele></trkpt>
<trkpt lat="47.71074" lon="10.93195"><ele>834</ele></trkpt>
<trkpt lat="47.71110" lon="10.93227"><ele>841</ele></trkpt>
<trkpt lat="47.71077" lon="10.93282"><ele>862</ele></trkpt>
<trkpt lat="47.71103" lon="10.93344"><ele>875</ele></trkpt>
<trkpt lat="47.71081" lon="10.93476"><ele>891</ele></trkpt>
<trkpt lat="47.71165" lon="10.93523"><ele>896</ele></trkpt>
<trkpt lat="47.71180" lon="10.93526"><ele>896</ele></trkpt>
<trkpt lat="47.71208" lon="10.93520"><ele>896</ele></trkpt>
<trkpt lat="47.71220" lon="10.93596"><ele>894</ele></trkpt>
<trkpt lat="47.71250" lon="10.93727"><ele>890</ele></trkpt>
<trkpt lat="47.71265" lon="10.93807"><ele>888</ele></trkpt>
<trkpt lat="47.71258" lon="10.93904"><ele>886</ele></trkpt>
<trkpt lat="47.71241" lon="10.94022"><ele>883</ele></trkpt>
<trkpt lat="47.71242" lon="10.94046"><ele>882</ele></trkpt>
<trkpt lat="47.71318" lon="10.94225"><ele>882</ele></trkpt>
<trkpt lat="47.71340" lon="10.94285"><ele>880</ele></trkpt>
<trkpt lat="47.71355" lon="10.94337"><ele>878</ele></trkpt>
<trkpt lat="47.71385" lon="10.94337"><ele>880</ele></trkpt>
<trkpt lat="47.71416" lon="10.94330"><ele>883</ele></trkpt>
<trkpt lat="47.71428" lon="10.94332"><ele>884</ele></trkpt>
<trkpt lat="47.71489" lon="10.94367"><ele>880</ele></trkpt>
<trkpt lat="47.71553" lon="10.94362"><ele>875</ele></trkpt>
<trkpt lat="47.71567" lon="10.94365"><ele>873</ele></trkpt>
<trkpt lat="47.71602" lon="10.94358"><ele>869</ele></trkpt>
<trkpt lat="47.71621" lon="10.94390"><ele>865</ele></trkpt>
<trkpt lat="47.71625" lon="10.94408"><ele>864</ele></trkpt>
<trkpt lat="47.71627" lon="10.94450"><ele>862</ele></trkpt>
<trkpt lat="47.71632" lon="10.94457"><ele>862</ele></trkpt>
<trkpt lat="47.71651" lon="10.94467"><ele>859</ele></trkpt>
<trkpt lat="47.71670" lon="10.94484"><ele>856</ele></trkpt>
<trkpt lat="47.71682" lon="10.94502"><ele>856</ele></trkpt>
<trkpt lat="47.71688" lon="10.94522"><ele>856</ele></trkpt>
<trkpt lat="47.71709" lon="10.94523"><ele>856</ele></trkpt>
<trkpt lat="47.71720" lon="10.94529"><ele>856</ele></trkpt>
<trkpt lat="47.71733" lon="10.94538"><ele>855</ele></trkpt>
<trkpt lat="47.71750" lon="10.94560"><ele>852</ele></trkpt>
<trkpt lat="47.71775" lon="10.94600"><ele>851</ele></trkpt>
<trkpt lat="47.71794" lon="10.94650"><ele>856</ele></trkpt>
<trkpt lat="47.71812" lon="10.94680"><ele>857</ele></trkpt>
<trkpt lat="47.71831" lon="10.94743"><ele>852</ele></trkpt>
<trkpt lat="47.71840" lon="10.94752"><ele>850</ele></trkpt>
<trkpt lat="47.71864" lon="10.94765"><ele>849</ele></trkpt>
<trkpt lat="47.71887" lon="10.94788"><ele>848</ele></trkpt>
<trkpt lat="47.71905" lon="10.94787"><ele>848</ele></trkpt>
<trkpt lat="47.71943" lon="10.94768"><ele>844</ele></trkpt>
<trkpt lat="47.71985" lon="10.94774"><ele>843</ele></trkpt>
<trkpt lat="47.72012" lon="10.94763"><ele>844</ele></trkpt>
<trkpt lat="47.72092" lon="10.94695"><ele>844</ele></trkpt>
<trkpt lat="47.72195" lon="10.94646"><ele>840</ele></trkpt>
<trkpt lat="47.72218" lon="10.94629"><ele>839</ele></trkpt>
<trkpt lat="47.72272" lon="10.94571"><ele>836</ele></trkpt>
<trkpt lat="47.72307" lon="10.94556"><ele>836</ele></trkpt>
<trkpt lat="47.72343" lon="10.94548"><ele>834</ele></trkpt>
<trkpt lat="47.72407" lon="10.94504"><ele>834</ele></trkpt>
<trkpt lat="47.72440" lon="10.94492"><ele>832</ele></trkpt>
<trkpt lat="47.72496" lon="10.94486"><ele>828</ele></trkpt>
<trkpt lat="47.72633" lon="10.94525"><ele>824</ele></trkpt>
<trkpt lat="47.72678" lon="10.94521"><ele>821</ele></trkpt>
<trkpt lat="47.72747" lon="10.94548"><ele>820</ele></trkpt>
<trkpt lat="47.72790" lon="10.94578"><ele>820</ele></trkpt>
<trkpt lat="47.72918" lon="10.94597"><ele>817</ele></trkpt>
<trkpt lat="47.72992" lon="10.94593"><ele>814</ele></trkpt>
<trkpt lat="47.73012" lon="10.94581"><ele>814</ele></trkpt>
<trkpt lat="47.73028" lon="10.94579"><ele>813</ele></trkpt>
<trkpt lat="47.73032" lon="10.94558"><ele>814</ele></trkpt>
<trkpt lat="47.73039" lon="10.94561"><ele>814</ele></trkpt>
<trkpt lat="47.73072" lon="10.94554"><ele>813</ele></trkpt>
<trkpt lat="47.73094" lon="10.94555"><ele>812</ele></trkpt>
<trkpt lat="47.73114" lon="10.94565"><ele>812</ele></trkpt>
<trkpt lat="47.73153" lon="10.94600"><ele>809</ele></trkpt>
<trkpt lat="47.73175" lon="10.94611"><ele>807</ele></trkpt>
<trkpt lat="47.73190" lon="10.94612"><ele>804</ele></trkpt>
<trkpt lat="47.73271" lon="10.94566"><ele>798</ele></trkpt>
<trkpt lat="47.73304" lon="10.94504"><ele>796</ele></trkpt>
<trkpt lat="47.73346" lon="10.94446"><ele>794</ele></trkpt>
<trkpt lat="47.73423" lon="10.94374"><ele>793</ele></trkpt>
<trkpt lat="47.73453" lon="10.94340"><ele>789</ele></trkpt>
<trkpt lat="47.73477" lon="10.94327"><ele>786</ele></trkpt>
<trkpt lat="47.73529" lon="10.94321"><ele>786</ele></trkpt>
<trkpt lat="47.73593" lon="10.94265"><ele>787</ele></trkpt>
<trkpt lat="47.73609" lon="10.94257"><ele>787</ele></trkpt>
<trkpt lat="47.73630" lon="10.94250"><ele>787</ele></trkpt>
<trkpt lat="47.73686" lon="10.94243"><ele>786</ele></trkpt>
<trkpt lat="47.73706" lon="10.94248"><ele>786</ele></trkpt>
<trkpt lat="47.73757" lon="10.94289"><ele>787</ele></trkpt>
<trkpt lat="47.73795" lon="10.94298"><ele>786</ele></trkpt>
<trkpt lat="47.73816" lon="10.94317"><ele>784</ele></trkpt>
<trkpt lat="47.73792" lon="10.94364"><ele>784</ele></trkpt>
<trkpt lat="47.73762" lon="10.94446"><ele>783</ele></trkpt>
<trkpt lat="47.73736" lon="10.94546"><ele>780</ele></trkpt>
<trkpt lat="47.73738" lon="10.94577"><ele>778</ele></trkpt>
<trkpt lat="47.73743" lon="10.94590"><ele>777</ele></trkpt>
<trkpt lat="47.73761" lon="10.94608"><ele>777</ele></trkpt>
<trkpt lat="47.73780" lon="10.94635"><ele>776</ele></trkpt>
<trkpt lat="47.73826" lon="10.94767"><ele>771</ele></trkpt>
<trkpt lat="47.73858" lon="10.94877"><ele>762</ele></trkpt>
<trkpt lat="47.73876" lon="10.94898"><ele>760</ele></trkpt>
<trkpt lat="47.73945" lon="10.94926"><ele>758</ele></trkpt>
<trkpt lat="47.73948" lon="10.94934"><ele>758</ele></trkpt>
<trkpt lat="47.73944" lon="10.95012"><ele>756</ele></trkpt>
<trkpt lat="47.73951" lon="10.95032"><ele>754</ele></trkpt>
<trkpt lat="47.73969" lon="10.95036"><ele>754</ele></trkpt>
<trkpt lat="47.74164" lon="10.95035"><ele>751</ele></trkpt>
<trkpt lat="47.74157" lon="10.95005"><ele>752</ele></trkpt>
<trkpt lat="47.74152" lon="10.94938"><ele>752</ele></trkpt>
<trkpt lat="47.74134" lon="10.94842"><ele>753</ele></trkpt>
<trkpt lat="47.74129" lon="10.94798"><ele>754</ele></trkpt>
<trkpt lat="47.74099" lon="10.94733"><ele>754</ele></trkpt>
<trkpt lat="47.74084" lon="10.94684"><ele>756</ele></trkpt>
<trkpt lat="47.74087" lon="10.94619"><ele>756</ele></trkpt>
<trkpt lat="47.74094" lon="10.94590"><ele>756</ele></trkpt>
<trkpt lat="47.74100" lon="10.94580"><ele>755</ele></trkpt>
<trkpt lat="47.74112" lon="10.94571"><ele>754</ele></trkpt>
<trkpt lat="47.74177" lon="10.94567"><ele>757</ele></trkpt>
<trkpt lat="47.74269" lon="10.94550"><ele>755</ele></trkpt>
<trkpt lat="47.74280" lon="10.94559"><ele>755</ele></trkpt>
<trkpt lat="47.74290" lon="10.94586"><ele>754</ele></trkpt>
<trkpt lat="47.74323" lon="10.94650"><ele>752</ele></trkpt>
<trkpt lat="47.74337" lon="10.94670"><ele>753</ele></trkpt>
<trkpt lat="47.74352" lon="10.94682"><ele>752</ele></trkpt>
<trkpt lat="47.74397" lon="10.94700"><ele>753</ele></trkpt>
<trkpt lat="47.74410" lon="10.94703"><ele>753</ele></trkpt>
<trkpt lat="47.74421" lon="10.94700"><ele>753</ele></trkpt>
<trkpt lat="47.74456" lon="10.94661"><ele>755</ele></trkpt>
<trkpt lat="47.74466" lon="10.94622"><ele>754</ele></trkpt>
<trkpt lat="47.74481" lon="10.94583"><ele>752</ele></trkpt>
<trkpt lat="47.74521" lon="10.94507"><ele>752</ele></trkpt>
<trkpt lat="47.74557" lon="10.94451"><ele>756</ele></trkpt>
<trkpt lat="47.74603" lon="10.94337"><ele>759</ele></trkpt>
<trkpt lat="47.74608" lon="10.94299"><ele>759</ele></trkpt>
<trkpt lat="47.74605" lon="10.94274"><ele>758</ele></trkpt>
<trkpt lat="47.74530" lon="10.94090"><ele>768</ele></trkpt>
<trkpt lat="47.74522" lon="10.94079"><ele>770</ele></trkpt>
<trkpt lat="47.74513" lon="10.94072"><ele>772</ele></trkpt>
<trkpt lat="47.74501" lon="10.94070"><ele>773</ele></trkpt>
<trkpt lat="47.74465" lon="10.94083"><ele>776</ele></trkpt>
<trkpt lat="47.74448" lon="10.94066"><ele>780</ele></trkpt>
<trkpt lat="47.74443" lon="10.94042"><ele>782</ele></trkpt>
<trkpt lat="47.74434" lon="10.93876"><ele>784</ele></trkpt>
<trkpt lat="47.74598" lon="10.93862"><ele>782</ele></trkpt>
<trkpt lat="47.74775" lon="10.93862"><ele>781</ele></trkpt>
<trkpt lat="47.74874" lon="10.93872"><ele>780</ele></trkpt>
<trkpt lat="47.74995" lon="10.93899"><ele>776</ele></trkpt>
<trkpt lat="47.75007" lon="10.93891"><ele>777</ele></trkpt>
<trkpt lat="47.75085" lon="10.93920"><ele>777</ele></trkpt>
<trkpt lat="47.75280" lon="10.94030"><ele>768</ele></trkpt>
<trkpt lat="47.75324" lon="10.94048"><ele>768</ele></trkpt>
<trkpt lat="47.75346" lon="10.94050"><ele>768</ele></trkpt>
<trkpt lat="47.75368" lon="10.94049"><ele>768</ele></trkpt>
<trkpt lat="47.75401" lon="10.94040"><ele>770</ele></trkpt>
<trkpt lat="47.75481" lon="10.94002"><ele>772</ele></trkpt>
<trkpt lat="47.75506" lon="10.93972"><ele>774</ele></trkpt>
<trkpt lat="47.75529" lon="10.93966"><ele>777</ele></trkpt>
<trkpt lat="47.75543" lon="10.93968"><ele>777</ele></trkpt>
<trkpt lat="47.75566" lon="10.93975"><ele>778</ele></trkpt>
<trkpt lat="47.75593" lon="10.93992"><ele>780</ele></trkpt>
<trkpt lat="47.75622" lon="10.94027"><ele>780</ele></trkpt>
<trkpt lat="47.75673" lon="10.94045"><ele>783</ele></trkpt>
<trkpt lat="47.75771" lon="10.94096"><ele>787</ele></trkpt>
<trkpt lat="47.75845" lon="10.94110"><ele>791</ele></trkpt>
<trkpt lat="47.75870" lon="10.94098"><ele>790</ele></trkpt>
<trkpt lat="47.75882" lon="10.94073"><ele>791</ele></trkpt>
<trkpt lat="47.75891" lon="10.94068"><ele>790</ele></trkpt>
<trkpt lat="47.75918" lon="10.94113"><ele>794</ele></trkpt>
<trkpt lat="47.75929" lon="10.94120"><ele>795</ele></trkpt>
<trkpt lat="47.75941" lon="10.94121"><ele>797</ele></trkpt>
<trkpt lat="47.75970" lon="10.94103"><ele>800</ele></trkpt>
<trkpt lat="47.76006" lon="10.94092"><ele>797</ele></trkpt>
<trkpt lat="47.76021" lon="10.94092"><ele>797</ele></trkpt>
<trkpt lat="47.76034" lon="10.94096"><ele>797</ele></trkpt>
<trkpt lat="47.76080" lon="10.94131"><ele>794</ele></trkpt>
<trkpt lat="47.76123" lon="10.94151"><ele>789</ele></trkpt>
<trkpt lat="47.76165" lon="10.94177"><ele>787</ele></trkpt>
<trkpt lat="47.76183" lon="10.94184"><ele>786</ele></trkpt>
<trkpt lat="47.76261" lon="10.94193"><ele>784</ele></trkpt>
<trkpt lat="47.76356" lon="10.94222"><ele>785</ele></trkpt>
<trkpt lat="47.76405" lon="10.94221"><ele>782</ele></trkpt>
<trkpt lat="47.76461" lon="10.94212"><ele>779</ele></trkpt>
<trkpt lat="47.76547" lon="10.94179"><ele>770</ele></trkpt>
<trkpt lat="47.76628" lon="10.94173"><ele>758</ele></trkpt>
<trkpt lat="47.76700" lon="10.94177"><ele>746</ele></trkpt>
<trkpt lat="47.76739" lon="10.94167"><ele>742</ele></trkpt>
<trkpt lat="47.76752" lon="10.94159"><ele>741</ele></trkpt>
<trkpt lat="47.76754" lon="10.94147"><ele>741</ele></trkpt>
<trkpt lat="47.76758" lon="10.94140"><ele>741</ele></trkpt>
<trkpt lat="47.76801" lon="10.94111"><ele>739</ele></trkpt>
<trkpt lat="47.76923" lon="10.94011"><ele>734</ele></trkpt>
<trkpt lat="47.77091" lon="10.93951"><ele>732</ele></trkpt>
<trkpt lat="47.77145" lon="10.93919"><ele>731</ele></trkpt>
<trkpt lat="47.77301" lon="10.93785"><ele>730</ele></trkpt>
<trkpt lat="47.77308" lon="10.93774"><ele>730</ele></trkpt>
<trkpt lat="47.77319" lon="10.93735"><ele>728</ele></trkpt>
<trkpt lat="47.77326" lon="10.93746"><ele>729</ele></trkpt>
<trkpt lat="47.77333" lon="10.93746"><ele>729</ele></trkpt>
<trkpt lat="47.77351" lon="10.93734"><ele>728</ele></trkpt>
<trkpt lat="47.77364" lon="10.93735"><ele>728</ele></trkpt>
<trkpt lat="47.77511" lon="10.93633"><ele>728</ele></trkpt>
<trkpt lat="47.77587" lon="10.93604"><ele>727</ele></trkpt>
<trkpt lat="47.77639" lon="10.93590"><ele>727</ele></trkpt>
<trkpt lat="47.77718" lon="10.93555"><ele>726</ele></trkpt>
<trkpt lat="47.77785" lon="10.93503"><ele>726</ele></trkpt>
<trkpt lat="47.77832" lon="10.93459"><ele>727</ele></trkpt>
<trkpt lat="47.77842" lon="10.93445"><ele>727</ele></trkpt>
<trkpt lat="47.77855" lon="10.93451"><ele>727</ele></trkpt>
<trkpt lat="47.77846" lon="10.93528"><ele>724</ele></trkpt>
<trkpt lat="47.77867" lon="10.93521"><ele>724</ele></trkpt>
<trkpt lat="47.77883" lon="10.93648"><ele>725</ele></trkpt>
<trkpt lat="47.77860" lon="10.93847"><ele>723</ele></trkpt>
<trkpt lat="47.77853" lon="10.93946"><ele>724</ele></trkpt>
<trkpt lat="47.77842" lon="10.93992"><ele>723</ele></trkpt>
<trkpt lat="47.77842" lon="10.94005"><ele>723</ele></trkpt>
<trkpt lat="47.77851" lon="10.94049"><ele>724</ele></trkpt>
<trkpt lat="47.77851" lon="10.94138"><ele>724</ele></trkpt>
<trkpt lat="47.77855" lon="10.94244"><ele>724</ele></trkpt>
<trkpt lat="47.77864" lon="10.94378"><ele>723</ele></trkpt>
<trkpt lat="47.77874" lon="10.94476"><ele>725</ele></trkpt>
<trkpt lat="47.77869" lon="10.94543"><ele>724</ele></trkpt>
<trkpt lat="47.77876" lon="10.94565"><ele>724</ele></trkpt>
<trkpt lat="47.77931" lon="10.94536"><ele>724</ele></trkpt>
<trkpt lat="47.77943" lon="10.94520"><ele>723</ele></trkpt>
<trkpt lat="47.77955" lon="10.94486"><ele>723</ele></trkpt>
<trkpt lat="47.77959" lon="10.94505"><ele>724</ele></trkpt>
<trkpt lat="47.77956" lon="10.94516"><ele>723</ele></trkpt>
<trkpt lat="47.77937" lon="10.94549"><ele>724</ele></trkpt>
<trkpt lat="47.77931" lon="10.94567"><ele>727</ele></trkpt>
<trkpt lat="47.77930" lon="10.94577"><ele>728</ele></trkpt>
<trkpt lat="47.77941" lon="10.94634"><ele>726</ele></trkpt>
<trkpt lat="47.77994" lon="10.94818"><ele>736</ele></trkpt>
<trkpt lat="47.78015" lon="10.94869"><ele>740</ele></trkpt>
<trkpt lat="47.78060" lon="10.94952"><ele>745</ele></trkpt>
<trkpt lat="47.78077" lon="10.94980"><ele>747</ele></trkpt>
<trkpt lat="47.78128" lon="10.95044"><ele>750</ele></trkpt>
<trkpt lat="47.78172" lon="10.95088"><ele>750</ele></trkpt>
<trkpt lat="47.78223" lon="10.95106"><ele>750</ele></trkpt>
<trkpt lat="47.78250" lon="10.95138"><ele>751</ele></trkpt>
<trkpt lat="47.78339" lon="10.95178"><ele>753</ele></trkpt>
<trkpt lat="47.78427" lon="10.95192"><ele>758</ele></trkpt>
<trkpt lat="47.78529" lon="10.95250"><ele>751</ele></trkpt>
<trkpt lat="47.78589" lon="10.95297"><ele>750</ele></trkpt>
<trkpt lat="47.78623" lon="10.95332"><ele>749</ele></trkpt>
<trkpt lat="47.78707" lon="10.95438"><ele>748</ele></trkpt>
<trkpt lat="47.78752" lon="10.95490"><ele>745</ele></trkpt>
<trkpt lat="47.78772" lon="10.95503"><ele>743</ele></trkpt>
<trkpt lat="47.78861" lon="10.95545"><ele>741</ele></trkpt>
<trkpt lat="47.78914" lon="10.95551"><ele>740</ele></trkpt>
<trkpt lat="47.78949" lon="10.95550"><ele>742</ele></trkpt>
<trkpt lat="47.78991" lon="10.95537"><ele>741</ele></trkpt>
<trkpt lat="47.79007" lon="10.95523"><ele>742</ele></trkpt>
<trkpt lat="47.79027" lon="10.95481"><ele>742</ele></trkpt>
<trkpt lat="47.79075" lon="10.95455"><ele>744</ele></trkpt>
<trkpt lat="47.79156" lon="10.95420"><ele>744</ele></trkpt>
<trkpt lat="47.79216" lon="10.95416"><ele>746</ele></trkpt>
<trkpt lat="47.79257" lon="10.95406"><ele>745</ele></trkpt>
<trkpt lat="47.79368" lon="10.95411"><ele>734</ele></trkpt>
<trkpt lat="47.79419" lon="10.95403"><ele>735</ele></trkpt>
<trkpt lat="47.79494" lon="10.95400"><ele>736</ele></trkpt>
<trkpt lat="47.79512" lon="10.95408"><ele>736</ele></trkpt>
<trkpt lat="47.79545" lon="10.95434"><ele>734</ele></trkpt>
<trkpt lat="47.79535" lon="10.95464"><ele>734</ele></trkpt>
<trkpt lat="47.79517" lon="10.95493"><ele>733</ele></trkpt>
<trkpt lat="47.79504" lon="10.95504"><ele>733</ele></trkpt>
<trkpt lat="47.79402" lon="10.95552"><ele>732</ele></trkpt>
<trkpt lat="47.79393" lon="10.95560"><ele>732</ele></trkpt>
<trkpt lat="47.79387" lon="10.95577"><ele>731</ele></trkpt>
<trkpt lat="47.79363" lon="10.95694"><ele>730</ele></trkpt>
<trkpt lat="47.79356" lon="10.95745"><ele>729</ele></trkpt>
<trkpt lat="47.79326" lon="10.96030"><ele>729</ele></trkpt>
<trkpt lat="47.79317" lon="10.96200"><ele>728</ele></trkpt>
<trkpt lat="47.79303" lon="10.96287"><ele>729</ele></trkpt>
<trkpt lat="47.79286" lon="10.96314"><ele>730</ele></trkpt>
<trkpt lat="47.79195" lon="10.96411"><ele>735</ele></trkpt>
<trkpt lat="47.79171" lon="10.96464"><ele>736</ele></trkpt>
<trkpt lat="47.79148" lon="10.96603"><ele>741</ele></trkpt>
<trkpt lat="47.79109" lon="10.96726"><ele>744</ele></trkpt>
<trkpt lat="47.79087" lon="10.96808"><ele>746</ele></trkpt>
<trkpt lat="47.79069" lon="10.96902"><ele>745</ele></trkpt>
<trkpt lat="47.79067" lon="10.96957"><ele>746</ele></trkpt>
<trkpt lat="47.79080" lon="10.97251"><ele>744</ele></trkpt>
<trkpt lat="47.79076" lon="10.97263"><ele>744</ele></trkpt>
<trkpt lat="47.79052" lon="10.97285"><ele>744</ele></trkpt>
<trkpt lat="47.79048" lon="10.97306"><ele>742</ele></trkpt>
<trkpt lat="47.79050" lon="10.97323"><ele>742</ele></trkpt>
<trkpt lat="47.79071" lon="10.97399"><ele>742</ele></trkpt>
<trkpt lat="47.79078" lon="10.97452"><ele>743</ele></trkpt>
<trkpt lat="47.79079" lon="10.97509"><ele>742</ele></trkpt>
<trkpt lat="47.79071" lon="10.97539"><ele>741</ele></trkpt>
<trkpt lat="47.79035" lon="10.97609"><ele>738</ele></trkpt>
<trkpt lat="47.79013" lon="10.97668"><ele>736</ele></trkpt>
<trkpt lat="47.79006" lon="10.97717"><ele>737</ele></trkpt>
<trkpt lat="47.79006" lon="10.97792"><ele>738</ele></trkpt>
<trkpt lat="47.79003" lon="10.97829"><ele>739</ele></trkpt>
<trkpt lat="47.78997" lon="10.97848"><ele>739</ele></trkpt>
<trkpt lat="47.78982" lon="10.97879"><ele>739</ele></trkpt>
<trkpt lat="47.78933" lon="10.97949"><ele>741</ele></trkpt>
<trkpt lat="47.78901" lon="10.98013"><ele>742</ele></trkpt>
<trkpt lat="47.78871" lon="10.98059"><ele>741</ele></trkpt>
<trkpt lat="47.78865" lon="10.98084"><ele>740</ele></trkpt>
<trkpt lat="47.78856" lon="10.98151"><ele>738</ele></trkpt>
<trkpt lat="47.78839" lon="10.98195"><ele>738</ele></trkpt>
<trkpt lat="47.78795" lon="10.98338"><ele>743</ele></trkpt>
<trkpt lat="47.78830" lon="10.98380"><ele>743</ele></trkpt>
<trkpt lat="47.78853" lon="10.98422"><ele>743</ele></trkpt>
<trkpt lat="47.78871" lon="10.98444"><ele>742</ele></trkpt>
<trkpt lat="47.78916" lon="10.98466"><ele>743</ele></trkpt>
<trkpt lat="47.78963" lon="10.98496"><ele>743</ele></trkpt>
<trkpt lat="47.79005" lon="10.98536"><ele>742</ele></trkpt>
<trkpt lat="47.79030" lon="10.98540"><ele>740</ele></trkpt>
<trkpt lat="47.79084" lon="10.98528"><ele>743</ele></trkpt>
<trkpt lat="47.79096" lon="10.98517"><ele>741</ele></trkpt>
<trkpt lat="47.79112" lon="10.98496"><ele>742</ele></trkpt>
<trkpt lat="47.79127" lon="10.98487"><ele>740</ele></trkpt>
<trkpt lat="47.79144" lon="10.98490"><ele>739</ele></trkpt>
<trkpt lat="47.79172" lon="10.98506"><ele>738</ele></trkpt>
<trkpt lat="47.79246" lon="10.98572"><ele>740</ele></trkpt>
<trkpt lat="47.79268" lon="10.98618"><ele>742</ele></trkpt>
<trkpt lat="47.79284" lon="10.98644"><ele>742</ele></trkpt>
<trkpt lat="47.79315" lon="10.98680"><ele>744</ele></trkpt>
<trkpt lat="47.79357" lon="10.98741"><ele>744</ele></trkpt>
<trkpt lat="47.79398" lon="10.98787"><ele>742</ele></trkpt>
<trkpt lat="47.79427" lon="10.98812"><ele>741</ele></trkpt>
<trkpt lat="47.79431" lon="10.98826"><ele>740</ele></trkpt>
<trkpt lat="47.79432" lon="10.98853"><ele>739</ele></trkpt>
<trkpt lat="47.79425" lon="10.98937"><ele>738</ele></trkpt>
<trkpt lat="47.79435" lon="10.98998"><ele>736</ele></trkpt>
<trkpt lat="47.79449" lon="10.99112"><ele>734</ele></trkpt>
<trkpt lat="47.79434" lon="10.99139"><ele>733</ele></trkpt>
<trkpt lat="47.79403" lon="10.99213"><ele>730</ele></trkpt>
<trkpt lat="47.79380" lon="10.99285"><ele>727</ele></trkpt>
<trkpt lat="47.79370" lon="10.99301"><ele>726</ele></trkpt>
<trkpt lat="47.79348" lon="10.99327"><ele>723</ele></trkpt>
<trkpt lat="47.79331" lon="10.99360"><ele>726</ele></trkpt>
<trkpt lat="47.79298" lon="10.99475"><ele>731</ele></trkpt>
<trkpt lat="47.79300" lon="10.99493"><ele>732</ele></trkpt>
<trkpt lat="47.79289" lon="10.99553"><ele>735</ele></trkpt>
<trkpt lat="47.79273" lon="10.99604"><ele>738</ele></trkpt>
<trkpt lat="47.79263" lon="10.99616"><ele>739</ele></trkpt>
<trkpt lat="47.79185" lon="10.99686"><ele>745</ele></trkpt>
<trkpt lat="47.79178" lon="10.99698"><ele>746</ele></trkpt>
<trkpt lat="47.79173" lon="10.99732"><ele>746</ele></trkpt>
<trkpt lat="47.79172" lon="10.99870"><ele>748</ele></trkpt>
<trkpt lat="47.79167" lon="10.99905"><ele>748</ele></trkpt>
<trkpt lat="47.79140" lon="11.00021"><ele>745</ele></trkpt>
<trkpt lat="47.79139" lon="11.00057"><ele>745</ele></trkpt>
<trkpt lat="47.79157" lon="11.00063"><ele>746</ele></trkpt>
<trkpt lat="47.79203" lon="11.00094"><ele>748</ele></trkpt>
<trkpt lat="47.79174" lon="11.00205"><ele>748</ele></trkpt>
<trkpt lat="47.79151" lon="11.00195"><ele>748</ele></trkpt>
<trkpt lat="47.79136" lon="11.00200"><ele>748</ele></trkpt>
<trkpt lat="47.79132" lon="11.00212"><ele>748</ele></trkpt>
<trkpt lat="47.79127" lon="11.00216"><ele>748</ele></trkpt>
<trkpt lat="47.79118" lon="11.00218"><ele>748</ele></trkpt>
<trkpt lat="47.79104" lon="11.00212"><ele>749</ele></trkpt>
<trkpt lat="47.79095" lon="11.00255"><ele>750</ele></trkpt>
<trkpt lat="47.79096" lon="11.00280"><ele>749</ele></trkpt>
<trkpt lat="47.79102" lon="11.00307"><ele>749</ele></trkpt>
<trkpt lat="47.79113" lon="11.00326"><ele>750</ele></trkpt>
<trkpt lat="47.79109" lon="11.00346"><ele>749</ele></trkpt>
<trkpt lat="47.79129" lon="11.00423"><ele>750</ele></trkpt>
<trkpt lat="47.79127" lon="11.00443"><ele>750</ele></trkpt>
<trkpt lat="47.79104" lon="11.00523"><ele>751</ele></trkpt>
<trkpt lat="47.79098" lon="11.00552"><ele>751</ele></trkpt>
<trkpt lat="47.79153" lon="11.00683"><ele>755</ele></trkpt>
<trkpt lat="47.79174" lon="11.00726"><ele>758</ele></trkpt>
<trkpt lat="47.79222" lon="11.00782"><ele>763</ele></trkpt>
<trkpt lat="47.79259" lon="11.00805"><ele>767</ele></trkpt>
<trkpt lat="47.79272" lon="11.00821"><ele>769</ele></trkpt>
<trkpt lat="47.79280" lon="11.00842"><ele>770</ele></trkpt>
<trkpt lat="47.79286" lon="11.00890"><ele>771</ele></trkpt>
<trkpt lat="47.79245" lon="11.00981"><ele>766</ele></trkpt>
<trkpt lat="47.79208" lon="11.01077"><ele>762</ele></trkpt>
<trkpt lat="47.79176" lon="11.01173"><ele>759</ele></trkpt>
<trkpt lat="47.79130" lon="11.01250"><ele>758</ele></trkpt>
<trkpt lat="47.78992" lon="11.01521"><ele>748</ele></trkpt>
<trkpt lat="47.78960" lon="11.01599"><ele>745</ele></trkpt>
<trkpt lat="47.78953" lon="11.01623"><ele>744</ele></trkpt>
<trkpt lat="47.78936" lon="11.01714"><ele>738</ele></trkpt>
<trkpt lat="47.78933" lon="11.01741"><ele>738</ele></trkpt>
<trkpt lat="47.78940" lon="11.01748"><ele>738</ele></trkpt>
<trkpt lat="47.78907" lon="11.01996"><ele>736</ele></trkpt>
<trkpt lat="47.78867" lon="11.02207"><ele>724</ele></trkpt>
<trkpt lat="47.78866" lon="11.02233"><ele>723</ele></trkpt>
<trkpt lat="47.78843" lon="11.02309"><ele>720</ele></trkpt>
<trkpt lat="47.78829" lon="11.02379"><ele>716</ele></trkpt>
<trkpt lat="47.78817" lon="11.02570"><ele>711</ele></trkpt>
<trkpt lat="47.78799" lon="11.02632"><ele>708</ele></trkpt>
<trkpt lat="47.78782" lon="11.02669"><ele>706</ele></trkpt>
<trkpt lat="47.78762" lon="11.02701"><ele>704</ele></trkpt>
<trkpt lat="47.78739" lon="11.02725"><ele>702</ele></trkpt>
<trkpt lat="47.78738" lon="11.02764"><ele>700</ele></trkpt>
<trkpt lat="47.78727" lon="11.02801"><ele>699</ele></trkpt>
<trkpt lat="47.78714" lon="11.02902"><ele>691</ele></trkpt>
<trkpt lat="47.78680" lon="11.03024"><ele>686</ele></trkpt>
<trkpt lat="47.78644" lon="11.03102"><ele>684</ele></trkpt>
<trkpt lat="47.78608" lon="11.03168"><ele>683</ele></trkpt>
<trkpt lat="47.78585" lon="11.03208"><ele>681</ele></trkpt>
<trkpt lat="47.78549" lon="11.03259"><ele>679</ele></trkpt>
<trkpt lat="47.78514" lon="11.03296"><ele>678</ele></trkpt>
<trkpt lat="47.78477" lon="11.03326"><ele>676</ele></trkpt>
<trkpt lat="47.78411" lon="11.03371"><ele>672</ele></trkpt>
<trkpt lat="47.78399" lon="11.03394"><ele>670</ele></trkpt>
<trkpt lat="47.78393" lon="11.03415"><ele>668</ele></trkpt>
<trkpt lat="47.78392" lon="11.03450"><ele>667</ele></trkpt>
<trkpt lat="47.78406" lon="11.03554"><ele>662</ele></trkpt>
<trkpt lat="47.78413" lon="11.03679"><ele>656</ele></trkpt>
<trkpt lat="47.78396" lon="11.03840"><ele>647</ele></trkpt>
<trkpt lat="47.78398" lon="11.03913"><ele>641</ele></trkpt>
<trkpt lat="47.78408" lon="11.03990"><ele>634</ele></trkpt>
<trkpt lat="47.78403" lon="11.04010"><ele>632</ele></trkpt>
<trkpt lat="47.78372" lon="11.04044"><ele>627</ele></trkpt>
<trkpt lat="47.78321" lon="11.04117"><ele>624</ele></trkpt>
<trkpt lat="47.78298" lon="11.04142"><ele>622</ele></trkpt>
<trkpt lat="47.78289" lon="11.04158"><ele>621</ele></trkpt>
<trkpt lat="47.78281" lon="11.04182"><ele>620</ele></trkpt>
<trkpt lat="47.78277" lon="11.04202"><ele>619</ele></trkpt>
<trkpt lat="47.78278" lon="11.04256"><ele>618</ele></trkpt>
<trkpt lat="47.78292" lon="11.04380"><ele>613</ele></trkpt>
<trkpt lat="47.78290" lon="11.04397"><ele>612</ele></trkpt>
<trkpt lat="47.78285" lon="11.04408"><ele>612</ele></trkpt>
<trkpt lat="47.78304" lon="11.04454"><ele>610</ele></trkpt>
<trkpt lat="47.78334" lon="11.04557"><ele>608</ele></trkpt>
<trkpt lat="47.78406" lon="11.04486"><ele>610</ele></trkpt>
<trkpt lat="47.78418" lon="11.04482"><ele>610</ele></trkpt>
<trkpt lat="47.78425" lon="11.04489"><ele>609</ele></trkpt>
<trkpt lat="47.78511" lon="11.04639"><ele>605</ele></trkpt>
<trkpt lat="47.78530" lon="11.04678"><ele>604</ele></trkpt>
<trkpt lat="47.78555" lon="11.04770"><ele>602</ele></trkpt>
<trkpt lat="47.78576" lon="11.04755"><ele>603</ele></trkpt>
<trkpt lat="47.78601" lon="11.04745"><ele>603</ele></trkpt>
<trkpt lat="47.78646" lon="11.04743"><ele>603</ele></trkpt>
<trkpt lat="47.78692" lon="11.04755"><ele>604</ele></trkpt>
<trkpt lat="47.78757" lon="11.04797"><ele>608</ele></trkpt>
<trkpt lat="47.78808" lon="11.04851"><ele>608</ele></trkpt>
<trkpt lat="47.78844" lon="11.04897"><ele>605</ele></trkpt>
<trkpt lat="47.78891" lon="11.04977"><ele>602</ele></trkpt>
<trkpt lat="47.78917" lon="11.05039"><ele>602</ele></trkpt>
<trkpt lat="47.78962" lon="11.05196"><ele>596</ele></trkpt>
<trkpt lat="47.78983" lon="11.05256"><ele>597</ele></trkpt>
<trkpt lat="47.79020" lon="11.05335"><ele>596</ele></trkpt>
<trkpt lat="47.79080" lon="11.05432"><ele>596</ele></trkpt>
<trkpt lat="47.79097" lon="11.05473"><ele>594</ele></trkpt>
<trkpt lat="47.79104" lon="11.05499"><ele>594</ele></trkpt>
<trkpt lat="47.79112" lon="11.05548"><ele>594</ele></trkpt>
<trkpt lat="47.79125" lon="11.05595"><ele>593</ele></trkpt>
<trkpt lat="47.79168" lon="11.05719"><ele>593</ele></trkpt>
<trkpt lat="47.79183" lon="11.05756"><ele>592</ele></trkpt>
<trkpt lat="47.79218" lon="11.05824"><ele>592</ele></trkpt>
<trkpt lat="47.79219" lon="11.05853"><ele>592</ele></trkpt>
<trkpt lat="47.79241" lon="11.05866"><ele>592</ele></trkpt>
<trkpt lat="47.79261" lon="11.05892"><ele>591</ele></trkpt>
<trkpt lat="47.79307" lon="11.05928"><ele>590</ele></trkpt>
<trkpt lat="47.79334" lon="11.05943"><ele>591</ele></trkpt>
<trkpt lat="47.79456" lon="11.05968"><ele>590</ele></trkpt>
<trkpt lat="47.79534" lon="11.06009"><ele>591</ele></trkpt>
<trkpt lat="47.79614" lon="11.06033"><ele>590</ele></trkpt>
<trkpt lat="47.79646" lon="11.06040"><ele>590</ele></trkpt>
<trkpt lat="47.79701" lon="11.06038"><ele>590</ele></trkpt>
<trkpt lat="47.79730" lon="11.06050"><ele>589</ele></trkpt>
<trkpt lat="47.79761" lon="11.06070"><ele>589</ele></trkpt>
<trkpt lat="47.79799" lon="11.06101"><ele>589</ele></trkpt>
<trkpt lat="47.79869" lon="11.06178"><ele>588</ele></trkpt>
<trkpt lat="47.79857" lon="11.06209"><ele>588</ele></trkpt>
<trkpt lat="47.79865" lon="11.06225"><ele>587</ele></trkpt>
<trkpt lat="47.79891" lon="11.06307"><ele>586</ele></trkpt>
<trkpt lat="47.79899" lon="11.06302"><ele>586</ele></trkpt>
<trkpt lat="47.79908" lon="11.06321"><ele>586</ele></trkpt>
<trkpt lat="47.79913" lon="11.06323"><ele>586</ele></trkpt>
<trkpt lat="47.79929" lon="11.06347"><ele>586</ele></trkpt>
<trkpt lat="47.79961" lon="11.06419"><ele>586</ele></trkpt>
<trkpt lat="47.79980" lon="11.06475"><ele>585</ele></trkpt>
<trkpt lat="47.80049" lon="11.06445"><ele>585</ele></trkpt>
<trkpt lat="47.80100" lon="11.06477"><ele>585</ele></trkpt>
<trkpt lat="47.80146" lon="11.06486"><ele>585</ele></trkpt>
<trkpt lat="47.80189" lon="11.06517"><ele>585</ele></trkpt>
<trkpt lat="47.80213" lon="11.06550"><ele>584</ele></trkpt>
<trkpt lat="47.80220" lon="11.06569"><ele>584</ele></trkpt>
<trkpt lat="47.80234" lon="11.06643"><ele>584</ele></trkpt>
<trkpt lat="47.80249" lon="11.06695"><ele>584</ele></trkpt>
<trkpt lat="47.80282" lon="11.06768"><ele>583</ele></trkpt>
<trkpt lat="47.80338" lon="11.06855"><ele>583</ele></trkpt>
<trkpt lat="47.80402" lon="11.06966"><ele>582</ele></trkpt>
<trkpt lat="47.80445" lon="11.07074"><ele>582</ele></trkpt>
<trkpt lat="47.80466" lon="11.07170"><ele>581</ele></trkpt>
<trkpt lat="47.80485" lon="11.07202"><ele>582</ele></trkpt>
<trkpt lat="47.80492" lon="11.07207"><ele>581</ele></trkpt>
<trkpt lat="47.80509" lon="11.07206"><ele>581</ele></trkpt>
<trkpt lat="47.80519" lon="11.07196"><ele>582</ele></trkpt>
<trkpt lat="47.80530" lon="11.07219"><ele>581</ele></trkpt>
<trkpt lat="47.80577" lon="11.07292"><ele>581</ele></trkpt>
<trkpt lat="47.80626" lon="11.07422"><ele>581</ele></trkpt>
<trkpt lat="47.80640" lon="11.07482"><ele>581</ele></trkpt>
<trkpt lat="47.80752" lon="11.07411"><ele>580</ele></trkpt>
<trkpt lat="47.80812" lon="11.07402"><ele>581</ele></trkpt>
<trkpt lat="47.80821" lon="11.07406"><ele>581</ele></trkpt>
<trkpt lat="47.80887" lon="11.07490"><ele>584</ele></trkpt>
<trkpt lat="47.80925" lon="11.07576"><ele>582</ele></trkpt>
<trkpt lat="47.80963" lon="11.07653"><ele>580</ele></trkpt>
<trkpt lat="47.81175" lon="11.08020"><ele>580</ele></trkpt>
<trkpt lat="47.81175" lon="11.08051"><ele>578</ele></trkpt>
<trkpt lat="47.81112" lon="11.08225"><ele>577</ele></trkpt>
<trkpt lat="47.81414" lon="11.09020"><ele>574</ele></trkpt>
<trkpt lat="47.81446" lon="11.09147"><ele>574</ele></trkpt>
<trkpt lat="47.81468" lon="11.09234"><ele>573</ele></trkpt>
<trkpt lat="47.81509" lon="11.09435"><ele>572</ele></trkpt>
<trkpt lat="47.81537" lon="11.09534"><ele>572</ele></trkpt>
<trkpt lat="47.81580" lon="11.09784"><ele>571</ele></trkpt>
<trkpt lat="47.81595" lon="11.09830"><ele>570</ele></trkpt>
<trkpt lat="47.81624" lon="11.09885"><ele>570</ele></trkpt>
<trkpt lat="47.81573" lon="11.10008"><ele>569</ele></trkpt>
<trkpt lat="47.81567" lon="11.10034"><ele>569</ele></trkpt>
<trkpt lat="47.81824" lon="11.10279"><ele>567</ele></trkpt>
<trkpt lat="47.81924" lon="11.10448"><ele>566</ele></trkpt>
<trkpt lat="47.81985" lon="11.10528"><ele>565</ele></trkpt>
<trkpt lat="47.81997" lon="11.10536"><ele>566</ele></trkpt>
<trkpt lat="47.82026" lon="11.10543"><ele>566</ele></trkpt>
<trkpt lat="47.82045" lon="11.10553"><ele>566</ele></trkpt>
<trkpt lat="47.82037" lon="11.10583"><ele>566</ele></trkpt>
<trkpt lat="47.81873" lon="11.11041"><ele>566</ele></trkpt>
<trkpt lat="47.81897" lon="11.11058"><ele>567</ele></trkpt>
<trkpt lat="47.81957" lon="11.11077"><ele>567</ele></trkpt>
<trkpt lat="47.81994" lon="11.11099"><ele>566</ele></trkpt>
<trkpt lat="47.81985" lon="11.11124"><ele>566</ele></trkpt>
<trkpt lat="47.81984" lon="11.11151"><ele>565</ele></trkpt>
<trkpt lat="47.81967" lon="11.11176"><ele>565</ele></trkpt>
<trkpt lat="47.81973" lon="11.11188"><ele>565</ele></trkpt>
<trkpt lat="47.81974" lon="11.11211"><ele>565</ele></trkpt>
<trkpt lat="47.81959" lon="11.11297"><ele>567</ele></trkpt>
<trkpt lat="47.81951" lon="11.11459"><ele>567</ele></trkpt>
<trkpt lat="47.81945" lon="11.11500"><ele>567</ele></trkpt>
<trkpt lat="47.81921" lon="11.11558"><ele>567</ele></trkpt>
<trkpt lat="47.81905" lon="11.11579"><ele>566</ele></trkpt>
<trkpt lat="47.81925" lon="11.11729"><ele>565</ele></trkpt>
<trkpt lat="47.81928" lon="11.11728"><ele>564</ele></trkpt>
<trkpt lat="47.81941" lon="11.11789"><ele>565</ele></trkpt>
<trkpt lat="47.81956" lon="11.11898"><ele>564</ele></trkpt>
<trkpt lat="47.81961" lon="11.11953"><ele>565</ele></trkpt>
<trkpt lat="47.81965" lon="11.12083"><ele>565</ele></trkpt>
<trkpt lat="47.81975" lon="11.12220"><ele>566</ele></trkpt>
<trkpt lat="47.81973" lon="11.12369"><ele>566</ele></trkpt>
<trkpt lat="47.81969" lon="11.12380"><ele>566</ele></trkpt>
<trkpt lat="47.81958" lon="11.12477"><ele>566</ele></trkpt>
<trkpt lat="47.81955" lon="11.12553"><ele>568</ele></trkpt>
<trkpt lat="47.81957" lon="11.12720"><ele>566</ele></trkpt>
<trkpt lat="47.81955" lon="11.12858"><ele>564</ele></trkpt>
<trkpt lat="47.82069" lon="11.12847"><ele>562</ele></trkpt>
<trkpt lat="47.82129" lon="11.12855"><ele>563</ele></trkpt>
<trkpt lat="47.82171" lon="11.12856"><ele>563</ele></trkpt>
<trkpt lat="47.82212" lon="11.12852"><ele>563</ele></trkpt>
<trkpt lat="47.82236" lon="11.12918"><ele>562</ele></trkpt>
<trkpt lat="47.82242" lon="11.12923"><ele>562</ele></trkpt>
<trkpt lat="47.82271" lon="11.12928"><ele>562</ele></trkpt>
<trkpt lat="47.82287" lon="11.12922"><ele>562</ele></trkpt>
<trkpt lat="47.82323" lon="11.12866"><ele>562</ele></trkpt>
<trkpt lat="47.82339" lon="11.12847"><ele>562</ele></trkpt>
<trkpt lat="47.82362" lon="11.12831"><ele>562</ele></trkpt>
<trkpt lat="47.82434" lon="11.12794"><ele>562</ele></trkpt>
<trkpt lat="47.82443" lon="11.12794"><ele>562</ele></trkpt>
<trkpt lat="47.82451" lon="11.12799"><ele>562</ele></trkpt>
<trkpt lat="47.82488" lon="11.12875"><ele>561</ele></trkpt>
<trkpt lat="47.82505" lon="11.12900"><ele>562</ele></trkpt>
<trkpt lat="47.82526" lon="11.12926"><ele>561</ele></trkpt>
<trkpt lat="47.82558" lon="11.12942"><ele>562</ele></trkpt>
<trkpt lat="47.82579" lon="11.12966"><ele>563</ele></trkpt>
<trkpt lat="47.82598" lon="11.13011"><ele>560</ele></trkpt>
<trkpt lat="47.82604" lon="11.13034"><ele>561</ele></trkpt>
<trkpt lat="47.82607" lon="11.13054"><ele>561</ele></trkpt>
<trkpt lat="47.82610" lon="11.13158"><ele>561</ele></trkpt>
<trkpt lat="47.82614" lon="11.13181"><ele>561</ele></trkpt>
<trkpt lat="47.82638" lon="11.13258"><ele>561</ele></trkpt>
<trkpt lat="47.82643" lon="11.13300"><ele>561</ele></trkpt>
<trkpt lat="47.82600" lon="11.13895"><ele>561</ele></trkpt>
<trkpt lat="47.82831" lon="11.13941"><ele>561</ele></trkpt>
<trkpt lat="47.83272" lon="11.14070"><ele>563</ele></trkpt>
<trkpt lat="47.83481" lon="11.14137"><ele>563</ele></trkpt>
<trkpt lat="47.83489" lon="11.14136"><ele>563</ele></trkpt>
<trkpt lat="47.83573" lon="11.14159"><ele>564</ele></trkpt>
<trkpt lat="47.83680" lon="11.14199"><ele>564</ele></trkpt>
<trkpt lat="47.83697" lon="11.14211"><ele>564</ele></trkpt>
<trkpt lat="47.83692" lon="11.14217"><ele>564</ele></trkpt>
<trkpt lat="47.83698" lon="11.14227"><ele>564</ele></trkpt>
<trkpt lat="47.83783" lon="11.14269"><ele>565</ele></trkpt>
<trkpt lat="47.83862" lon="11.14278"><ele>563</ele></trkpt>
<trkpt lat="47.83888" lon="11.14275"><ele>563</ele></trkpt>
<trkpt lat="47.83893" lon="11.14261"><ele>563</ele></trkpt>
<trkpt lat="47.83902" lon="11.14268"><ele>563</ele></trkpt>
    </trkseg>
  </trk>
</gpx>
