<?xml version="1.0" encoding="UTF-8"?>
<gpx version="1.1" creator="Gravel Kompass" xmlns="http://www.topografix.com/GPX/1/1">
  <metadata><name>Eichenau – Wieskirche: Lechtal, Pfaffenwinkel &amp; Ammersee – Etappe 1</name></metadata>
  <trk>
    <name>Etappe 1: Eichenau – Schongau</name>
    <trkseg>
<trkpt lat="48.17352" lon="11.27932"><ele>527</ele></trkpt>
<trkpt lat="48.17382" lon="11.28087"><ele>528</ele></trkpt>
<trkpt lat="48.17441" lon="11.28437"><ele>528</ele></trkpt>
<trkpt lat="48.17543" lon="11.28988"><ele>523</ele></trkpt>
<trkpt lat="48.17571" lon="11.28978"><ele>520</ele></trkpt>
<trkpt lat="48.17648" lon="11.28938"><ele>515</ele></trkpt>
<trkpt lat="48.17658" lon="11.28928"><ele>515</ele></trkpt>
<trkpt lat="48.17751" lon="11.28735"><ele>514</ele></trkpt>
<trkpt lat="48.17765" lon="11.28722"><ele>514</ele></trkpt>
<trkpt lat="48.17806" lon="11.28699"><ele>514</ele></trkpt>
<trkpt lat="48.17827" lon="11.28677"><ele>514</ele></trkpt>
<trkpt lat="48.17834" lon="11.28657"><ele>514</ele></trkpt>
<trkpt lat="48.17845" lon="11.28599"><ele>514</ele></trkpt>
<trkpt lat="48.17860" lon="11.28570"><ele>514</ele></trkpt>
<trkpt lat="48.17881" lon="11.28546"><ele>514</ele></trkpt>
<trkpt lat="48.17831" lon="11.28433"><ele>514</ele></trkpt>
<trkpt lat="48.17827" lon="11.28416"><ele>514</ele></trkpt>
<trkpt lat="48.17819" lon="11.28410"><ele>514</ele></trkpt>
<trkpt lat="48.17808" lon="11.28387"><ele>514</ele></trkpt>
<trkpt lat="48.17784" lon="11.28311"><ele>514</ele></trkpt>
<trkpt lat="48.17773" lon="11.28300"><ele>514</ele></trkpt>
<trkpt lat="48.17724" lon="11.28124"><ele>514</ele></trkpt>
<trkpt lat="48.17695" lon="11.28008"><ele>515</ele></trkpt>
<trkpt lat="48.17688" lon="11.27950"><ele>515</ele></trkpt>
<trkpt lat="48.17835" lon="11.27868"><ele>515</ele></trkpt>
<trkpt lat="48.17934" lon="11.27782"><ele>515</ele></trkpt>
<trkpt lat="48.17918" lon="11.27741"><ele>515</ele></trkpt>
<trkpt lat="48.17912" lon="11.27712"><ele>515</ele></trkpt>
<trkpt lat="48.17912" lon="11.27602"><ele>515</ele></trkpt>
<trkpt lat="48.17905" lon="11.27536"><ele>515</ele></trkpt>
<trkpt lat="48.17902" lon="11.27429"><ele>516</ele></trkpt>
<trkpt lat="48.17899" lon="11.27403"><ele>516</ele></trkpt>
<trkpt lat="48.17892" lon="11.27382"><ele>516</ele></trkpt>
<trkpt lat="48.17856" lon="11.27314"><ele>516</ele></trkpt>
<trkpt lat="48.17835" lon="11.27215"><ele>516</ele></trkpt>
<trkpt lat="48.17819" lon="11.27072"><ele>516</ele></trkpt>
<trkpt lat="48.17820" lon="11.26977"><ele>516</ele></trkpt>
<trkpt lat="48.17811" lon="11.26857"><ele>517</ele></trkpt>
<trkpt lat="48.17785" lon="11.26699"><ele>517</ele></trkpt>
<trkpt lat="48.17747" lon="11.26419"><ele>517</ele></trkpt>
<trkpt lat="48.17741" lon="11.26299"><ele>516</ele></trkpt>
<trkpt lat="48.17776" lon="11.26267"><ele>516</ele></trkpt>
<trkpt lat="48.17809" lon="11.26242"><ele>516</ele></trkpt>
<trkpt lat="48.17791" lon="11.26167"><ele>517</ele></trkpt>
<trkpt lat="48.17785" lon="11.26153"><ele>517</ele></trkpt>
<trkpt lat="48.17784" lon="11.26107"><ele>517</ele></trkpt>
<trkpt lat="48.17788" lon="11.26076"><ele>517</ele></trkpt>
<trkpt lat="48.17782" lon="11.25971"><ele>517</ele></trkpt>
<trkpt lat="48.17780" lon="11.25786"><ele>517</ele></trkpt>
<trkpt lat="48.17777" lon="11.25743"><ele>517</ele></trkpt>
<trkpt lat="48.17796" lon="11.25650"><ele>518</ele></trkpt>
<trkpt lat="48.17777" lon="11.25538"><ele>518</ele></trkpt>
<trkpt lat="48.17693" lon="11.25575"><ele>516</ele></trkpt>
<trkpt lat="48.17656" lon="11.25603"><ele>517</ele></trkpt>
<trkpt lat="48.17643" lon="11.25574"><ele>517</ele></trkpt>
<trkpt lat="48.17620" lon="11.25587"><ele>517</ele></trkpt>
<trkpt lat="48.17601" lon="11.25577"><ele>517</ele></trkpt>
<trkpt lat="48.17500" lon="11.25569"><ele>518</ele></trkpt>
<trkpt lat="48.17399" lon="11.25667"><ele>518</ele></trkpt>
<trkpt lat="48.17326" lon="11.25534"><ele>518</ele></trkpt>
<trkpt lat="48.17319" lon="11.25404"><ele>518</ele></trkpt>
<trkpt lat="48.17333" lon="11.25384"><ele>518</ele></trkpt>
<trkpt lat="48.17306" lon="11.25356"><ele>518</ele></trkpt>
<trkpt lat="48.17242" lon="11.25300"><ele>520</ele></trkpt>
<trkpt lat="48.17230" lon="11.25305"><ele>519</ele></trkpt>
<trkpt lat="48.17217" lon="11.25290"><ele>519</ele></trkpt>
<trkpt lat="48.17197" lon="11.25286"><ele>518</ele></trkpt>
<trkpt lat="48.17117" lon="11.25303"><ele>519</ele></trkpt>
<trkpt lat="48.17101" lon="11.25296"><ele>519</ele></trkpt>
<trkpt lat="48.17093" lon="11.25283"><ele>520</ele></trkpt>
<trkpt lat="48.17040" lon="11.25154"><ele>521</ele></trkpt>
<trkpt lat="48.17008" lon="11.25086"><ele>522</ele></trkpt>
<trkpt lat="48.16987" lon="11.25031"><ele>522</ele></trkpt>
<trkpt lat="48.16966" lon="11.25015"><ele>522</ele></trkpt>
<trkpt lat="48.16952" lon="11.24952"><ele>522</ele></trkpt>
<trkpt lat="48.16898" lon="11.24975"><ele>527</ele></trkpt>
<trkpt lat="48.16894" lon="11.24973"><ele>528</ele></trkpt>
<trkpt lat="48.16872" lon="11.24879"><ele>525</ele></trkpt>
<trkpt lat="48.16839" lon="11.24821"><ele>522</ele></trkpt>
<trkpt lat="48.16820" lon="11.24829"><ele>525</ele></trkpt>
<trkpt lat="48.16773" lon="11.24823"><ele>530</ele></trkpt>
<trkpt lat="48.16686" lon="11.24720"><ele>525</ele></trkpt>
<trkpt lat="48.16647" lon="11.24667"><ele>525</ele></trkpt>
<trkpt lat="48.16539" lon="11.24573"><ele>530</ele></trkpt>
<trkpt lat="48.16430" lon="11.24444"><ele>528</ele></trkpt>
<trkpt lat="48.16384" lon="11.24384"><ele>528</ele></trkpt>
<trkpt lat="48.16303" lon="11.24232"><ele>526</ele></trkpt>
<trkpt lat="48.16293" lon="11.24220"><ele>526</ele></trkpt>
<trkpt lat="48.16242" lon="11.24190"><ele>527</ele></trkpt>
<trkpt lat="48.16211" lon="11.24148"><ele>527</ele></trkpt>
<trkpt lat="48.16106" lon="11.24079"><ele>525</ele></trkpt>
<trkpt lat="48.16027" lon="11.24038"><ele>528</ele></trkpt>
<trkpt lat="48.15951" lon="11.24015"><ele>530</ele></trkpt>
<trkpt lat="48.15932" lon="11.24003"><ele>530</ele></trkpt>
<trkpt lat="48.15880" lon="11.23903"><ele>529</ele></trkpt>
<trkpt lat="48.15864" lon="11.23879"><ele>529</ele></trkpt>
<trkpt lat="48.15814" lon="11.23825"><ele>530</ele></trkpt>
<trkpt lat="48.15791" lon="11.23791"><ele>530</ele></trkpt>
<trkpt lat="48.15758" lon="11.23733"><ele>531</ele></trkpt>
<trkpt lat="48.15615" lon="11.23445"><ele>529</ele></trkpt>
<trkpt lat="48.15528" lon="11.23298"><ele>526</ele></trkpt>
<trkpt lat="48.15498" lon="11.23269"><ele>528</ele></trkpt>
<trkpt lat="48.15485" lon="11.23236"><ele>526</ele></trkpt>
<trkpt lat="48.15412" lon="11.23115"><ele>525</ele></trkpt>
<trkpt lat="48.15346" lon="11.22972"><ele>526</ele></trkpt>
<trkpt lat="48.15324" lon="11.22910"><ele>524</ele></trkpt>
<trkpt lat="48.15282" lon="11.22852"><ele>524</ele></trkpt>
<trkpt lat="48.15082" lon="11.22492"><ele>524</ele></trkpt>
<trkpt lat="48.14837" lon="11.22133"><ele>525</ele></trkpt>
<trkpt lat="48.14565" lon="11.21886"><ele>527</ele></trkpt>
<trkpt lat="48.14531" lon="11.21863"><ele>527</ele></trkpt>
<trkpt lat="48.14245" lon="11.21722"><ele>528</ele></trkpt>
<trkpt lat="48.14163" lon="11.21720"><ele>528</ele></trkpt>
<trkpt lat="48.14110" lon="11.21737"><ele>527</ele></trkpt>
<trkpt lat="48.14055" lon="11.21744"><ele>528</ele></trkpt>
<trkpt lat="48.13974" lon="11.21775"><ele>529</ele></trkpt>
<trkpt lat="48.13878" lon="11.21802"><ele>530</ele></trkpt>
<trkpt lat="48.13852" lon="11.21797"><ele>531</ele></trkpt>
<trkpt lat="48.13808" lon="11.21777"><ele>532</ele></trkpt>
<trkpt lat="48.13715" lon="11.21771"><ele>534</ele></trkpt>
<trkpt lat="48.13641" lon="11.21742"><ele>536</ele></trkpt>
<trkpt lat="48.13613" lon="11.21740"><ele>538</ele></trkpt>
<trkpt lat="48.13587" lon="11.21701"><ele>536</ele></trkpt>
<trkpt lat="48.13575" lon="11.21673"><ele>534</ele></trkpt>
<trkpt lat="48.13542" lon="11.21557"><ele>532</ele></trkpt>
<trkpt lat="48.13569" lon="11.21530"><ele>530</ele></trkpt>
<trkpt lat="48.13585" lon="11.21505"><ele>529</ele></trkpt>
<trkpt lat="48.13580" lon="11.21489"><ele>528</ele></trkpt>
<trkpt lat="48.13575" lon="11.21449"><ele>527</ele></trkpt>
<trkpt lat="48.13571" lon="11.21367"><ele>528</ele></trkpt>
<trkpt lat="48.13558" lon="11.21322"><ele>528</ele></trkpt>
<trkpt lat="48.13550" lon="11.21272"><ele>528</ele></trkpt>
<trkpt lat="48.13533" lon="11.21101"><ele>528</ele></trkpt>
<trkpt lat="48.13532" lon="11.21073"><ele>528</ele></trkpt>
<trkpt lat="48.13534" lon="11.21035"><ele>528</ele></trkpt>
<trkpt lat="48.13545" lon="11.20966"><ele>528</ele></trkpt>
<trkpt lat="48.13563" lon="11.20880"><ele>529</ele></trkpt>
<trkpt lat="48.13599" lon="11.20886"><ele>530</ele></trkpt>
<trkpt lat="48.13642" lon="11.20904"><ele>528</ele></trkpt>
<trkpt lat="48.13663" lon="11.20899"><ele>528</ele></trkpt>
<trkpt lat="48.13689" lon="11.20879"><ele>529</ele></trkpt>
<trkpt lat="48.13716" lon="11.20848"><ele>529</ele></trkpt>
<trkpt lat="48.13758" lon="11.20757"><ele>529</ele></trkpt>
<trkpt lat="48.13776" lon="11.20728"><ele>529</ele></trkpt>
<trkpt lat="48.13823" lon="11.20688"><ele>532</ele></trkpt>
<trkpt lat="48.13876" lon="11.20630"><ele>534</ele></trkpt>
<trkpt lat="48.13934" lon="11.20574"><ele>534</ele></trkpt>
<trkpt lat="48.14044" lon="11.20424"><ele>534</ele></trkpt>
<trkpt lat="48.14106" lon="11.20300"><ele>534</ele></trkpt>
<trkpt lat="48.14154" lon="11.20156"><ele>534</ele></trkpt>
<trkpt lat="48.14281" lon="11.19860"><ele>538</ele></trkpt>
<trkpt lat="48.14386" lon="11.19676"><ele>545</ele></trkpt>
<trkpt lat="48.14459" lon="11.19525"><ele>545</ele></trkpt>
<trkpt lat="48.14455" lon="11.19520"><ele>545</ele></trkpt>
<trkpt lat="48.14445" lon="11.19440"><ele>546</ele></trkpt>
<trkpt lat="48.14382" lon="11.18825"><ele>551</ele></trkpt>
<trkpt lat="48.14366" lon="11.18791"><ele>551</ele></trkpt>
<trkpt lat="48.14250" lon="11.18630"><ele>552</ele></trkpt>
<trkpt lat="48.14133" lon="11.18511"><ele>554</ele></trkpt>
<trkpt lat="48.14043" lon="11.18476"><ele>553</ele></trkpt>
<trkpt lat="48.13992" lon="11.18479"><ele>554</ele></trkpt>
<trkpt lat="48.13773" lon="11.18412"><ele>555</ele></trkpt>
<trkpt lat="48.13740" lon="11.18393"><ele>555</ele></trkpt>
<trkpt lat="48.13735" lon="11.18364"><ele>554</ele></trkpt>
<trkpt lat="48.13699" lon="11.17939"><ele>557</ele></trkpt>
<trkpt lat="48.13682" lon="11.17802"><ele>557</ele></trkpt>
<trkpt lat="48.13687" lon="11.17772"><ele>557</ele></trkpt>
<trkpt lat="48.13714" lon="11.17676"><ele>558</ele></trkpt>
<trkpt lat="48.13736" lon="11.17613"><ele>558</ele></trkpt>
<trkpt lat="48.13800" lon="11.17450"><ele>556</ele></trkpt>
<trkpt lat="48.13855" lon="11.17259"><ele>556</ele></trkpt>
<trkpt lat="48.13861" lon="11.17092"><ele>558</ele></trkpt>
<trkpt lat="48.13853" lon="11.17075"><ele>558</ele></trkpt>
<trkpt lat="48.13842" lon="11.17031"><ele>560</ele></trkpt>
<trkpt lat="48.13894" lon="11.16977"><ele>559</ele></trkpt>
<trkpt lat="48.13944" lon="11.16938"><ele>558</ele></trkpt>
<trkpt lat="48.14003" lon="11.16864"><ele>558</ele></trkpt>
<trkpt lat="48.14036" lon="11.16810"><ele>558</ele></trkpt>
<trkpt lat="48.14059" lon="11.16748"><ele>559</ele></trkpt>
<trkpt lat="48.14142" lon="11.16469"><ele>560</ele></trkpt>
<trkpt lat="48.14154" lon="11.16404"><ele>561</ele></trkpt>
<trkpt lat="48.14152" lon="11.16347"><ele>561</ele></trkpt>
<trkpt lat="48.14109" lon="11.16237"><ele>561</ele></trkpt>
<trkpt lat="48.14057" lon="11.16190"><ele>562</ele></trkpt>
<trkpt lat="48.14014" lon="11.16171"><ele>562</ele></trkpt>
<trkpt lat="48.13947" lon="11.16169"><ele>563</ele></trkpt>
<trkpt lat="48.13916" lon="11.16177"><ele>562</ele></trkpt>
<trkpt lat="48.13905" lon="11.16116"><ele>560</ele></trkpt>
<trkpt lat="48.13907" lon="11.16095"><ele>558</ele></trkpt>
<trkpt lat="48.13896" lon="11.16057"><ele>560</ele></trkpt>
<trkpt lat="48.13884" lon="11.15978"><ele>561</ele></trkpt>
<trkpt lat="48.13866" lon="11.15936"><ele>562</ele></trkpt>
<trkpt lat="48.13832" lon="11.15870"><ele>563</ele></trkpt>
<trkpt lat="48.13794" lon="11.15813"><ele>564</ele></trkpt>
<trkpt lat="48.13761" lon="11.15754"><ele>566</ele></trkpt>
<trkpt lat="48.13738" lon="11.15723"><ele>566</ele></trkpt>
<trkpt lat="48.13728" lon="11.15681"><ele>567</ele></trkpt>
<trkpt lat="48.13721" lon="11.15672"><ele>567</ele></trkpt>
<trkpt lat="48.13698" lon="11.15656"><ele>568</ele></trkpt>
<trkpt lat="48.13614" lon="11.15567"><ele>570</ele></trkpt>
<trkpt lat="48.13581" lon="11.15581"><ele>568</ele></trkpt>
<trkpt lat="48.13583" lon="11.15558"><ele>568</ele></trkpt>
<trkpt lat="48.13546" lon="11.15481"><ele>567</ele></trkpt>
<trkpt lat="48.13520" lon="11.15450"><ele>565</ele></trkpt>
<trkpt lat="48.13495" lon="11.15429"><ele>566</ele></trkpt>
<trkpt lat="48.13447" lon="11.15424"><ele>564</ele></trkpt>
<trkpt lat="48.13425" lon="11.15406"><ele>566</ele></trkpt>
<trkpt lat="48.13361" lon="11.15406"><ele>566</ele></trkpt>
<trkpt lat="48.13350" lon="11.15402"><ele>565</ele></trkpt>
<trkpt lat="48.13336" lon="11.15386"><ele>565</ele></trkpt>
<trkpt lat="48.13328" lon="11.15367"><ele>565</ele></trkpt>
<trkpt lat="48.13327" lon="11.15316"><ele>567</ele></trkpt>
<trkpt lat="48.13322" lon="11.15288"><ele>568</ele></trkpt>
<trkpt lat="48.13255" lon="11.15133"><ele>569</ele></trkpt>
<trkpt lat="48.13248" lon="11.15123"><ele>569</ele></trkpt>
<trkpt lat="48.13234" lon="11.15119"><ele>569</ele></trkpt>
<trkpt lat="48.13215" lon="11.15122"><ele>568</ele></trkpt>
<trkpt lat="48.13173" lon="11.15144"><ele>567</ele></trkpt>
<trkpt lat="48.13129" lon="11.15048"><ele>566</ele></trkpt>
<trkpt lat="48.13118" lon="11.15003"><ele>564</ele></trkpt>
<trkpt lat="48.13100" lon="11.15013"><ele>565</ele></trkpt>
<trkpt lat="48.13092" lon="11.14991"><ele>566</ele></trkpt>
<trkpt lat="48.13079" lon="11.14968"><ele>565</ele></trkpt>
<trkpt lat="48.12893" lon="11.14516"><ele>569</ele></trkpt>
<trkpt lat="48.12839" lon="11.14371"><ele>572</ele></trkpt>
<trkpt lat="48.12818" lon="11.14292"><ele>574</ele></trkpt>
<trkpt lat="48.12821" lon="11.14065"><ele>584</ele></trkpt>
<trkpt lat="48.12813" lon="11.13994"><ele>584</ele></trkpt>
<trkpt lat="48.12816" lon="11.13976"><ele>585</ele></trkpt>
<trkpt lat="48.12832" lon="11.13942"><ele>586</ele></trkpt>
<trkpt lat="48.12839" lon="11.13916"><ele>586</ele></trkpt>
<trkpt lat="48.12750" lon="11.13701"><ele>586</ele></trkpt>
<trkpt lat="48.12698" lon="11.13507"><ele>588</ele></trkpt>
<trkpt lat="48.12683" lon="11.13466"><ele>588</ele></trkpt>
<trkpt lat="48.12605" lon="11.13393"><ele>580</ele></trkpt>
<trkpt lat="48.12594" lon="11.13372"><ele>579</ele></trkpt>
<trkpt lat="48.12583" lon="11.13336"><ele>579</ele></trkpt>
<trkpt lat="48.12582" lon="11.13278"><ele>579</ele></trkpt>
<trkpt lat="48.12570" lon="11.13219"><ele>579</ele></trkpt>
<trkpt lat="48.12579" lon="11.13212"><ele>579</ele></trkpt>
<trkpt lat="48.12599" lon="11.13156"><ele>576</ele></trkpt>
<trkpt lat="48.12624" lon="11.13104"><ele>575</ele></trkpt>
<trkpt lat="48.12613" lon="11.13069"><ele>574</ele></trkpt>
<trkpt lat="48.12587" lon="11.13026"><ele>574</ele></trkpt>
<trkpt lat="48.12583" lon="11.13011"><ele>574</ele></trkpt>
<trkpt lat="48.12583" lon="11.12983"><ele>574</ele></trkpt>
<trkpt lat="48.12602" lon="11.12821"><ele>575</ele></trkpt>
<trkpt lat="48.12614" lon="11.12658"><ele>574</ele></trkpt>
<trkpt lat="48.12611" lon="11.12497"><ele>580</ele></trkpt>
<trkpt lat="48.12600" lon="11.12385"><ele>581</ele></trkpt>
<trkpt lat="48.12590" lon="11.12328"><ele>580</ele></trkpt>
<trkpt lat="48.12565" lon="11.12224"><ele>578</ele></trkpt>
<trkpt lat="48.12546" lon="11.12158"><ele>579</ele></trkpt>
<trkpt lat="48.12495" lon="11.12022"><ele>579</ele></trkpt>
<trkpt lat="48.12452" lon="11.11935"><ele>582</ele></trkpt>
<trkpt lat="48.12437" lon="11.11890"><ele>583</ele></trkpt>
<trkpt lat="48.12418" lon="11.11854"><ele>585</ele></trkpt>
<trkpt lat="48.12378" lon="11.11806"><ele>584</ele></trkpt>
<trkpt lat="48.12340" lon="11.11778"><ele>582</ele></trkpt>
<trkpt lat="48.12261" lon="11.11704"><ele>580</ele></trkpt>
<trkpt lat="48.12079" lon="11.11572"><ele>581</ele></trkpt>
<trkpt lat="48.12024" lon="11.11520"><ele>579</ele></trkpt>
<trkpt lat="48.11939" lon="11.11466"><ele>583</ele></trkpt>
<trkpt lat="48.11925" lon="11.11443"><ele>585</ele></trkpt>
<trkpt lat="48.11908" lon="11.11396"><ele>587</ele></trkpt>
<trkpt lat="48.11872" lon="11.11402"><ele>586</ele></trkpt>
<trkpt lat="48.11816" lon="11.11350"><ele>585</ele></trkpt>
<trkpt lat="48.11795" lon="11.11320"><ele>585</ele></trkpt>
<trkpt lat="48.11772" lon="11.11271"><ele>583</ele></trkpt>
<trkpt lat="48.11751" lon="11.11239"><ele>584</ele></trkpt>
<trkpt lat="48.11725" lon="11.11206"><ele>585</ele></trkpt>
<trkpt lat="48.11714" lon="11.11183"><ele>585</ele></trkpt>
<trkpt lat="48.11714" lon="11.11171"><ele>585</ele></trkpt>
<trkpt lat="48.11827" lon="11.10811"><ele>596</ele></trkpt>
<trkpt lat="48.11792" lon="11.10633"><ele>596</ele></trkpt>
<trkpt lat="48.11749" lon="11.10565"><ele>593</ele></trkpt>
<trkpt lat="48.11739" lon="11.10501"><ele>592</ele></trkpt>
<trkpt lat="48.11716" lon="11.10453"><ele>592</ele></trkpt>
<trkpt lat="48.11682" lon="11.10420"><ele>591</ele></trkpt>
<trkpt lat="48.11664" lon="11.10390"><ele>589</ele></trkpt>
<trkpt lat="48.11646" lon="11.10329"><ele>587</ele></trkpt>
<trkpt lat="48.11607" lon="11.10246"><ele>584</ele></trkpt>
<trkpt lat="48.11608" lon="11.10159"><ele>584</ele></trkpt>
<trkpt lat="48.11594" lon="11.10098"><ele>584</ele></trkpt>
<trkpt lat="48.11552" lon="11.09863"><ele>591</ele></trkpt>
<trkpt lat="48.11532" lon="11.09519"><ele>592</ele></trkpt>
<trkpt lat="48.11532" lon="11.09376"><ele>592</ele></trkpt>
<trkpt lat="48.11329" lon="11.09489"><ele>587</ele></trkpt>
<trkpt lat="48.11319" lon="11.09496"><ele>588</ele></trkpt>
<trkpt lat="48.11296" lon="11.09527"><ele>588</ele></trkpt>
<trkpt lat="48.11120" lon="11.09304"><ele>592</ele></trkpt>
<trkpt lat="48.11090" lon="11.09270"><ele>593</ele></trkpt>
<trkpt lat="48.10883" lon="11.09055"><ele>599</ele></trkpt>
<trkpt lat="48.10836" lon="11.09021"><ele>599</ele></trkpt>
<trkpt lat="48.10819" lon="11.09000"><ele>599</ele></trkpt>
<trkpt lat="48.10770" lon="11.08917"><ele>600</ele></trkpt>
<trkpt lat="48.10740" lon="11.08890"><ele>600</ele></trkpt>
<trkpt lat="48.10729" lon="11.08873"><ele>598</ele></trkpt>
<trkpt lat="48.10701" lon="11.08816"><ele>597</ele></trkpt>
<trkpt lat="48.10593" lon="11.08561"><ele>599</ele></trkpt>
<trkpt lat="48.10545" lon="11.08424"><ele>600</ele></trkpt>
<trkpt lat="48.10528" lon="11.08356"><ele>604</ele></trkpt>
<trkpt lat="48.10518" lon="11.08259"><ele>599</ele></trkpt>
<trkpt lat="48.10501" lon="11.08159"><ele>600</ele></trkpt>
<trkpt lat="48.10484" lon="11.07968"><ele>600</ele></trkpt>
<trkpt lat="48.10455" lon="11.07758"><ele>600</ele></trkpt>
<trkpt lat="48.10445" lon="11.07698"><ele>599</ele></trkpt>
<trkpt lat="48.10449" lon="11.07664"><ele>599</ele></trkpt>
<trkpt lat="48.10430" lon="11.07494"><ele>599</ele></trkpt>
<trkpt lat="48.10401" lon="11.07348"><ele>598</ele></trkpt>
<trkpt lat="48.10395" lon="11.07303"><ele>599</ele></trkpt>
<trkpt lat="48.10384" lon="11.07171"><ele>599</ele></trkpt>
<trkpt lat="48.10368" lon="11.06923"><ele>598</ele></trkpt>
<trkpt lat="48.10355" lon="11.06651"><ele>599</ele></trkpt>
<trkpt lat="48.10361" lon="11.06465"><ele>599</ele></trkpt>
<trkpt lat="48.10401" lon="11.05919"><ele>602</ele></trkpt>
<trkpt lat="48.10430" lon="11.05601"><ele>600</ele></trkpt>
<trkpt lat="48.10430" lon="11.05507"><ele>600</ele></trkpt>
<trkpt lat="48.10435" lon="11.05411"><ele>601</ele></trkpt>
<trkpt lat="48.10461" lon="11.05237"><ele>599</ele></trkpt>
<trkpt lat="48.10510" lon="11.04593"><ele>594</ele></trkpt>
<trkpt lat="48.10527" lon="11.04480"><ele>594</ele></trkpt>
<trkpt lat="48.10497" lon="11.04473"><ele>592</ele></trkpt>
<trkpt lat="48.10055" lon="11.04472"><ele>595</ele></trkpt>
<trkpt lat="48.10020" lon="11.04122"><ele>597</ele></trkpt>
<trkpt lat="48.10010" lon="11.03990"><ele>595</ele></trkpt>
<trkpt lat="48.09996" lon="11.03898"><ele>595</ele></trkpt>
<trkpt lat="48.09630" lon="11.04063"><ele>591</ele></trkpt>
<trkpt lat="48.09619" lon="11.04064"><ele>592</ele></trkpt>
<trkpt lat="48.09609" lon="11.04050"><ele>591</ele></trkpt>
<trkpt lat="48.09589" lon="11.04002"><ele>590</ele></trkpt>
<trkpt lat="48.09579" lon="11.03986"><ele>590</ele></trkpt>
<trkpt lat="48.09541" lon="11.03985"><ele>590</ele></trkpt>
<trkpt lat="48.09454" lon="11.03969"><ele>586</ele></trkpt>
<trkpt lat="48.09414" lon="11.03950"><ele>583</ele></trkpt>
<trkpt lat="48.09385" lon="11.03919"><ele>582</ele></trkpt>
<trkpt lat="48.09361" lon="11.03913"><ele>583</ele></trkpt>
<trkpt lat="48.09338" lon="11.03911"><ele>584</ele></trkpt>
<trkpt lat="48.09313" lon="11.03919"><ele>582</ele></trkpt>
<trkpt lat="48.09304" lon="11.03927"><ele>581</ele></trkpt>
<trkpt lat="48.09291" lon="11.03917"><ele>581</ele></trkpt>
<trkpt lat="48.09239" lon="11.03905"><ele>581</ele></trkpt>
<trkpt lat="48.09219" lon="11.03890"><ele>582</ele></trkpt>
<trkpt lat="48.09184" lon="11.03835"><ele>582</ele></trkpt>
<trkpt lat="48.09155" lon="11.03770"><ele>584</ele></trkpt>
<trkpt lat="48.09149" lon="11.03731"><ele>585</ele></trkpt>
<trkpt lat="48.09150" lon="11.03694"><ele>585</ele></trkpt>
<trkpt lat="48.09166" lon="11.03647"><ele>585</ele></trkpt>
<trkpt lat="48.09181" lon="11.03585"><ele>586</ele></trkpt>
<trkpt lat="48.09191" lon="11.03527"><ele>588</ele></trkpt>
<trkpt lat="48.09218" lon="11.03472"><ele>592</ele></trkpt>
<trkpt lat="48.09233" lon="11.03429"><ele>592</ele></trkpt>
<trkpt lat="48.09237" lon="11.03412"><ele>592</ele></trkpt>
<trkpt lat="48.09235" lon="11.03364"><ele>591</ele></trkpt>
<trkpt lat="48.09226" lon="11.03320"><ele>592</ele></trkpt>
<trkpt lat="48.09217" lon="11.03290"><ele>593</ele></trkpt>
<trkpt lat="48.09202" lon="11.03257"><ele>594</ele></trkpt>
<trkpt lat="48.09169" lon="11.03205"><ele>593</ele></trkpt>
<trkpt lat="48.09158" lon="11.03171"><ele>592</ele></trkpt>
<trkpt lat="48.09110" lon="11.02956"><ele>595</ele></trkpt>
<trkpt lat="48.09066" lon="11.02783"><ele>594</ele></trkpt>
<trkpt lat="48.09055" lon="11.02683"><ele>595</ele></trkpt>
<trkpt lat="48.09052" lon="11.02576"><ele>597</ele></trkpt>
<trkpt lat="48.09049" lon="11.02549"><ele>596</ele></trkpt>
<trkpt lat="48.09020" lon="11.02467"><ele>599</ele></trkpt>
<trkpt lat="48.09014" lon="11.02437"><ele>600</ele></trkpt>
<trkpt lat="48.08986" lon="11.02412"><ele>600</ele></trkpt>
<trkpt lat="48.08945" lon="11.02369"><ele>601</ele></trkpt>
<trkpt lat="48.08878" lon="11.02290"><ele>602</ele></trkpt>
<trkpt lat="48.08895" lon="11.02273"><ele>602</ele></trkpt>
<trkpt lat="48.08905" lon="11.02257"><ele>601</ele></trkpt>
<trkpt lat="48.08895" lon="11.02226"><ele>602</ele></trkpt>
<trkpt lat="48.08887" lon="11.02208"><ele>602</ele></trkpt>
<trkpt lat="48.08846" lon="11.02150"><ele>602</ele></trkpt>
<trkpt lat="48.08804" lon="11.02096"><ele>602</ele></trkpt>
<trkpt lat="48.08884" lon="11.01737"><ele>600</ele></trkpt>
<trkpt lat="48.08625" lon="11.01604"><ele>602</ele></trkpt>
<trkpt lat="48.08595" lon="11.01268"><ele>610</ele></trkpt>
<trkpt lat="48.08467" lon="11.01003"><ele>628</ele></trkpt>
<trkpt lat="48.08432" lon="11.00951"><ele>631</ele></trkpt>
<trkpt lat="48.08402" lon="11.00866"><ele>636</ele></trkpt>
<trkpt lat="48.08368" lon="11.00807"><ele>641</ele></trkpt>
<trkpt lat="48.08341" lon="11.00737"><ele>641</ele></trkpt>
<trkpt lat="48.08316" lon="11.00621"><ele>641</ele></trkpt>
<trkpt lat="48.08314" lon="11.00368"><ele>634</ele></trkpt>
<trkpt lat="48.08361" lon="11.00232"><ele>631</ele></trkpt>
<trkpt lat="48.08384" lon="11.00149"><ele>629</ele></trkpt>
<trkpt lat="48.08384" lon="11.00140"><ele>629</ele></trkpt>
<trkpt lat="48.08369" lon="11.00025"><ele>628</ele></trkpt>
<trkpt lat="48.08339" lon="10.99971"><ele>627</ele></trkpt>
<trkpt lat="48.08306" lon="10.99892"><ele>624</ele></trkpt>
<trkpt lat="48.08297" lon="10.99858"><ele>621</ele></trkpt>
<trkpt lat="48.08301" lon="10.99813"><ele>619</ele></trkpt>
<trkpt lat="48.08362" lon="10.99494"><ele>615</ele></trkpt>
<trkpt lat="48.08367" lon="10.99436"><ele>614</ele></trkpt>
<trkpt lat="48.08366" lon="10.99409"><ele>614</ele></trkpt>
<trkpt lat="48.08277" lon="10.99049"><ele>612</ele></trkpt>
<trkpt lat="48.08207" lon="10.98705"><ele>619</ele></trkpt>
<trkpt lat="48.08183" lon="10.98658"><ele>619</ele></trkpt>
<trkpt lat="48.08182" lon="10.98612"><ele>618</ele></trkpt>
<trkpt lat="48.08201" lon="10.98561"><ele>618</ele></trkpt>
<trkpt lat="48.08218" lon="10.98463"><ele>618</ele></trkpt>
<trkpt lat="48.08231" lon="10.98434"><ele>617</ele></trkpt>
<trkpt lat="48.08263" lon="10.98390"><ele>618</ele></trkpt>
<trkpt lat="48.08291" lon="10.98327"><ele>616</ele></trkpt>
<trkpt lat="48.08308" lon="10.98157"><ele>615</ele></trkpt>
<trkpt lat="48.08324" lon="10.98083"><ele>615</ele></trkpt>
<trkpt lat="48.08338" lon="10.97906"><ele>613</ele></trkpt>
<trkpt lat="48.08336" lon="10.97810"><ele>613</ele></trkpt>
<trkpt lat="48.08286" lon="10.97551"><ele>612</ele></trkpt>
<trkpt lat="48.08263" lon="10.97470"><ele>612</ele></trkpt>
<trkpt lat="48.08234" lon="10.97385"><ele>612</ele></trkpt>
<trkpt lat="48.08221" lon="10.97164"><ele>612</ele></trkpt>
<trkpt lat="48.08215" lon="10.97128"><ele>611</ele></trkpt>
<trkpt lat="48.08201" lon="10.97098"><ele>611</ele></trkpt>
<trkpt lat="48.08192" lon="10.97057"><ele>611</ele></trkpt>
<trkpt lat="48.08180" lon="10.96844"><ele>614</ele></trkpt>
<trkpt lat="48.08174" lon="10.96787"><ele>615</ele></trkpt>
<trkpt lat="48.08186" lon="10.96602"><ele>616</ele></trkpt>
<trkpt lat="48.08183" lon="10.96569"><ele>616</ele></trkpt>
<trkpt lat="48.08170" lon="10.96515"><ele>614</ele></trkpt>
<trkpt lat="48.08146" lon="10.96448"><ele>614</ele></trkpt>
<trkpt lat="48.08114" lon="10.96409"><ele>613</ele></trkpt>
<trkpt lat="48.07944" lon="10.96235"><ele>614</ele></trkpt>
<trkpt lat="48.07904" lon="10.96156"><ele>614</ele></trkpt>
<trkpt lat="48.07889" lon="10.96107"><ele>613</ele></trkpt>
<trkpt lat="48.07879" lon="10.96020"><ele>612</ele></trkpt>
<trkpt lat="48.07878" lon="10.95923"><ele>613</ele></trkpt>
<trkpt lat="48.07867" lon="10.95809"><ele>614</ele></trkpt>
<trkpt lat="48.07858" lon="10.95771"><ele>614</ele></trkpt>
<trkpt lat="48.07796" lon="10.95564"><ele>613</ele></trkpt>
<trkpt lat="48.07772" lon="10.95425"><ele>612</ele></trkpt>
<trkpt lat="48.07749" lon="10.95344"><ele>609</ele></trkpt>
<trkpt lat="48.07737" lon="10.95321"><ele>608</ele></trkpt>
<trkpt lat="48.07720" lon="10.95299"><ele>606</ele></trkpt>
<trkpt lat="48.07664" lon="10.95249"><ele>605</ele></trkpt>
<trkpt lat="48.07565" lon="10.95133"><ele>604</ele></trkpt>
<trkpt lat="48.07545" lon="10.95085"><ele>604</ele></trkpt>
<trkpt lat="48.07502" lon="10.94940"><ele>604</ele></trkpt>
<trkpt lat="48.07399" lon="10.94116"><ele>604</ele></trkpt>
<trkpt lat="48.07366" lon="10.93554"><ele>604</ele></trkpt>
<trkpt lat="48.07333" lon="10.93171"><ele>603</ele></trkpt>
<trkpt lat="48.07317" lon="10.93146"><ele>603</ele></trkpt>
<trkpt lat="48.07305" lon="10.93167"><ele>603</ele></trkpt>
<trkpt lat="48.07287" lon="10.93149"><ele>604</ele></trkpt>
<trkpt lat="48.07251" lon="10.93023"><ele>604</ele></trkpt>
<trkpt lat="48.07190" lon="10.92729"><ele>611</ele></trkpt>
<trkpt lat="48.07174" lon="10.92643"><ele>616</ele></trkpt>
<trkpt lat="48.07142" lon="10.92433"><ele>622</ele></trkpt>
<trkpt lat="48.07076" lon="10.92471"><ele>623</ele></trkpt>
<trkpt lat="48.07041" lon="10.92477"><ele>623</ele></trkpt>
<trkpt lat="48.07024" lon="10.92381"><ele>621</ele></trkpt>
<trkpt lat="48.07014" lon="10.92366"><ele>620</ele></trkpt>
<trkpt lat="48.06931" lon="10.92287"><ele>619</ele></trkpt>
<trkpt lat="48.06921" lon="10.92267"><ele>619</ele></trkpt>
<trkpt lat="48.06878" lon="10.92217"><ele>618</ele></trkpt>
<trkpt lat="48.06875" lon="10.92208"><ele>619</ele></trkpt>
<trkpt lat="48.06876" lon="10.92192"><ele>619</ele></trkpt>
<trkpt lat="48.06918" lon="10.92102"><ele>618</ele></trkpt>
<trkpt lat="48.06920" lon="10.92090"><ele>618</ele></trkpt>
<trkpt lat="48.06918" lon="10.92070"><ele>618</ele></trkpt>
<trkpt lat="48.06910" lon="10.92050"><ele>618</ele></trkpt>
<trkpt lat="48.06842" lon="10.91986"><ele>616</ele></trkpt>
<trkpt lat="48.06818" lon="10.91953"><ele>616</ele></trkpt>
<trkpt lat="48.06816" lon="10.91947"><ele>616</ele></trkpt>
<trkpt lat="48.06819" lon="10.91936"><ele>616</ele></trkpt>
<trkpt lat="48.06825" lon="10.91934"><ele>616</ele></trkpt>
<trkpt lat="48.06826" lon="10.91915"><ele>617</ele></trkpt>
<trkpt lat="48.06818" lon="10.91878"><ele>617</ele></trkpt>
<trkpt lat="48.06808" lon="10.91735"><ele>616</ele></trkpt>
<trkpt lat="48.06792" lon="10.91587"><ele>618</ele></trkpt>
<trkpt lat="48.06789" lon="10.91460"><ele>620</ele></trkpt>
<trkpt lat="48.06789" lon="10.91289"><ele>621</ele></trkpt>
<trkpt lat="48.06797" lon="10.90929"><ele>619</ele></trkpt>
<trkpt lat="48.06790" lon="10.90899"><ele>620</ele></trkpt>
<trkpt lat="48.06636" lon="10.90495"><ele>620</ele></trkpt>
<trkpt lat="48.06578" lon="10.90280"><ele>621</ele></trkpt>
<trkpt lat="48.06535" lon="10.90068"><ele>620</ele></trkpt>
<trkpt lat="48.06195" lon="10.90081"><ele>624</ele></trkpt>
<trkpt lat="48.06136" lon="10.89739"><ele>622</ele></trkpt>
<trkpt lat="48.06083" lon="10.89405"><ele>625</ele></trkpt>
<trkpt lat="48.05891" lon="10.89418"><ele>625</ele></trkpt>
<trkpt lat="48.05619" lon="10.89422"><ele>624</ele></trkpt>
<trkpt lat="48.05610" lon="10.89415"><ele>624</ele></trkpt>
<trkpt lat="48.05447" lon="10.89422"><ele>626</ele></trkpt>
<trkpt lat="48.05442" lon="10.88955"><ele>627</ele></trkpt>
<trkpt lat="48.05418" lon="10.88933"><ele>628</ele></trkpt>
<trkpt lat="48.05416" lon="10.88916"><ele>628</ele></trkpt>
<trkpt lat="48.05412" lon="10.88910"><ele>628</ele></trkpt>
<trkpt lat="48.05398" lon="10.88907"><ele>628</ele></trkpt>
<trkpt lat="48.05420" lon="10.88800"><ele>628</ele></trkpt>
<trkpt lat="48.05442" lon="10.88725"><ele>627</ele></trkpt>
<trkpt lat="48.05419" lon="10.88660"><ele>628</ele></trkpt>
<trkpt lat="48.05468" lon="10.88536"><ele>628</ele></trkpt>
<trkpt lat="48.05443" lon="10.88510"><ele>630</ele></trkpt>
<trkpt lat="48.05427" lon="10.88499"><ele>630</ele></trkpt>
<trkpt lat="48.05385" lon="10.88490"><ele>631</ele></trkpt>
<trkpt lat="48.05371" lon="10.88479"><ele>632</ele></trkpt>
<trkpt lat="48.05362" lon="10.88468"><ele>632</ele></trkpt>
<trkpt lat="48.05326" lon="10.88347"><ele>633</ele></trkpt>
<trkpt lat="48.05304" lon="10.88302"><ele>633</ele></trkpt>
<trkpt lat="48.05251" lon="10.88223"><ele>633</ele></trkpt>
<trkpt lat="48.05238" lon="10.88193"><ele>633</ele></trkpt>
<trkpt lat="48.05230" lon="10.88152"><ele>634</ele></trkpt>
<trkpt lat="48.05225" lon="10.88101"><ele>634</ele></trkpt>
<trkpt lat="48.05235" lon="10.88101"><ele>634</ele></trkpt>
<trkpt lat="48.05230" lon="10.88066"><ele>633</ele></trkpt>
<trkpt lat="48.05231" lon="10.88054"><ele>633</ele></trkpt>
<trkpt lat="48.05215" lon="10.88046"><ele>633</ele></trkpt>
<trkpt lat="48.05059" lon="10.88126"><ele>634</ele></trkpt>
<trkpt lat="48.05043" lon="10.88139"><ele>635</ele></trkpt>
<trkpt lat="48.05040" lon="10.88124"><ele>634</ele></trkpt>
<trkpt lat="48.04997" lon="10.88146"><ele>634</ele></trkpt>
<trkpt lat="48.04973" lon="10.88137"><ele>635</ele></trkpt>
<trkpt lat="48.04872" lon="10.88150"><ele>630</ele></trkpt>
<trkpt lat="48.04857" lon="10.88158"><ele>630</ele></trkpt>
<trkpt lat="48.04841" lon="10.88019"><ele>622</ele></trkpt>
<trkpt lat="48.04844" lon="10.87992"><ele>620</ele></trkpt>
<trkpt lat="48.04851" lon="10.87967"><ele>618</ele></trkpt>
<trkpt lat="48.04840" lon="10.87949"><ele>616</ele></trkpt>
<trkpt lat="48.04835" lon="10.87922"><ele>613</ele></trkpt>
<trkpt lat="48.04820" lon="10.87910"><ele>614</ele></trkpt>
<trkpt lat="48.04824" lon="10.87875"><ele>611</ele></trkpt>
<trkpt lat="48.04781" lon="10.87884"><ele>614</ele></trkpt>
<trkpt lat="48.04753" lon="10.87901"><ele>617</ele></trkpt>
<trkpt lat="48.04728" lon="10.87895"><ele>618</ele></trkpt>
<trkpt lat="48.04710" lon="10.87911"><ele>618</ele></trkpt>
<trkpt lat="48.04709" lon="10.87923"><ele>618</ele></trkpt>
<trkpt lat="48.04699" lon="10.87932"><ele>617</ele></trkpt>
<trkpt lat="48.04695" lon="10.87970"><ele>620</ele></trkpt>
<trkpt lat="48.04680" lon="10.88004"><ele>624</ele></trkpt>
<trkpt lat="48.04670" lon="10.88013"><ele>624</ele></trkpt>
<trkpt lat="48.04601" lon="10.88055"><ele>624</ele></trkpt>
<trkpt lat="48.04590" lon="10.88058"><ele>624</ele></trkpt>
<trkpt lat="48.04552" lon="10.88053"><ele>625</ele></trkpt>
<trkpt lat="48.04511" lon="10.88065"><ele>627</ele></trkpt>
<trkpt lat="48.04483" lon="10.88079"><ele>628</ele></trkpt>
<trkpt lat="48.04474" lon="10.88096"><ele>630</ele></trkpt>
<trkpt lat="48.04449" lon="10.88115"><ele>630</ele></trkpt>
<trkpt lat="48.04383" lon="10.88164"><ele>632</ele></trkpt>
<trkpt lat="48.04304" lon="10.88210"><ele>634</ele></trkpt>
<trkpt lat="48.04309" lon="10.88229"><ele>634</ele></trkpt>
<trkpt lat="48.04294" lon="10.88225"><ele>634</ele></trkpt>
<trkpt lat="48.04251" lon="10.88225"><ele>635</ele></trkpt>
<trkpt lat="48.04013" lon="10.88247"><ele>638</ele></trkpt>
<trkpt lat="48.03824" lon="10.88230"><ele>640</ele></trkpt>
<trkpt lat="48.03807" lon="10.88231"><ele>640</ele></trkpt>
<trkpt lat="48.03534" lon="10.88373"><ele>643</ele></trkpt>
<trkpt lat="48.03453" lon="10.88410"><ele>644</ele></trkpt>
<trkpt lat="48.03337" lon="10.88479"><ele>644</ele></trkpt>
<trkpt lat="48.03245" lon="10.88512"><ele>643</ele></trkpt>
<trkpt lat="48.03237" lon="10.88498"><ele>643</ele></trkpt>
<trkpt lat="48.03228" lon="10.88466"><ele>642</ele></trkpt>
<trkpt lat="48.03214" lon="10.88392"><ele>642</ele></trkpt>
<trkpt lat="48.03201" lon="10.88348"><ele>641</ele></trkpt>
<trkpt lat="48.03194" lon="10.88339"><ele>640</ele></trkpt>
<trkpt lat="48.03092" lon="10.88286"><ele>632</ele></trkpt>
<trkpt lat="48.03034" lon="10.88275"><ele>630</ele></trkpt>
<trkpt lat="48.03010" lon="10.88278"><ele>628</ele></trkpt>
<trkpt lat="48.03000" lon="10.88284"><ele>628</ele></trkpt>
<trkpt lat="48.02953" lon="10.88344"><ele>626</ele></trkpt>
<trkpt lat="48.02922" lon="10.88388"><ele>626</ele></trkpt>
<trkpt lat="48.02908" lon="10.88397"><ele>625</ele></trkpt>
<trkpt lat="48.02895" lon="10.88399"><ele>625</ele></trkpt>
<trkpt lat="48.02885" lon="10.88392"><ele>625</ele></trkpt>
<trkpt lat="48.02882" lon="10.88385"><ele>625</ele></trkpt>
<trkpt lat="48.02888" lon="10.88368"><ele>624</ele></trkpt>
<trkpt lat="48.02909" lon="10.88343"><ele>623</ele></trkpt>
<trkpt lat="48.02939" lon="10.88318"><ele>621</ele></trkpt>
<trkpt lat="48.02951" lon="10.88301"><ele>620</ele></trkpt>
<trkpt lat="48.02978" lon="10.88252"><ele>615</ele></trkpt>
<trkpt lat="48.03027" lon="10.88124"><ele>607</ele></trkpt>
<trkpt lat="48.03054" lon="10.88027"><ele>598</ele></trkpt>
<trkpt lat="48.03054" lon="10.88002"><ele>597</ele></trkpt>
<trkpt lat="48.03043" lon="10.87941"><ele>596</ele></trkpt>
<trkpt lat="48.03045" lon="10.87924"><ele>595</ele></trkpt>
<trkpt lat="48.02999" lon="10.87969"><ele>596</ele></trkpt>
<trkpt lat="48.02925" lon="10.88077"><ele>596</ele></trkpt>
<trkpt lat="48.02890" lon="10.88115"><ele>596</ele></trkpt>
<trkpt lat="48.02797" lon="10.88163"><ele>594</ele></trkpt>
<trkpt lat="48.02777" lon="10.88179"><ele>595</ele></trkpt>
<trkpt lat="48.02689" lon="10.88272"><ele>596</ele></trkpt>
<trkpt lat="48.02633" lon="10.88353"><ele>596</ele></trkpt>
<trkpt lat="48.02610" lon="10.88380"><ele>595</ele></trkpt>
<trkpt lat="48.02509" lon="10.88448"><ele>596</ele></trkpt>
<trkpt lat="48.02462" lon="10.88468"><ele>595</ele></trkpt>
<trkpt lat="48.02384" lon="10.88490"><ele>596</ele></trkpt>
<trkpt lat="48.02357" lon="10.88512"><ele>596</ele></trkpt>
<trkpt lat="48.02341" lon="10.88518"><ele>595</ele></trkpt>
<trkpt lat="48.02328" lon="10.88513"><ele>596</ele></trkpt>
<trkpt lat="48.02275" lon="10.88472"><ele>594</ele></trkpt>
<trkpt lat="48.02235" lon="10.88456"><ele>596</ele></trkpt>
<trkpt lat="48.02181" lon="10.88444"><ele>594</ele></trkpt>
<trkpt lat="48.02120" lon="10.88421"><ele>595</ele></trkpt>
<trkpt lat="48.02040" lon="10.88382"><ele>596</ele></trkpt>
<trkpt lat="48.01991" lon="10.88372"><ele>598</ele></trkpt>
<trkpt lat="48.01921" lon="10.88332"><ele>594</ele></trkpt>
<trkpt lat="48.01850" lon="10.88269"><ele>595</ele></trkpt>
<trkpt lat="48.01833" lon="10.88263"><ele>596</ele></trkpt>
<trkpt lat="48.01711" lon="10.88279"><ele>597</ele></trkpt>
<trkpt lat="48.01641" lon="10.88275"><ele>597</ele></trkpt>
<trkpt lat="48.01590" lon="10.88247"><ele>598</ele></trkpt>
<trkpt lat="48.01559" lon="10.88221"><ele>599</ele></trkpt>
<trkpt lat="48.01551" lon="10.88218"><ele>598</ele></trkpt>
<trkpt lat="48.01381" lon="10.88256"><ele>610</ele></trkpt>
<trkpt lat="48.01359" lon="10.88270"><ele>612</ele></trkpt>
<trkpt lat="48.01351" lon="10.88281"><ele>613</ele></trkpt>
<trkpt lat="48.01337" lon="10.88268"><ele>611</ele></trkpt>
<trkpt lat="48.01303" lon="10.88263"><ele>610</ele></trkpt>
<trkpt lat="48.01290" lon="10.88267"><ele>611</ele></trkpt>
<trkpt lat="48.01271" lon="10.88264"><ele>611</ele></trkpt>
<trkpt lat="48.01233" lon="10.88283"><ele>614</ele></trkpt>
<trkpt lat="48.01165" lon="10.88302"><ele>618</ele></trkpt>
<trkpt lat="48.01121" lon="10.88331"><ele>623</ele></trkpt>
<trkpt lat="48.01077" lon="10.88343"><ele>626</ele></trkpt>
<trkpt lat="48.01069" lon="10.88349"><ele>627</ele></trkpt>
<trkpt lat="48.01055" lon="10.88349"><ele>626</ele></trkpt>
<trkpt lat="48.00969" lon="10.88371"><ele>626</ele></trkpt>
<trkpt lat="48.00937" lon="10.88376"><ele>626</ele></trkpt>
<trkpt lat="48.00762" lon="10.88370"><ele>628</ele></trkpt>
<trkpt lat="48.00688" lon="10.88411"><ele>629</ele></trkpt>
<trkpt lat="48.00636" lon="10.88426"><ele>630</ele></trkpt>
<trkpt lat="48.00548" lon="10.88442"><ele>630</ele></trkpt>
<trkpt lat="48.00517" lon="10.88460"><ele>632</ele></trkpt>
<trkpt lat="48.00456" lon="10.88455"><ele>631</ele></trkpt>
<trkpt lat="48.00338" lon="10.88482"><ele>633</ele></trkpt>
<trkpt lat="48.00083" lon="10.88473"><ele>636</ele></trkpt>
<trkpt lat="48.00046" lon="10.88458"><ele>636</ele></trkpt>
<trkpt lat="48.00022" lon="10.88456"><ele>636</ele></trkpt>
<trkpt lat="47.99932" lon="10.88466"><ele>636</ele></trkpt>
<trkpt lat="47.99872" lon="10.88489"><ele>639</ele></trkpt>
<trkpt lat="47.99857" lon="10.88492"><ele>639</ele></trkpt>
<trkpt lat="47.99811" lon="10.88467"><ele>638</ele></trkpt>
<trkpt lat="47.99766" lon="10.88453"><ele>637</ele></trkpt>
<trkpt lat="47.99710" lon="10.88443"><ele>637</ele></trkpt>
<trkpt lat="47.99682" lon="10.88451"><ele>637</ele></trkpt>
<trkpt lat="47.99595" lon="10.88439"><ele>637</ele></trkpt>
<trkpt lat="47.99527" lon="10.88498"><ele>638</ele></trkpt>
<trkpt lat="47.99503" lon="10.88531"><ele>639</ele></trkpt>
<trkpt lat="47.99465" lon="10.88572"><ele>641</ele></trkpt>
<trkpt lat="47.99399" lon="10.88697"><ele>645</ele></trkpt>
<trkpt lat="47.99215" lon="10.89002"><ele>654</ele></trkpt>
<trkpt lat="47.99138" lon="10.89263"><ele>660</ele></trkpt>
<trkpt lat="47.99113" lon="10.89324"><ele>662</ele></trkpt>
<trkpt lat="47.99057" lon="10.89314"><ele>664</ele></trkpt>
<trkpt lat="47.99016" lon="10.89282"><ele>664</ele></trkpt>
<trkpt lat="47.98963" lon="10.89232"><ele>666</ele></trkpt>
<trkpt lat="47.98933" lon="10.89242"><ele>666</ele></trkpt>
<trkpt lat="47.98724" lon="10.89361"><ele>670</ele></trkpt>
<trkpt lat="47.98622" lon="10.89409"><ele>669</ele></trkpt>
<trkpt lat="47.98602" lon="10.89432"><ele>669</ele></trkpt>
<trkpt lat="47.98564" lon="10.89466"><ele>668</ele></trkpt>
<trkpt lat="47.98556" lon="10.89557"><ele>667</ele></trkpt>
<trkpt lat="47.98556" lon="10.89579"><ele>667</ele></trkpt>
<trkpt lat="47.98518" lon="10.89500"><ele>665</ele></trkpt>
<trkpt lat="47.98470" lon="10.89429"><ele>664</ele></trkpt>
<trkpt lat="47.98444" lon="10.89383"><ele>663</ele></trkpt>
<trkpt lat="47.98421" lon="10.89328"><ele>662</ele></trkpt>
<trkpt lat="47.98381" lon="10.89206"><ele>661</ele></trkpt>
<trkpt lat="47.98372" lon="10.89154"><ele>661</ele></trkpt>
<trkpt lat="47.98371" lon="10.89124"><ele>660</ele></trkpt>
<trkpt lat="47.98372" lon="10.89094"><ele>660</ele></trkpt>
<trkpt lat="47.98387" lon="10.88985"><ele>655</ele></trkpt>
<trkpt lat="47.98401" lon="10.88942"><ele>654</ele></trkpt>
<trkpt lat="47.98400" lon="10.88908"><ele>654</ele></trkpt>
<trkpt lat="47.98391" lon="10.88884"><ele>656</ele></trkpt>
<trkpt lat="47.98339" lon="10.88864"><ele>658</ele></trkpt>
<trkpt lat="47.98326" lon="10.88865"><ele>659</ele></trkpt>
<trkpt lat="47.98315" lon="10.88870"><ele>658</ele></trkpt>
<trkpt lat="47.98125" lon="10.89052"><ele>664</ele></trkpt>
<trkpt lat="47.98076" lon="10.89090"><ele>666</ele></trkpt>
<trkpt lat="47.98000" lon="10.89164"><ele>666</ele></trkpt>
<trkpt lat="47.97980" lon="10.89093"><ele>670</ele></trkpt>
<trkpt lat="47.97974" lon="10.89086"><ele>671</ele></trkpt>
<trkpt lat="47.97965" lon="10.89083"><ele>671</ele></trkpt>
<trkpt lat="47.97907" lon="10.89084"><ele>671</ele></trkpt>
<trkpt lat="47.97784" lon="10.89068"><ele>672</ele></trkpt>
<trkpt lat="47.97764" lon="10.89062"><ele>672</ele></trkpt>
<trkpt lat="47.97712" lon="10.89063"><ele>673</ele></trkpt>
<trkpt lat="47.97635" lon="10.89086"><ele>675</ele></trkpt>
<trkpt lat="47.97593" lon="10.89089"><ele>676</ele></trkpt>
<trkpt lat="47.97553" lon="10.89107"><ele>676</ele></trkpt>
<trkpt lat="47.97498" lon="10.89147"><ele>678</ele></trkpt>
<trkpt lat="47.97237" lon="10.89374"><ele>673</ele></trkpt>
<trkpt lat="47.97030" lon="10.89404"><ele>672</ele></trkpt>
<trkpt lat="47.96974" lon="10.89437"><ele>672</ele></trkpt>
<trkpt lat="47.96922" lon="10.89479"><ele>669</ele></trkpt>
<trkpt lat="47.96773" lon="10.89655"><ele>665</ele></trkpt>
<trkpt lat="47.96730" lon="10.89672"><ele>664</ele></trkpt>
<trkpt lat="47.96695" lon="10.89696"><ele>664</ele></trkpt>
<trkpt lat="47.96466" lon="10.89958"><ele>670</ele></trkpt>
<trkpt lat="47.96440" lon="10.89997"><ele>670</ele></trkpt>
<trkpt lat="47.96412" lon="10.90074"><ele>673</ele></trkpt>
<trkpt lat="47.96411" lon="10.90164"><ele>680</ele></trkpt>
<trkpt lat="47.96396" lon="10.90286"><ele>685</ele></trkpt>
<trkpt lat="47.96384" lon="10.90332"><ele>686</ele></trkpt>
<trkpt lat="47.96343" lon="10.90426"><ele>687</ele></trkpt>
<trkpt lat="47.96293" lon="10.90484"><ele>685</ele></trkpt>
<trkpt lat="47.96280" lon="10.90449"><ele>682</ele></trkpt>
<trkpt lat="47.96247" lon="10.90466"><ele>682</ele></trkpt>
<trkpt lat="47.96201" lon="10.90471"><ele>679</ele></trkpt>
<trkpt lat="47.96139" lon="10.90496"><ele>678</ele></trkpt>
<trkpt lat="47.96068" lon="10.90508"><ele>679</ele></trkpt>
<trkpt lat="47.96024" lon="10.90507"><ele>680</ele></trkpt>
<trkpt lat="47.95941" lon="10.90490"><ele>682</ele></trkpt>
<trkpt lat="47.95832" lon="10.90448"><ele>684</ele></trkpt>
<trkpt lat="47.95790" lon="10.90439"><ele>684</ele></trkpt>
<trkpt lat="47.95757" lon="10.90443"><ele>686</ele></trkpt>
<trkpt lat="47.95739" lon="10.90455"><ele>686</ele></trkpt>
<trkpt lat="47.95678" lon="10.90518"><ele>690</ele></trkpt>
<trkpt lat="47.95649" lon="10.90544"><ele>692</ele></trkpt>
<trkpt lat="47.95616" lon="10.90565"><ele>693</ele></trkpt>
<trkpt lat="47.95521" lon="10.90643"><ele>696</ele></trkpt>
<trkpt lat="47.95470" lon="10.90677"><ele>697</ele></trkpt>
<trkpt lat="47.95447" lon="10.90689"><ele>697</ele></trkpt>
<trkpt lat="47.95399" lon="10.90689"><ele>695</ele></trkpt>
<trkpt lat="47.95370" lon="10.90697"><ele>693</ele></trkpt>
<trkpt lat="47.95329" lon="10.90722"><ele>694</ele></trkpt>
<trkpt lat="47.95494" lon="10.91190"><ele>700</ele></trkpt>
<trkpt lat="47.95460" lon="10.91231"><ele>702</ele></trkpt>
<trkpt lat="47.95359" lon="10.91374"><ele>708</ele></trkpt>
<trkpt lat="47.95230" lon="10.91528"><ele>706</ele></trkpt>
<trkpt lat="47.95210" lon="10.91569"><ele>707</ele></trkpt>
<trkpt lat="47.95044" lon="10.91475"><ele>700</ele></trkpt>
<trkpt lat="47.94881" lon="10.91408"><ele>705</ele></trkpt>
<trkpt lat="47.94846" lon="10.91398"><ele>705</ele></trkpt>
<trkpt lat="47.94818" lon="10.91362"><ele>706</ele></trkpt>
<trkpt lat="47.94571" lon="10.90883"><ele>706</ele></trkpt>
<trkpt lat="47.94411" lon="10.90593"><ele>704</ele></trkpt>
<trkpt lat="47.94112" lon="10.90034"><ele>707</ele></trkpt>
<trkpt lat="47.93639" lon="10.89142"><ele>709</ele></trkpt>
<trkpt lat="47.93571" lon="10.89041"><ele>708</ele></trkpt>
<trkpt lat="47.93565" lon="10.89039"><ele>708</ele></trkpt>
<trkpt lat="47.93553" lon="10.89049"><ele>708</ele></trkpt>
<trkpt lat="47.93525" lon="10.89085"><ele>706</ele></trkpt>
<trkpt lat="47.93508" lon="10.89084"><ele>704</ele></trkpt>
<trkpt lat="47.93472" lon="10.89067"><ele>702</ele></trkpt>
<trkpt lat="47.93412" lon="10.89304"><ele>700</ele></trkpt>
<trkpt lat="47.93398" lon="10.89318"><ele>698</ele></trkpt>
<trkpt lat="47.93391" lon="10.89318"><ele>696</ele></trkpt>
<trkpt lat="47.93386" lon="10.89311"><ele>696</ele></trkpt>
<trkpt lat="47.93389" lon="10.89277"><ele>693</ele></trkpt>
<trkpt lat="47.93427" lon="10.89055"><ele>687</ele></trkpt>
<trkpt lat="47.93442" lon="10.88941"><ele>682</ele></trkpt>
<trkpt lat="47.93443" lon="10.88906"><ele>678</ele></trkpt>
<trkpt lat="47.93437" lon="10.88893"><ele>676</ele></trkpt>
<trkpt lat="47.93428" lon="10.88885"><ele>673</ele></trkpt>
<trkpt lat="47.93321" lon="10.88946"><ele>665</ele></trkpt>
<trkpt lat="47.93282" lon="10.88959"><ele>663</ele></trkpt>
<trkpt lat="47.93262" lon="10.88977"><ele>663</ele></trkpt>
<trkpt lat="47.93153" lon="10.89019"><ele>653</ele></trkpt>
<trkpt lat="47.93128" lon="10.89045"><ele>650</ele></trkpt>
<trkpt lat="47.93106" lon="10.89096"><ele>653</ele></trkpt>
<trkpt lat="47.93092" lon="10.89112"><ele>652</ele></trkpt>
<trkpt lat="47.93071" lon="10.89119"><ele>652</ele></trkpt>
<trkpt lat="47.93050" lon="10.89111"><ele>648</ele></trkpt>
<trkpt lat="47.93030" lon="10.89117"><ele>646</ele></trkpt>
<trkpt lat="47.92966" lon="10.89177"><ele>646</ele></trkpt>
<trkpt lat="47.92880" lon="10.89231"><ele>644</ele></trkpt>
<trkpt lat="47.92863" lon="10.89253"><ele>644</ele></trkpt>
<trkpt lat="47.92851" lon="10.89276"><ele>646</ele></trkpt>
<trkpt lat="47.92839" lon="10.89317"><ele>646</ele></trkpt>
<trkpt lat="47.92821" lon="10.89353"><ele>646</ele></trkpt>
<trkpt lat="47.92764" lon="10.89424"><ele>646</ele></trkpt>
<trkpt lat="47.92698" lon="10.89481"><ele>644</ele></trkpt>
<trkpt lat="47.92685" lon="10.89502"><ele>644</ele></trkpt>
<trkpt lat="47.92676" lon="10.89530"><ele>646</ele></trkpt>
<trkpt lat="47.92666" lon="10.89635"><ele>647</ele></trkpt>
<trkpt lat="47.92658" lon="10.89667"><ele>648</ele></trkpt>
<trkpt lat="47.92607" lon="10.89765"><ele>648</ele></trkpt>
<trkpt lat="47.92428" lon="10.89962"><ele>648</ele></trkpt>
<trkpt lat="47.92403" lon="10.90000"><ele>649</ele></trkpt>
<trkpt lat="47.92351" lon="10.90110"><ele>650</ele></trkpt>
<trkpt lat="47.92329" lon="10.90142"><ele>650</ele></trkpt>
<trkpt lat="47.92313" lon="10.90157"><ele>650</ele></trkpt>
<trkpt lat="47.92256" lon="10.90375"><ele>655</ele></trkpt>
<trkpt lat="47.92229" lon="10.90452"><ele>658</ele></trkpt>
<trkpt lat="47.92211" lon="10.90464"><ele>658</ele></trkpt>
<trkpt lat="47.92154" lon="10.90468"><ele>654</ele></trkpt>
<trkpt lat="47.92106" lon="10.90519"><ele>654</ele></trkpt>
<trkpt lat="47.92050" lon="10.90623"><ele>655</ele></trkpt>
<trkpt lat="47.92006" lon="10.90740"><ele>657</ele></trkpt>
<trkpt lat="47.91998" lon="10.90785"><ele>656</ele></trkpt>
<trkpt lat="47.91967" lon="10.90850"><ele>657</ele></trkpt>
<trkpt lat="47.91924" lon="10.90904"><ele>660</ele></trkpt>
<trkpt lat="47.91917" lon="10.90882"><ele>657</ele></trkpt>
<trkpt lat="47.91906" lon="10.90878"><ele>656</ele></trkpt>
<trkpt lat="47.91894" lon="10.90885"><ele>656</ele></trkpt>
<trkpt lat="47.91871" lon="10.90920"><ele>652</ele></trkpt>
<trkpt lat="47.91842" lon="10.90953"><ele>651</ele></trkpt>
<trkpt lat="47.91753" lon="10.91022"><ele>644</ele></trkpt>
<trkpt lat="47.91723" lon="10.91056"><ele>640</ele></trkpt>
<trkpt lat="47.91692" lon="10.91107"><ele>635</ele></trkpt>
<trkpt lat="47.91676" lon="10.91126"><ele>632</ele></trkpt>
<trkpt lat="47.91632" lon="10.91153"><ele>630</ele></trkpt>
<trkpt lat="47.91589" lon="10.91161"><ele>629</ele></trkpt>
<trkpt lat="47.91435" lon="10.91165"><ele>632</ele></trkpt>
<trkpt lat="47.91399" lon="10.91148"><ele>634</ele></trkpt>
<trkpt lat="47.91380" lon="10.91118"><ele>634</ele></trkpt>
<trkpt lat="47.91371" lon="10.91154"><ele>634</ele></trkpt>
<trkpt lat="47.91366" lon="10.91159"><ele>634</ele></trkpt>
<trkpt lat="47.91355" lon="10.91158"><ele>634</ele></trkpt>
<trkpt lat="47.91288" lon="10.91136"><ele>633</ele></trkpt>
<trkpt lat="47.91287" lon="10.91113"><ele>634</ele></trkpt>
<trkpt lat="47.91278" lon="10.91094"><ele>636</ele></trkpt>
<trkpt lat="47.91236" lon="10.91078"><ele>637</ele></trkpt>
<trkpt lat="47.91133" lon="10.91074"><ele>643</ele></trkpt>
<trkpt lat="47.91066" lon="10.91103"><ele>644</ele></trkpt>
<trkpt lat="47.91049" lon="10.91100"><ele>646</ele></trkpt>
<trkpt lat="47.91012" lon="10.91080"><ele>647</ele></trkpt>
<trkpt lat="47.91003" lon="10.91062"><ele>649</ele></trkpt>
<trkpt lat="47.91007" lon="10.91025"><ele>650</ele></trkpt>
<trkpt lat="47.90988" lon="10.90982"><ele>652</ele></trkpt>
<trkpt lat="47.90985" lon="10.90959"><ele>652</ele></trkpt>
<trkpt lat="47.90893" lon="10.90968"><ele>655</ele></trkpt>
<trkpt lat="47.90872" lon="10.90962"><ele>655</ele></trkpt>
<trkpt lat="47.90861" lon="10.90954"><ele>655</ele></trkpt>
<trkpt lat="47.90828" lon="10.90911"><ele>657</ele></trkpt>
<trkpt lat="47.90815" lon="10.90881"><ele>660</ele></trkpt>
<trkpt lat="47.90811" lon="10.90854"><ele>662</ele></trkpt>
<trkpt lat="47.90811" lon="10.90803"><ele>665</ele></trkpt>
<trkpt lat="47.90809" lon="10.90790"><ele>666</ele></trkpt>
<trkpt lat="47.90799" lon="10.90768"><ele>668</ele></trkpt>
<trkpt lat="47.90781" lon="10.90747"><ele>670</ele></trkpt>
<trkpt lat="47.90733" lon="10.90710"><ele>673</ele></trkpt>
<trkpt lat="47.90602" lon="10.90588"><ele>680</ele></trkpt>
<trkpt lat="47.90573" lon="10.90652"><ele>680</ele></trkpt>
<trkpt lat="47.90547" lon="10.90691"><ele>680</ele></trkpt>
<trkpt lat="47.90469" lon="10.90757"><ele>680</ele></trkpt>
<trkpt lat="47.90375" lon="10.90846"><ele>678</ele></trkpt>
<trkpt lat="47.90356" lon="10.90869"><ele>679</ele></trkpt>
<trkpt lat="47.90324" lon="10.90921"><ele>679</ele></trkpt>
<trkpt lat="47.90294" lon="10.90957"><ele>680</ele></trkpt>
<trkpt lat="47.90245" lon="10.91000"><ele>682</ele></trkpt>
<trkpt lat="47.90132" lon="10.91066"><ele>682</ele></trkpt>
<trkpt lat="47.90106" lon="10.91085"><ele>682</ele></trkpt>
<trkpt lat="47.90036" lon="10.91159"><ele>682</ele></trkpt>
<trkpt lat="47.89992" lon="10.91191"><ele>683</ele></trkpt>
<trkpt lat="47.89949" lon="10.91211"><ele>684</ele></trkpt>
<trkpt lat="47.89872" lon="10.91236"><ele>684</ele></trkpt>
<trkpt lat="47.89751" lon="10.91239"><ele>685</ele></trkpt>
<trkpt lat="47.89670" lon="10.91267"><ele>686</ele></trkpt>
<trkpt lat="47.89573" lon="10.91289"><ele>686</ele></trkpt>
<trkpt lat="47.89483" lon="10.91318"><ele>686</ele></trkpt>
<trkpt lat="47.89413" lon="10.91331"><ele>687</ele></trkpt>
<trkpt lat="47.89348" lon="10.91334"><ele>688</ele></trkpt>
<trkpt lat="47.89314" lon="10.91331"><ele>688</ele></trkpt>
<trkpt lat="47.89259" lon="10.91315"><ele>687</ele></trkpt>
<trkpt lat="47.89163" lon="10.91264"><ele>686</ele></trkpt>
<trkpt lat="47.89060" lon="10.91257"><ele>687</ele></trkpt>
<trkpt lat="47.88986" lon="10.91234"><ele>687</ele></trkpt>
<trkpt lat="47.88914" lon="10.91218"><ele>689</ele></trkpt>
<trkpt lat="47.88866" lon="10.91187"><ele>689</ele></trkpt>
<trkpt lat="47.88832" lon="10.91173"><ele>688</ele></trkpt>
<trkpt lat="47.88757" lon="10.91172"><ele>690</ele></trkpt>
<trkpt lat="47.88724" lon="10.91160"><ele>690</ele></trkpt>
<trkpt lat="47.88688" lon="10.91127"><ele>688</ele></trkpt>
<trkpt lat="47.88658" lon="10.91085"><ele>688</ele></trkpt>
<trkpt lat="47.88628" lon="10.91013"><ele>690</ele></trkpt>
<trkpt lat="47.88616" lon="10.90995"><ele>690</ele></trkpt>
<trkpt lat="47.88571" lon="10.90956"><ele>689</ele></trkpt>
<trkpt lat="47.88515" lon="10.90852"><ele>689</ele></trkpt>
<trkpt lat="47.88488" lon="10.90814"><ele>690</ele></trkpt>
<trkpt lat="47.88446" lon="10.90774"><ele>691</ele></trkpt>
<trkpt lat="47.88412" lon="10.90748"><ele>692</ele></trkpt>
<trkpt lat="47.88366" lon="10.90724"><ele>692</ele></trkpt>
<trkpt lat="47.88321" lon="10.90716"><ele>692</ele></trkpt>
<trkpt lat="47.88229" lon="10.90716"><ele>692</ele></trkpt>
<trkpt lat="47.88156" lon="10.90729"><ele>692</ele></trkpt>
<trkpt lat="47.88077" lon="10.90763"><ele>692</ele></trkpt>
<trkpt lat="47.87986" lon="10.90818"><ele>692</ele></trkpt>
<trkpt lat="47.87935" lon="10.90843"><ele>691</ele></trkpt>
<trkpt lat="47.87905" lon="10.90847"><ele>692</ele></trkpt>
<trkpt lat="47.87868" lon="10.90860"><ele>694</ele></trkpt>
<trkpt lat="47.87832" lon="10.90846"><ele>695</ele></trkpt>
<trkpt lat="47.87787" lon="10.90850"><ele>696</ele></trkpt>
<trkpt lat="47.87783" lon="10.90847"><ele>697</ele></trkpt>
<trkpt lat="47.87768" lon="10.90864"><ele>696</ele></trkpt>
<trkpt lat="47.87759" lon="10.90884"><ele>696</ele></trkpt>
<trkpt lat="47.87748" lon="10.90878"><ele>697</ele></trkpt>
<trkpt lat="47.87671" lon="10.90809"><ele>701</ele></trkpt>
<trkpt lat="47.87585" lon="10.90714"><ele>707</ele></trkpt>
<trkpt lat="47.87561" lon="10.90698"><ele>708</ele></trkpt>
<trkpt lat="47.87496" lon="10.90670"><ele>710</ele></trkpt>
<trkpt lat="47.87423" lon="10.90682"><ele>712</ele></trkpt>
<trkpt lat="47.87343" lon="10.90713"><ele>714</ele></trkpt>
<trkpt lat="47.87256" lon="10.90734"><ele>716</ele></trkpt>
<trkpt lat="47.87080" lon="10.90822"><ele>717</ele></trkpt>
<trkpt lat="47.87026" lon="10.90840"><ele>718</ele></trkpt>
<trkpt lat="47.86999" lon="10.90843"><ele>718</ele></trkpt>
<trkpt lat="47.86941" lon="10.90836"><ele>720</ele></trkpt>
<trkpt lat="47.86778" lon="10.90775"><ele>722</ele></trkpt>
<trkpt lat="47.86679" lon="10.90727"><ele>725</ele></trkpt>
<trkpt lat="47.86660" lon="10.90717"><ele>726</ele></trkpt>
<trkpt lat="47.86638" lon="10.90697"><ele>726</ele></trkpt>
<trkpt lat="47.86616" lon="10.90689"><ele>726</ele></trkpt>
<trkpt lat="47.86610" lon="10.90707"><ele>726</ele></trkpt>
<trkpt lat="47.86580" lon="10.90866"><ele>725</ele></trkpt>
<trkpt lat="47.86570" lon="10.90902"><ele>725</ele></trkpt>
<trkpt lat="47.86519" lon="10.90958"><ele>726</ele></trkpt>
<trkpt lat="47.86513" lon="10.90970"><ele>726</ele></trkpt>
<trkpt lat="47.86509" lon="10.90984"><ele>726</ele></trkpt>
<trkpt lat="47.86500" lon="10.91074"><ele>726</ele></trkpt>
<trkpt lat="47.86495" lon="10.91090"><ele>726</ele></trkpt>
<trkpt lat="47.86480" lon="10.91098"><ele>726</ele></trkpt>
<trkpt lat="47.86234" lon="10.90989"><ele>732</ele></trkpt>
<trkpt lat="47.86076" lon="10.90903"><ele>737</ele></trkpt>
<trkpt lat="47.85988" lon="10.90863"><ele>738</ele></trkpt>
<trkpt lat="47.85962" lon="10.90844"><ele>737</ele></trkpt>
<trkpt lat="47.85898" lon="10.90819"><ele>734</ele></trkpt>
<trkpt lat="47.85878" lon="10.90805"><ele>734</ele></trkpt>
<trkpt lat="47.85852" lon="10.90780"><ele>734</ele></trkpt>
<trkpt lat="47.85827" lon="10.90729"><ele>734</ele></trkpt>
<trkpt lat="47.85788" lon="10.90666"><ele>730</ele></trkpt>
<trkpt lat="47.85750" lon="10.90592"><ele>728</ele></trkpt>
<trkpt lat="47.85711" lon="10.90536"><ele>728</ele></trkpt>
<trkpt lat="47.85686" lon="10.90465"><ele>729</ele></trkpt>
<trkpt lat="47.85678" lon="10.90412"><ele>727</ele></trkpt>
<trkpt lat="47.85679" lon="10.90382"><ele>726</ele></trkpt>
<trkpt lat="47.85676" lon="10.90361"><ele>725</ele></trkpt>
<trkpt lat="47.85668" lon="10.90347"><ele>725</ele></trkpt>
<trkpt lat="47.85656" lon="10.90334"><ele>725</ele></trkpt>
<trkpt lat="47.85625" lon="10.90314"><ele>724</ele></trkpt>
<trkpt lat="47.85570" lon="10.90296"><ele>722</ele></trkpt>
<trkpt lat="47.85556" lon="10.90286"><ele>718</ele></trkpt>
<trkpt lat="47.85529" lon="10.90249"><ele>714</ele></trkpt>
<trkpt lat="47.85506" lon="10.90226"><ele>711</ele></trkpt>
<trkpt lat="47.85455" lon="10.90209"><ele>706</ele></trkpt>
<trkpt lat="47.85423" lon="10.90207"><ele>706</ele></trkpt>
<trkpt lat="47.85332" lon="10.90220"><ele>706</ele></trkpt>
<trkpt lat="47.85256" lon="10.90237"><ele>705</ele></trkpt>
<trkpt lat="47.85165" lon="10.90250"><ele>705</ele></trkpt>
<trkpt lat="47.85083" lon="10.90271"><ele>703</ele></trkpt>
<trkpt lat="47.85066" lon="10.90262"><ele>702</ele></trkpt>
<trkpt lat="47.85041" lon="10.90231"><ele>700</ele></trkpt>
<trkpt lat="47.85025" lon="10.90222"><ele>700</ele></trkpt>
<trkpt lat="47.84971" lon="10.90229"><ele>700</ele></trkpt>
<trkpt lat="47.84951" lon="10.90217"><ele>700</ele></trkpt>
<trkpt lat="47.84899" lon="10.90228"><ele>696</ele></trkpt>
<trkpt lat="47.84873" lon="10.90228"><ele>693</ele></trkpt>
<trkpt lat="47.84866" lon="10.90220"><ele>692</ele></trkpt>
<trkpt lat="47.84866" lon="10.90177"><ele>692</ele></trkpt>
<trkpt lat="47.84786" lon="10.90183"><ele>695</ele></trkpt>
<trkpt lat="47.84718" lon="10.90201"><ele>697</ele></trkpt>
<trkpt lat="47.84642" lon="10.90212"><ele>700</ele></trkpt>
<trkpt lat="47.84527" lon="10.90145"><ele>706</ele></trkpt>
<trkpt lat="47.84501" lon="10.90136"><ele>706</ele></trkpt>
<trkpt lat="47.84428" lon="10.90138"><ele>708</ele></trkpt>
<trkpt lat="47.84269" lon="10.90134"><ele>711</ele></trkpt>
<trkpt lat="47.84231" lon="10.90143"><ele>712</ele></trkpt>
<trkpt lat="47.84189" lon="10.90169"><ele>714</ele></trkpt>
<trkpt lat="47.84168" lon="10.90190"><ele>714</ele></trkpt>
<trkpt lat="47.84129" lon="10.90241"><ele>716</ele></trkpt>
<trkpt lat="47.84113" lon="10.90256"><ele>716</ele></trkpt>
<trkpt lat="47.84073" lon="10.90273"><ele>716</ele></trkpt>
<trkpt lat="47.84057" lon="10.90272"><ele>716</ele></trkpt>
<trkpt lat="47.84045" lon="10.90266"><ele>716</ele></trkpt>
<trkpt lat="47.84020" lon="10.90289"><ele>717</ele></trkpt>
<trkpt lat="47.84007" lon="10.90296"><ele>717</ele></trkpt>
<trkpt lat="47.83991" lon="10.90297"><ele>717</ele></trkpt>
<trkpt lat="47.83955" lon="10.90287"><ele>718</ele></trkpt>
<trkpt lat="47.83857" lon="10.90221"><ele>718</ele></trkpt>
<trkpt lat="47.83814" lon="10.90207"><ele>719</ele></trkpt>
<trkpt lat="47.83754" lon="10.90207"><ele>720</ele></trkpt>
<trkpt lat="47.83436" lon="10.90239"><ele>724</ele></trkpt>
<trkpt lat="47.83292" lon="10.90280"><ele>724</ele></trkpt>
<trkpt lat="47.83239" lon="10.90290"><ele>725</ele></trkpt>
<trkpt lat="47.83149" lon="10.90298"><ele>725</ele></trkpt>
<trkpt lat="47.82953" lon="10.90282"><ele>726</ele></trkpt>
<trkpt lat="47.82790" lon="10.90265"><ele>727</ele></trkpt>
<trkpt lat="47.82764" lon="10.90260"><ele>726</ele></trkpt>
<trkpt lat="47.82736" lon="10.90276"><ele>727</ele></trkpt>
<trkpt lat="47.82718" lon="10.90311"><ele>728</ele></trkpt>
<trkpt lat="47.82707" lon="10.90317"><ele>728</ele></trkpt>
<trkpt lat="47.82571" lon="10.90346"><ele>731</ele></trkpt>
<trkpt lat="47.82553" lon="10.90366"><ele>731</ele></trkpt>
<trkpt lat="47.82497" lon="10.90473"><ele>730</ele></trkpt>
<trkpt lat="47.82484" lon="10.90486"><ele>730</ele></trkpt>
<trkpt lat="47.82457" lon="10.90496"><ele>730</ele></trkpt>
<trkpt lat="47.82247" lon="10.90468"><ele>733</ele></trkpt>
<trkpt lat="47.82219" lon="10.90486"><ele>734</ele></trkpt>
<trkpt lat="47.82108" lon="10.90590"><ele>744</ele></trkpt>
<trkpt lat="47.82098" lon="10.90605"><ele>746</ele></trkpt>
<trkpt lat="47.82095" lon="10.90621"><ele>748</ele></trkpt>
<trkpt lat="47.82096" lon="10.90646"><ele>750</ele></trkpt>
<trkpt lat="47.82121" lon="10.90706"><ele>748</ele></trkpt>
<trkpt lat="47.82100" lon="10.90713"><ele>748</ele></trkpt>
<trkpt lat="47.82065" lon="10.90708"><ele>745</ele></trkpt>
<trkpt lat="47.82010" lon="10.90687"><ele>742</ele></trkpt>
<trkpt lat="47.81955" lon="10.90687"><ele>740</ele></trkpt>
<trkpt lat="47.81879" lon="10.90680"><ele>738</ele></trkpt>
<trkpt lat="47.81767" lon="10.90697"><ele>729</ele></trkpt>
<trkpt lat="47.81710" lon="10.90691"><ele>726</ele></trkpt>
<trkpt lat="47.81680" lon="10.90680"><ele>726</ele></trkpt>
<trkpt lat="47.81577" lon="10.90619"><ele>711</ele></trkpt>
<trkpt lat="47.81466" lon="10.90562"><ele>703</ele></trkpt>
<trkpt lat="47.81458" lon="10.90562"><ele>702</ele></trkpt>
<trkpt lat="47.81365" lon="10.90478"><ele>693</ele></trkpt>
<trkpt lat="47.81291" lon="10.90437"><ele>686</ele></trkpt>
<trkpt lat="47.81248" lon="10.90402"><ele>682</ele></trkpt>
<trkpt lat="47.81212" lon="10.90384"><ele>679</ele></trkpt>
<trkpt lat="47.81199" lon="10.90361"><ele>678</ele></trkpt>
<trkpt lat="47.81192" lon="10.90309"><ele>680</ele></trkpt>
<trkpt lat="47.81180" lon="10.90283"><ele>680</ele></trkpt>
<trkpt lat="47.81155" lon="10.90256"><ele>680</ele></trkpt>
<trkpt lat="47.81130" lon="10.90238"><ele>680</ele></trkpt>
<trkpt lat="47.81040" lon="10.90199"><ele>678</ele></trkpt>
<trkpt lat="47.81003" lon="10.90204"><ele>678</ele></trkpt>
<trkpt lat="47.80997" lon="10.90211"><ele>677</ele></trkpt>
<trkpt lat="47.80983" lon="10.90249"><ele>676</ele></trkpt>
<trkpt lat="47.80973" lon="10.90262"><ele>676</ele></trkpt>
<trkpt lat="47.80894" lon="10.90288"><ele>673</ele></trkpt>
<trkpt lat="47.80883" lon="10.90295"><ele>673</ele></trkpt>
<trkpt lat="47.80873" lon="10.90306"><ele>673</ele></trkpt>
<trkpt lat="47.80861" lon="10.90334"><ele>673</ele></trkpt>
<trkpt lat="47.80857" lon="10.90351"><ele>672</ele></trkpt>
<trkpt lat="47.80857" lon="10.90407"><ele>671</ele></trkpt>
<trkpt lat="47.80884" lon="10.90779"><ele>670</ele></trkpt>
<trkpt lat="47.80895" lon="10.90888"><ele>670</ele></trkpt>
<trkpt lat="47.80903" lon="10.90928"><ele>670</ele></trkpt>
<trkpt lat="47.80935" lon="10.91014"><ele>672</ele></trkpt>
<trkpt lat="47.81012" lon="10.91187"><ele>673</ele></trkpt>
<trkpt lat="47.81040" lon="10.91277"><ele>675</ele></trkpt>
<trkpt lat="47.81071" lon="10.91419"><ele>684</ele></trkpt>
<trkpt lat="47.81075" lon="10.91425"><ele>684</ele></trkpt>
<trkpt lat="47.81077" lon="10.91467"><ele>684</ele></trkpt>
<trkpt lat="47.81075" lon="10.91473"><ele>685</ele></trkpt>
<trkpt lat="47.81072" lon="10.91530"><ele>687</ele></trkpt>
<trkpt lat="47.81061" lon="10.91590"><ele>688</ele></trkpt>
<trkpt lat="47.81039" lon="10.91678"><ele>689</ele></trkpt>
<trkpt lat="47.81021" lon="10.91733"><ele>690</ele></trkpt>
<trkpt lat="47.80998" lon="10.91777"><ele>691</ele></trkpt>
<trkpt lat="47.80966" lon="10.91809"><ele>692</ele></trkpt>
<trkpt lat="47.80900" lon="10.91961"><ele>696</ele></trkpt>
<trkpt lat="47.80891" lon="10.91990"><ele>696</ele></trkpt>
<trkpt lat="47.80894" lon="10.92016"><ele>696</ele></trkpt>
<trkpt lat="47.80924" lon="10.92061"><ele>696</ele></trkpt>
<trkpt lat="47.80929" lon="10.92081"><ele>696</ele></trkpt>
<trkpt lat="47.80931" lon="10.92111"><ele>696</ele></trkpt>
<trkpt lat="47.80928" lon="10.92126"><ele>695</ele></trkpt>
<trkpt lat="47.80917" lon="10.92147"><ele>695</ele></trkpt>
<trkpt lat="47.80903" lon="10.92161"><ele>696</ele></trkpt>
<trkpt lat="47.80893" lon="10.92181"><ele>697</ele></trkpt>
<trkpt lat="47.80886" lon="10.92197"><ele>698</ele></trkpt>
<trkpt lat="47.80882" lon="10.92222"><ele>699</ele></trkpt>
<trkpt lat="47.80875" lon="10.92306"><ele>698</ele></trkpt>
<trkpt lat="47.80876" lon="10.92344"><ele>699</ele></trkpt>
<trkpt lat="47.80894" lon="10.92474"><ele>699</ele></trkpt>
<trkpt lat="47.80883" lon="10.92523"><ele>700</ele></trkpt>
<trkpt lat="47.80858" lon="10.92614"><ele>700</ele></trkpt>
<trkpt lat="47.80853" lon="10.92625"><ele>700</ele></trkpt>
<trkpt lat="47.80838" lon="10.92629"><ele>701</ele></trkpt>
<trkpt lat="47.80737" lon="10.92604"><ele>704</ele></trkpt>
<trkpt lat="47.80719" lon="10.92607"><ele>704</ele></trkpt>
<trkpt lat="47.80713" lon="10.92616"><ele>705</ele></trkpt>
<trkpt lat="47.80693" lon="10.92760"><ele>709</ele></trkpt>
<trkpt lat="47.80681" lon="10.92874"><ele>709</ele></trkpt>
<trkpt lat="47.80677" lon="10.93015"><ele>706</ele></trkpt>
<trkpt lat="47.80675" lon="10.93026"><ele>706</ele></trkpt>
<trkpt lat="47.80669" lon="10.93025"><ele>706</ele></trkpt>
<trkpt lat="47.80665" lon="10.93030"><ele>706</ele></trkpt>
<trkpt lat="47.80665" lon="10.93041"><ele>706</ele></trkpt>
<trkpt lat="47.80670" lon="10.93046"><ele>706</ele></trkpt>
<trkpt lat="47.80660" lon="10.93100"><ele>704</ele></trkpt>
<trkpt lat="47.80612" lon="10.93202"><ele>705</ele></trkpt>
<trkpt lat="47.80608" lon="10.93217"><ele>705</ele></trkpt>
<trkpt lat="47.80593" lon="10.93416"><ele>706</ele></trkpt>
<trkpt lat="47.80571" lon="10.93493"><ele>706</ele></trkpt>
<trkpt lat="47.80555" lon="10.93521"><ele>706</ele></trkpt>
<trkpt lat="47.80562" lon="10.93541"><ele>706</ele></trkpt>
<trkpt lat="47.80565" lon="10.93587"><ele>706</ele></trkpt>
<trkpt lat="47.80578" lon="10.93839"><ele>704</ele></trkpt>
<trkpt lat="47.80504" lon="10.93834"><ele>706</ele></trkpt>
<trkpt lat="47.80505" lon="10.93883"><ele>705</ele></trkpt>
<trkpt lat="47.80497" lon="10.93986"><ele>705</ele></trkpt>
<trkpt lat="47.80461" lon="10.94235"><ele>704</ele></trkpt>
<trkpt lat="47.80454" lon="10.94299"><ele>704</ele></trkpt>
<trkpt lat="47.80450" lon="10.94370"><ele>704</ele></trkpt>
<trkpt lat="47.80452" lon="10.94432"><ele>706</ele></trkpt>
<trkpt lat="47.80507" lon="10.94457"><ele>708</ele></trkpt>
<trkpt lat="47.80533" lon="10.94453"><ele>708</ele></trkpt>
<trkpt lat="47.80541" lon="10.94462"><ele>708</ele></trkpt>
<trkpt lat="47.80543" lon="10.94487"><ele>708</ele></trkpt>
<trkpt lat="47.80539" lon="10.94521"><ele>707</ele></trkpt>
<trkpt lat="47.80543" lon="10.94545"><ele>705</ele></trkpt>
<trkpt lat="47.80557" lon="10.94569"><ele>703</ele></trkpt>
<trkpt lat="47.80596" lon="10.94614"><ele>702</ele></trkpt>
<trkpt lat="47.80619" lon="10.94671"><ele>703</ele></trkpt>
<trkpt lat="47.80632" lon="10.94754"><ele>706</ele></trkpt>
<trkpt lat="47.80633" lon="10.94819"><ele>705</ele></trkpt>
<trkpt lat="47.80629" lon="10.94910"><ele>708</ele></trkpt>
<trkpt lat="47.80635" lon="10.94949"><ele>712</ele></trkpt>
<trkpt lat="47.80658" lon="10.94985"><ele>715</ele></trkpt>
<trkpt lat="47.80675" lon="10.95018"><ele>717</ele></trkpt>
<trkpt lat="47.80703" lon="10.95134"><ele>720</ele></trkpt>
<trkpt lat="47.80707" lon="10.95144"><ele>720</ele></trkpt>
<trkpt lat="47.80763" lon="10.95200"><ele>720</ele></trkpt>
<trkpt lat="47.80816" lon="10.95236"><ele>721</ele></trkpt>
<trkpt lat="47.80830" lon="10.95252"><ele>722</ele></trkpt>
<trkpt lat="47.80827" lon="10.95296"><ele>723</ele></trkpt>
<trkpt lat="47.80829" lon="10.95354"><ele>726</ele></trkpt>
<trkpt lat="47.80811" lon="10.95486"><ele>734</ele></trkpt>
<trkpt lat="47.80811" lon="10.95636"><ele>735</ele></trkpt>
<trkpt lat="47.80814" lon="10.95652"><ele>736</ele></trkpt>
<trkpt lat="47.80868" lon="10.95756"><ele>736</ele></trkpt>
<trkpt lat="47.80893" lon="10.95790"><ele>736</ele></trkpt>
<trkpt lat="47.80922" lon="10.95818"><ele>735</ele></trkpt>
<trkpt lat="47.80940" lon="10.95849"><ele>736</ele></trkpt>
<trkpt lat="47.80951" lon="10.95879"><ele>736</ele></trkpt>
<trkpt lat="47.80957" lon="10.95906"><ele>736</ele></trkpt>
<trkpt lat="47.80963" lon="10.95949"><ele>737</ele></trkpt>
<trkpt lat="47.80995" lon="10.96109"><ele>735</ele></trkpt>
<trkpt lat="47.80995" lon="10.96173"><ele>732</ele></trkpt>
<trkpt lat="47.80984" lon="10.96242"><ele>733</ele></trkpt>
<trkpt lat="47.80921" lon="10.96452"><ele>738</ele></trkpt>
<trkpt lat="47.80918" lon="10.96470"><ele>738</ele></trkpt>
<trkpt lat="47.80925" lon="10.96567"><ele>738</ele></trkpt>
<trkpt lat="47.80935" lon="10.96621"><ele>738</ele></trkpt>
<trkpt lat="47.80940" lon="10.96642"><ele>738</ele></trkpt>
<trkpt lat="47.80948" lon="10.96654"><ele>738</ele></trkpt>
<trkpt lat="47.81041" lon="10.96775"><ele>733</ele></trkpt>
<trkpt lat="47.81053" lon="10.96810"><ele>732</ele></trkpt>
<trkpt lat="47.81070" lon="10.96890"><ele>730</ele></trkpt>
<trkpt lat="47.81068" lon="10.96968"><ele>733</ele></trkpt>
<trkpt lat="47.81080" lon="10.97022"><ele>736</ele></trkpt>
<trkpt lat="47.81078" lon="10.97063"><ele>737</ele></trkpt>
<trkpt lat="47.81069" lon="10.97100"><ele>738</ele></trkpt>
<trkpt lat="47.81065" lon="10.97170"><ele>740</ele></trkpt>
<trkpt lat="47.81066" lon="10.97211"><ele>742</ele></trkpt>
<trkpt lat="47.81081" lon="10.97273"><ele>744</ele></trkpt>
<trkpt lat="47.81088" lon="10.97289"><ele>744</ele></trkpt>
<trkpt lat="47.81146" lon="10.97365"><ele>745</ele></trkpt>
<trkpt lat="47.81189" lon="10.97435"><ele>745</ele></trkpt>
<trkpt lat="47.81222" lon="10.97494"><ele>745</ele></trkpt>
<trkpt lat="47.81240" lon="10.97561"><ele>747</ele></trkpt>
<trkpt lat="47.81291" lon="10.97655"><ele>751</ele></trkpt>
<trkpt lat="47.81367" lon="10.97771"><ele>754</ele></trkpt>
    </trkseg>
  </trk>
</gpx>
