<?xml version="1.0" encoding="UTF-8"?>
<gpx version="1.1" creator="Gravel Kompass" xmlns="http://www.topografix.com/GPX/1/1">
  <metadata><name>Eichenau – Wieskirche: Lechtal, Pfaffenwinkel &amp; Ammersee – Etappe 3</name></metadata>
  <trk>
    <name>Etappe 3: Weilheim in Oberbayern – Eichenau</name>
    <trkseg>
<trkpt lat="47.83902" lon="11.14268"><ele>563</ele></trkpt>
<trkpt lat="47.83887" lon="11.14257"><ele>563</ele></trkpt>
<trkpt lat="47.83876" lon="11.14184"><ele>563</ele></trkpt>
<trkpt lat="47.83897" lon="11.14049"><ele>562</ele></trkpt>
<trkpt lat="47.83925" lon="11.14054"><ele>561</ele></trkpt>
<trkpt lat="47.83943" lon="11.13870"><ele>557</ele></trkpt>
<trkpt lat="47.83962" lon="11.13758"><ele>556</ele></trkpt>
<trkpt lat="47.84008" lon="11.13781"><ele>557</ele></trkpt>
<trkpt lat="47.84031" lon="11.13800"><ele>557</ele></trkpt>
<trkpt lat="47.84052" lon="11.13824"><ele>556</ele></trkpt>
<trkpt lat="47.84078" lon="11.13720"><ele>556</ele></trkpt>
<trkpt lat="47.84082" lon="11.13712"><ele>556</ele></trkpt>
<trkpt lat="47.84089" lon="11.13708"><ele>556</ele></trkpt>
<trkpt lat="47.84206" lon="11.13692"><ele>556</ele></trkpt>
<trkpt lat="47.84204" lon="11.13670"><ele>556</ele></trkpt>
<trkpt lat="47.84230" lon="11.13678"><ele>555</ele></trkpt>
<trkpt lat="47.84320" lon="11.13718"><ele>556</ele></trkpt>
<trkpt lat="47.84385" lon="11.13728"><ele>556</ele></trkpt>
<trkpt lat="47.84449" lon="11.13723"><ele>556</ele></trkpt>
<trkpt lat="47.84518" lon="11.13698"><ele>555</ele></trkpt>
<trkpt lat="47.84550" lon="11.13678"><ele>554</ele></trkpt>
<trkpt lat="47.84581" lon="11.13649"><ele>554</ele></trkpt>
<trkpt lat="47.84603" lon="11.13635"><ele>554</ele></trkpt>
<trkpt lat="47.84629" lon="11.13624"><ele>554</ele></trkpt>
<trkpt lat="47.84688" lon="11.13578"><ele>554</ele></trkpt>
<trkpt lat="47.84761" lon="11.13547"><ele>554</ele></trkpt>
<trkpt lat="47.84744" lon="11.13473"><ele>555</ele></trkpt>
<trkpt lat="47.84771" lon="11.13471"><ele>554</ele></trkpt>
<trkpt lat="47.84857" lon="11.13435"><ele>552</ele></trkpt>
<trkpt lat="47.84889" lon="11.13415"><ele>554</ele></trkpt>
<trkpt lat="47.84929" lon="11.13405"><ele>554</ele></trkpt>
<trkpt lat="47.85069" lon="11.13447"><ele>554</ele></trkpt>
<trkpt lat="47.85100" lon="11.13479"><ele>554</ele></trkpt>
<trkpt lat="47.85175" lon="11.13595"><ele>554</ele></trkpt>
<trkpt lat="47.85201" lon="11.13651"><ele>554</ele></trkpt>
<trkpt lat="47.85280" lon="11.13841"><ele>556</ele></trkpt>
<trkpt lat="47.85304" lon="11.13941"><ele>554</ele></trkpt>
<trkpt lat="47.85323" lon="11.14007"><ele>553</ele></trkpt>
<trkpt lat="47.85366" lon="11.14094"><ele>554</ele></trkpt>
<trkpt lat="47.85422" lon="11.14179"><ele>554</ele></trkpt>
<trkpt lat="47.85440" lon="11.14192"><ele>554</ele></trkpt>
<trkpt lat="47.85465" lon="11.14202"><ele>554</ele></trkpt>
<trkpt lat="47.85504" lon="11.14229"><ele>554</ele></trkpt>
<trkpt lat="47.85555" lon="11.14233"><ele>552</ele></trkpt>
<trkpt lat="47.85635" lon="11.14252"><ele>553</ele></trkpt>
<trkpt lat="47.85657" lon="11.14245"><ele>552</ele></trkpt>
<trkpt lat="47.85778" lon="11.14166"><ele>552</ele></trkpt>
<trkpt lat="47.85790" lon="11.14165"><ele>552</ele></trkpt>
<trkpt lat="47.85842" lon="11.14183"><ele>552</ele></trkpt>
<trkpt lat="47.85865" lon="11.14178"><ele>551</ele></trkpt>
<trkpt lat="47.85920" lon="11.14148"><ele>551</ele></trkpt>
<trkpt lat="47.85974" lon="11.14136"><ele>552</ele></trkpt>
<trkpt lat="47.86071" lon="11.14124"><ele>550</ele></trkpt>
<trkpt lat="47.86063" lon="11.13193"><ele>549</ele></trkpt>
<trkpt lat="47.86084" lon="11.13174"><ele>549</ele></trkpt>
<trkpt lat="47.86104" lon="11.13141"><ele>549</ele></trkpt>
<trkpt lat="47.86197" lon="11.12963"><ele>549</ele></trkpt>
<trkpt lat="47.86429" lon="11.12533"><ele>549</ele></trkpt>
<trkpt lat="47.86440" lon="11.12518"><ele>549</ele></trkpt>
<trkpt lat="47.86463" lon="11.12504"><ele>549</ele></trkpt>
<trkpt lat="47.86597" lon="11.12356"><ele>550</ele></trkpt>
<trkpt lat="47.87037" lon="11.11899"><ele>552</ele></trkpt>
<trkpt lat="47.87031" lon="11.11586"><ele>555</ele></trkpt>
<trkpt lat="47.87024" lon="11.10855"><ele>558</ele></trkpt>
<trkpt lat="47.87021" lon="11.10798"><ele>558</ele></trkpt>
<trkpt lat="47.87008" lon="11.10675"><ele>558</ele></trkpt>
<trkpt lat="47.87005" lon="11.10466"><ele>563</ele></trkpt>
<trkpt lat="47.87028" lon="11.10467"><ele>562</ele></trkpt>
<trkpt lat="47.87096" lon="11.10443"><ele>561</ele></trkpt>
<trkpt lat="47.87139" lon="11.10444"><ele>561</ele></trkpt>
<trkpt lat="47.87205" lon="11.10461"><ele>560</ele></trkpt>
<trkpt lat="47.87219" lon="11.10457"><ele>560</ele></trkpt>
<trkpt lat="47.87234" lon="11.10444"><ele>560</ele></trkpt>
<trkpt lat="47.87298" lon="11.10345"><ele>560</ele></trkpt>
<trkpt lat="47.87307" lon="11.10320"><ele>561</ele></trkpt>
<trkpt lat="47.87317" lon="11.10272"><ele>561</ele></trkpt>
<trkpt lat="47.87445" lon="11.10318"><ele>558</ele></trkpt>
<trkpt lat="47.87477" lon="11.10319"><ele>558</ele></trkpt>
<trkpt lat="47.87502" lon="11.10314"><ele>559</ele></trkpt>
<trkpt lat="47.87586" lon="11.10275"><ele>557</ele></trkpt>
<trkpt lat="47.87608" lon="11.10274"><ele>557</ele></trkpt>
<trkpt lat="47.87636" lon="11.10289"><ele>558</ele></trkpt>
<trkpt lat="47.87656" lon="11.10285"><ele>558</ele></trkpt>
<trkpt lat="47.87750" lon="11.10338"><ele>558</ele></trkpt>
<trkpt lat="47.87769" lon="11.10341"><ele>558</ele></trkpt>
<trkpt lat="47.87864" lon="11.10311"><ele>558</ele></trkpt>
<trkpt lat="47.87886" lon="11.10310"><ele>558</ele></trkpt>
<trkpt lat="47.87935" lon="11.10320"><ele>557</ele></trkpt>
<trkpt lat="47.88000" lon="11.10346"><ele>556</ele></trkpt>
<trkpt lat="47.88026" lon="11.10345"><ele>556</ele></trkpt>
<trkpt lat="47.88079" lon="11.10328"><ele>556</ele></trkpt>
<trkpt lat="47.88109" lon="11.10332"><ele>556</ele></trkpt>
<trkpt lat="47.88269" lon="11.10331"><ele>556</ele></trkpt>
<trkpt lat="47.88279" lon="11.10311"><ele>557</ele></trkpt>
<trkpt lat="47.88364" lon="11.10304"><ele>558</ele></trkpt>
<trkpt lat="47.88397" lon="11.10305"><ele>558</ele></trkpt>
<trkpt lat="47.88459" lon="11.10317"><ele>556</ele></trkpt>
<trkpt lat="47.88494" lon="11.10319"><ele>556</ele></trkpt>
<trkpt lat="47.88532" lon="11.10329"><ele>556</ele></trkpt>
<trkpt lat="47.88577" lon="11.10325"><ele>555</ele></trkpt>
<trkpt lat="47.88699" lon="11.10337"><ele>554</ele></trkpt>
<trkpt lat="47.88717" lon="11.10335"><ele>554</ele></trkpt>
<trkpt lat="47.88768" lon="11.10301"><ele>555</ele></trkpt>
<trkpt lat="47.88787" lon="11.10294"><ele>555</ele></trkpt>
<trkpt lat="47.88825" lon="11.10294"><ele>554</ele></trkpt>
<trkpt lat="47.88945" lon="11.10300"><ele>555</ele></trkpt>
<trkpt lat="47.89168" lon="11.10295"><ele>556</ele></trkpt>
<trkpt lat="47.89230" lon="11.10304"><ele>555</ele></trkpt>
<trkpt lat="47.89419" lon="11.10356"><ele>554</ele></trkpt>
<trkpt lat="47.89457" lon="11.10361"><ele>554</ele></trkpt>
<trkpt lat="47.89499" lon="11.10361"><ele>554</ele></trkpt>
<trkpt lat="47.89679" lon="11.10323"><ele>554</ele></trkpt>
<trkpt lat="47.89695" lon="11.10511"><ele>554</ele></trkpt>
<trkpt lat="47.89696" lon="11.10789"><ele>554</ele></trkpt>
<trkpt lat="47.89878" lon="11.10749"><ele>554</ele></trkpt>
<trkpt lat="47.90131" lon="11.10731"><ele>553</ele></trkpt>
<trkpt lat="47.90176" lon="11.10733"><ele>553</ele></trkpt>
<trkpt lat="47.90299" lon="11.10782"><ele>553</ele></trkpt>
<trkpt lat="47.90402" lon="11.10808"><ele>553</ele></trkpt>
<trkpt lat="47.90598" lon="11.10824"><ele>550</ele></trkpt>
<trkpt lat="47.90828" lon="11.10849"><ele>552</ele></trkpt>
<trkpt lat="47.90789" lon="11.11656"><ele>551</ele></trkpt>
<trkpt lat="47.90779" lon="11.11655"><ele>551</ele></trkpt>
<trkpt lat="47.90779" lon="11.11676"><ele>551</ele></trkpt>
<trkpt lat="47.90781" lon="11.11695"><ele>551</ele></trkpt>
<trkpt lat="47.90787" lon="11.11717"><ele>550</ele></trkpt>
<trkpt lat="47.90814" lon="11.11749"><ele>553</ele></trkpt>
<trkpt lat="47.90823" lon="11.11753"><ele>553</ele></trkpt>
<trkpt lat="47.90855" lon="11.11807"><ele>551</ele></trkpt>
<trkpt lat="47.90876" lon="11.11807"><ele>551</ele></trkpt>
<trkpt lat="47.91059" lon="11.11749"><ele>549</ele></trkpt>
<trkpt lat="47.91086" lon="11.11735"><ele>548</ele></trkpt>
<trkpt lat="47.91110" lon="11.11689"><ele>549</ele></trkpt>
<trkpt lat="47.91132" lon="11.11662"><ele>549</ele></trkpt>
<trkpt lat="47.91175" lon="11.11640"><ele>549</ele></trkpt>
<trkpt lat="47.91221" lon="11.11621"><ele>547</ele></trkpt>
<trkpt lat="47.91237" lon="11.11619"><ele>548</ele></trkpt>
<trkpt lat="47.91335" lon="11.11560"><ele>549</ele></trkpt>
<trkpt lat="47.91419" lon="11.11524"><ele>548</ele></trkpt>
<trkpt lat="47.91442" lon="11.11548"><ele>545</ele></trkpt>
<trkpt lat="47.91454" lon="11.11552"><ele>544</ele></trkpt>
<trkpt lat="47.91481" lon="11.11616"><ele>540</ele></trkpt>
<trkpt lat="47.91492" lon="11.11617"><ele>540</ele></trkpt>
<trkpt lat="47.91504" lon="11.11623"><ele>539</ele></trkpt>
<trkpt lat="47.91604" lon="11.11651"><ele>538</ele></trkpt>
<trkpt lat="47.92044" lon="11.11711"><ele>536</ele></trkpt>
<trkpt lat="47.92028" lon="11.11575"><ele>537</ele></trkpt>
<trkpt lat="47.92187" lon="11.11534"><ele>537</ele></trkpt>
<trkpt lat="47.92227" lon="11.11517"><ele>536</ele></trkpt>
<trkpt lat="47.92377" lon="11.11415"><ele>536</ele></trkpt>
<trkpt lat="47.92355" lon="11.11304"><ele>536</ele></trkpt>
<trkpt lat="47.92349" lon="11.11295"><ele>536</ele></trkpt>
<trkpt lat="47.92341" lon="11.11293"><ele>537</ele></trkpt>
<trkpt lat="47.92285" lon="11.11280"><ele>537</ele></trkpt>
<trkpt lat="47.92249" lon="11.11165"><ele>539</ele></trkpt>
<trkpt lat="47.92250" lon="11.11094"><ele>539</ele></trkpt>
<trkpt lat="47.92239" lon="11.11030"><ele>540</ele></trkpt>
<trkpt lat="47.92266" lon="11.11021"><ele>539</ele></trkpt>
<trkpt lat="47.92304" lon="11.11017"><ele>539</ele></trkpt>
<trkpt lat="47.92363" lon="11.11025"><ele>539</ele></trkpt>
<trkpt lat="47.92508" lon="11.11059"><ele>538</ele></trkpt>
<trkpt lat="47.92577" lon="11.11066"><ele>538</ele></trkpt>
<trkpt lat="47.92753" lon="11.11066"><ele>536</ele></trkpt>
<trkpt lat="47.92887" lon="11.11050"><ele>536</ele></trkpt>
<trkpt lat="47.93010" lon="11.11024"><ele>535</ele></trkpt>
<trkpt lat="47.93152" lon="11.10983"><ele>534</ele></trkpt>
<trkpt lat="47.93140" lon="11.10977"><ele>535</ele></trkpt>
<trkpt lat="47.93080" lon="11.10986"><ele>535</ele></trkpt>
<trkpt lat="47.93071" lon="11.10984"><ele>536</ele></trkpt>
<trkpt lat="47.93060" lon="11.10970"><ele>538</ele></trkpt>
<trkpt lat="47.93056" lon="11.10956"><ele>538</ele></trkpt>
<trkpt lat="47.93047" lon="11.10867"><ele>537</ele></trkpt>
<trkpt lat="47.93038" lon="11.10767"><ele>536</ele></trkpt>
<trkpt lat="47.93038" lon="11.10720"><ele>536</ele></trkpt>
<trkpt lat="47.93024" lon="11.10599"><ele>538</ele></trkpt>
<trkpt lat="47.93002" lon="11.10500"><ele>543</ele></trkpt>
<trkpt lat="47.93046" lon="11.10477"><ele>545</ele></trkpt>
<trkpt lat="47.93095" lon="11.10439"><ele>547</ele></trkpt>
<trkpt lat="47.93128" lon="11.10424"><ele>548</ele></trkpt>
<trkpt lat="47.93192" lon="11.10413"><ele>548</ele></trkpt>
<trkpt lat="47.93236" lon="11.10427"><ele>546</ele></trkpt>
<trkpt lat="47.93232" lon="11.10414"><ele>547</ele></trkpt>
<trkpt lat="47.93215" lon="11.10390"><ele>550</ele></trkpt>
<trkpt lat="47.93179" lon="11.10354"><ele>554</ele></trkpt>
<trkpt lat="47.93139" lon="11.10291"><ele>560</ele></trkpt>
<trkpt lat="47.93092" lon="11.10194"><ele>563</ele></trkpt>
<trkpt lat="47.93052" lon="11.10148"><ele>567</ele></trkpt>
<trkpt lat="47.93000" lon="11.10079"><ele>570</ele></trkpt>
<trkpt lat="47.92904" lon="11.09938"><ele>573</ele></trkpt>
<trkpt lat="47.92896" lon="11.09913"><ele>574</ele></trkpt>
<trkpt lat="47.92882" lon="11.09816"><ele>575</ele></trkpt>
<trkpt lat="47.92880" lon="11.09542"><ele>581</ele></trkpt>
<trkpt lat="47.92873" lon="11.09518"><ele>581</ele></trkpt>
<trkpt lat="47.92873" lon="11.09507"><ele>581</ele></trkpt>
<trkpt lat="47.92874" lon="11.09496"><ele>582</ele></trkpt>
<trkpt lat="47.92893" lon="11.09479"><ele>582</ele></trkpt>
<trkpt lat="47.92972" lon="11.09389"><ele>584</ele></trkpt>
<trkpt lat="47.93012" lon="11.09371"><ele>585</ele></trkpt>
<trkpt lat="47.93078" lon="11.09288"><ele>587</ele></trkpt>
<trkpt lat="47.93183" lon="11.09145"><ele>593</ele></trkpt>
<trkpt lat="47.93197" lon="11.09131"><ele>594</ele></trkpt>
<trkpt lat="47.93242" lon="11.09112"><ele>597</ele></trkpt>
<trkpt lat="47.93280" lon="11.09104"><ele>600</ele></trkpt>
<trkpt lat="47.93361" lon="11.09134"><ele>600</ele></trkpt>
<trkpt lat="47.93459" lon="11.09146"><ele>599</ele></trkpt>
<trkpt lat="47.93492" lon="11.09146"><ele>600</ele></trkpt>
<trkpt lat="47.93509" lon="11.09140"><ele>601</ele></trkpt>
<trkpt lat="47.93537" lon="11.09105"><ele>602</ele></trkpt>
<trkpt lat="47.93555" lon="11.09095"><ele>603</ele></trkpt>
<trkpt lat="47.93594" lon="11.09090"><ele>602</ele></trkpt>
<trkpt lat="47.93637" lon="11.09116"><ele>599</ele></trkpt>
<trkpt lat="47.93688" lon="11.09163"><ele>595</ele></trkpt>
<trkpt lat="47.93728" lon="11.09192"><ele>593</ele></trkpt>
<trkpt lat="47.93753" lon="11.09220"><ele>591</ele></trkpt>
<trkpt lat="47.93777" lon="11.09256"><ele>589</ele></trkpt>
<trkpt lat="47.93785" lon="11.09250"><ele>589</ele></trkpt>
<trkpt lat="47.93895" lon="11.09199"><ele>588</ele></trkpt>
<trkpt lat="47.93962" lon="11.09175"><ele>589</ele></trkpt>
<trkpt lat="47.94086" lon="11.09117"><ele>591</ele></trkpt>
<trkpt lat="47.94122" lon="11.09079"><ele>593</ele></trkpt>
<trkpt lat="47.94158" lon="11.09024"><ele>596</ele></trkpt>
<trkpt lat="47.94170" lon="11.09010"><ele>596</ele></trkpt>
<trkpt lat="47.94234" lon="11.08985"><ele>599</ele></trkpt>
<trkpt lat="47.94297" lon="11.08985"><ele>598</ele></trkpt>
<trkpt lat="47.94303" lon="11.09018"><ele>597</ele></trkpt>
<trkpt lat="47.94311" lon="11.09032"><ele>597</ele></trkpt>
<trkpt lat="47.94349" lon="11.09039"><ele>594</ele></trkpt>
<trkpt lat="47.94369" lon="11.09021"><ele>592</ele></trkpt>
<trkpt lat="47.94417" lon="11.08961"><ele>589</ele></trkpt>
<trkpt lat="47.94432" lon="11.08954"><ele>590</ele></trkpt>
<trkpt lat="47.94442" lon="11.08955"><ele>590</ele></trkpt>
<trkpt lat="47.94452" lon="11.08964"><ele>591</ele></trkpt>
<trkpt lat="47.94461" lon="11.08981"><ele>592</ele></trkpt>
<trkpt lat="47.94476" lon="11.08994"><ele>592</ele></trkpt>
<trkpt lat="47.94476" lon="11.09012"><ele>593</ele></trkpt>
<trkpt lat="47.94486" lon="11.09058"><ele>596</ele></trkpt>
<trkpt lat="47.94495" lon="11.09070"><ele>596</ele></trkpt>
<trkpt lat="47.94506" lon="11.09117"><ele>596</ele></trkpt>
<trkpt lat="47.94524" lon="11.09149"><ele>596</ele></trkpt>
<trkpt lat="47.94562" lon="11.09230"><ele>593</ele></trkpt>
<trkpt lat="47.94569" lon="11.09267"><ele>591</ele></trkpt>
<trkpt lat="47.94576" lon="11.09394"><ele>586</ele></trkpt>
<trkpt lat="47.94590" lon="11.09486"><ele>582</ele></trkpt>
<trkpt lat="47.94605" lon="11.09536"><ele>580</ele></trkpt>
<trkpt lat="47.94623" lon="11.09573"><ele>578</ele></trkpt>
<trkpt lat="47.94698" lon="11.09561"><ele>578</ele></trkpt>
<trkpt lat="47.94826" lon="11.09558"><ele>579</ele></trkpt>
<trkpt lat="47.94841" lon="11.09606"><ele>578</ele></trkpt>
<trkpt lat="47.94864" lon="11.09640"><ele>577</ele></trkpt>
<trkpt lat="47.94921" lon="11.09656"><ele>575</ele></trkpt>
<trkpt lat="47.94970" lon="11.09683"><ele>574</ele></trkpt>
<trkpt lat="47.95026" lon="11.09718"><ele>572</ele></trkpt>
<trkpt lat="47.95091" lon="11.09778"><ele>569</ele></trkpt>
<trkpt lat="47.95100" lon="11.09790"><ele>568</ele></trkpt>
<trkpt lat="47.95122" lon="11.09869"><ele>565</ele></trkpt>
<trkpt lat="47.95148" lon="11.09912"><ele>563</ele></trkpt>
<trkpt lat="47.95154" lon="11.09949"><ele>561</ele></trkpt>
<trkpt lat="47.95172" lon="11.09946"><ele>561</ele></trkpt>
<trkpt lat="47.95224" lon="11.09959"><ele>560</ele></trkpt>
<trkpt lat="47.95242" lon="11.09958"><ele>560</ele></trkpt>
<trkpt lat="47.95284" lon="11.09939"><ele>559</ele></trkpt>
<trkpt lat="47.95414" lon="11.09932"><ele>559</ele></trkpt>
<trkpt lat="47.95484" lon="11.09932"><ele>558</ele></trkpt>
<trkpt lat="47.95500" lon="11.09937"><ele>557</ele></trkpt>
<trkpt lat="47.95514" lon="11.09773"><ele>567</ele></trkpt>
<trkpt lat="47.95521" lon="11.09771"><ele>567</ele></trkpt>
<trkpt lat="47.95547" lon="11.09777"><ele>568</ele></trkpt>
<trkpt lat="47.95580" lon="11.09793"><ele>566</ele></trkpt>
<trkpt lat="47.95629" lon="11.09789"><ele>566</ele></trkpt>
<trkpt lat="47.95633" lon="11.09781"><ele>566</ele></trkpt>
<trkpt lat="47.95645" lon="11.09717"><ele>567</ele></trkpt>
<trkpt lat="47.95654" lon="11.09719"><ele>567</ele></trkpt>
<trkpt lat="47.95684" lon="11.09744"><ele>565</ele></trkpt>
<trkpt lat="47.95955" lon="11.09748"><ele>562</ele></trkpt>
<trkpt lat="47.96015" lon="11.09755"><ele>559</ele></trkpt>
<trkpt lat="47.96049" lon="11.09738"><ele>556</ele></trkpt>
<trkpt lat="47.96148" lon="11.09718"><ele>556</ele></trkpt>
<trkpt lat="47.96184" lon="11.09712"><ele>557</ele></trkpt>
<trkpt lat="47.96253" lon="11.09712"><ele>558</ele></trkpt>
<trkpt lat="47.96251" lon="11.09792"><ele>557</ele></trkpt>
<trkpt lat="47.96254" lon="11.09879"><ele>553</ele></trkpt>
<trkpt lat="47.96382" lon="11.09883"><ele>553</ele></trkpt>
<trkpt lat="47.96387" lon="11.09887"><ele>553</ele></trkpt>
<trkpt lat="47.96392" lon="11.09902"><ele>552</ele></trkpt>
<trkpt lat="47.96393" lon="11.09934"><ele>552</ele></trkpt>
<trkpt lat="47.96405" lon="11.09929"><ele>552</ele></trkpt>
<trkpt lat="47.96444" lon="11.09893"><ele>553</ele></trkpt>
<trkpt lat="47.96592" lon="11.09780"><ele>550</ele></trkpt>
<trkpt lat="47.96634" lon="11.09744"><ele>550</ele></trkpt>
<trkpt lat="47.96683" lon="11.09692"><ele>552</ele></trkpt>
<trkpt lat="47.96689" lon="11.09667"><ele>553</ele></trkpt>
<trkpt lat="47.96694" lon="11.09608"><ele>554</ele></trkpt>
<trkpt lat="47.96687" lon="11.09538"><ele>556</ele></trkpt>
<trkpt lat="47.96754" lon="11.09546"><ele>555</ele></trkpt>
<trkpt lat="47.96815" lon="11.09538"><ele>554</ele></trkpt>
<trkpt lat="47.96937" lon="11.09555"><ele>554</ele></trkpt>
<trkpt lat="47.96950" lon="11.09553"><ele>554</ele></trkpt>
<trkpt lat="47.96987" lon="11.09528"><ele>552</ele></trkpt>
<trkpt lat="47.96959" lon="11.09372"><ele>558</ele></trkpt>
<trkpt lat="47.96931" lon="11.09256"><ele>560</ele></trkpt>
<trkpt lat="47.96939" lon="11.09088"><ele>563</ele></trkpt>
<trkpt lat="47.96975" lon="11.08905"><ele>567</ele></trkpt>
<trkpt lat="47.97044" lon="11.08674"><ele>576</ele></trkpt>
<trkpt lat="47.97101" lon="11.08656"><ele>576</ele></trkpt>
<trkpt lat="47.97150" lon="11.08568"><ele>576</ele></trkpt>
<trkpt lat="47.97209" lon="11.08558"><ele>581</ele></trkpt>
<trkpt lat="47.97304" lon="11.08496"><ele>581</ele></trkpt>
<trkpt lat="47.97337" lon="11.08458"><ele>582</ele></trkpt>
<trkpt lat="47.97388" lon="11.08368"><ele>589</ele></trkpt>
<trkpt lat="47.97413" lon="11.08032"><ele>607</ele></trkpt>
<trkpt lat="47.97414" lon="11.07959"><ele>609</ele></trkpt>
<trkpt lat="47.97407" lon="11.07736"><ele>617</ele></trkpt>
<trkpt lat="47.97402" lon="11.07678"><ele>620</ele></trkpt>
<trkpt lat="47.97366" lon="11.07565"><ele>621</ele></trkpt>
<trkpt lat="47.97342" lon="11.07511"><ele>623</ele></trkpt>
<trkpt lat="47.97732" lon="11.07331"><ele>622</ele></trkpt>
<trkpt lat="47.97765" lon="11.07334"><ele>622</ele></trkpt>
<trkpt lat="47.97827" lon="11.07326"><ele>622</ele></trkpt>
<trkpt lat="47.97946" lon="11.07096"><ele>626</ele></trkpt>
<trkpt lat="47.97959" lon="11.07051"><ele>624</ele></trkpt>
<trkpt lat="47.97980" lon="11.07028"><ele>619</ele></trkpt>
<trkpt lat="47.98000" lon="11.07021"><ele>618</ele></trkpt>
<trkpt lat="47.98031" lon="11.07032"><ele>618</ele></trkpt>
<trkpt lat="47.98116" lon="11.07033"><ele>620</ele></trkpt>
<trkpt lat="47.98448" lon="11.07071"><ele>621</ele></trkpt>
<trkpt lat="47.98485" lon="11.07134"><ele>620</ele></trkpt>
<trkpt lat="47.98514" lon="11.07178"><ele>618</ele></trkpt>
<trkpt lat="47.98531" lon="11.07212"><ele>617</ele></trkpt>
<trkpt lat="47.98551" lon="11.07268"><ele>614</ele></trkpt>
<trkpt lat="47.98574" lon="11.07355"><ele>614</ele></trkpt>
<trkpt lat="47.98580" lon="11.07392"><ele>614</ele></trkpt>
<trkpt lat="47.98578" lon="11.07442"><ele>612</ele></trkpt>
<trkpt lat="47.98585" lon="11.07466"><ele>610</ele></trkpt>
<trkpt lat="47.98620" lon="11.07487"><ele>608</ele></trkpt>
<trkpt lat="47.98631" lon="11.07502"><ele>608</ele></trkpt>
<trkpt lat="47.98635" lon="11.07518"><ele>608</ele></trkpt>
<trkpt lat="47.98636" lon="11.07715"><ele>601</ele></trkpt>
<trkpt lat="47.98647" lon="11.07774"><ele>598</ele></trkpt>
<trkpt lat="47.98664" lon="11.07808"><ele>597</ele></trkpt>
<trkpt lat="47.98707" lon="11.07863"><ele>594</ele></trkpt>
<trkpt lat="47.98776" lon="11.07924"><ele>590</ele></trkpt>
<trkpt lat="47.98788" lon="11.07943"><ele>589</ele></trkpt>
<trkpt lat="47.98777" lon="11.08002"><ele>589</ele></trkpt>
<trkpt lat="47.98792" lon="11.08035"><ele>588</ele></trkpt>
<trkpt lat="47.98819" lon="11.08072"><ele>586</ele></trkpt>
<trkpt lat="47.98841" lon="11.08111"><ele>584</ele></trkpt>
<trkpt lat="47.98897" lon="11.08220"><ele>576</ele></trkpt>
<trkpt lat="47.98945" lon="11.08289"><ele>571</ele></trkpt>
<trkpt lat="47.98962" lon="11.08334"><ele>571</ele></trkpt>
<trkpt lat="47.98999" lon="11.08384"><ele>571</ele></trkpt>
<trkpt lat="47.99019" lon="11.08573"><ele>560</ele></trkpt>
<trkpt lat="47.99074" lon="11.08680"><ele>556</ele></trkpt>
<trkpt lat="47.99076" lon="11.08718"><ele>555</ele></trkpt>
<trkpt lat="47.99147" lon="11.08646"><ele>556</ele></trkpt>
<trkpt lat="47.99169" lon="11.08636"><ele>556</ele></trkpt>
<trkpt lat="47.99197" lon="11.08637"><ele>555</ele></trkpt>
<trkpt lat="47.99226" lon="11.08656"><ele>553</ele></trkpt>
<trkpt lat="47.99225" lon="11.08669"><ele>553</ele></trkpt>
<trkpt lat="47.99229" lon="11.08719"><ele>551</ele></trkpt>
<trkpt lat="47.99240" lon="11.08747"><ele>550</ele></trkpt>
<trkpt lat="47.99261" lon="11.08847"><ele>548</ele></trkpt>
<trkpt lat="47.99348" lon="11.08811"><ele>548</ele></trkpt>
<trkpt lat="47.99409" lon="11.08774"><ele>549</ele></trkpt>
<trkpt lat="47.99439" lon="11.08747"><ele>550</ele></trkpt>
<trkpt lat="47.99482" lon="11.08693"><ele>551</ele></trkpt>
<trkpt lat="47.99527" lon="11.08626"><ele>554</ele></trkpt>
<trkpt lat="47.99565" lon="11.08747"><ele>551</ele></trkpt>
<trkpt lat="47.99589" lon="11.08794"><ele>550</ele></trkpt>
<trkpt lat="47.99608" lon="11.08783"><ele>550</ele></trkpt>
<trkpt lat="47.99629" lon="11.08780"><ele>550</ele></trkpt>
<trkpt lat="47.99657" lon="11.08784"><ele>552</ele></trkpt>
<trkpt lat="47.99776" lon="11.08743"><ele>552</ele></trkpt>
<trkpt lat="47.99812" lon="11.08724"><ele>553</ele></trkpt>
<trkpt lat="47.99863" lon="11.08649"><ele>555</ele></trkpt>
<trkpt lat="47.99890" lon="11.08664"><ele>557</ele></trkpt>
<trkpt lat="47.99966" lon="11.08691"><ele>559</ele></trkpt>
<trkpt lat="48.00131" lon="11.08718"><ele>559</ele></trkpt>
<trkpt lat="48.00163" lon="11.08735"><ele>558</ele></trkpt>
<trkpt lat="48.00191" lon="11.08768"><ele>557</ele></trkpt>
<trkpt lat="48.00276" lon="11.08957"><ele>552</ele></trkpt>
<trkpt lat="48.00315" lon="11.09009"><ele>550</ele></trkpt>
<trkpt lat="48.00324" lon="11.09034"><ele>548</ele></trkpt>
<trkpt lat="48.00330" lon="11.09106"><ele>544</ele></trkpt>
<trkpt lat="48.00338" lon="11.09120"><ele>544</ele></trkpt>
<trkpt lat="48.00377" lon="11.09131"><ele>543</ele></trkpt>
<trkpt lat="48.00413" lon="11.09150"><ele>543</ele></trkpt>
<trkpt lat="48.00493" lon="11.09236"><ele>544</ele></trkpt>
<trkpt lat="48.00511" lon="11.09251"><ele>544</ele></trkpt>
<trkpt lat="48.00533" lon="11.09250"><ele>544</ele></trkpt>
<trkpt lat="48.00579" lon="11.09231"><ele>544</ele></trkpt>
<trkpt lat="48.00600" lon="11.09216"><ele>544</ele></trkpt>
<trkpt lat="48.00605" lon="11.09206"><ele>544</ele></trkpt>
<trkpt lat="48.00624" lon="11.09124"><ele>545</ele></trkpt>
<trkpt lat="48.00641" lon="11.09100"><ele>545</ele></trkpt>
<trkpt lat="48.00760" lon="11.09072"><ele>547</ele></trkpt>
<trkpt lat="48.00761" lon="11.09107"><ele>546</ele></trkpt>
<trkpt lat="48.00757" lon="11.09147"><ele>545</ele></trkpt>
<trkpt lat="48.00798" lon="11.09146"><ele>545</ele></trkpt>
<trkpt lat="48.00830" lon="11.09141"><ele>546</ele></trkpt>
<trkpt lat="48.00921" lon="11.09105"><ele>549</ele></trkpt>
<trkpt lat="48.00960" lon="11.09142"><ele>548</ele></trkpt>
<trkpt lat="48.00983" lon="11.09158"><ele>547</ele></trkpt>
<trkpt lat="48.01019" lon="11.09169"><ele>546</ele></trkpt>
<trkpt lat="48.01031" lon="11.09180"><ele>546</ele></trkpt>
<trkpt lat="48.01043" lon="11.09199"><ele>546</ele></trkpt>
<trkpt lat="48.01075" lon="11.09263"><ele>545</ele></trkpt>
<trkpt lat="48.01089" lon="11.09281"><ele>545</ele></trkpt>
<trkpt lat="48.01145" lon="11.09311"><ele>544</ele></trkpt>
<trkpt lat="48.01170" lon="11.09330"><ele>544</ele></trkpt>
<trkpt lat="48.01229" lon="11.09388"><ele>544</ele></trkpt>
<trkpt lat="48.01246" lon="11.09400"><ele>543</ele></trkpt>
<trkpt lat="48.01341" lon="11.09437"><ele>542</ele></trkpt>
<trkpt lat="48.01392" lon="11.09441"><ele>541</ele></trkpt>
<trkpt lat="48.01408" lon="11.09435"><ele>540</ele></trkpt>
<trkpt lat="48.01457" lon="11.09402"><ele>540</ele></trkpt>
<trkpt lat="48.01491" lon="11.09405"><ele>540</ele></trkpt>
<trkpt lat="48.01537" lon="11.09425"><ele>540</ele></trkpt>
<trkpt lat="48.01716" lon="11.09542"><ele>536</ele></trkpt>
<trkpt lat="48.01821" lon="11.09545"><ele>535</ele></trkpt>
<trkpt lat="48.01845" lon="11.09550"><ele>535</ele></trkpt>
<trkpt lat="48.01931" lon="11.09547"><ele>536</ele></trkpt>
<trkpt lat="48.01950" lon="11.09543"><ele>536</ele></trkpt>
<trkpt lat="48.01991" lon="11.09520"><ele>537</ele></trkpt>
<trkpt lat="48.02094" lon="11.09476"><ele>540</ele></trkpt>
<trkpt lat="48.02116" lon="11.09460"><ele>540</ele></trkpt>
<trkpt lat="48.02132" lon="11.09456"><ele>541</ele></trkpt>
<trkpt lat="48.02181" lon="11.09458"><ele>542</ele></trkpt>
<trkpt lat="48.02253" lon="11.09421"><ele>543</ele></trkpt>
<trkpt lat="48.02271" lon="11.09422"><ele>544</ele></trkpt>
<trkpt lat="48.02266" lon="11.09476"><ele>541</ele></trkpt>
<trkpt lat="48.02321" lon="11.09585"><ele>537</ele></trkpt>
<trkpt lat="48.02324" lon="11.09608"><ele>535</ele></trkpt>
<trkpt lat="48.02320" lon="11.09649"><ele>535</ele></trkpt>
<trkpt lat="48.02358" lon="11.09671"><ele>535</ele></trkpt>
<trkpt lat="48.02353" lon="11.09680"><ele>535</ele></trkpt>
<trkpt lat="48.02375" lon="11.09690"><ele>535</ele></trkpt>
<trkpt lat="48.02398" lon="11.09686"><ele>535</ele></trkpt>
<trkpt lat="48.02452" lon="11.09689"><ele>536</ele></trkpt>
<trkpt lat="48.02511" lon="11.09721"><ele>535</ele></trkpt>
<trkpt lat="48.02574" lon="11.09732"><ele>536</ele></trkpt>
<trkpt lat="48.02828" lon="11.09799"><ele>534</ele></trkpt>
<trkpt lat="48.02856" lon="11.09793"><ele>534</ele></trkpt>
<trkpt lat="48.02891" lon="11.09769"><ele>535</ele></trkpt>
<trkpt lat="48.02909" lon="11.09763"><ele>534</ele></trkpt>
<trkpt lat="48.03049" lon="11.09675"><ele>534</ele></trkpt>
<trkpt lat="48.03110" lon="11.09650"><ele>534</ele></trkpt>
<trkpt lat="48.03211" lon="11.09624"><ele>534</ele></trkpt>
<trkpt lat="48.03287" lon="11.09645"><ele>534</ele></trkpt>
<trkpt lat="48.03353" lon="11.09682"><ele>534</ele></trkpt>
<trkpt lat="48.03419" lon="11.09734"><ele>534</ele></trkpt>
<trkpt lat="48.03437" lon="11.09743"><ele>535</ele></trkpt>
<trkpt lat="48.03548" lon="11.09743"><ele>534</ele></trkpt>
<trkpt lat="48.03607" lon="11.09718"><ele>534</ele></trkpt>
<trkpt lat="48.03687" lon="11.09697"><ele>535</ele></trkpt>
<trkpt lat="48.03812" lon="11.09691"><ele>535</ele></trkpt>
<trkpt lat="48.03868" lon="11.09695"><ele>536</ele></trkpt>
<trkpt lat="48.03894" lon="11.09702"><ele>535</ele></trkpt>
<trkpt lat="48.03915" lon="11.09699"><ele>535</ele></trkpt>
<trkpt lat="48.03934" lon="11.09691"><ele>535</ele></trkpt>
<trkpt lat="48.03962" lon="11.09690"><ele>536</ele></trkpt>
<trkpt lat="48.04062" lon="11.09703"><ele>536</ele></trkpt>
<trkpt lat="48.04161" lon="11.09727"><ele>536</ele></trkpt>
<trkpt lat="48.04205" lon="11.09733"><ele>538</ele></trkpt>
<trkpt lat="48.04279" lon="11.09770"><ele>538</ele></trkpt>
<trkpt lat="48.04320" lon="11.09764"><ele>537</ele></trkpt>
<trkpt lat="48.04350" lon="11.09778"><ele>536</ele></trkpt>
<trkpt lat="48.04463" lon="11.09791"><ele>537</ele></trkpt>
<trkpt lat="48.04501" lon="11.09787"><ele>538</ele></trkpt>
<trkpt lat="48.04552" lon="11.09771"><ele>541</ele></trkpt>
<trkpt lat="48.04597" lon="11.09790"><ele>540</ele></trkpt>
<trkpt lat="48.04615" lon="11.09793"><ele>540</ele></trkpt>
<trkpt lat="48.04740" lon="11.09794"><ele>540</ele></trkpt>
<trkpt lat="48.04749" lon="11.09788"><ele>540</ele></trkpt>
<trkpt lat="48.04763" lon="11.09761"><ele>542</ele></trkpt>
<trkpt lat="48.04882" lon="11.09773"><ele>544</ele></trkpt>
<trkpt lat="48.04964" lon="11.09777"><ele>546</ele></trkpt>
<trkpt lat="48.04978" lon="11.09765"><ele>548</ele></trkpt>
<trkpt lat="48.04989" lon="11.09743"><ele>551</ele></trkpt>
<trkpt lat="48.05000" lon="11.09650"><ele>558</ele></trkpt>
<trkpt lat="48.05007" lon="11.09551"><ele>563</ele></trkpt>
<trkpt lat="48.05087" lon="11.09572"><ele>565</ele></trkpt>
<trkpt lat="48.05091" lon="11.09441"><ele>567</ele></trkpt>
<trkpt lat="48.05106" lon="11.09445"><ele>567</ele></trkpt>
<trkpt lat="48.05136" lon="11.09443"><ele>566</ele></trkpt>
<trkpt lat="48.05204" lon="11.09407"><ele>561</ele></trkpt>
<trkpt lat="48.05258" lon="11.09398"><ele>555</ele></trkpt>
<trkpt lat="48.05277" lon="11.09377"><ele>552</ele></trkpt>
<trkpt lat="48.05286" lon="11.09362"><ele>551</ele></trkpt>
<trkpt lat="48.05313" lon="11.09366"><ele>549</ele></trkpt>
<trkpt lat="48.05314" lon="11.09376"><ele>549</ele></trkpt>
<trkpt lat="48.05354" lon="11.09378"><ele>549</ele></trkpt>
<trkpt lat="48.05374" lon="11.09369"><ele>549</ele></trkpt>
<trkpt lat="48.05415" lon="11.09366"><ele>550</ele></trkpt>
<trkpt lat="48.05425" lon="11.09357"><ele>550</ele></trkpt>
<trkpt lat="48.05415" lon="11.09330"><ele>550</ele></trkpt>
<trkpt lat="48.05412" lon="11.09272"><ele>551</ele></trkpt>
<trkpt lat="48.05409" lon="11.09258"><ele>552</ele></trkpt>
<trkpt lat="48.05376" lon="11.09212"><ele>551</ele></trkpt>
<trkpt lat="48.05347" lon="11.09151"><ele>553</ele></trkpt>
<trkpt lat="48.05353" lon="11.09121"><ele>554</ele></trkpt>
<trkpt lat="48.05354" lon="11.09103"><ele>554</ele></trkpt>
<trkpt lat="48.05349" lon="11.09087"><ele>555</ele></trkpt>
<trkpt lat="48.05357" lon="11.09076"><ele>555</ele></trkpt>
<trkpt lat="48.05396" lon="11.08994"><ele>556</ele></trkpt>
<trkpt lat="48.05426" lon="11.08946"><ele>556</ele></trkpt>
<trkpt lat="48.05436" lon="11.08936"><ele>556</ele></trkpt>
<trkpt lat="48.05514" lon="11.08886"><ele>556</ele></trkpt>
<trkpt lat="48.05499" lon="11.08842"><ele>558</ele></trkpt>
<trkpt lat="48.05512" lon="11.08827"><ele>558</ele></trkpt>
<trkpt lat="48.05582" lon="11.08827"><ele>557</ele></trkpt>
<trkpt lat="48.05677" lon="11.08809"><ele>556</ele></trkpt>
<trkpt lat="48.05721" lon="11.08806"><ele>556</ele></trkpt>
<trkpt lat="48.05772" lon="11.08804"><ele>555</ele></trkpt>
<trkpt lat="48.05820" lon="11.08808"><ele>555</ele></trkpt>
<trkpt lat="48.05893" lon="11.08826"><ele>556</ele></trkpt>
<trkpt lat="48.06090" lon="11.08892"><ele>555</ele></trkpt>
<trkpt lat="48.06137" lon="11.08901"><ele>556</ele></trkpt>
<trkpt lat="48.06158" lon="11.08900"><ele>558</ele></trkpt>
<trkpt lat="48.06294" lon="11.08886"><ele>560</ele></trkpt>
<trkpt lat="48.06374" lon="11.08857"><ele>559</ele></trkpt>
<trkpt lat="48.06411" lon="11.08839"><ele>560</ele></trkpt>
<trkpt lat="48.06482" lon="11.08792"><ele>561</ele></trkpt>
<trkpt lat="48.06494" lon="11.08826"><ele>560</ele></trkpt>
<trkpt lat="48.06498" lon="11.08942"><ele>559</ele></trkpt>
<trkpt lat="48.06544" lon="11.08939"><ele>557</ele></trkpt>
<trkpt lat="48.06603" lon="11.08932"><ele>555</ele></trkpt>
<trkpt lat="48.06626" lon="11.08880"><ele>552</ele></trkpt>
<trkpt lat="48.06674" lon="11.08808"><ele>549</ele></trkpt>
<trkpt lat="48.06699" lon="11.08762"><ele>549</ele></trkpt>
<trkpt lat="48.06787" lon="11.08728"><ele>549</ele></trkpt>
<trkpt lat="48.06827" lon="11.08701"><ele>549</ele></trkpt>
<trkpt lat="48.06836" lon="11.08708"><ele>549</ele></trkpt>
<trkpt lat="48.06837" lon="11.08751"><ele>549</ele></trkpt>
<trkpt lat="48.06857" lon="11.08876"><ele>549</ele></trkpt>
<trkpt lat="48.06900" lon="11.08872"><ele>550</ele></trkpt>
<trkpt lat="48.06962" lon="11.08880"><ele>556</ele></trkpt>
<trkpt lat="48.06987" lon="11.08940"><ele>564</ele></trkpt>
<trkpt lat="48.07012" lon="11.08973"><ele>568</ele></trkpt>
<trkpt lat="48.07026" lon="11.08971"><ele>570</ele></trkpt>
<trkpt lat="48.07033" lon="11.08952"><ele>574</ele></trkpt>
<trkpt lat="48.07038" lon="11.08914"><ele>576</ele></trkpt>
<trkpt lat="48.07030" lon="11.08895"><ele>578</ele></trkpt>
<trkpt lat="48.07028" lon="11.08869"><ele>578</ele></trkpt>
<trkpt lat="48.07032" lon="11.08843"><ele>578</ele></trkpt>
<trkpt lat="48.07060" lon="11.08755"><ele>581</ele></trkpt>
<trkpt lat="48.07072" lon="11.08738"><ele>581</ele></trkpt>
<trkpt lat="48.07100" lon="11.08726"><ele>580</ele></trkpt>
<trkpt lat="48.07097" lon="11.08808"><ele>577</ele></trkpt>
<trkpt lat="48.07100" lon="11.08830"><ele>576</ele></trkpt>
<trkpt lat="48.07142" lon="11.08924"><ele>571</ele></trkpt>
<trkpt lat="48.07169" lon="11.08969"><ele>569</ele></trkpt>
<trkpt lat="48.07270" lon="11.09097"><ele>564</ele></trkpt>
<trkpt lat="48.07288" lon="11.09068"><ele>565</ele></trkpt>
<trkpt lat="48.07308" lon="11.09046"><ele>566</ele></trkpt>
<trkpt lat="48.07317" lon="11.09042"><ele>567</ele></trkpt>
<trkpt lat="48.07330" lon="11.09042"><ele>568</ele></trkpt>
<trkpt lat="48.07362" lon="11.09056"><ele>569</ele></trkpt>
<trkpt lat="48.07426" lon="11.09036"><ele>571</ele></trkpt>
<trkpt lat="48.07435" lon="11.09063"><ele>570</ele></trkpt>
<trkpt lat="48.07439" lon="11.09102"><ele>568</ele></trkpt>
<trkpt lat="48.07452" lon="11.09160"><ele>566</ele></trkpt>
<trkpt lat="48.07463" lon="11.09160"><ele>567</ele></trkpt>
<trkpt lat="48.07468" lon="11.09168"><ele>567</ele></trkpt>
<trkpt lat="48.07477" lon="11.09213"><ele>568</ele></trkpt>
<trkpt lat="48.07483" lon="11.09228"><ele>568</ele></trkpt>
<trkpt lat="48.07499" lon="11.09235"><ele>569</ele></trkpt>
<trkpt lat="48.07707" lon="11.09248"><ele>569</ele></trkpt>
<trkpt lat="48.07758" lon="11.09558"><ele>563</ele></trkpt>
<trkpt lat="48.07766" lon="11.09579"><ele>563</ele></trkpt>
<trkpt lat="48.07777" lon="11.09585"><ele>562</ele></trkpt>
<trkpt lat="48.07839" lon="11.09573"><ele>563</ele></trkpt>
<trkpt lat="48.07894" lon="11.09547"><ele>566</ele></trkpt>
<trkpt lat="48.07914" lon="11.09550"><ele>566</ele></trkpt>
<trkpt lat="48.07926" lon="11.09556"><ele>566</ele></trkpt>
<trkpt lat="48.07940" lon="11.09575"><ele>565</ele></trkpt>
<trkpt lat="48.07944" lon="11.09586"><ele>565</ele></trkpt>
<trkpt lat="48.07944" lon="11.09605"><ele>565</ele></trkpt>
<trkpt lat="48.07941" lon="11.09670"><ele>565</ele></trkpt>
<trkpt lat="48.07948" lon="11.09703"><ele>564</ele></trkpt>
<trkpt lat="48.07954" lon="11.09721"><ele>564</ele></trkpt>
<trkpt lat="48.07969" lon="11.09752"><ele>564</ele></trkpt>
<trkpt lat="48.07982" lon="11.09769"><ele>564</ele></trkpt>
<trkpt lat="48.08024" lon="11.09803"><ele>564</ele></trkpt>
<trkpt lat="48.08041" lon="11.09820"><ele>564</ele></trkpt>
<trkpt lat="48.08052" lon="11.09840"><ele>564</ele></trkpt>
<trkpt lat="48.08077" lon="11.09922"><ele>564</ele></trkpt>
<trkpt lat="48.08126" lon="11.10040"><ele>563</ele></trkpt>
<trkpt lat="48.08149" lon="11.10137"><ele>560</ele></trkpt>
<trkpt lat="48.08163" lon="11.10330"><ele>556</ele></trkpt>
<trkpt lat="48.08175" lon="11.10572"><ele>553</ele></trkpt>
<trkpt lat="48.08177" lon="11.10673"><ele>552</ele></trkpt>
<trkpt lat="48.08170" lon="11.10862"><ele>554</ele></trkpt>
<trkpt lat="48.08173" lon="11.11062"><ele>551</ele></trkpt>
<trkpt lat="48.08179" lon="11.11141"><ele>548</ele></trkpt>
<trkpt lat="48.08264" lon="11.11132"><ele>550</ele></trkpt>
<trkpt lat="48.08348" lon="11.11115"><ele>552</ele></trkpt>
<trkpt lat="48.08417" lon="11.11085"><ele>551</ele></trkpt>
<trkpt lat="48.08504" lon="11.11064"><ele>550</ele></trkpt>
<trkpt lat="48.08533" lon="11.11064"><ele>550</ele></trkpt>
<trkpt lat="48.08660" lon="11.11081"><ele>549</ele></trkpt>
<trkpt lat="48.08796" lon="11.11108"><ele>548</ele></trkpt>
<trkpt lat="48.08803" lon="11.11119"><ele>548</ele></trkpt>
<trkpt lat="48.08806" lon="11.11132"><ele>547</ele></trkpt>
<trkpt lat="48.08785" lon="11.11345"><ele>546</ele></trkpt>
<trkpt lat="48.08779" lon="11.11358"><ele>546</ele></trkpt>
<trkpt lat="48.08764" lon="11.11374"><ele>546</ele></trkpt>
<trkpt lat="48.08745" lon="11.11385"><ele>545</ele></trkpt>
<trkpt lat="48.08730" lon="11.11411"><ele>543</ele></trkpt>
<trkpt lat="48.08718" lon="11.11491"><ele>543</ele></trkpt>
<trkpt lat="48.08756" lon="11.11493"><ele>543</ele></trkpt>
<trkpt lat="48.08844" lon="11.11525"><ele>542</ele></trkpt>
<trkpt lat="48.08883" lon="11.11543"><ele>542</ele></trkpt>
<trkpt lat="48.08934" lon="11.11573"><ele>541</ele></trkpt>
<trkpt lat="48.08992" lon="11.11593"><ele>541</ele></trkpt>
<trkpt lat="48.09029" lon="11.11604"><ele>541</ele></trkpt>
<trkpt lat="48.09101" lon="11.11604"><ele>542</ele></trkpt>
<trkpt lat="48.09151" lon="11.11613"><ele>542</ele></trkpt>
<trkpt lat="48.09247" lon="11.11656"><ele>540</ele></trkpt>
<trkpt lat="48.09417" lon="11.11698"><ele>541</ele></trkpt>
<trkpt lat="48.09467" lon="11.11701"><ele>541</ele></trkpt>
<trkpt lat="48.09632" lon="11.11680"><ele>541</ele></trkpt>
<trkpt lat="48.09644" lon="11.11676"><ele>541</ele></trkpt>
<trkpt lat="48.09661" lon="11.11659"><ele>542</ele></trkpt>
<trkpt lat="48.09670" lon="11.11677"><ele>541</ele></trkpt>
<trkpt lat="48.09648" lon="11.11869"><ele>539</ele></trkpt>
<trkpt lat="48.09657" lon="11.11896"><ele>539</ele></trkpt>
<trkpt lat="48.09672" lon="11.11914"><ele>539</ele></trkpt>
<trkpt lat="48.09861" lon="11.12035"><ele>538</ele></trkpt>
<trkpt lat="48.09904" lon="11.12081"><ele>538</ele></trkpt>
<trkpt lat="48.09947" lon="11.12138"><ele>537</ele></trkpt>
<trkpt lat="48.09990" lon="11.12186"><ele>538</ele></trkpt>
<trkpt lat="48.10058" lon="11.12249"><ele>539</ele></trkpt>
<trkpt lat="48.10131" lon="11.12327"><ele>538</ele></trkpt>
<trkpt lat="48.10243" lon="11.12384"><ele>538</ele></trkpt>
<trkpt lat="48.10261" lon="11.12387"><ele>538</ele></trkpt>
<trkpt lat="48.10337" lon="11.12376"><ele>538</ele></trkpt>
<trkpt lat="48.10544" lon="11.12423"><ele>536</ele></trkpt>
<trkpt lat="48.10569" lon="11.12423"><ele>536</ele></trkpt>
<trkpt lat="48.10668" lon="11.12393"><ele>537</ele></trkpt>
<trkpt lat="48.10676" lon="11.12400"><ele>537</ele></trkpt>
<trkpt lat="48.10655" lon="11.12931"><ele>534</ele></trkpt>
<trkpt lat="48.10657" lon="11.12939"><ele>534</ele></trkpt>
<trkpt lat="48.10665" lon="11.12946"><ele>534</ele></trkpt>
<trkpt lat="48.11121" lon="11.13042"><ele>533</ele></trkpt>
<trkpt lat="48.11379" lon="11.13084"><ele>536</ele></trkpt>
<trkpt lat="48.11553" lon="11.13105"><ele>540</ele></trkpt>
<trkpt lat="48.11574" lon="11.13100"><ele>540</ele></trkpt>
<trkpt lat="48.11598" lon="11.13089"><ele>540</ele></trkpt>
<trkpt lat="48.11615" lon="11.13101"><ele>540</ele></trkpt>
<trkpt lat="48.11646" lon="11.13110"><ele>541</ele></trkpt>
<trkpt lat="48.11684" lon="11.13098"><ele>541</ele></trkpt>
<trkpt lat="48.11693" lon="11.13157"><ele>540</ele></trkpt>
<trkpt lat="48.11700" lon="11.13171"><ele>540</ele></trkpt>
<trkpt lat="48.11720" lon="11.13188"><ele>540</ele></trkpt>
<trkpt lat="48.11765" lon="11.13175"><ele>542</ele></trkpt>
<trkpt lat="48.11899" lon="11.13172"><ele>544</ele></trkpt>
<trkpt lat="48.11921" lon="11.13190"><ele>544</ele></trkpt>
<trkpt lat="48.11938" lon="11.13340"><ele>543</ele></trkpt>
<trkpt lat="48.11971" lon="11.13418"><ele>541</ele></trkpt>
<trkpt lat="48.11987" lon="11.13445"><ele>541</ele></trkpt>
<trkpt lat="48.12014" lon="11.13482"><ele>540</ele></trkpt>
<trkpt lat="48.12128" lon="11.13572"><ele>538</ele></trkpt>
<trkpt lat="48.12166" lon="11.13622"><ele>539</ele></trkpt>
<trkpt lat="48.12173" lon="11.13636"><ele>539</ele></trkpt>
<trkpt lat="48.12186" lon="11.13676"><ele>539</ele></trkpt>
<trkpt lat="48.12207" lon="11.13784"><ele>536</ele></trkpt>
<trkpt lat="48.12233" lon="11.13861"><ele>536</ele></trkpt>
<trkpt lat="48.12255" lon="11.13907"><ele>536</ele></trkpt>
<trkpt lat="48.12306" lon="11.13983"><ele>538</ele></trkpt>
<trkpt lat="48.12344" lon="11.14056"><ele>538</ele></trkpt>
<trkpt lat="48.12366" lon="11.14113"><ele>538</ele></trkpt>
<trkpt lat="48.12375" lon="11.14155"><ele>538</ele></trkpt>
<trkpt lat="48.12381" lon="11.14199"><ele>538</ele></trkpt>
<trkpt lat="48.12396" lon="11.14375"><ele>539</ele></trkpt>
<trkpt lat="48.12426" lon="11.14538"><ele>537</ele></trkpt>
<trkpt lat="48.12432" lon="11.14596"><ele>536</ele></trkpt>
<trkpt lat="48.12440" lon="11.14745"><ele>536</ele></trkpt>
<trkpt lat="48.12447" lon="11.14805"><ele>536</ele></trkpt>
<trkpt lat="48.12465" lon="11.14878"><ele>536</ele></trkpt>
<trkpt lat="48.12494" lon="11.14972"><ele>536</ele></trkpt>
<trkpt lat="48.12509" lon="11.15028"><ele>536</ele></trkpt>
<trkpt lat="48.12514" lon="11.15071"><ele>536</ele></trkpt>
<trkpt lat="48.12514" lon="11.15117"><ele>537</ele></trkpt>
<trkpt lat="48.12509" lon="11.15161"><ele>538</ele></trkpt>
<trkpt lat="48.12487" lon="11.15265"><ele>539</ele></trkpt>
<trkpt lat="48.12480" lon="11.15324"><ele>540</ele></trkpt>
<trkpt lat="48.12494" lon="11.15441"><ele>540</ele></trkpt>
<trkpt lat="48.12493" lon="11.15481"><ele>540</ele></trkpt>
<trkpt lat="48.12489" lon="11.15498"><ele>539</ele></trkpt>
<trkpt lat="48.12468" lon="11.15520"><ele>538</ele></trkpt>
<trkpt lat="48.12451" lon="11.15528"><ele>537</ele></trkpt>
<trkpt lat="48.12433" lon="11.15547"><ele>536</ele></trkpt>
<trkpt lat="48.12416" lon="11.15578"><ele>536</ele></trkpt>
<trkpt lat="48.12385" lon="11.15659"><ele>535</ele></trkpt>
<trkpt lat="48.12373" lon="11.15679"><ele>535</ele></trkpt>
<trkpt lat="48.12366" lon="11.15678"><ele>535</ele></trkpt>
<trkpt lat="48.12326" lon="11.15704"><ele>535</ele></trkpt>
<trkpt lat="48.12301" lon="11.15729"><ele>535</ele></trkpt>
<trkpt lat="48.12283" lon="11.15763"><ele>535</ele></trkpt>
<trkpt lat="48.12277" lon="11.15797"><ele>536</ele></trkpt>
<trkpt lat="48.12269" lon="11.15801"><ele>536</ele></trkpt>
<trkpt lat="48.12263" lon="11.15820"><ele>536</ele></trkpt>
<trkpt lat="48.12266" lon="11.15831"><ele>536</ele></trkpt>
<trkpt lat="48.12272" lon="11.15839"><ele>536</ele></trkpt>
<trkpt lat="48.12267" lon="11.15868"><ele>536</ele></trkpt>
<trkpt lat="48.12268" lon="11.15887"><ele>537</ele></trkpt>
<trkpt lat="48.12280" lon="11.15952"><ele>540</ele></trkpt>
<trkpt lat="48.12305" lon="11.16173"><ele>550</ele></trkpt>
<trkpt lat="48.12347" lon="11.16277"><ele>555</ele></trkpt>
<trkpt lat="48.12385" lon="11.16386"><ele>552</ele></trkpt>
<trkpt lat="48.12406" lon="11.16432"><ele>551</ele></trkpt>
<trkpt lat="48.12415" lon="11.16444"><ele>551</ele></trkpt>
<trkpt lat="48.12414" lon="11.16455"><ele>550</ele></trkpt>
<trkpt lat="48.12427" lon="11.16546"><ele>551</ele></trkpt>
<trkpt lat="48.12408" lon="11.16696"><ele>542</ele></trkpt>
<trkpt lat="48.12406" lon="11.16755"><ele>538</ele></trkpt>
<trkpt lat="48.12429" lon="11.16842"><ele>535</ele></trkpt>
<trkpt lat="48.12447" lon="11.16953"><ele>533</ele></trkpt>
<trkpt lat="48.12443" lon="11.16991"><ele>533</ele></trkpt>
<trkpt lat="48.12468" lon="11.17032"><ele>532</ele></trkpt>
<trkpt lat="48.12491" lon="11.17052"><ele>534</ele></trkpt>
<trkpt lat="48.12517" lon="11.17108"><ele>534</ele></trkpt>
<trkpt lat="48.12544" lon="11.17195"><ele>534</ele></trkpt>
<trkpt lat="48.12552" lon="11.17237"><ele>534</ele></trkpt>
<trkpt lat="48.12570" lon="11.17294"><ele>537</ele></trkpt>
<trkpt lat="48.12575" lon="11.17324"><ele>540</ele></trkpt>
<trkpt lat="48.12577" lon="11.17352"><ele>542</ele></trkpt>
<trkpt lat="48.12573" lon="11.17433"><ele>541</ele></trkpt>
<trkpt lat="48.12579" lon="11.17633"><ele>552</ele></trkpt>
<trkpt lat="48.12582" lon="11.17664"><ele>552</ele></trkpt>
<trkpt lat="48.12593" lon="11.17709"><ele>552</ele></trkpt>
<trkpt lat="48.12609" lon="11.17744"><ele>552</ele></trkpt>
<trkpt lat="48.12648" lon="11.17870"><ele>553</ele></trkpt>
<trkpt lat="48.12679" lon="11.17945"><ele>554</ele></trkpt>
<trkpt lat="48.12710" lon="11.17991"><ele>554</ele></trkpt>
<trkpt lat="48.12761" lon="11.18054"><ele>554</ele></trkpt>
<trkpt lat="48.12810" lon="11.18127"><ele>554</ele></trkpt>
<trkpt lat="48.12825" lon="11.18138"><ele>554</ele></trkpt>
<trkpt lat="48.12850" lon="11.18129"><ele>554</ele></trkpt>
<trkpt lat="48.12866" lon="11.18135"><ele>553</ele></trkpt>
<trkpt lat="48.12879" lon="11.18133"><ele>554</ele></trkpt>
<trkpt lat="48.12912" lon="11.18120"><ele>554</ele></trkpt>
<trkpt lat="48.12947" lon="11.18090"><ele>554</ele></trkpt>
<trkpt lat="48.12953" lon="11.18040"><ele>556</ele></trkpt>
<trkpt lat="48.12951" lon="11.17995"><ele>557</ele></trkpt>
<trkpt lat="48.12983" lon="11.18019"><ele>558</ele></trkpt>
<trkpt lat="48.13003" lon="11.18057"><ele>559</ele></trkpt>
<trkpt lat="48.13049" lon="11.18203"><ele>558</ele></trkpt>
<trkpt lat="48.13096" lon="11.18279"><ele>559</ele></trkpt>
<trkpt lat="48.13234" lon="11.18412"><ele>558</ele></trkpt>
<trkpt lat="48.13285" lon="11.18442"><ele>558</ele></trkpt>
<trkpt lat="48.13315" lon="11.18448"><ele>558</ele></trkpt>
<trkpt lat="48.13438" lon="11.18497"><ele>556</ele></trkpt>
<trkpt lat="48.13493" lon="11.18503"><ele>556</ele></trkpt>
<trkpt lat="48.13584" lon="11.18522"><ele>556</ele></trkpt>
<trkpt lat="48.13713" lon="11.18456"><ele>556</ele></trkpt>
<trkpt lat="48.13740" lon="11.18393"><ele>555</ele></trkpt>
<trkpt lat="48.13773" lon="11.18412"><ele>555</ele></trkpt>
<trkpt lat="48.13992" lon="11.18479"><ele>554</ele></trkpt>
<trkpt lat="48.14043" lon="11.18476"><ele>553</ele></trkpt>
<trkpt lat="48.14133" lon="11.18511"><ele>554</ele></trkpt>
<trkpt lat="48.14250" lon="11.18630"><ele>552</ele></trkpt>
<trkpt lat="48.14366" lon="11.18791"><ele>551</ele></trkpt>
<trkpt lat="48.14382" lon="11.18825"><ele>551</ele></trkpt>
<trkpt lat="48.14445" lon="11.19440"><ele>546</ele></trkpt>
<trkpt lat="48.14455" lon="11.19520"><ele>545</ele></trkpt>
<trkpt lat="48.14459" lon="11.19525"><ele>545</ele></trkpt>
<trkpt lat="48.14386" lon="11.19676"><ele>545</ele></trkpt>
<trkpt lat="48.14281" lon="11.19860"><ele>538</ele></trkpt>
<trkpt lat="48.14154" lon="11.20156"><ele>534</ele></trkpt>
<trkpt lat="48.14106" lon="11.20300"><ele>534</ele></trkpt>
<trkpt lat="48.14044" lon="11.20424"><ele>534</ele></trkpt>
<trkpt lat="48.13934" lon="11.20574"><ele>534</ele></trkpt>
<trkpt lat="48.13876" lon="11.20630"><ele>534</ele></trkpt>
<trkpt lat="48.13823" lon="11.20688"><ele>532</ele></trkpt>
<trkpt lat="48.13776" lon="11.20728"><ele>529</ele></trkpt>
<trkpt lat="48.13758" lon="11.20757"><ele>529</ele></trkpt>
<trkpt lat="48.13716" lon="11.20848"><ele>529</ele></trkpt>
<trkpt lat="48.13689" lon="11.20879"><ele>529</ele></trkpt>
<trkpt lat="48.13663" lon="11.20899"><ele>528</ele></trkpt>
<trkpt lat="48.13642" lon="11.20904"><ele>528</ele></trkpt>
<trkpt lat="48.13599" lon="11.20886"><ele>529</ele></trkpt>
<trkpt lat="48.13563" lon="11.20880"><ele>529</ele></trkpt>
<trkpt lat="48.13545" lon="11.20966"><ele>528</ele></trkpt>
<trkpt lat="48.13534" lon="11.21035"><ele>528</ele></trkpt>
<trkpt lat="48.13533" lon="11.21101"><ele>528</ele></trkpt>
<trkpt lat="48.13550" lon="11.21272"><ele>528</ele></trkpt>
<trkpt lat="48.13558" lon="11.21322"><ele>528</ele></trkpt>
<trkpt lat="48.13571" lon="11.21367"><ele>528</ele></trkpt>
<trkpt lat="48.13575" lon="11.21449"><ele>527</ele></trkpt>
<trkpt lat="48.13580" lon="11.21489"><ele>528</ele></trkpt>
<trkpt lat="48.13585" lon="11.21505"><ele>529</ele></trkpt>
<trkpt lat="48.13569" lon="11.21530"><ele>530</ele></trkpt>
<trkpt lat="48.13542" lon="11.21557"><ele>532</ele></trkpt>
<trkpt lat="48.13581" lon="11.21688"><ele>536</ele></trkpt>
<trkpt lat="48.13613" lon="11.21740"><ele>538</ele></trkpt>
<trkpt lat="48.13641" lon="11.21742"><ele>536</ele></trkpt>
<trkpt lat="48.13715" lon="11.21771"><ele>534</ele></trkpt>
<trkpt lat="48.13808" lon="11.21777"><ele>532</ele></trkpt>
<trkpt lat="48.13852" lon="11.21797"><ele>531</ele></trkpt>
<trkpt lat="48.13878" lon="11.21802"><ele>530</ele></trkpt>
<trkpt lat="48.13974" lon="11.21775"><ele>529</ele></trkpt>
<trkpt lat="48.14055" lon="11.21744"><ele>528</ele></trkpt>
<trkpt lat="48.14110" lon="11.21737"><ele>527</ele></trkpt>
<trkpt lat="48.14163" lon="11.21720"><ele>528</ele></trkpt>
<trkpt lat="48.14245" lon="11.21722"><ele>528</ele></trkpt>
<trkpt lat="48.14531" lon="11.21863"><ele>527</ele></trkpt>
<trkpt lat="48.14565" lon="11.21886"><ele>527</ele></trkpt>
<trkpt lat="48.14837" lon="11.22133"><ele>525</ele></trkpt>
<trkpt lat="48.15082" lon="11.22492"><ele>524</ele></trkpt>
<trkpt lat="48.15282" lon="11.22852"><ele>524</ele></trkpt>
<trkpt lat="48.15324" lon="11.22910"><ele>524</ele></trkpt>
<trkpt lat="48.15346" lon="11.22972"><ele>526</ele></trkpt>
<trkpt lat="48.15412" lon="11.23115"><ele>525</ele></trkpt>
<trkpt lat="48.15485" lon="11.23236"><ele>526</ele></trkpt>
<trkpt lat="48.15498" lon="11.23269"><ele>528</ele></trkpt>
<trkpt lat="48.15528" lon="11.23298"><ele>526</ele></trkpt>
<trkpt lat="48.15615" lon="11.23445"><ele>529</ele></trkpt>
<trkpt lat="48.15758" lon="11.23733"><ele>531</ele></trkpt>
<trkpt lat="48.15791" lon="11.23791"><ele>530</ele></trkpt>
<trkpt lat="48.15814" lon="11.23825"><ele>530</ele></trkpt>
<trkpt lat="48.15864" lon="11.23879"><ele>529</ele></trkpt>
<trkpt lat="48.15880" lon="11.23903"><ele>529</ele></trkpt>
<trkpt lat="48.15932" lon="11.24003"><ele>530</ele></trkpt>
<trkpt lat="48.15951" lon="11.24015"><ele>530</ele></trkpt>
<trkpt lat="48.16027" lon="11.24038"><ele>528</ele></trkpt>
<trkpt lat="48.16106" lon="11.24079"><ele>525</ele></trkpt>
<trkpt lat="48.16211" lon="11.24148"><ele>527</ele></trkpt>
<trkpt lat="48.16242" lon="11.24190"><ele>527</ele></trkpt>
<trkpt lat="48.16293" lon="11.24220"><ele>526</ele></trkpt>
<trkpt lat="48.16303" lon="11.24232"><ele>526</ele></trkpt>
<trkpt lat="48.16384" lon="11.24384"><ele>528</ele></trkpt>
<trkpt lat="48.16430" lon="11.24444"><ele>528</ele></trkpt>
<trkpt lat="48.16539" lon="11.24573"><ele>530</ele></trkpt>
<trkpt lat="48.16647" lon="11.24667"><ele>525</ele></trkpt>
<trkpt lat="48.16686" lon="11.24720"><ele>525</ele></trkpt>
<trkpt lat="48.16773" lon="11.24823"><ele>530</ele></trkpt>
<trkpt lat="48.16764" lon="11.24821"><ele>531</ele></trkpt>
<trkpt lat="48.16705" lon="11.24786"><ele>531</ele></trkpt>
<trkpt lat="48.16689" lon="11.24791"><ele>533</ele></trkpt>
<trkpt lat="48.16678" lon="11.24806"><ele>536</ele></trkpt>
<trkpt lat="48.16674" lon="11.24827"><ele>539</ele></trkpt>
<trkpt lat="48.16676" lon="11.24842"><ele>541</ele></trkpt>
<trkpt lat="48.16715" lon="11.24904"><ele>545</ele></trkpt>
<trkpt lat="48.16724" lon="11.24944"><ele>549</ele></trkpt>
<trkpt lat="48.16726" lon="11.24972"><ele>550</ele></trkpt>
<trkpt lat="48.16723" lon="11.24992"><ele>550</ele></trkpt>
<trkpt lat="48.16716" lon="11.25011"><ele>554</ele></trkpt>
<trkpt lat="48.16703" lon="11.25028"><ele>554</ele></trkpt>
<trkpt lat="48.16689" lon="11.25038"><ele>556</ele></trkpt>
<trkpt lat="48.16628" lon="11.25043"><ele>560</ele></trkpt>
<trkpt lat="48.16602" lon="11.25067"><ele>561</ele></trkpt>
<trkpt lat="48.16590" lon="11.25071"><ele>562</ele></trkpt>
<trkpt lat="48.16457" lon="11.25099"><ele>568</ele></trkpt>
<trkpt lat="48.16435" lon="11.25108"><ele>569</ele></trkpt>
<trkpt lat="48.16365" lon="11.25151"><ele>572</ele></trkpt>
<trkpt lat="48.16344" lon="11.25171"><ele>574</ele></trkpt>
<trkpt lat="48.16333" lon="11.25191"><ele>574</ele></trkpt>
<trkpt lat="48.16302" lon="11.25275"><ele>574</ele></trkpt>
<trkpt lat="48.16283" lon="11.25302"><ele>573</ele></trkpt>
<trkpt lat="48.16261" lon="11.25325"><ele>572</ele></trkpt>
<trkpt lat="48.16166" lon="11.25405"><ele>562</ele></trkpt>
<trkpt lat="48.16130" lon="11.25440"><ele>558</ele></trkpt>
<trkpt lat="48.16118" lon="11.25459"><ele>557</ele></trkpt>
<trkpt lat="48.16116" lon="11.25484"><ele>556</ele></trkpt>
<trkpt lat="48.16143" lon="11.25499"><ele>555</ele></trkpt>
<trkpt lat="48.16196" lon="11.25556"><ele>552</ele></trkpt>
<trkpt lat="48.16199" lon="11.25567"><ele>551</ele></trkpt>
<trkpt lat="48.16264" lon="11.25629"><ele>550</ele></trkpt>
<trkpt lat="48.16275" lon="11.25647"><ele>551</ele></trkpt>
<trkpt lat="48.16321" lon="11.25761"><ele>559</ele></trkpt>
<trkpt lat="48.16359" lon="11.25815"><ele>561</ele></trkpt>
<trkpt lat="48.16389" lon="11.25846"><ele>563</ele></trkpt>
<trkpt lat="48.16412" lon="11.25882"><ele>564</ele></trkpt>
<trkpt lat="48.16428" lon="11.25925"><ele>564</ele></trkpt>
<trkpt lat="48.16437" lon="11.25956"><ele>564</ele></trkpt>
<trkpt lat="48.16427" lon="11.25995"><ele>565</ele></trkpt>
<trkpt lat="48.16428" lon="11.26016"><ele>565</ele></trkpt>
<trkpt lat="48.16461" lon="11.26106"><ele>566</ele></trkpt>
<trkpt lat="48.16503" lon="11.26199"><ele>562</ele></trkpt>
<trkpt lat="48.16513" lon="11.26251"><ele>560</ele></trkpt>
<trkpt lat="48.16515" lon="11.26319"><ele>559</ele></trkpt>
<trkpt lat="48.16496" lon="11.26655"><ele>568</ele></trkpt>
<trkpt lat="48.16524" lon="11.26667"><ele>567</ele></trkpt>
<trkpt lat="48.16550" lon="11.26672"><ele>567</ele></trkpt>
<trkpt lat="48.16539" lon="11.26777"><ele>566</ele></trkpt>
<trkpt lat="48.16563" lon="11.26893"><ele>564</ele></trkpt>
<trkpt lat="48.16591" lon="11.27008"><ele>560</ele></trkpt>
<trkpt lat="48.16592" lon="11.27024"><ele>560</ele></trkpt>
<trkpt lat="48.16581" lon="11.27069"><ele>560</ele></trkpt>
<trkpt lat="48.16558" lon="11.27131"><ele>564</ele></trkpt>
<trkpt lat="48.16525" lon="11.27160"><ele>567</ele></trkpt>
<trkpt lat="48.16494" lon="11.27201"><ele>568</ele></trkpt>
<trkpt lat="48.16462" lon="11.27263"><ele>570</ele></trkpt>
<trkpt lat="48.16448" lon="11.27306"><ele>570</ele></trkpt>
<trkpt lat="48.16432" lon="11.27381"><ele>570</ele></trkpt>
<trkpt lat="48.16443" lon="11.27460"><ele>568</ele></trkpt>
<trkpt lat="48.16478" lon="11.27596"><ele>562</ele></trkpt>
<trkpt lat="48.16499" lon="11.27643"><ele>560</ele></trkpt>
<trkpt lat="48.16562" lon="11.27702"><ele>559</ele></trkpt>
<trkpt lat="48.16549" lon="11.27771"><ele>560</ele></trkpt>
<trkpt lat="48.16537" lon="11.27813"><ele>561</ele></trkpt>
<trkpt lat="48.16510" lon="11.27878"><ele>562</ele></trkpt>
<trkpt lat="48.16485" lon="11.27925"><ele>562</ele></trkpt>
<trkpt lat="48.16456" lon="11.27967"><ele>563</ele></trkpt>
<trkpt lat="48.16278" lon="11.28191"><ele>559</ele></trkpt>
<trkpt lat="48.16236" lon="11.28238"><ele>559</ele></trkpt>
<trkpt lat="48.16206" lon="11.28266"><ele>559</ele></trkpt>
<trkpt lat="48.16276" lon="11.28384"><ele>556</ele></trkpt>
<trkpt lat="48.16346" lon="11.28483"><ele>558</ele></trkpt>
<trkpt lat="48.16345" lon="11.28696"><ele>555</ele></trkpt>
<trkpt lat="48.16349" lon="11.28728"><ele>555</ele></trkpt>
<trkpt lat="48.16364" lon="11.28778"><ele>554</ele></trkpt>
<trkpt lat="48.16365" lon="11.28829"><ele>553</ele></trkpt>
<trkpt lat="48.16360" lon="11.28877"><ele>551</ele></trkpt>
<trkpt lat="48.16363" lon="11.28922"><ele>550</ele></trkpt>
<trkpt lat="48.16369" lon="11.28972"><ele>548</ele></trkpt>
<trkpt lat="48.16385" lon="11.29041"><ele>546</ele></trkpt>
<trkpt lat="48.16420" lon="11.29132"><ele>543</ele></trkpt>
<trkpt lat="48.16423" lon="11.29149"><ele>542</ele></trkpt>
<trkpt lat="48.16428" lon="11.29204"><ele>540</ele></trkpt>
<trkpt lat="48.16428" lon="11.29263"><ele>538</ele></trkpt>
<trkpt lat="48.16427" lon="11.29301"><ele>538</ele></trkpt>
<trkpt lat="48.16416" lon="11.29390"><ele>538</ele></trkpt>
<trkpt lat="48.16417" lon="11.29418"><ele>538</ele></trkpt>
<trkpt lat="48.16431" lon="11.29513"><ele>537</ele></trkpt>
<trkpt lat="48.16452" lon="11.29612"><ele>538</ele></trkpt>
<trkpt lat="48.16487" lon="11.29729"><ele>536</ele></trkpt>
<trkpt lat="48.16499" lon="11.29759"><ele>536</ele></trkpt>
<trkpt lat="48.16519" lon="11.29796"><ele>534</ele></trkpt>
<trkpt lat="48.16540" lon="11.29867"><ele>533</ele></trkpt>
<trkpt lat="48.16555" lon="11.30003"><ele>531</ele></trkpt>
<trkpt lat="48.16611" lon="11.30139"><ele>530</ele></trkpt>
<trkpt lat="48.16641" lon="11.30239"><ele>528</ele></trkpt>
<trkpt lat="48.16736" lon="11.30481"><ele>526</ele></trkpt>
<trkpt lat="48.16868" lon="11.30746"><ele>525</ele></trkpt>
<trkpt lat="48.16898" lon="11.30800"><ele>525</ele></trkpt>
<trkpt lat="48.16893" lon="11.30821"><ele>525</ele></trkpt>
<trkpt lat="48.16836" lon="11.30883"><ele>525</ele></trkpt>
<trkpt lat="48.16834" lon="11.30903"><ele>525</ele></trkpt>
<trkpt lat="48.17118" lon="11.31491"><ele>523</ele></trkpt>
<trkpt lat="48.17155" lon="11.31559"><ele>523</ele></trkpt>
<trkpt lat="48.17161" lon="11.31574"><ele>523</ele></trkpt>
<trkpt lat="48.17166" lon="11.31579"><ele>523</ele></trkpt>
<trkpt lat="48.17164" lon="11.31620"><ele>523</ele></trkpt>
<trkpt lat="48.17166" lon="11.31905"><ele>522</ele></trkpt>
<trkpt lat="48.17160" lon="11.31904"><ele>522</ele></trkpt>
<trkpt lat="48.17160" lon="11.31924"><ele>522</ele></trkpt>
<trkpt lat="48.17249" lon="11.31931"><ele>522</ele></trkpt>
<trkpt lat="48.17241" lon="11.32034"><ele>522</ele></trkpt>
<trkpt lat="48.17225" lon="11.32165"><ele>522</ele></trkpt>
<trkpt lat="48.17234" lon="11.32189"><ele>522</ele></trkpt>
<trkpt lat="48.17242" lon="11.32185"><ele>522</ele></trkpt>
<trkpt lat="48.17286" lon="11.32195"><ele>521</ele></trkpt>
<trkpt lat="48.17286" lon="11.32207"><ele>521</ele></trkpt>
<trkpt lat="48.17269" lon="11.32205"><ele>522</ele></trkpt>
<trkpt lat="48.17249" lon="11.32198"><ele>522</ele></trkpt>
<trkpt lat="48.17244" lon="11.32227"><ele>522</ele></trkpt>
    </trkseg>
  </trk>
</gpx>
