<?xml version="1.0" encoding="UTF-8"?>
<gpx version="1.1" creator="Gravel Kompass" xmlns="http://www.topografix.com/GPX/1/1">
  <metadata><name>Freiham–Starnberger See: kurze Rennradrunde mit Höhenmetern</name></metadata>
  <trk>
    <name>Freiham–Starnberger See: kurze Rennradrunde mit Höhenmetern (komplett)</name>
    <trkseg>
<trkpt lat="48.13648" lon="11.40263"><ele>535</ele></trkpt>
<trkpt lat="48.13566" lon="11.40321"><ele>537</ele></trkpt>
<trkpt lat="48.13363" lon="11.40517"><ele>538</ele></trkpt>
<trkpt lat="48.13247" lon="11.40595"><ele>539</ele></trkpt>
<trkpt lat="48.13158" lon="11.40663"><ele>540</ele></trkpt>
<trkpt lat="48.13107" lon="11.40689"><ele>540</ele></trkpt>
<trkpt lat="48.12894" lon="11.40776"><ele>541</ele></trkpt>
<trkpt lat="48.12893" lon="11.40797"><ele>542</ele></trkpt>
<trkpt lat="48.12928" lon="11.40945"><ele>541</ele></trkpt>
<trkpt lat="48.12828" lon="11.41008"><ele>542</ele></trkpt>
<trkpt lat="48.12752" lon="11.41285"><ele>542</ele></trkpt>
<trkpt lat="48.12704" lon="11.41502"><ele>542</ele></trkpt>
<trkpt lat="48.12668" lon="11.41592"><ele>542</ele></trkpt>
<trkpt lat="48.12660" lon="11.41621"><ele>542</ele></trkpt>
<trkpt lat="48.12645" lon="11.41652"><ele>543</ele></trkpt>
<trkpt lat="48.12632" lon="11.41669"><ele>543</ele></trkpt>
<trkpt lat="48.12606" lon="11.41716"><ele>543</ele></trkpt>
<trkpt lat="48.12589" lon="11.41776"><ele>543</ele></trkpt>
<trkpt lat="48.12560" lon="11.41826"><ele>543</ele></trkpt>
<trkpt lat="48.12558" lon="11.41836"><ele>543</ele></trkpt>
<trkpt lat="48.12497" lon="11.41977"><ele>543</ele></trkpt>
<trkpt lat="48.12441" lon="11.42124"><ele>544</ele></trkpt>
<trkpt lat="48.12340" lon="11.42287"><ele>545</ele></trkpt>
<trkpt lat="48.12167" lon="11.42139"><ele>546</ele></trkpt>
<trkpt lat="48.12089" lon="11.42067"><ele>546</ele></trkpt>
<trkpt lat="48.12074" lon="11.42059"><ele>546</ele></trkpt>
<trkpt lat="48.11975" lon="11.41981"><ele>547</ele></trkpt>
<trkpt lat="48.11832" lon="11.41853"><ele>547</ele></trkpt>
<trkpt lat="48.11444" lon="11.41544"><ele>550</ele></trkpt>
<trkpt lat="48.11403" lon="11.41535"><ele>550</ele></trkpt>
<trkpt lat="48.11383" lon="11.41518"><ele>551</ele></trkpt>
<trkpt lat="48.11352" lon="11.41510"><ele>551</ele></trkpt>
<trkpt lat="48.11032" lon="11.41584"><ele>553</ele></trkpt>
<trkpt lat="48.11016" lon="11.41595"><ele>553</ele></trkpt>
<trkpt lat="48.10994" lon="11.41639"><ele>553</ele></trkpt>
<trkpt lat="48.10983" lon="11.41651"><ele>552</ele></trkpt>
<trkpt lat="48.10979" lon="11.41646"><ele>552</ele></trkpt>
<trkpt lat="48.10973" lon="11.41649"><ele>552</ele></trkpt>
<trkpt lat="48.10966" lon="11.41640"><ele>552</ele></trkpt>
<trkpt lat="48.10958" lon="11.41612"><ele>553</ele></trkpt>
<trkpt lat="48.10946" lon="11.41540"><ele>554</ele></trkpt>
<trkpt lat="48.10933" lon="11.41499"><ele>553</ele></trkpt>
<trkpt lat="48.10907" lon="11.41457"><ele>554</ele></trkpt>
<trkpt lat="48.10880" lon="11.41428"><ele>554</ele></trkpt>
<trkpt lat="48.10845" lon="11.41409"><ele>554</ele></trkpt>
<trkpt lat="48.10804" lon="11.41400"><ele>554</ele></trkpt>
<trkpt lat="48.10726" lon="11.41419"><ele>555</ele></trkpt>
<trkpt lat="48.10703" lon="11.41417"><ele>555</ele></trkpt>
<trkpt lat="48.10670" lon="11.41405"><ele>555</ele></trkpt>
<trkpt lat="48.10577" lon="11.41315"><ele>555</ele></trkpt>
<trkpt lat="48.10549" lon="11.41275"><ele>555</ele></trkpt>
<trkpt lat="48.10539" lon="11.41244"><ele>556</ele></trkpt>
<trkpt lat="48.10513" lon="11.41095"><ele>557</ele></trkpt>
<trkpt lat="48.10507" lon="11.41006"><ele>557</ele></trkpt>
<trkpt lat="48.10503" lon="11.40986"><ele>557</ele></trkpt>
<trkpt lat="48.10493" lon="11.40964"><ele>557</ele></trkpt>
<trkpt lat="48.10469" lon="11.40951"><ele>557</ele></trkpt>
<trkpt lat="48.10422" lon="11.40948"><ele>558</ele></trkpt>
<trkpt lat="48.10344" lon="11.40890"><ele>558</ele></trkpt>
<trkpt lat="48.10346" lon="11.40877"><ele>558</ele></trkpt>
<trkpt lat="48.10342" lon="11.40862"><ele>558</ele></trkpt>
<trkpt lat="48.10328" lon="11.40848"><ele>558</ele></trkpt>
<trkpt lat="48.10171" lon="11.40738"><ele>559</ele></trkpt>
<trkpt lat="48.09866" lon="11.40536"><ele>560</ele></trkpt>
<trkpt lat="48.09831" lon="11.40681"><ele>558</ele></trkpt>
<trkpt lat="48.09797" lon="11.40766"><ele>552</ele></trkpt>
<trkpt lat="48.09628" lon="11.40607"><ele>552</ele></trkpt>
<trkpt lat="48.09510" lon="11.40488"><ele>553</ele></trkpt>
<trkpt lat="48.09387" lon="11.40376"><ele>554</ele></trkpt>
<trkpt lat="48.09276" lon="11.40256"><ele>556</ele></trkpt>
<trkpt lat="48.09224" lon="11.40252"><ele>555</ele></trkpt>
<trkpt lat="48.09178" lon="11.40231"><ele>554</ele></trkpt>
<trkpt lat="48.09143" lon="11.40298"><ele>552</ele></trkpt>
<trkpt lat="48.09011" lon="11.40507"><ele>552</ele></trkpt>
<trkpt lat="48.08974" lon="11.40470"><ele>552</ele></trkpt>
<trkpt lat="48.08928" lon="11.40441"><ele>552</ele></trkpt>
<trkpt lat="48.08854" lon="11.40406"><ele>553</ele></trkpt>
<trkpt lat="48.08773" lon="11.40389"><ele>554</ele></trkpt>
<trkpt lat="48.08752" lon="11.40380"><ele>553</ele></trkpt>
<trkpt lat="48.08711" lon="11.40353"><ele>554</ele></trkpt>
<trkpt lat="48.08543" lon="11.40191"><ele>555</ele></trkpt>
<trkpt lat="48.08510" lon="11.40154"><ele>556</ele></trkpt>
<trkpt lat="48.08422" lon="11.40051"><ele>556</ele></trkpt>
<trkpt lat="48.08334" lon="11.39932"><ele>557</ele></trkpt>
<trkpt lat="48.08318" lon="11.39915"><ele>557</ele></trkpt>
<trkpt lat="48.08291" lon="11.39889"><ele>556</ele></trkpt>
<trkpt lat="48.08264" lon="11.39869"><ele>556</ele></trkpt>
<trkpt lat="48.08210" lon="11.39848"><ele>556</ele></trkpt>
<trkpt lat="48.08227" lon="11.39716"><ele>554</ele></trkpt>
<trkpt lat="48.08241" lon="11.39646"><ele>554</ele></trkpt>
<trkpt lat="48.08225" lon="11.39632"><ele>554</ele></trkpt>
<trkpt lat="48.08205" lon="11.39609"><ele>554</ele></trkpt>
<trkpt lat="48.08179" lon="11.39596"><ele>555</ele></trkpt>
<trkpt lat="48.08137" lon="11.39585"><ele>556</ele></trkpt>
<trkpt lat="48.08060" lon="11.39505"><ele>556</ele></trkpt>
<trkpt lat="48.07943" lon="11.39356"><ele>558</ele></trkpt>
<trkpt lat="48.07923" lon="11.39306"><ele>558</ele></trkpt>
<trkpt lat="48.07894" lon="11.39209"><ele>558</ele></trkpt>
<trkpt lat="48.07878" lon="11.39169"><ele>558</ele></trkpt>
<trkpt lat="48.07837" lon="11.39135"><ele>558</ele></trkpt>
<trkpt lat="48.07752" lon="11.39046"><ele>559</ele></trkpt>
<trkpt lat="48.07719" lon="11.39018"><ele>559</ele></trkpt>
<trkpt lat="48.07655" lon="11.38979"><ele>559</ele></trkpt>
<trkpt lat="48.07600" lon="11.38939"><ele>559</ele></trkpt>
<trkpt lat="48.07493" lon="11.38874"><ele>560</ele></trkpt>
<trkpt lat="48.07313" lon="11.38738"><ele>561</ele></trkpt>
<trkpt lat="48.07265" lon="11.38697"><ele>561</ele></trkpt>
<trkpt lat="48.07140" lon="11.38550"><ele>562</ele></trkpt>
<trkpt lat="48.07082" lon="11.38475"><ele>563</ele></trkpt>
<trkpt lat="48.06931" lon="11.38264"><ele>564</ele></trkpt>
<trkpt lat="48.06787" lon="11.38145"><ele>564</ele></trkpt>
<trkpt lat="48.06716" lon="11.38063"><ele>562</ele></trkpt>
<trkpt lat="48.06686" lon="11.38049"><ele>562</ele></trkpt>
<trkpt lat="48.06672" lon="11.38049"><ele>562</ele></trkpt>
<trkpt lat="48.06668" lon="11.38038"><ele>562</ele></trkpt>
<trkpt lat="48.06611" lon="11.37973"><ele>563</ele></trkpt>
<trkpt lat="48.06555" lon="11.37898"><ele>564</ele></trkpt>
<trkpt lat="48.06516" lon="11.37871"><ele>564</ele></trkpt>
<trkpt lat="48.06445" lon="11.37846"><ele>564</ele></trkpt>
<trkpt lat="48.06417" lon="11.37822"><ele>564</ele></trkpt>
<trkpt lat="48.06401" lon="11.37803"><ele>564</ele></trkpt>
<trkpt lat="48.06388" lon="11.37799"><ele>564</ele></trkpt>
<trkpt lat="48.06303" lon="11.37794"><ele>564</ele></trkpt>
<trkpt lat="48.06279" lon="11.37799"><ele>565</ele></trkpt>
<trkpt lat="48.06209" lon="11.37828"><ele>565</ele></trkpt>
<trkpt lat="48.06192" lon="11.37832"><ele>566</ele></trkpt>
<trkpt lat="48.06178" lon="11.37831"><ele>566</ele></trkpt>
<trkpt lat="48.06159" lon="11.37819"><ele>566</ele></trkpt>
<trkpt lat="48.06136" lon="11.37798"><ele>566</ele></trkpt>
<trkpt lat="48.05999" lon="11.37597"><ele>567</ele></trkpt>
<trkpt lat="48.05952" lon="11.37538"><ele>568</ele></trkpt>
<trkpt lat="48.05885" lon="11.37475"><ele>568</ele></trkpt>
<trkpt lat="48.05859" lon="11.37475"><ele>568</ele></trkpt>
<trkpt lat="48.05745" lon="11.37428"><ele>568</ele></trkpt>
<trkpt lat="48.05701" lon="11.37419"><ele>569</ele></trkpt>
<trkpt lat="48.05672" lon="11.37398"><ele>569</ele></trkpt>
<trkpt lat="48.05653" lon="11.37374"><ele>569</ele></trkpt>
<trkpt lat="48.05623" lon="11.37325"><ele>569</ele></trkpt>
<trkpt lat="48.05615" lon="11.37317"><ele>569</ele></trkpt>
<trkpt lat="48.05619" lon="11.37288"><ele>569</ele></trkpt>
<trkpt lat="48.05621" lon="11.37217"><ele>570</ele></trkpt>
<trkpt lat="48.05691" lon="11.36947"><ele>570</ele></trkpt>
<trkpt lat="48.05558" lon="11.36884"><ele>571</ele></trkpt>
<trkpt lat="48.05434" lon="11.36782"><ele>573</ele></trkpt>
<trkpt lat="48.05395" lon="11.36764"><ele>572</ele></trkpt>
<trkpt lat="48.05360" lon="11.36760"><ele>572</ele></trkpt>
<trkpt lat="48.05329" lon="11.36764"><ele>571</ele></trkpt>
<trkpt lat="48.05288" lon="11.36781"><ele>572</ele></trkpt>
<trkpt lat="48.05194" lon="11.36834"><ele>572</ele></trkpt>
<trkpt lat="48.05137" lon="11.36851"><ele>572</ele></trkpt>
<trkpt lat="48.05094" lon="11.36858"><ele>572</ele></trkpt>
<trkpt lat="48.04935" lon="11.36831"><ele>572</ele></trkpt>
<trkpt lat="48.04902" lon="11.36819"><ele>572</ele></trkpt>
<trkpt lat="48.04794" lon="11.36768"><ele>573</ele></trkpt>
<trkpt lat="48.04740" lon="11.36732"><ele>574</ele></trkpt>
<trkpt lat="48.04639" lon="11.36648"><ele>577</ele></trkpt>
<trkpt lat="48.04589" lon="11.36596"><ele>577</ele></trkpt>
<trkpt lat="48.04480" lon="11.36469"><ele>576</ele></trkpt>
<trkpt lat="48.04453" lon="11.36443"><ele>575</ele></trkpt>
<trkpt lat="48.04385" lon="11.36384"><ele>574</ele></trkpt>
<trkpt lat="48.04370" lon="11.36375"><ele>573</ele></trkpt>
<trkpt lat="48.04349" lon="11.36374"><ele>572</ele></trkpt>
<trkpt lat="48.04328" lon="11.36385"><ele>571</ele></trkpt>
<trkpt lat="48.04264" lon="11.36441"><ele>570</ele></trkpt>
<trkpt lat="48.04075" lon="11.36614"><ele>574</ele></trkpt>
<trkpt lat="48.04062" lon="11.36633"><ele>575</ele></trkpt>
<trkpt lat="48.04040" lon="11.36693"><ele>576</ele></trkpt>
<trkpt lat="48.04030" lon="11.36736"><ele>579</ele></trkpt>
<trkpt lat="48.04024" lon="11.36902"><ele>581</ele></trkpt>
<trkpt lat="48.04019" lon="11.36955"><ele>581</ele></trkpt>
<trkpt lat="48.04016" lon="11.36983"><ele>582</ele></trkpt>
<trkpt lat="48.03999" lon="11.37051"><ele>582</ele></trkpt>
<trkpt lat="48.03972" lon="11.37136"><ele>581</ele></trkpt>
<trkpt lat="48.03956" lon="11.37165"><ele>580</ele></trkpt>
<trkpt lat="48.03939" lon="11.37174"><ele>579</ele></trkpt>
<trkpt lat="48.03928" lon="11.37173"><ele>579</ele></trkpt>
<trkpt lat="48.03915" lon="11.37163"><ele>579</ele></trkpt>
<trkpt lat="48.03892" lon="11.37135"><ele>578</ele></trkpt>
<trkpt lat="48.03849" lon="11.37050"><ele>577</ele></trkpt>
<trkpt lat="48.03776" lon="11.36887"><ele>577</ele></trkpt>
<trkpt lat="48.03763" lon="11.36851"><ele>578</ele></trkpt>
<trkpt lat="48.03707" lon="11.36639"><ele>580</ele></trkpt>
<trkpt lat="48.03699" lon="11.36601"><ele>580</ele></trkpt>
<trkpt lat="48.03662" lon="11.36321"><ele>580</ele></trkpt>
<trkpt lat="48.03657" lon="11.36132"><ele>585</ele></trkpt>
<trkpt lat="48.03636" lon="11.36025"><ele>586</ele></trkpt>
<trkpt lat="48.03626" lon="11.35992"><ele>588</ele></trkpt>
<trkpt lat="48.03607" lon="11.35936"><ele>588</ele></trkpt>
<trkpt lat="48.03589" lon="11.35900"><ele>588</ele></trkpt>
<trkpt lat="48.03573" lon="11.35879"><ele>586</ele></trkpt>
<trkpt lat="48.03553" lon="11.35871"><ele>584</ele></trkpt>
<trkpt lat="48.03497" lon="11.35873"><ele>584</ele></trkpt>
<trkpt lat="48.03425" lon="11.35841"><ele>586</ele></trkpt>
<trkpt lat="48.03400" lon="11.35841"><ele>586</ele></trkpt>
<trkpt lat="48.03383" lon="11.35847"><ele>586</ele></trkpt>
<trkpt lat="48.03357" lon="11.35875"><ele>588</ele></trkpt>
<trkpt lat="48.03314" lon="11.35965"><ele>588</ele></trkpt>
<trkpt lat="48.03280" lon="11.35900"><ele>588</ele></trkpt>
<trkpt lat="48.03256" lon="11.35839"><ele>590</ele></trkpt>
<trkpt lat="48.03216" lon="11.35716"><ele>600</ele></trkpt>
<trkpt lat="48.03196" lon="11.35680"><ele>600</ele></trkpt>
<trkpt lat="48.03155" lon="11.35637"><ele>602</ele></trkpt>
<trkpt lat="48.03100" lon="11.35621"><ele>606</ele></trkpt>
<trkpt lat="48.03084" lon="11.35612"><ele>605</ele></trkpt>
<trkpt lat="48.03033" lon="11.35533"><ele>608</ele></trkpt>
<trkpt lat="48.03025" lon="11.35513"><ele>608</ele></trkpt>
<trkpt lat="48.03021" lon="11.35500"><ele>608</ele></trkpt>
<trkpt lat="48.03020" lon="11.35471"><ele>609</ele></trkpt>
<trkpt lat="48.03026" lon="11.35439"><ele>611</ele></trkpt>
<trkpt lat="48.03068" lon="11.35370"><ele>615</ele></trkpt>
<trkpt lat="48.03114" lon="11.35285"><ele>618</ele></trkpt>
<trkpt lat="48.03115" lon="11.35274"><ele>618</ele></trkpt>
<trkpt lat="48.03112" lon="11.35267"><ele>618</ele></trkpt>
<trkpt lat="48.03101" lon="11.35254"><ele>619</ele></trkpt>
<trkpt lat="48.02981" lon="11.35151"><ele>621</ele></trkpt>
<trkpt lat="48.02933" lon="11.35091"><ele>621</ele></trkpt>
<trkpt lat="48.02918" lon="11.35084"><ele>621</ele></trkpt>
<trkpt lat="48.02900" lon="11.35083"><ele>620</ele></trkpt>
<trkpt lat="48.02876" lon="11.35072"><ele>618</ele></trkpt>
<trkpt lat="48.02709" lon="11.34980"><ele>622</ele></trkpt>
<trkpt lat="48.02674" lon="11.34957"><ele>624</ele></trkpt>
<trkpt lat="48.02589" lon="11.34864"><ele>632</ele></trkpt>
<trkpt lat="48.02532" lon="11.34811"><ele>635</ele></trkpt>
<trkpt lat="48.02514" lon="11.34808"><ele>636</ele></trkpt>
<trkpt lat="48.02414" lon="11.34833"><ele>636</ele></trkpt>
<trkpt lat="48.02401" lon="11.34852"><ele>634</ele></trkpt>
<trkpt lat="48.02395" lon="11.34869"><ele>633</ele></trkpt>
<trkpt lat="48.02390" lon="11.34876"><ele>632</ele></trkpt>
<trkpt lat="48.02381" lon="11.34876"><ele>631</ele></trkpt>
<trkpt lat="48.02159" lon="11.34805"><ele>617</ele></trkpt>
<trkpt lat="48.02084" lon="11.34785"><ele>617</ele></trkpt>
<trkpt lat="48.01932" lon="11.34720"><ele>615</ele></trkpt>
<trkpt lat="48.01914" lon="11.34708"><ele>614</ele></trkpt>
<trkpt lat="48.01827" lon="11.34695"><ele>612</ele></trkpt>
<trkpt lat="48.01782" lon="11.34682"><ele>610</ele></trkpt>
<trkpt lat="48.01718" lon="11.34655"><ele>611</ele></trkpt>
<trkpt lat="48.01680" lon="11.34647"><ele>611</ele></trkpt>
<trkpt lat="48.01498" lon="11.34631"><ele>608</ele></trkpt>
<trkpt lat="48.01346" lon="11.34635"><ele>604</ele></trkpt>
<trkpt lat="48.01201" lon="11.34610"><ele>607</ele></trkpt>
<trkpt lat="48.01139" lon="11.34594"><ele>608</ele></trkpt>
<trkpt lat="48.01074" lon="11.34590"><ele>606</ele></trkpt>
<trkpt lat="48.00974" lon="11.34554"><ele>604</ele></trkpt>
<trkpt lat="48.00901" lon="11.34540"><ele>603</ele></trkpt>
<trkpt lat="48.00870" lon="11.34530"><ele>604</ele></trkpt>
<trkpt lat="48.00802" lon="11.34489"><ele>603</ele></trkpt>
<trkpt lat="48.00785" lon="11.34496"><ele>603</ele></trkpt>
<trkpt lat="48.00733" lon="11.34494"><ele>602</ele></trkpt>
<trkpt lat="48.00691" lon="11.34479"><ele>602</ele></trkpt>
<trkpt lat="48.00676" lon="11.34483"><ele>599</ele></trkpt>
<trkpt lat="48.00660" lon="11.34507"><ele>597</ele></trkpt>
<trkpt lat="48.00644" lon="11.34514"><ele>596</ele></trkpt>
<trkpt lat="48.00574" lon="11.34507"><ele>594</ele></trkpt>
<trkpt lat="48.00534" lon="11.34510"><ele>592</ele></trkpt>
<trkpt lat="48.00520" lon="11.34516"><ele>591</ele></trkpt>
<trkpt lat="48.00488" lon="11.34542"><ele>589</ele></trkpt>
<trkpt lat="48.00451" lon="11.34556"><ele>589</ele></trkpt>
<trkpt lat="48.00391" lon="11.34564"><ele>588</ele></trkpt>
<trkpt lat="48.00372" lon="11.34578"><ele>588</ele></trkpt>
<trkpt lat="48.00362" lon="11.34569"><ele>588</ele></trkpt>
<trkpt lat="48.00342" lon="11.34562"><ele>588</ele></trkpt>
<trkpt lat="48.00263" lon="11.34545"><ele>589</ele></trkpt>
<trkpt lat="48.00200" lon="11.34541"><ele>589</ele></trkpt>
<trkpt lat="48.00064" lon="11.34550"><ele>588</ele></trkpt>
<trkpt lat="48.00063" lon="11.34580"><ele>589</ele></trkpt>
<trkpt lat="48.00052" lon="11.34582"><ele>589</ele></trkpt>
<trkpt lat="47.99683" lon="11.34528"><ele>586</ele></trkpt>
<trkpt lat="47.99668" lon="11.34487"><ele>587</ele></trkpt>
<trkpt lat="47.99652" lon="11.34420"><ele>587</ele></trkpt>
<trkpt lat="47.99642" lon="11.34348"><ele>587</ele></trkpt>
<trkpt lat="47.99633" lon="11.34238"><ele>586</ele></trkpt>
<trkpt lat="47.99627" lon="11.34210"><ele>586</ele></trkpt>
<trkpt lat="47.99568" lon="11.34070"><ele>586</ele></trkpt>
<trkpt lat="47.99567" lon="11.34059"><ele>586</ele></trkpt>
<trkpt lat="47.99569" lon="11.34050"><ele>586</ele></trkpt>
<trkpt lat="47.99601" lon="11.33996"><ele>588</ele></trkpt>
<trkpt lat="47.99601" lon="11.33977"><ele>590</ele></trkpt>
<trkpt lat="47.99617" lon="11.33929"><ele>593</ele></trkpt>
<trkpt lat="47.99647" lon="11.33844"><ele>599</ele></trkpt>
<trkpt lat="47.99662" lon="11.33815"><ele>601</ele></trkpt>
<trkpt lat="47.99690" lon="11.33703"><ele>608</ele></trkpt>
<trkpt lat="47.99689" lon="11.33668"><ele>606</ele></trkpt>
<trkpt lat="47.99672" lon="11.33625"><ele>604</ele></trkpt>
<trkpt lat="47.99670" lon="11.33609"><ele>604</ele></trkpt>
<trkpt lat="47.99688" lon="11.33461"><ele>602</ele></trkpt>
<trkpt lat="47.99700" lon="11.33394"><ele>601</ele></trkpt>
<trkpt lat="47.99721" lon="11.33307"><ele>600</ele></trkpt>
<trkpt lat="47.99748" lon="11.33195"><ele>600</ele></trkpt>
<trkpt lat="47.99777" lon="11.33122"><ele>600</ele></trkpt>
<trkpt lat="47.99902" lon="11.32912"><ele>611</ele></trkpt>
<trkpt lat="47.99913" lon="11.32900"><ele>612</ele></trkpt>
<trkpt lat="47.99945" lon="11.32802"><ele>618</ele></trkpt>
<trkpt lat="47.99988" lon="11.32715"><ele>626</ele></trkpt>
<trkpt lat="48.00028" lon="11.32659"><ele>632</ele></trkpt>
<trkpt lat="48.00070" lon="11.32566"><ele>644</ele></trkpt>
<trkpt lat="48.00118" lon="11.32488"><ele>653</ele></trkpt>
<trkpt lat="48.00126" lon="11.32445"><ele>657</ele></trkpt>
<trkpt lat="48.00128" lon="11.32410"><ele>658</ele></trkpt>
<trkpt lat="48.00138" lon="11.32373"><ele>659</ele></trkpt>
<trkpt lat="48.00155" lon="11.32330"><ele>660</ele></trkpt>
<trkpt lat="48.00163" lon="11.32262"><ele>660</ele></trkpt>
<trkpt lat="48.00163" lon="11.32183"><ele>662</ele></trkpt>
<trkpt lat="48.00166" lon="11.32143"><ele>664</ele></trkpt>
<trkpt lat="48.00186" lon="11.32079"><ele>668</ele></trkpt>
<trkpt lat="48.00245" lon="11.31927"><ele>673</ele></trkpt>
<trkpt lat="48.00256" lon="11.31863"><ele>674</ele></trkpt>
<trkpt lat="48.00258" lon="11.31831"><ele>673</ele></trkpt>
<trkpt lat="48.00256" lon="11.31799"><ele>674</ele></trkpt>
<trkpt lat="48.00331" lon="11.31796"><ele>677</ele></trkpt>
<trkpt lat="48.00381" lon="11.31799"><ele>680</ele></trkpt>
<trkpt lat="48.00388" lon="11.31766"><ele>681</ele></trkpt>
<trkpt lat="48.00388" lon="11.31727"><ele>682</ele></trkpt>
<trkpt lat="48.00375" lon="11.31477"><ele>681</ele></trkpt>
<trkpt lat="48.00375" lon="11.31418"><ele>680</ele></trkpt>
<trkpt lat="48.00378" lon="11.31382"><ele>681</ele></trkpt>
<trkpt lat="48.00386" lon="11.31339"><ele>682</ele></trkpt>
<trkpt lat="48.00397" lon="11.31295"><ele>682</ele></trkpt>
<trkpt lat="48.00417" lon="11.31248"><ele>683</ele></trkpt>
<trkpt lat="48.00436" lon="11.31217"><ele>684</ele></trkpt>
<trkpt lat="48.00490" lon="11.31151"><ele>682</ele></trkpt>
<trkpt lat="48.00502" lon="11.31128"><ele>682</ele></trkpt>
<trkpt lat="48.00509" lon="11.31097"><ele>681</ele></trkpt>
<trkpt lat="48.00513" lon="11.30983"><ele>674</ele></trkpt>
<trkpt lat="48.00524" lon="11.30921"><ele>672</ele></trkpt>
<trkpt lat="48.00548" lon="11.30863"><ele>671</ele></trkpt>
<trkpt lat="48.00616" lon="11.30751"><ele>673</ele></trkpt>
<trkpt lat="48.00652" lon="11.30680"><ele>674</ele></trkpt>
<trkpt lat="48.00680" lon="11.30613"><ele>676</ele></trkpt>
<trkpt lat="48.00699" lon="11.30555"><ele>678</ele></trkpt>
<trkpt lat="48.00714" lon="11.30492"><ele>680</ele></trkpt>
<trkpt lat="48.00734" lon="11.30320"><ele>688</ele></trkpt>
<trkpt lat="48.00769" lon="11.30185"><ele>685</ele></trkpt>
<trkpt lat="48.00778" lon="11.30142"><ele>684</ele></trkpt>
<trkpt lat="48.00782" lon="11.30116"><ele>683</ele></trkpt>
<trkpt lat="48.00783" lon="11.30016"><ele>680</ele></trkpt>
<trkpt lat="48.00794" lon="11.29927"><ele>677</ele></trkpt>
<trkpt lat="48.00809" lon="11.29853"><ele>678</ele></trkpt>
<trkpt lat="48.00830" lon="11.29774"><ele>677</ele></trkpt>
<trkpt lat="48.00855" lon="11.29704"><ele>676</ele></trkpt>
<trkpt lat="48.00868" lon="11.29679"><ele>674</ele></trkpt>
<trkpt lat="48.00952" lon="11.29556"><ele>669</ele></trkpt>
<trkpt lat="48.00970" lon="11.29517"><ele>670</ele></trkpt>
<trkpt lat="48.01016" lon="11.29401"><ele>668</ele></trkpt>
<trkpt lat="48.01141" lon="11.29145"><ele>664</ele></trkpt>
<trkpt lat="48.01164" lon="11.29088"><ele>664</ele></trkpt>
<trkpt lat="48.01177" lon="11.29029"><ele>662</ele></trkpt>
<trkpt lat="48.01194" lon="11.28892"><ele>662</ele></trkpt>
<trkpt lat="48.01204" lon="11.28890"><ele>663</ele></trkpt>
<trkpt lat="48.01211" lon="11.28881"><ele>664</ele></trkpt>
<trkpt lat="48.01301" lon="11.28716"><ele>669</ele></trkpt>
<trkpt lat="48.01378" lon="11.28546"><ele>670</ele></trkpt>
<trkpt lat="48.01398" lon="11.28528"><ele>669</ele></trkpt>
<trkpt lat="48.01434" lon="11.28525"><ele>668</ele></trkpt>
<trkpt lat="48.01492" lon="11.28553"><ele>665</ele></trkpt>
<trkpt lat="48.01520" lon="11.28596"><ele>664</ele></trkpt>
<trkpt lat="48.01547" lon="11.28622"><ele>663</ele></trkpt>
<trkpt lat="48.01580" lon="11.28661"><ele>661</ele></trkpt>
<trkpt lat="48.01584" lon="11.28661"><ele>660</ele></trkpt>
<trkpt lat="48.01583" lon="11.28641"><ele>659</ele></trkpt>
<trkpt lat="48.01604" lon="11.28533"><ele>654</ele></trkpt>
<trkpt lat="48.01574" lon="11.28514"><ele>654</ele></trkpt>
<trkpt lat="48.01604" lon="11.28533"><ele>654</ele></trkpt>
<trkpt lat="48.01621" lon="11.28477"><ele>651</ele></trkpt>
<trkpt lat="48.01626" lon="11.28448"><ele>650</ele></trkpt>
<trkpt lat="48.01627" lon="11.28434"><ele>650</ele></trkpt>
<trkpt lat="48.01618" lon="11.28416"><ele>650</ele></trkpt>
<trkpt lat="48.01611" lon="11.28348"><ele>648</ele></trkpt>
<trkpt lat="48.01615" lon="11.28271"><ele>646</ele></trkpt>
<trkpt lat="48.01624" lon="11.28220"><ele>646</ele></trkpt>
<trkpt lat="48.01640" lon="11.28205"><ele>647</ele></trkpt>
<trkpt lat="48.01725" lon="11.28200"><ele>648</ele></trkpt>
<trkpt lat="48.01805" lon="11.28172"><ele>649</ele></trkpt>
<trkpt lat="48.01830" lon="11.28156"><ele>649</ele></trkpt>
<trkpt lat="48.01850" lon="11.28128"><ele>649</ele></trkpt>
<trkpt lat="48.01865" lon="11.28098"><ele>648</ele></trkpt>
<trkpt lat="48.01881" lon="11.28056"><ele>648</ele></trkpt>
<trkpt lat="48.01901" lon="11.27948"><ele>647</ele></trkpt>
<trkpt lat="48.01915" lon="11.27887"><ele>647</ele></trkpt>
<trkpt lat="48.01933" lon="11.27837"><ele>646</ele></trkpt>
<trkpt lat="48.01994" lon="11.27713"><ele>648</ele></trkpt>
<trkpt lat="48.02013" lon="11.27668"><ele>648</ele></trkpt>
<trkpt lat="48.02035" lon="11.27603"><ele>650</ele></trkpt>
<trkpt lat="48.02157" lon="11.27102"><ele>652</ele></trkpt>
<trkpt lat="48.02201" lon="11.26873"><ele>654</ele></trkpt>
<trkpt lat="48.02223" lon="11.26791"><ele>653</ele></trkpt>
<trkpt lat="48.02250" lon="11.26717"><ele>651</ele></trkpt>
<trkpt lat="48.02285" lon="11.26648"><ele>649</ele></trkpt>
<trkpt lat="48.02371" lon="11.26521"><ele>644</ele></trkpt>
<trkpt lat="48.02445" lon="11.26431"><ele>641</ele></trkpt>
<trkpt lat="48.02805" lon="11.26083"><ele>637</ele></trkpt>
<trkpt lat="48.02842" lon="11.26041"><ele>637</ele></trkpt>
<trkpt lat="48.02871" lon="11.25999"><ele>636</ele></trkpt>
<trkpt lat="48.02912" lon="11.25918"><ele>636</ele></trkpt>
<trkpt lat="48.02928" lon="11.25875"><ele>637</ele></trkpt>
<trkpt lat="48.02943" lon="11.25805"><ele>640</ele></trkpt>
<trkpt lat="48.02947" lon="11.25767"><ele>640</ele></trkpt>
<trkpt lat="48.02947" lon="11.25715"><ele>640</ele></trkpt>
<trkpt lat="48.02940" lon="11.25657"><ele>639</ele></trkpt>
<trkpt lat="48.02927" lon="11.25596"><ele>638</ele></trkpt>
<trkpt lat="48.02888" lon="11.25449"><ele>646</ele></trkpt>
<trkpt lat="48.02880" lon="11.25435"><ele>646</ele></trkpt>
<trkpt lat="48.02881" lon="11.25421"><ele>646</ele></trkpt>
<trkpt lat="48.02864" lon="11.25360"><ele>648</ele></trkpt>
<trkpt lat="48.02860" lon="11.25339"><ele>648</ele></trkpt>
<trkpt lat="48.02860" lon="11.25317"><ele>649</ele></trkpt>
<trkpt lat="48.02863" lon="11.25290"><ele>649</ele></trkpt>
<trkpt lat="48.02871" lon="11.25265"><ele>650</ele></trkpt>
<trkpt lat="48.02879" lon="11.25252"><ele>650</ele></trkpt>
<trkpt lat="48.02887" lon="11.25247"><ele>650</ele></trkpt>
<trkpt lat="48.02925" lon="11.25247"><ele>651</ele></trkpt>
<trkpt lat="48.02962" lon="11.25264"><ele>651</ele></trkpt>
<trkpt lat="48.03037" lon="11.25220"><ele>648</ele></trkpt>
<trkpt lat="48.03066" lon="11.25220"><ele>647</ele></trkpt>
<trkpt lat="48.03083" lon="11.25224"><ele>647</ele></trkpt>
<trkpt lat="48.03224" lon="11.25304"><ele>644</ele></trkpt>
<trkpt lat="48.03325" lon="11.25320"><ele>642</ele></trkpt>
<trkpt lat="48.03366" lon="11.25338"><ele>642</ele></trkpt>
<trkpt lat="48.03485" lon="11.25436"><ele>639</ele></trkpt>
<trkpt lat="48.03609" lon="11.25510"><ele>636</ele></trkpt>
<trkpt lat="48.03793" lon="11.25638"><ele>635</ele></trkpt>
<trkpt lat="48.03824" lon="11.25661"><ele>635</ele></trkpt>
<trkpt lat="48.03901" lon="11.25737"><ele>634</ele></trkpt>
<trkpt lat="48.04086" lon="11.25875"><ele>628</ele></trkpt>
<trkpt lat="48.04119" lon="11.25892"><ele>627</ele></trkpt>
<trkpt lat="48.04210" lon="11.25928"><ele>625</ele></trkpt>
<trkpt lat="48.04251" lon="11.25951"><ele>625</ele></trkpt>
<trkpt lat="48.04278" lon="11.25971"><ele>625</ele></trkpt>
<trkpt lat="48.04316" lon="11.26009"><ele>626</ele></trkpt>
<trkpt lat="48.04348" lon="11.26052"><ele>626</ele></trkpt>
<trkpt lat="48.04451" lon="11.26241"><ele>624</ele></trkpt>
<trkpt lat="48.04498" lon="11.26300"><ele>623</ele></trkpt>
<trkpt lat="48.04546" lon="11.26342"><ele>622</ele></trkpt>
<trkpt lat="48.04608" lon="11.26378"><ele>622</ele></trkpt>
<trkpt lat="48.04644" lon="11.26391"><ele>622</ele></trkpt>
<trkpt lat="48.04741" lon="11.26414"><ele>622</ele></trkpt>
<trkpt lat="48.04977" lon="11.26501"><ele>623</ele></trkpt>
<trkpt lat="48.05078" lon="11.26506"><ele>623</ele></trkpt>
<trkpt lat="48.05140" lon="11.26521"><ele>623</ele></trkpt>
<trkpt lat="48.05174" lon="11.26535"><ele>623</ele></trkpt>
<trkpt lat="48.05265" lon="11.26587"><ele>621</ele></trkpt>
<trkpt lat="48.05292" lon="11.26597"><ele>620</ele></trkpt>
<trkpt lat="48.05319" lon="11.26600"><ele>619</ele></trkpt>
<trkpt lat="48.05394" lon="11.26591"><ele>613</ele></trkpt>
<trkpt lat="48.05578" lon="11.26598"><ele>608</ele></trkpt>
<trkpt lat="48.05596" lon="11.26591"><ele>608</ele></trkpt>
<trkpt lat="48.05621" lon="11.26590"><ele>608</ele></trkpt>
<trkpt lat="48.05719" lon="11.26656"><ele>607</ele></trkpt>
<trkpt lat="48.05787" lon="11.26694"><ele>605</ele></trkpt>
<trkpt lat="48.05793" lon="11.26683"><ele>605</ele></trkpt>
<trkpt lat="48.05821" lon="11.26700"><ele>604</ele></trkpt>
<trkpt lat="48.05887" lon="11.26726"><ele>600</ele></trkpt>
<trkpt lat="48.05891" lon="11.26734"><ele>599</ele></trkpt>
<trkpt lat="48.05908" lon="11.26741"><ele>598</ele></trkpt>
<trkpt lat="48.05960" lon="11.26753"><ele>594</ele></trkpt>
<trkpt lat="48.05982" lon="11.26745"><ele>592</ele></trkpt>
<trkpt lat="48.06003" lon="11.26730"><ele>591</ele></trkpt>
<trkpt lat="48.06027" lon="11.26704"><ele>589</ele></trkpt>
<trkpt lat="48.06055" lon="11.26686"><ele>589</ele></trkpt>
<trkpt lat="48.06085" lon="11.26678"><ele>590</ele></trkpt>
<trkpt lat="48.06156" lon="11.26672"><ele>595</ele></trkpt>
<trkpt lat="48.06201" lon="11.26655"><ele>598</ele></trkpt>
<trkpt lat="48.06233" lon="11.26627"><ele>600</ele></trkpt>
<trkpt lat="48.06252" lon="11.26605"><ele>601</ele></trkpt>
<trkpt lat="48.06372" lon="11.26448"><ele>602</ele></trkpt>
<trkpt lat="48.06403" lon="11.26420"><ele>601</ele></trkpt>
<trkpt lat="48.06438" lon="11.26402"><ele>600</ele></trkpt>
<trkpt lat="48.06456" lon="11.26396"><ele>600</ele></trkpt>
<trkpt lat="48.06489" lon="11.26394"><ele>599</ele></trkpt>
<trkpt lat="48.06564" lon="11.26404"><ele>597</ele></trkpt>
<trkpt lat="48.06610" lon="11.26402"><ele>597</ele></trkpt>
<trkpt lat="48.06698" lon="11.26376"><ele>595</ele></trkpt>
<trkpt lat="48.06782" lon="11.26370"><ele>592</ele></trkpt>
<trkpt lat="48.06818" lon="11.26360"><ele>592</ele></trkpt>
<trkpt lat="48.06882" lon="11.26326"><ele>593</ele></trkpt>
<trkpt lat="48.07008" lon="11.26313"><ele>595</ele></trkpt>
<trkpt lat="48.07009" lon="11.26319"><ele>595</ele></trkpt>
<trkpt lat="48.07074" lon="11.26311"><ele>595</ele></trkpt>
<trkpt lat="48.07149" lon="11.26316"><ele>596</ele></trkpt>
<trkpt lat="48.07160" lon="11.26313"><ele>596</ele></trkpt>
<trkpt lat="48.07237" lon="11.26267"><ele>598</ele></trkpt>
<trkpt lat="48.07260" lon="11.26264"><ele>600</ele></trkpt>
<trkpt lat="48.07335" lon="11.26273"><ele>606</ele></trkpt>
<trkpt lat="48.07327" lon="11.26257"><ele>605</ele></trkpt>
<trkpt lat="48.07285" lon="11.26220"><ele>603</ele></trkpt>
<trkpt lat="48.07268" lon="11.26196"><ele>602</ele></trkpt>
<trkpt lat="48.07262" lon="11.26182"><ele>601</ele></trkpt>
<trkpt lat="48.07246" lon="11.26123"><ele>600</ele></trkpt>
<trkpt lat="48.07230" lon="11.26083"><ele>599</ele></trkpt>
<trkpt lat="48.07214" lon="11.26061"><ele>598</ele></trkpt>
<trkpt lat="48.07127" lon="11.25981"><ele>596</ele></trkpt>
<trkpt lat="48.07100" lon="11.25943"><ele>597</ele></trkpt>
<trkpt lat="48.07052" lon="11.25852"><ele>598</ele></trkpt>
<trkpt lat="48.07022" lon="11.25760"><ele>596</ele></trkpt>
<trkpt lat="48.07008" lon="11.25679"><ele>595</ele></trkpt>
<trkpt lat="48.07116" lon="11.25547"><ele>595</ele></trkpt>
<trkpt lat="48.07166" lon="11.25507"><ele>595</ele></trkpt>
<trkpt lat="48.07199" lon="11.25488"><ele>596</ele></trkpt>
<trkpt lat="48.07232" lon="11.25478"><ele>596</ele></trkpt>
<trkpt lat="48.07293" lon="11.25468"><ele>596</ele></trkpt>
<trkpt lat="48.07365" lon="11.25465"><ele>596</ele></trkpt>
<trkpt lat="48.07360" lon="11.25374"><ele>591</ele></trkpt>
<trkpt lat="48.07365" lon="11.25465"><ele>596</ele></trkpt>
<trkpt lat="48.07482" lon="11.25453"><ele>594</ele></trkpt>
<trkpt lat="48.07475" lon="11.25388"><ele>593</ele></trkpt>
<trkpt lat="48.07475" lon="11.25354"><ele>592</ele></trkpt>
<trkpt lat="48.07485" lon="11.25337"><ele>592</ele></trkpt>
<trkpt lat="48.07530" lon="11.25318"><ele>591</ele></trkpt>
<trkpt lat="48.07554" lon="11.25317"><ele>591</ele></trkpt>
<trkpt lat="48.07644" lon="11.25328"><ele>591</ele></trkpt>
<trkpt lat="48.07654" lon="11.25342"><ele>591</ele></trkpt>
<trkpt lat="48.07711" lon="11.25291"><ele>592</ele></trkpt>
<trkpt lat="48.07736" lon="11.25349"><ele>592</ele></trkpt>
<trkpt lat="48.07746" lon="11.25382"><ele>592</ele></trkpt>
<trkpt lat="48.07774" lon="11.25524"><ele>592</ele></trkpt>
<trkpt lat="48.07805" lon="11.25623"><ele>591</ele></trkpt>
<trkpt lat="48.07835" lon="11.25702"><ele>590</ele></trkpt>
<trkpt lat="48.07874" lon="11.25789"><ele>590</ele></trkpt>
<trkpt lat="48.07868" lon="11.25794"><ele>590</ele></trkpt>
<trkpt lat="48.07871" lon="11.25802"><ele>590</ele></trkpt>
<trkpt lat="48.07982" lon="11.26049"><ele>592</ele></trkpt>
<trkpt lat="48.08010" lon="11.26133"><ele>590</ele></trkpt>
<trkpt lat="48.08037" lon="11.26180"><ele>590</ele></trkpt>
<trkpt lat="48.08057" lon="11.26251"><ele>589</ele></trkpt>
<trkpt lat="48.08101" lon="11.26351"><ele>590</ele></trkpt>
<trkpt lat="48.08127" lon="11.26398"><ele>590</ele></trkpt>
<trkpt lat="48.08166" lon="11.26521"><ele>589</ele></trkpt>
<trkpt lat="48.08170" lon="11.26540"><ele>589</ele></trkpt>
<trkpt lat="48.08165" lon="11.26571"><ele>590</ele></trkpt>
<trkpt lat="48.08167" lon="11.26597"><ele>590</ele></trkpt>
<trkpt lat="48.08193" lon="11.26632"><ele>590</ele></trkpt>
<trkpt lat="48.08213" lon="11.26733"><ele>589</ele></trkpt>
<trkpt lat="48.08253" lon="11.27079"><ele>586</ele></trkpt>
<trkpt lat="48.08278" lon="11.27238"><ele>585</ele></trkpt>
<trkpt lat="48.08314" lon="11.27357"><ele>584</ele></trkpt>
<trkpt lat="48.08346" lon="11.27411"><ele>584</ele></trkpt>
<trkpt lat="48.08512" lon="11.27617"><ele>581</ele></trkpt>
<trkpt lat="48.08574" lon="11.27683"><ele>580</ele></trkpt>
<trkpt lat="48.08652" lon="11.27758"><ele>579</ele></trkpt>
<trkpt lat="48.08735" lon="11.27824"><ele>578</ele></trkpt>
<trkpt lat="48.08745" lon="11.27828"><ele>578</ele></trkpt>
<trkpt lat="48.08811" lon="11.27875"><ele>578</ele></trkpt>
<trkpt lat="48.08965" lon="11.27953"><ele>576</ele></trkpt>
<trkpt lat="48.09023" lon="11.27992"><ele>575</ele></trkpt>
<trkpt lat="48.09025" lon="11.28004"><ele>575</ele></trkpt>
<trkpt lat="48.09018" lon="11.28034"><ele>574</ele></trkpt>
<trkpt lat="48.09023" lon="11.28043"><ele>574</ele></trkpt>
<trkpt lat="48.09031" lon="11.28039"><ele>574</ele></trkpt>
<trkpt lat="48.09047" lon="11.28012"><ele>574</ele></trkpt>
<trkpt lat="48.09109" lon="11.27969"><ele>572</ele></trkpt>
<trkpt lat="48.09132" lon="11.27977"><ele>574</ele></trkpt>
<trkpt lat="48.09160" lon="11.27997"><ele>574</ele></trkpt>
<trkpt lat="48.09177" lon="11.28017"><ele>574</ele></trkpt>
<trkpt lat="48.09234" lon="11.28063"><ele>574</ele></trkpt>
<trkpt lat="48.09265" lon="11.28113"><ele>574</ele></trkpt>
<trkpt lat="48.09379" lon="11.28328"><ele>572</ele></trkpt>
<trkpt lat="48.09394" lon="11.28360"><ele>573</ele></trkpt>
<trkpt lat="48.09429" lon="11.28454"><ele>571</ele></trkpt>
<trkpt lat="48.09457" lon="11.28484"><ele>570</ele></trkpt>
<trkpt lat="48.09470" lon="11.28475"><ele>570</ele></trkpt>
<trkpt lat="48.09482" lon="11.28474"><ele>570</ele></trkpt>
<trkpt lat="48.09636" lon="11.28648"><ele>569</ele></trkpt>
<trkpt lat="48.09794" lon="11.28820"><ele>567</ele></trkpt>
<trkpt lat="48.10230" lon="11.29518"><ele>564</ele></trkpt>
<trkpt lat="48.10305" lon="11.29654"><ele>564</ele></trkpt>
<trkpt lat="48.10366" lon="11.29776"><ele>563</ele></trkpt>
<trkpt lat="48.10362" lon="11.29780"><ele>563</ele></trkpt>
<trkpt lat="48.10599" lon="11.30258"><ele>562</ele></trkpt>
<trkpt lat="48.10664" lon="11.30398"><ele>561</ele></trkpt>
<trkpt lat="48.10414" lon="11.30790"><ele>564</ele></trkpt>
<trkpt lat="48.10490" lon="11.30924"><ele>563</ele></trkpt>
<trkpt lat="48.10524" lon="11.30994"><ele>563</ele></trkpt>
<trkpt lat="48.10581" lon="11.31097"><ele>562</ele></trkpt>
<trkpt lat="48.10654" lon="11.31213"><ele>562</ele></trkpt>
<trkpt lat="48.10757" lon="11.31388"><ele>562</ele></trkpt>
<trkpt lat="48.10766" lon="11.31397"><ele>562</ele></trkpt>
<trkpt lat="48.10773" lon="11.31400"><ele>562</ele></trkpt>
<trkpt lat="48.10787" lon="11.31467"><ele>561</ele></trkpt>
<trkpt lat="48.10787" lon="11.31509"><ele>560</ele></trkpt>
<trkpt lat="48.10747" lon="11.31741"><ele>561</ele></trkpt>
<trkpt lat="48.10723" lon="11.31855"><ele>562</ele></trkpt>
<trkpt lat="48.10715" lon="11.31881"><ele>561</ele></trkpt>
<trkpt lat="48.10690" lon="11.32022"><ele>562</ele></trkpt>
<trkpt lat="48.10699" lon="11.32083"><ele>564</ele></trkpt>
<trkpt lat="48.10770" lon="11.32298"><ele>569</ele></trkpt>
<trkpt lat="48.10775" lon="11.32305"><ele>569</ele></trkpt>
<trkpt lat="48.10800" lon="11.32401"><ele>572</ele></trkpt>
<trkpt lat="48.10848" lon="11.32551"><ele>572</ele></trkpt>
<trkpt lat="48.10865" lon="11.32595"><ele>573</ele></trkpt>
<trkpt lat="48.10910" lon="11.32699"><ele>574</ele></trkpt>
<trkpt lat="48.11011" lon="11.32882"><ele>574</ele></trkpt>
<trkpt lat="48.11282" lon="11.33313"><ele>560</ele></trkpt>
<trkpt lat="48.11293" lon="11.33336"><ele>559</ele></trkpt>
<trkpt lat="48.11394" lon="11.33473"><ele>557</ele></trkpt>
<trkpt lat="48.11467" lon="11.33567"><ele>555</ele></trkpt>
<trkpt lat="48.11515" lon="11.33611"><ele>554</ele></trkpt>
<trkpt lat="48.11658" lon="11.33770"><ele>551</ele></trkpt>
<trkpt lat="48.11689" lon="11.33812"><ele>550</ele></trkpt>
<trkpt lat="48.11771" lon="11.33933"><ele>548</ele></trkpt>
<trkpt lat="48.11909" lon="11.34157"><ele>547</ele></trkpt>
<trkpt lat="48.12197" lon="11.34524"><ele>545</ele></trkpt>
<trkpt lat="48.12325" lon="11.34706"><ele>544</ele></trkpt>
<trkpt lat="48.12352" lon="11.34750"><ele>544</ele></trkpt>
<trkpt lat="48.12400" lon="11.34842"><ele>544</ele></trkpt>
<trkpt lat="48.12716" lon="11.35596"><ele>541</ele></trkpt>
<trkpt lat="48.12761" lon="11.35687"><ele>541</ele></trkpt>
<trkpt lat="48.12778" lon="11.35707"><ele>541</ele></trkpt>
<trkpt lat="48.12770" lon="11.35729"><ele>541</ele></trkpt>
<trkpt lat="48.12772" lon="11.35750"><ele>541</ele></trkpt>
<trkpt lat="48.12778" lon="11.35759"><ele>541</ele></trkpt>
<trkpt lat="48.12792" lon="11.35766"><ele>541</ele></trkpt>
<trkpt lat="48.12807" lon="11.35807"><ele>541</ele></trkpt>
<trkpt lat="48.12922" lon="11.36002"><ele>540</ele></trkpt>
<trkpt lat="48.12989" lon="11.36138"><ele>540</ele></trkpt>
<trkpt lat="48.13034" lon="11.36266"><ele>539</ele></trkpt>
<trkpt lat="48.13057" lon="11.36351"><ele>539</ele></trkpt>
<trkpt lat="48.13074" lon="11.36434"><ele>539</ele></trkpt>
<trkpt lat="48.13080" lon="11.36442"><ele>539</ele></trkpt>
<trkpt lat="48.13093" lon="11.36519"><ele>539</ele></trkpt>
<trkpt lat="48.13092" lon="11.36537"><ele>539</ele></trkpt>
<trkpt lat="48.13101" lon="11.36593"><ele>539</ele></trkpt>
<trkpt lat="48.13107" lon="11.36609"><ele>539</ele></trkpt>
<trkpt lat="48.13113" lon="11.36648"><ele>539</ele></trkpt>
<trkpt lat="48.13113" lon="11.36666"><ele>539</ele></trkpt>
<trkpt lat="48.13134" lon="11.36779"><ele>539</ele></trkpt>
<trkpt lat="48.13134" lon="11.36801"><ele>539</ele></trkpt>
<trkpt lat="48.13159" lon="11.36955"><ele>538</ele></trkpt>
<trkpt lat="48.13162" lon="11.36980"><ele>538</ele></trkpt>
<trkpt lat="48.13161" lon="11.36995"><ele>538</ele></trkpt>
<trkpt lat="48.13175" lon="11.37087"><ele>538</ele></trkpt>
<trkpt lat="48.13200" lon="11.37079"><ele>538</ele></trkpt>
<trkpt lat="48.13228" lon="11.37221"><ele>538</ele></trkpt>
<trkpt lat="48.13291" lon="11.37489"><ele>534</ele></trkpt>
<trkpt lat="48.13306" lon="11.37583"><ele>538</ele></trkpt>
<trkpt lat="48.13306" lon="11.37618"><ele>538</ele></trkpt>
<trkpt lat="48.13318" lon="11.37790"><ele>538</ele></trkpt>
<trkpt lat="48.13320" lon="11.37921"><ele>538</ele></trkpt>
<trkpt lat="48.13340" lon="11.38058"><ele>538</ele></trkpt>
<trkpt lat="48.13350" lon="11.38105"><ele>538</ele></trkpt>
<trkpt lat="48.13408" lon="11.38314"><ele>537</ele></trkpt>
<trkpt lat="48.13585" lon="11.38888"><ele>537</ele></trkpt>
<trkpt lat="48.13586" lon="11.38896"><ele>537</ele></trkpt>
<trkpt lat="48.13572" lon="11.38905"><ele>536</ele></trkpt>
<trkpt lat="48.13723" lon="11.39401"><ele>536</ele></trkpt>
<trkpt lat="48.13731" lon="11.39473"><ele>534</ele></trkpt>
<trkpt lat="48.13736" lon="11.39496"><ele>535</ele></trkpt>
<trkpt lat="48.13753" lon="11.39551"><ele>533</ele></trkpt>
<trkpt lat="48.13772" lon="11.39598"><ele>535</ele></trkpt>
<trkpt lat="48.13804" lon="11.39653"><ele>536</ele></trkpt>
<trkpt lat="48.13814" lon="11.39676"><ele>534</ele></trkpt>
<trkpt lat="48.13842" lon="11.39769"><ele>535</ele></trkpt>
<trkpt lat="48.13848" lon="11.39813"><ele>535</ele></trkpt>
<trkpt lat="48.13925" lon="11.40064"><ele>534</ele></trkpt>
<trkpt lat="48.13750" lon="11.40184"><ele>535</ele></trkpt>
<trkpt lat="48.13648" lon="11.40263"><ele>537</ele></trkpt>
    </trkseg>
  </trk>
</gpx>
