<?xml version="1.0" encoding="UTF-8"?>
<gpx version="1.1" creator="Gravel Kompass" xmlns="http://www.topografix.com/GPX/1/1">
  <metadata><name>Pirinexus-Runde: Girona, Pyrenäenrand &amp; Costa Brava – Etappe 5</name></metadata>
  <trk>
    <name>Etappe 5: Cadaqués – Begur</name>
    <trkseg>
<trkpt lat="42.28878" lon="3.27767"><ele>1</ele></trkpt>
<trkpt lat="42.28953" lon="3.27642"><ele>2</ele></trkpt>
<trkpt lat="42.28925" lon="3.27564"><ele>4</ele></trkpt>
<trkpt lat="42.28920" lon="3.27538"><ele>4</ele></trkpt>
<trkpt lat="42.28920" lon="3.27499"><ele>3</ele></trkpt>
<trkpt lat="42.28941" lon="3.27305"><ele>6</ele></trkpt>
<trkpt lat="42.28940" lon="3.27296"><ele>6</ele></trkpt>
<trkpt lat="42.28906" lon="3.27224"><ele>8</ele></trkpt>
<trkpt lat="42.28847" lon="3.27141"><ele>10</ele></trkpt>
<trkpt lat="42.28841" lon="3.27124"><ele>9</ele></trkpt>
<trkpt lat="42.28834" lon="3.27028"><ele>10</ele></trkpt>
<trkpt lat="42.28828" lon="3.27018"><ele>10</ele></trkpt>
<trkpt lat="42.28814" lon="3.27013"><ele>12</ele></trkpt>
<trkpt lat="42.28807" lon="3.26987"><ele>15</ele></trkpt>
<trkpt lat="42.28809" lon="3.26954"><ele>16</ele></trkpt>
<trkpt lat="42.28806" lon="3.26899"><ele>15</ele></trkpt>
<trkpt lat="42.28839" lon="3.26837"><ele>23</ele></trkpt>
<trkpt lat="42.28908" lon="3.26749"><ele>39</ele></trkpt>
<trkpt lat="42.28944" lon="3.26718"><ele>42</ele></trkpt>
<trkpt lat="42.28970" lon="3.26689"><ele>48</ele></trkpt>
<trkpt lat="42.28988" lon="3.26680"><ele>46</ele></trkpt>
<trkpt lat="42.29007" lon="3.26641"><ele>48</ele></trkpt>
<trkpt lat="42.29069" lon="3.26533"><ele>63</ele></trkpt>
<trkpt lat="42.29073" lon="3.26514"><ele>64</ele></trkpt>
<trkpt lat="42.29071" lon="3.26459"><ele>68</ele></trkpt>
<trkpt lat="42.29077" lon="3.26424"><ele>68</ele></trkpt>
<trkpt lat="42.29104" lon="3.26335"><ele>78</ele></trkpt>
<trkpt lat="42.29099" lon="3.26271"><ele>79</ele></trkpt>
<trkpt lat="42.29080" lon="3.26183"><ele>79</ele></trkpt>
<trkpt lat="42.29061" lon="3.26140"><ele>78</ele></trkpt>
<trkpt lat="42.29057" lon="3.26122"><ele>79</ele></trkpt>
<trkpt lat="42.29062" lon="3.26064"><ele>81</ele></trkpt>
<trkpt lat="42.29066" lon="3.26051"><ele>82</ele></trkpt>
<trkpt lat="42.29075" lon="3.26045"><ele>84</ele></trkpt>
<trkpt lat="42.29096" lon="3.26041"><ele>84</ele></trkpt>
<trkpt lat="42.29136" lon="3.25984"><ele>89</ele></trkpt>
<trkpt lat="42.29144" lon="3.25964"><ele>92</ele></trkpt>
<trkpt lat="42.29152" lon="3.25919"><ele>96</ele></trkpt>
<trkpt lat="42.29151" lon="3.25877"><ele>97</ele></trkpt>
<trkpt lat="42.29147" lon="3.25868"><ele>97</ele></trkpt>
<trkpt lat="42.29127" lon="3.25849"><ele>101</ele></trkpt>
<trkpt lat="42.29109" lon="3.25821"><ele>102</ele></trkpt>
<trkpt lat="42.29072" lon="3.25724"><ele>103</ele></trkpt>
<trkpt lat="42.29025" lon="3.25645"><ele>110</ele></trkpt>
<trkpt lat="42.29019" lon="3.25630"><ele>110</ele></trkpt>
<trkpt lat="42.29008" lon="3.25568"><ele>110</ele></trkpt>
<trkpt lat="42.29008" lon="3.25536"><ele>111</ele></trkpt>
<trkpt lat="42.29019" lon="3.25498"><ele>116</ele></trkpt>
<trkpt lat="42.29031" lon="3.25471"><ele>118</ele></trkpt>
<trkpt lat="42.29052" lon="3.25444"><ele>121</ele></trkpt>
<trkpt lat="42.29103" lon="3.25422"><ele>123</ele></trkpt>
<trkpt lat="42.29151" lon="3.25340"><ele>134</ele></trkpt>
<trkpt lat="42.29159" lon="3.25312"><ele>136</ele></trkpt>
<trkpt lat="42.29173" lon="3.25224"><ele>146</ele></trkpt>
<trkpt lat="42.29185" lon="3.25186"><ele>151</ele></trkpt>
<trkpt lat="42.29211" lon="3.25138"><ele>154</ele></trkpt>
<trkpt lat="42.29217" lon="3.25117"><ele>155</ele></trkpt>
<trkpt lat="42.29219" lon="3.25081"><ele>156</ele></trkpt>
<trkpt lat="42.29206" lon="3.25035"><ele>160</ele></trkpt>
<trkpt lat="42.29192" lon="3.24969"><ele>165</ele></trkpt>
<trkpt lat="42.29198" lon="3.24908"><ele>173</ele></trkpt>
<trkpt lat="42.29203" lon="3.24891"><ele>176</ele></trkpt>
<trkpt lat="42.29212" lon="3.24875"><ele>180</ele></trkpt>
<trkpt lat="42.29263" lon="3.24831"><ele>186</ele></trkpt>
<trkpt lat="42.29272" lon="3.24818"><ele>187</ele></trkpt>
<trkpt lat="42.29282" lon="3.24789"><ele>189</ele></trkpt>
<trkpt lat="42.29301" lon="3.24766"><ele>189</ele></trkpt>
<trkpt lat="42.29342" lon="3.24683"><ele>194</ele></trkpt>
<trkpt lat="42.29351" lon="3.24650"><ele>195</ele></trkpt>
<trkpt lat="42.29349" lon="3.24636"><ele>196</ele></trkpt>
<trkpt lat="42.29342" lon="3.24619"><ele>196</ele></trkpt>
<trkpt lat="42.29329" lon="3.24602"><ele>199</ele></trkpt>
<trkpt lat="42.29326" lon="3.24591"><ele>199</ele></trkpt>
<trkpt lat="42.29330" lon="3.24583"><ele>198</ele></trkpt>
<trkpt lat="42.29355" lon="3.24562"><ele>200</ele></trkpt>
<trkpt lat="42.29363" lon="3.24551"><ele>200</ele></trkpt>
<trkpt lat="42.29372" lon="3.24523"><ele>201</ele></trkpt>
<trkpt lat="42.29380" lon="3.24488"><ele>202</ele></trkpt>
<trkpt lat="42.29384" lon="3.24449"><ele>204</ele></trkpt>
<trkpt lat="42.29412" lon="3.24433"><ele>202</ele></trkpt>
<trkpt lat="42.29460" lon="3.24360"><ele>204</ele></trkpt>
<trkpt lat="42.29472" lon="3.24328"><ele>207</ele></trkpt>
<trkpt lat="42.29481" lon="3.24256"><ele>211</ele></trkpt>
<trkpt lat="42.29482" lon="3.24227"><ele>213</ele></trkpt>
<trkpt lat="42.29558" lon="3.24096"><ele>220</ele></trkpt>
<trkpt lat="42.29568" lon="3.24067"><ele>222</ele></trkpt>
<trkpt lat="42.29572" lon="3.24046"><ele>224</ele></trkpt>
<trkpt lat="42.29567" lon="3.24008"><ele>224</ele></trkpt>
<trkpt lat="42.29597" lon="3.23922"><ele>230</ele></trkpt>
<trkpt lat="42.29601" lon="3.23891"><ele>230</ele></trkpt>
<trkpt lat="42.29599" lon="3.23862"><ele>231</ele></trkpt>
<trkpt lat="42.29582" lon="3.23795"><ele>236</ele></trkpt>
<trkpt lat="42.29563" lon="3.23738"><ele>238</ele></trkpt>
<trkpt lat="42.29563" lon="3.23729"><ele>238</ele></trkpt>
<trkpt lat="42.29568" lon="3.23721"><ele>238</ele></trkpt>
<trkpt lat="42.29577" lon="3.23717"><ele>240</ele></trkpt>
<trkpt lat="42.29601" lon="3.23716"><ele>243</ele></trkpt>
<trkpt lat="42.29610" lon="3.23710"><ele>245</ele></trkpt>
<trkpt lat="42.29623" lon="3.23709"><ele>245</ele></trkpt>
<trkpt lat="42.29631" lon="3.23701"><ele>246</ele></trkpt>
<trkpt lat="42.29642" lon="3.23709"><ele>246</ele></trkpt>
<trkpt lat="42.29655" lon="3.23669"><ele>246</ele></trkpt>
<trkpt lat="42.29671" lon="3.23652"><ele>244</ele></trkpt>
<trkpt lat="42.29681" lon="3.23647"><ele>242</ele></trkpt>
<trkpt lat="42.29684" lon="3.23642"><ele>241</ele></trkpt>
<trkpt lat="42.29678" lon="3.23597"><ele>244</ele></trkpt>
<trkpt lat="42.29692" lon="3.23550"><ele>244</ele></trkpt>
<trkpt lat="42.29691" lon="3.23535"><ele>245</ele></trkpt>
<trkpt lat="42.29686" lon="3.23522"><ele>245</ele></trkpt>
<trkpt lat="42.29681" lon="3.23513"><ele>244</ele></trkpt>
<trkpt lat="42.29669" lon="3.23505"><ele>244</ele></trkpt>
<trkpt lat="42.29545" lon="3.23460"><ele>242</ele></trkpt>
<trkpt lat="42.29526" lon="3.23459"><ele>244</ele></trkpt>
<trkpt lat="42.29467" lon="3.23472"><ele>245</ele></trkpt>
<trkpt lat="42.29458" lon="3.23469"><ele>245</ele></trkpt>
<trkpt lat="42.29374" lon="3.23413"><ele>245</ele></trkpt>
<trkpt lat="42.29351" lon="3.23353"><ele>244</ele></trkpt>
<trkpt lat="42.29337" lon="3.23327"><ele>242</ele></trkpt>
<trkpt lat="42.29325" lon="3.23321"><ele>243</ele></trkpt>
<trkpt lat="42.29269" lon="3.23310"><ele>243</ele></trkpt>
<trkpt lat="42.29249" lon="3.23310"><ele>243</ele></trkpt>
<trkpt lat="42.29164" lon="3.23333"><ele>243</ele></trkpt>
<trkpt lat="42.29151" lon="3.23330"><ele>245</ele></trkpt>
<trkpt lat="42.29134" lon="3.23307"><ele>242</ele></trkpt>
<trkpt lat="42.29131" lon="3.23291"><ele>240</ele></trkpt>
<trkpt lat="42.29131" lon="3.23254"><ele>242</ele></trkpt>
<trkpt lat="42.29137" lon="3.23243"><ele>244</ele></trkpt>
<trkpt lat="42.29181" lon="3.23205"><ele>244</ele></trkpt>
<trkpt lat="42.29194" lon="3.23186"><ele>244</ele></trkpt>
<trkpt lat="42.29202" lon="3.23164"><ele>244</ele></trkpt>
<trkpt lat="42.29202" lon="3.23146"><ele>244</ele></trkpt>
<trkpt lat="42.29196" lon="3.23131"><ele>244</ele></trkpt>
<trkpt lat="42.29165" lon="3.23098"><ele>246</ele></trkpt>
<trkpt lat="42.29157" lon="3.23079"><ele>244</ele></trkpt>
<trkpt lat="42.29156" lon="3.23067"><ele>244</ele></trkpt>
<trkpt lat="42.29164" lon="3.23048"><ele>246</ele></trkpt>
<trkpt lat="42.29183" lon="3.23041"><ele>247</ele></trkpt>
<trkpt lat="42.29232" lon="3.23043"><ele>248</ele></trkpt>
<trkpt lat="42.29254" lon="3.23030"><ele>249</ele></trkpt>
<trkpt lat="42.29281" lon="3.23009"><ele>252</ele></trkpt>
<trkpt lat="42.29324" lon="3.22963"><ele>255</ele></trkpt>
<trkpt lat="42.29366" lon="3.22916"><ele>258</ele></trkpt>
<trkpt lat="42.29377" lon="3.22897"><ele>259</ele></trkpt>
<trkpt lat="42.29384" lon="3.22833"><ele>260</ele></trkpt>
<trkpt lat="42.29394" lon="3.22678"><ele>260</ele></trkpt>
<trkpt lat="42.29371" lon="3.22578"><ele>262</ele></trkpt>
<trkpt lat="42.29346" lon="3.22533"><ele>262</ele></trkpt>
<trkpt lat="42.29333" lon="3.22526"><ele>262</ele></trkpt>
<trkpt lat="42.29270" lon="3.22535"><ele>264</ele></trkpt>
<trkpt lat="42.29254" lon="3.22530"><ele>264</ele></trkpt>
<trkpt lat="42.29246" lon="3.22515"><ele>265</ele></trkpt>
<trkpt lat="42.29236" lon="3.22455"><ele>265</ele></trkpt>
<trkpt lat="42.29230" lon="3.22435"><ele>265</ele></trkpt>
<trkpt lat="42.29189" lon="3.22386"><ele>266</ele></trkpt>
<trkpt lat="42.29169" lon="3.22372"><ele>266</ele></trkpt>
<trkpt lat="42.29039" lon="3.22307"><ele>267</ele></trkpt>
<trkpt lat="42.29019" lon="3.22301"><ele>267</ele></trkpt>
<trkpt lat="42.28939" lon="3.22285"><ele>269</ele></trkpt>
<trkpt lat="42.28875" lon="3.22252"><ele>270</ele></trkpt>
<trkpt lat="42.28719" lon="3.22232"><ele>276</ele></trkpt>
<trkpt lat="42.28707" lon="3.22218"><ele>273</ele></trkpt>
<trkpt lat="42.28706" lon="3.22202"><ele>274</ele></trkpt>
<trkpt lat="42.28713" lon="3.22189"><ele>275</ele></trkpt>
<trkpt lat="42.28722" lon="3.22184"><ele>276</ele></trkpt>
<trkpt lat="42.28889" lon="3.22138"><ele>274</ele></trkpt>
<trkpt lat="42.28931" lon="3.22104"><ele>277</ele></trkpt>
<trkpt lat="42.28983" lon="3.22082"><ele>275</ele></trkpt>
<trkpt lat="42.29005" lon="3.22066"><ele>276</ele></trkpt>
<trkpt lat="42.29015" lon="3.22055"><ele>277</ele></trkpt>
<trkpt lat="42.29022" lon="3.22030"><ele>278</ele></trkpt>
<trkpt lat="42.29031" lon="3.21983"><ele>276</ele></trkpt>
<trkpt lat="42.29043" lon="3.21966"><ele>277</ele></trkpt>
<trkpt lat="42.29085" lon="3.21955"><ele>278</ele></trkpt>
<trkpt lat="42.29094" lon="3.21956"><ele>278</ele></trkpt>
<trkpt lat="42.29121" lon="3.21972"><ele>278</ele></trkpt>
<trkpt lat="42.29135" lon="3.21974"><ele>278</ele></trkpt>
<trkpt lat="42.29142" lon="3.21971"><ele>279</ele></trkpt>
<trkpt lat="42.29151" lon="3.21959"><ele>280</ele></trkpt>
<trkpt lat="42.29163" lon="3.21925"><ele>280</ele></trkpt>
<trkpt lat="42.29163" lon="3.21911"><ele>280</ele></trkpt>
<trkpt lat="42.29142" lon="3.21806"><ele>280</ele></trkpt>
<trkpt lat="42.29129" lon="3.21779"><ele>280</ele></trkpt>
<trkpt lat="42.29021" lon="3.21687"><ele>280</ele></trkpt>
<trkpt lat="42.28900" lon="3.21680"><ele>284</ele></trkpt>
<trkpt lat="42.28851" lon="3.21651"><ele>284</ele></trkpt>
<trkpt lat="42.28841" lon="3.21634"><ele>284</ele></trkpt>
<trkpt lat="42.28842" lon="3.21615"><ele>285</ele></trkpt>
<trkpt lat="42.28884" lon="3.21527"><ele>285</ele></trkpt>
<trkpt lat="42.28896" lon="3.21444"><ele>286</ele></trkpt>
<trkpt lat="42.28863" lon="3.21264"><ele>281</ele></trkpt>
<trkpt lat="42.28865" lon="3.21206"><ele>283</ele></trkpt>
<trkpt lat="42.28833" lon="3.21116"><ele>279</ele></trkpt>
<trkpt lat="42.28832" lon="3.21097"><ele>280</ele></trkpt>
<trkpt lat="42.28838" lon="3.21082"><ele>281</ele></trkpt>
<trkpt lat="42.28909" lon="3.21014"><ele>281</ele></trkpt>
<trkpt lat="42.28926" lon="3.20990"><ele>280</ele></trkpt>
<trkpt lat="42.28936" lon="3.20964"><ele>279</ele></trkpt>
<trkpt lat="42.28959" lon="3.20879"><ele>279</ele></trkpt>
<trkpt lat="42.28988" lon="3.20840"><ele>279</ele></trkpt>
<trkpt lat="42.29003" lon="3.20783"><ele>278</ele></trkpt>
<trkpt lat="42.29008" lon="3.20776"><ele>278</ele></trkpt>
<trkpt lat="42.29018" lon="3.20772"><ele>277</ele></trkpt>
<trkpt lat="42.29026" lon="3.20774"><ele>277</ele></trkpt>
<trkpt lat="42.29097" lon="3.20815"><ele>279</ele></trkpt>
<trkpt lat="42.29114" lon="3.20818"><ele>278</ele></trkpt>
<trkpt lat="42.29130" lon="3.20817"><ele>278</ele></trkpt>
<trkpt lat="42.29201" lon="3.20775"><ele>274</ele></trkpt>
<trkpt lat="42.29286" lon="3.20751"><ele>271</ele></trkpt>
<trkpt lat="42.29341" lon="3.20754"><ele>270</ele></trkpt>
<trkpt lat="42.29364" lon="3.20743"><ele>268</ele></trkpt>
<trkpt lat="42.29396" lon="3.20713"><ele>267</ele></trkpt>
<trkpt lat="42.29439" lon="3.20654"><ele>266</ele></trkpt>
<trkpt lat="42.29484" lon="3.20581"><ele>265</ele></trkpt>
<trkpt lat="42.29505" lon="3.20542"><ele>261</ele></trkpt>
<trkpt lat="42.29518" lon="3.20536"><ele>260</ele></trkpt>
<trkpt lat="42.29557" lon="3.20543"><ele>260</ele></trkpt>
<trkpt lat="42.29576" lon="3.20541"><ele>260</ele></trkpt>
<trkpt lat="42.29592" lon="3.20535"><ele>260</ele></trkpt>
<trkpt lat="42.29603" lon="3.20516"><ele>258</ele></trkpt>
<trkpt lat="42.29602" lon="3.20466"><ele>254</ele></trkpt>
<trkpt lat="42.29581" lon="3.20368"><ele>247</ele></trkpt>
<trkpt lat="42.29600" lon="3.20315"><ele>246</ele></trkpt>
<trkpt lat="42.29609" lon="3.20248"><ele>242</ele></trkpt>
<trkpt lat="42.29621" lon="3.20223"><ele>241</ele></trkpt>
<trkpt lat="42.29637" lon="3.20210"><ele>240</ele></trkpt>
<trkpt lat="42.29682" lon="3.20185"><ele>237</ele></trkpt>
<trkpt lat="42.29701" lon="3.20162"><ele>236</ele></trkpt>
<trkpt lat="42.29708" lon="3.20146"><ele>235</ele></trkpt>
<trkpt lat="42.29709" lon="3.20134"><ele>235</ele></trkpt>
<trkpt lat="42.29705" lon="3.20119"><ele>234</ele></trkpt>
<trkpt lat="42.29686" lon="3.20093"><ele>230</ele></trkpt>
<trkpt lat="42.29653" lon="3.20038"><ele>228</ele></trkpt>
<trkpt lat="42.29636" lon="3.20019"><ele>226</ele></trkpt>
<trkpt lat="42.29620" lon="3.20008"><ele>223</ele></trkpt>
<trkpt lat="42.29516" lon="3.19959"><ele>217</ele></trkpt>
<trkpt lat="42.29491" lon="3.19956"><ele>212</ele></trkpt>
<trkpt lat="42.29483" lon="3.19945"><ele>213</ele></trkpt>
<trkpt lat="42.29483" lon="3.19927"><ele>211</ele></trkpt>
<trkpt lat="42.29489" lon="3.19916"><ele>211</ele></trkpt>
<trkpt lat="42.29554" lon="3.19875"><ele>210</ele></trkpt>
<trkpt lat="42.29565" lon="3.19860"><ele>208</ele></trkpt>
<trkpt lat="42.29588" lon="3.19821"><ele>205</ele></trkpt>
<trkpt lat="42.29616" lon="3.19798"><ele>204</ele></trkpt>
<trkpt lat="42.29626" lon="3.19785"><ele>205</ele></trkpt>
<trkpt lat="42.29639" lon="3.19764"><ele>204</ele></trkpt>
<trkpt lat="42.29642" lon="3.19741"><ele>203</ele></trkpt>
<trkpt lat="42.29635" lon="3.19724"><ele>202</ele></trkpt>
<trkpt lat="42.29613" lon="3.19698"><ele>197</ele></trkpt>
<trkpt lat="42.29598" lon="3.19644"><ele>195</ele></trkpt>
<trkpt lat="42.29591" lon="3.19629"><ele>195</ele></trkpt>
<trkpt lat="42.29581" lon="3.19620"><ele>194</ele></trkpt>
<trkpt lat="42.29487" lon="3.19563"><ele>186</ele></trkpt>
<trkpt lat="42.29401" lon="3.19449"><ele>178</ele></trkpt>
<trkpt lat="42.29390" lon="3.19418"><ele>175</ele></trkpt>
<trkpt lat="42.29384" lon="3.19381"><ele>172</ele></trkpt>
<trkpt lat="42.29385" lon="3.19353"><ele>171</ele></trkpt>
<trkpt lat="42.29395" lon="3.19319"><ele>169</ele></trkpt>
<trkpt lat="42.29404" lon="3.19305"><ele>168</ele></trkpt>
<trkpt lat="42.29419" lon="3.19294"><ele>167</ele></trkpt>
<trkpt lat="42.29529" lon="3.19261"><ele>161</ele></trkpt>
<trkpt lat="42.29611" lon="3.19264"><ele>156</ele></trkpt>
<trkpt lat="42.29644" lon="3.19277"><ele>155</ele></trkpt>
<trkpt lat="42.29652" lon="3.19274"><ele>155</ele></trkpt>
<trkpt lat="42.29658" lon="3.19265"><ele>155</ele></trkpt>
<trkpt lat="42.29659" lon="3.19247"><ele>156</ele></trkpt>
<trkpt lat="42.29653" lon="3.19235"><ele>155</ele></trkpt>
<trkpt lat="42.29622" lon="3.19191"><ele>148</ele></trkpt>
<trkpt lat="42.29597" lon="3.19148"><ele>146</ele></trkpt>
<trkpt lat="42.29540" lon="3.19075"><ele>138</ele></trkpt>
<trkpt lat="42.29527" lon="3.19043"><ele>136</ele></trkpt>
<trkpt lat="42.29522" lon="3.19022"><ele>134</ele></trkpt>
<trkpt lat="42.29512" lon="3.18957"><ele>132</ele></trkpt>
<trkpt lat="42.29512" lon="3.18941"><ele>132</ele></trkpt>
<trkpt lat="42.29516" lon="3.18928"><ele>130</ele></trkpt>
<trkpt lat="42.29530" lon="3.18910"><ele>130</ele></trkpt>
<trkpt lat="42.29582" lon="3.18871"><ele>128</ele></trkpt>
<trkpt lat="42.29588" lon="3.18859"><ele>126</ele></trkpt>
<trkpt lat="42.29588" lon="3.18846"><ele>126</ele></trkpt>
<trkpt lat="42.29575" lon="3.18826"><ele>127</ele></trkpt>
<trkpt lat="42.29540" lon="3.18807"><ele>124</ele></trkpt>
<trkpt lat="42.29519" lon="3.18785"><ele>122</ele></trkpt>
<trkpt lat="42.29476" lon="3.18726"><ele>117</ele></trkpt>
<trkpt lat="42.29449" lon="3.18654"><ele>114</ele></trkpt>
<trkpt lat="42.29437" lon="3.18643"><ele>113</ele></trkpt>
<trkpt lat="42.29388" lon="3.18620"><ele>108</ele></trkpt>
<trkpt lat="42.29382" lon="3.18611"><ele>107</ele></trkpt>
<trkpt lat="42.29371" lon="3.18576"><ele>106</ele></trkpt>
<trkpt lat="42.29362" lon="3.18563"><ele>105</ele></trkpt>
<trkpt lat="42.29351" lon="3.18559"><ele>104</ele></trkpt>
<trkpt lat="42.29321" lon="3.18561"><ele>100</ele></trkpt>
<trkpt lat="42.29299" lon="3.18553"><ele>99</ele></trkpt>
<trkpt lat="42.29227" lon="3.18496"><ele>94</ele></trkpt>
<trkpt lat="42.29212" lon="3.18473"><ele>93</ele></trkpt>
<trkpt lat="42.29198" lon="3.18464"><ele>93</ele></trkpt>
<trkpt lat="42.29182" lon="3.18462"><ele>92</ele></trkpt>
<trkpt lat="42.29137" lon="3.18474"><ele>88</ele></trkpt>
<trkpt lat="42.29122" lon="3.18467"><ele>87</ele></trkpt>
<trkpt lat="42.29104" lon="3.18437"><ele>85</ele></trkpt>
<trkpt lat="42.29077" lon="3.18358"><ele>81</ele></trkpt>
<trkpt lat="42.29061" lon="3.18343"><ele>80</ele></trkpt>
<trkpt lat="42.28961" lon="3.18330"><ele>73</ele></trkpt>
<trkpt lat="42.28937" lon="3.18321"><ele>71</ele></trkpt>
<trkpt lat="42.28931" lon="3.18311"><ele>70</ele></trkpt>
<trkpt lat="42.28929" lon="3.18294"><ele>70</ele></trkpt>
<trkpt lat="42.28941" lon="3.18244"><ele>66</ele></trkpt>
<trkpt lat="42.28941" lon="3.18233"><ele>66</ele></trkpt>
<trkpt lat="42.28936" lon="3.18222"><ele>64</ele></trkpt>
<trkpt lat="42.28885" lon="3.18187"><ele>62</ele></trkpt>
<trkpt lat="42.28873" lon="3.18175"><ele>61</ele></trkpt>
<trkpt lat="42.28853" lon="3.18151"><ele>58</ele></trkpt>
<trkpt lat="42.28773" lon="3.18032"><ele>52</ele></trkpt>
<trkpt lat="42.28738" lon="3.18058"><ele>51</ele></trkpt>
<trkpt lat="42.28681" lon="3.18058"><ele>47</ele></trkpt>
<trkpt lat="42.28486" lon="3.18037"><ele>40</ele></trkpt>
<trkpt lat="42.28114" lon="3.17942"><ele>31</ele></trkpt>
<trkpt lat="42.28083" lon="3.17927"><ele>31</ele></trkpt>
<trkpt lat="42.28073" lon="3.17950"><ele>32</ele></trkpt>
<trkpt lat="42.28002" lon="3.17998"><ele>33</ele></trkpt>
<trkpt lat="42.27958" lon="3.18003"><ele>32</ele></trkpt>
<trkpt lat="42.27907" lon="3.18037"><ele>32</ele></trkpt>
<trkpt lat="42.27903" lon="3.18032"><ele>32</ele></trkpt>
<trkpt lat="42.27854" lon="3.18047"><ele>31</ele></trkpt>
<trkpt lat="42.27840" lon="3.18052"><ele>31</ele></trkpt>
<trkpt lat="42.27823" lon="3.18065"><ele>32</ele></trkpt>
<trkpt lat="42.27743" lon="3.18066"><ele>32</ele></trkpt>
<trkpt lat="42.27725" lon="3.18075"><ele>32</ele></trkpt>
<trkpt lat="42.27666" lon="3.18088"><ele>30</ele></trkpt>
<trkpt lat="42.27565" lon="3.18128"><ele>32</ele></trkpt>
<trkpt lat="42.27325" lon="3.18255"><ele>28</ele></trkpt>
<trkpt lat="42.27187" lon="3.18244"><ele>26</ele></trkpt>
<trkpt lat="42.27177" lon="3.18250"><ele>26</ele></trkpt>
<trkpt lat="42.27159" lon="3.18286"><ele>27</ele></trkpt>
<trkpt lat="42.27088" lon="3.18290"><ele>26</ele></trkpt>
<trkpt lat="42.27082" lon="3.18276"><ele>26</ele></trkpt>
<trkpt lat="42.27070" lon="3.18274"><ele>26</ele></trkpt>
<trkpt lat="42.27063" lon="3.18280"><ele>26</ele></trkpt>
<trkpt lat="42.27061" lon="3.18291"><ele>26</ele></trkpt>
<trkpt lat="42.26990" lon="3.18309"><ele>24</ele></trkpt>
<trkpt lat="42.26954" lon="3.18328"><ele>23</ele></trkpt>
<trkpt lat="42.26907" lon="3.18361"><ele>22</ele></trkpt>
<trkpt lat="42.26883" lon="3.18274"><ele>20</ele></trkpt>
<trkpt lat="42.26803" lon="3.18355"><ele>19</ele></trkpt>
<trkpt lat="42.26697" lon="3.18239"><ele>14</ele></trkpt>
<trkpt lat="42.26511" lon="3.18075"><ele>9</ele></trkpt>
<trkpt lat="42.26465" lon="3.18029"><ele>8</ele></trkpt>
<trkpt lat="42.26449" lon="3.18020"><ele>8</ele></trkpt>
<trkpt lat="42.26449" lon="3.18008"><ele>8</ele></trkpt>
<trkpt lat="42.26442" lon="3.17998"><ele>8</ele></trkpt>
<trkpt lat="42.26436" lon="3.17997"><ele>8</ele></trkpt>
<trkpt lat="42.26423" lon="3.18007"><ele>7</ele></trkpt>
<trkpt lat="42.26366" lon="3.17905"><ele>6</ele></trkpt>
<trkpt lat="42.26346" lon="3.17855"><ele>5</ele></trkpt>
<trkpt lat="42.26331" lon="3.17825"><ele>5</ele></trkpt>
<trkpt lat="42.26350" lon="3.17793"><ele>6</ele></trkpt>
<trkpt lat="42.26311" lon="3.17727"><ele>6</ele></trkpt>
<trkpt lat="42.26288" lon="3.17760"><ele>4</ele></trkpt>
<trkpt lat="42.26331" lon="3.17825"><ele>5</ele></trkpt>
<trkpt lat="42.26350" lon="3.17793"><ele>6</ele></trkpt>
<trkpt lat="42.26403" lon="3.17617"><ele>7</ele></trkpt>
<trkpt lat="42.26475" lon="3.17487"><ele>7</ele></trkpt>
<trkpt lat="42.26555" lon="3.17403"><ele>4</ele></trkpt>
<trkpt lat="42.26567" lon="3.17393"><ele>4</ele></trkpt>
<trkpt lat="42.26572" lon="3.17394"><ele>4</ele></trkpt>
<trkpt lat="42.26633" lon="3.17331"><ele>4</ele></trkpt>
<trkpt lat="42.26655" lon="3.17371"><ele>5</ele></trkpt>
<trkpt lat="42.26664" lon="3.17380"><ele>5</ele></trkpt>
<trkpt lat="42.26675" lon="3.17385"><ele>6</ele></trkpt>
<trkpt lat="42.26694" lon="3.17387"><ele>7</ele></trkpt>
<trkpt lat="42.26737" lon="3.17372"><ele>7</ele></trkpt>
<trkpt lat="42.26866" lon="3.17297"><ele>8</ele></trkpt>
<trkpt lat="42.26900" lon="3.17299"><ele>7</ele></trkpt>
<trkpt lat="42.26914" lon="3.17244"><ele>7</ele></trkpt>
<trkpt lat="42.26955" lon="3.17284"><ele>7</ele></trkpt>
<trkpt lat="42.26987" lon="3.17264"><ele>7</ele></trkpt>
<trkpt lat="42.27004" lon="3.17240"><ele>7</ele></trkpt>
<trkpt lat="42.27107" lon="3.17059"><ele>8</ele></trkpt>
<trkpt lat="42.27149" lon="3.17045"><ele>8</ele></trkpt>
<trkpt lat="42.27184" lon="3.17022"><ele>8</ele></trkpt>
<trkpt lat="42.27229" lon="3.16972"><ele>6</ele></trkpt>
<trkpt lat="42.27243" lon="3.16962"><ele>6</ele></trkpt>
<trkpt lat="42.27284" lon="3.16914"><ele>10</ele></trkpt>
<trkpt lat="42.27340" lon="3.16817"><ele>12</ele></trkpt>
<trkpt lat="42.27344" lon="3.16803"><ele>12</ele></trkpt>
<trkpt lat="42.27331" lon="3.16696"><ele>13</ele></trkpt>
<trkpt lat="42.27333" lon="3.16688"><ele>13</ele></trkpt>
<trkpt lat="42.27338" lon="3.16683"><ele>13</ele></trkpt>
<trkpt lat="42.27392" lon="3.16666"><ele>14</ele></trkpt>
<trkpt lat="42.27402" lon="3.16654"><ele>14</ele></trkpt>
<trkpt lat="42.27429" lon="3.16550"><ele>11</ele></trkpt>
<trkpt lat="42.27446" lon="3.16535"><ele>10</ele></trkpt>
<trkpt lat="42.27507" lon="3.16448"><ele>13</ele></trkpt>
<trkpt lat="42.27510" lon="3.16389"><ele>14</ele></trkpt>
<trkpt lat="42.27532" lon="3.16311"><ele>14</ele></trkpt>
<trkpt lat="42.27542" lon="3.16288"><ele>15</ele></trkpt>
<trkpt lat="42.27585" lon="3.16230"><ele>16</ele></trkpt>
<trkpt lat="42.27649" lon="3.16180"><ele>15</ele></trkpt>
<trkpt lat="42.27744" lon="3.16151"><ele>18</ele></trkpt>
<trkpt lat="42.27802" lon="3.16127"><ele>19</ele></trkpt>
<trkpt lat="42.27857" lon="3.16079"><ele>20</ele></trkpt>
<trkpt lat="42.27915" lon="3.16038"><ele>19</ele></trkpt>
<trkpt lat="42.28026" lon="3.15902"><ele>19</ele></trkpt>
<trkpt lat="42.28066" lon="3.15833"><ele>19</ele></trkpt>
<trkpt lat="42.28077" lon="3.15802"><ele>19</ele></trkpt>
<trkpt lat="42.28075" lon="3.15751"><ele>20</ele></trkpt>
<trkpt lat="42.28087" lon="3.15693"><ele>20</ele></trkpt>
<trkpt lat="42.28111" lon="3.15614"><ele>20</ele></trkpt>
<trkpt lat="42.28126" lon="3.15582"><ele>21</ele></trkpt>
<trkpt lat="42.28159" lon="3.15533"><ele>22</ele></trkpt>
<trkpt lat="42.28184" lon="3.15444"><ele>24</ele></trkpt>
<trkpt lat="42.28195" lon="3.15351"><ele>24</ele></trkpt>
<trkpt lat="42.28193" lon="3.15292"><ele>22</ele></trkpt>
<trkpt lat="42.28183" lon="3.15224"><ele>21</ele></trkpt>
<trkpt lat="42.28183" lon="3.15200"><ele>20</ele></trkpt>
<trkpt lat="42.28173" lon="3.15078"><ele>19</ele></trkpt>
<trkpt lat="42.28169" lon="3.14957"><ele>18</ele></trkpt>
<trkpt lat="42.28199" lon="3.14745"><ele>17</ele></trkpt>
<trkpt lat="42.28198" lon="3.14737"><ele>17</ele></trkpt>
<trkpt lat="42.28225" lon="3.14607"><ele>18</ele></trkpt>
<trkpt lat="42.28223" lon="3.14590"><ele>19</ele></trkpt>
<trkpt lat="42.28234" lon="3.14520"><ele>18</ele></trkpt>
<trkpt lat="42.28231" lon="3.14497"><ele>18</ele></trkpt>
<trkpt lat="42.28221" lon="3.14483"><ele>18</ele></trkpt>
<trkpt lat="42.28096" lon="3.14423"><ele>18</ele></trkpt>
<trkpt lat="42.28076" lon="3.14418"><ele>19</ele></trkpt>
<trkpt lat="42.27957" lon="3.14335"><ele>16</ele></trkpt>
<trkpt lat="42.27943" lon="3.14332"><ele>16</ele></trkpt>
<trkpt lat="42.28048" lon="3.14183"><ele>13</ele></trkpt>
<trkpt lat="42.28149" lon="3.14070"><ele>12</ele></trkpt>
<trkpt lat="42.28252" lon="3.13925"><ele>8</ele></trkpt>
<trkpt lat="42.28320" lon="3.13817"><ele>8</ele></trkpt>
<trkpt lat="42.28326" lon="3.13793"><ele>8</ele></trkpt>
<trkpt lat="42.28335" lon="3.13680"><ele>7</ele></trkpt>
<trkpt lat="42.28362" lon="3.13563"><ele>7</ele></trkpt>
<trkpt lat="42.28370" lon="3.13534"><ele>8</ele></trkpt>
<trkpt lat="42.28427" lon="3.13380"><ele>6</ele></trkpt>
<trkpt lat="42.28464" lon="3.13244"><ele>6</ele></trkpt>
<trkpt lat="42.28456" lon="3.13125"><ele>4</ele></trkpt>
<trkpt lat="42.28457" lon="3.12992"><ele>4</ele></trkpt>
<trkpt lat="42.28464" lon="3.12907"><ele>4</ele></trkpt>
<trkpt lat="42.28514" lon="3.12770"><ele>4</ele></trkpt>
<trkpt lat="42.28530" lon="3.12685"><ele>4</ele></trkpt>
<trkpt lat="42.28542" lon="3.12593"><ele>3</ele></trkpt>
<trkpt lat="42.28634" lon="3.12380"><ele>5</ele></trkpt>
<trkpt lat="42.28654" lon="3.12339"><ele>6</ele></trkpt>
<trkpt lat="42.28737" lon="3.12268"><ele>7</ele></trkpt>
<trkpt lat="42.28776" lon="3.12248"><ele>6</ele></trkpt>
<trkpt lat="42.28744" lon="3.12212"><ele>6</ele></trkpt>
<trkpt lat="42.28822" lon="3.12072"><ele>5</ele></trkpt>
<trkpt lat="42.28820" lon="3.12019"><ele>5</ele></trkpt>
<trkpt lat="42.28849" lon="3.11956"><ele>6</ele></trkpt>
<trkpt lat="42.28865" lon="3.11894"><ele>5</ele></trkpt>
<trkpt lat="42.28871" lon="3.11838"><ele>5</ele></trkpt>
<trkpt lat="42.28885" lon="3.11801"><ele>5</ele></trkpt>
<trkpt lat="42.28920" lon="3.11730"><ele>4</ele></trkpt>
<trkpt lat="42.28952" lon="3.11687"><ele>4</ele></trkpt>
<trkpt lat="42.28971" lon="3.11651"><ele>4</ele></trkpt>
<trkpt lat="42.28990" lon="3.11585"><ele>4</ele></trkpt>
<trkpt lat="42.29005" lon="3.11565"><ele>4</ele></trkpt>
<trkpt lat="42.29042" lon="3.11525"><ele>4</ele></trkpt>
<trkpt lat="42.29115" lon="3.11456"><ele>4</ele></trkpt>
<trkpt lat="42.29210" lon="3.11378"><ele>6</ele></trkpt>
<trkpt lat="42.29234" lon="3.11370"><ele>6</ele></trkpt>
<trkpt lat="42.29272" lon="3.11349"><ele>6</ele></trkpt>
<trkpt lat="42.29514" lon="3.11194"><ele>5</ele></trkpt>
<trkpt lat="42.29542" lon="3.11167"><ele>6</ele></trkpt>
<trkpt lat="42.29600" lon="3.11130"><ele>7</ele></trkpt>
<trkpt lat="42.29632" lon="3.11124"><ele>8</ele></trkpt>
<trkpt lat="42.29651" lon="3.11115"><ele>8</ele></trkpt>
<trkpt lat="42.29687" lon="3.10983"><ele>6</ele></trkpt>
<trkpt lat="42.29758" lon="3.10751"><ele>5</ele></trkpt>
<trkpt lat="42.29780" lon="3.10609"><ele>4</ele></trkpt>
<trkpt lat="42.29797" lon="3.10491"><ele>4</ele></trkpt>
<trkpt lat="42.29814" lon="3.10268"><ele>4</ele></trkpt>
<trkpt lat="42.29758" lon="3.10119"><ele>6</ele></trkpt>
<trkpt lat="42.29749" lon="3.10091"><ele>6</ele></trkpt>
<trkpt lat="42.29749" lon="3.10070"><ele>6</ele></trkpt>
<trkpt lat="42.29754" lon="3.10025"><ele>6</ele></trkpt>
<trkpt lat="42.29795" lon="3.09856"><ele>5</ele></trkpt>
<trkpt lat="42.29800" lon="3.09826"><ele>4</ele></trkpt>
<trkpt lat="42.29804" lon="3.09787"><ele>4</ele></trkpt>
<trkpt lat="42.29793" lon="3.09736"><ele>3</ele></trkpt>
<trkpt lat="42.29716" lon="3.09581"><ele>3</ele></trkpt>
<trkpt lat="42.29615" lon="3.09432"><ele>3</ele></trkpt>
<trkpt lat="42.29582" lon="3.09377"><ele>3</ele></trkpt>
<trkpt lat="42.29516" lon="3.09204"><ele>4</ele></trkpt>
<trkpt lat="42.29420" lon="3.08881"><ele>4</ele></trkpt>
<trkpt lat="42.29409" lon="3.08869"><ele>5</ele></trkpt>
<trkpt lat="42.29355" lon="3.08854"><ele>4</ele></trkpt>
<trkpt lat="42.29273" lon="3.08819"><ele>4</ele></trkpt>
<trkpt lat="42.29219" lon="3.08790"><ele>4</ele></trkpt>
<trkpt lat="42.29190" lon="3.08763"><ele>4</ele></trkpt>
<trkpt lat="42.29158" lon="3.08711"><ele>4</ele></trkpt>
<trkpt lat="42.29086" lon="3.08561"><ele>4</ele></trkpt>
<trkpt lat="42.29020" lon="3.08462"><ele>3</ele></trkpt>
<trkpt lat="42.28961" lon="3.08288"><ele>4</ele></trkpt>
<trkpt lat="42.28935" lon="3.08160"><ele>4</ele></trkpt>
<trkpt lat="42.28929" lon="3.08089"><ele>5</ele></trkpt>
<trkpt lat="42.28927" lon="3.08019"><ele>6</ele></trkpt>
<trkpt lat="42.28932" lon="3.07973"><ele>8</ele></trkpt>
<trkpt lat="42.28932" lon="3.07926"><ele>8</ele></trkpt>
<trkpt lat="42.28924" lon="3.07876"><ele>8</ele></trkpt>
<trkpt lat="42.28857" lon="3.07661"><ele>11</ele></trkpt>
<trkpt lat="42.28839" lon="3.07622"><ele>10</ele></trkpt>
<trkpt lat="42.28816" lon="3.07595"><ele>10</ele></trkpt>
<trkpt lat="42.28727" lon="3.07523"><ele>8</ele></trkpt>
<trkpt lat="42.28536" lon="3.07346"><ele>6</ele></trkpt>
<trkpt lat="42.28346" lon="3.07182"><ele>6</ele></trkpt>
<trkpt lat="42.28236" lon="3.07082"><ele>5</ele></trkpt>
<trkpt lat="42.28183" lon="3.07028"><ele>5</ele></trkpt>
<trkpt lat="42.28147" lon="3.07006"><ele>5</ele></trkpt>
<trkpt lat="42.28120" lon="3.06998"><ele>5</ele></trkpt>
<trkpt lat="42.27952" lon="3.06975"><ele>5</ele></trkpt>
<trkpt lat="42.27944" lon="3.06955"><ele>5</ele></trkpt>
<trkpt lat="42.27925" lon="3.06932"><ele>5</ele></trkpt>
<trkpt lat="42.27882" lon="3.06897"><ele>6</ele></trkpt>
<trkpt lat="42.27724" lon="3.06960"><ele>5</ele></trkpt>
<trkpt lat="42.27694" lon="3.06969"><ele>5</ele></trkpt>
<trkpt lat="42.27675" lon="3.06969"><ele>6</ele></trkpt>
<trkpt lat="42.27674" lon="3.06981"><ele>6</ele></trkpt>
<trkpt lat="42.27626" lon="3.06982"><ele>6</ele></trkpt>
<trkpt lat="42.27577" lon="3.06988"><ele>7</ele></trkpt>
<trkpt lat="42.27523" lon="3.07005"><ele>7</ele></trkpt>
<trkpt lat="42.27462" lon="3.07034"><ele>8</ele></trkpt>
<trkpt lat="42.27284" lon="3.07106"><ele>6</ele></trkpt>
<trkpt lat="42.27173" lon="3.07159"><ele>8</ele></trkpt>
<trkpt lat="42.27090" lon="3.07179"><ele>9</ele></trkpt>
<trkpt lat="42.27024" lon="3.07206"><ele>10</ele></trkpt>
<trkpt lat="42.27008" lon="3.07205"><ele>11</ele></trkpt>
<trkpt lat="42.26995" lon="3.07190"><ele>14</ele></trkpt>
<trkpt lat="42.26653" lon="3.07202"><ele>22</ele></trkpt>
<trkpt lat="42.26591" lon="3.07235"><ele>23</ele></trkpt>
<trkpt lat="42.26393" lon="3.07391"><ele>21</ele></trkpt>
<trkpt lat="42.26304" lon="3.07438"><ele>20</ele></trkpt>
<trkpt lat="42.26156" lon="3.07510"><ele>20</ele></trkpt>
<trkpt lat="42.26114" lon="3.07538"><ele>18</ele></trkpt>
<trkpt lat="42.26085" lon="3.07465"><ele>16</ele></trkpt>
<trkpt lat="42.26062" lon="3.07430"><ele>14</ele></trkpt>
<trkpt lat="42.26028" lon="3.07399"><ele>13</ele></trkpt>
<trkpt lat="42.25975" lon="3.07368"><ele>12</ele></trkpt>
<trkpt lat="42.25941" lon="3.07340"><ele>11</ele></trkpt>
<trkpt lat="42.25917" lon="3.07298"><ele>10</ele></trkpt>
<trkpt lat="42.25889" lon="3.07240"><ele>9</ele></trkpt>
<trkpt lat="42.25871" lon="3.07147"><ele>8</ele></trkpt>
<trkpt lat="42.25839" lon="3.07049"><ele>8</ele></trkpt>
<trkpt lat="42.25783" lon="3.06970"><ele>9</ele></trkpt>
<trkpt lat="42.25712" lon="3.06848"><ele>8</ele></trkpt>
<trkpt lat="42.25699" lon="3.06841"><ele>8</ele></trkpt>
<trkpt lat="42.25573" lon="3.06804"><ele>9</ele></trkpt>
<trkpt lat="42.25572" lon="3.06791"><ele>9</ele></trkpt>
<trkpt lat="42.25388" lon="3.06709"><ele>7</ele></trkpt>
<trkpt lat="42.25383" lon="3.06715"><ele>7</ele></trkpt>
<trkpt lat="42.25354" lon="3.06695"><ele>7</ele></trkpt>
<trkpt lat="42.25312" lon="3.06682"><ele>7</ele></trkpt>
<trkpt lat="42.25287" lon="3.06654"><ele>7</ele></trkpt>
<trkpt lat="42.25271" lon="3.06643"><ele>7</ele></trkpt>
<trkpt lat="42.25247" lon="3.06634"><ele>6</ele></trkpt>
<trkpt lat="42.25136" lon="3.06638"><ele>6</ele></trkpt>
<trkpt lat="42.25059" lon="3.06637"><ele>6</ele></trkpt>
<trkpt lat="42.24894" lon="3.06582"><ele>6</ele></trkpt>
<trkpt lat="42.24877" lon="3.06579"><ele>6</ele></trkpt>
<trkpt lat="42.24831" lon="3.06585"><ele>6</ele></trkpt>
<trkpt lat="42.24753" lon="3.06636"><ele>6</ele></trkpt>
<trkpt lat="42.24746" lon="3.06648"><ele>6</ele></trkpt>
<trkpt lat="42.24714" lon="3.06737"><ele>6</ele></trkpt>
<trkpt lat="42.24649" lon="3.06785"><ele>6</ele></trkpt>
<trkpt lat="42.24610" lon="3.06809"><ele>5</ele></trkpt>
<trkpt lat="42.24458" lon="3.06858"><ele>5</ele></trkpt>
<trkpt lat="42.24453" lon="3.06856"><ele>5</ele></trkpt>
<trkpt lat="42.24447" lon="3.06845"><ele>5</ele></trkpt>
<trkpt lat="42.24428" lon="3.06771"><ele>4</ele></trkpt>
<trkpt lat="42.24412" lon="3.06741"><ele>4</ele></trkpt>
<trkpt lat="42.24375" lon="3.06700"><ele>4</ele></trkpt>
<trkpt lat="42.24319" lon="3.06664"><ele>4</ele></trkpt>
<trkpt lat="42.24300" lon="3.06657"><ele>4</ele></trkpt>
<trkpt lat="42.24281" lon="3.06631"><ele>4</ele></trkpt>
<trkpt lat="42.24269" lon="3.06608"><ele>4</ele></trkpt>
<trkpt lat="42.24260" lon="3.06578"><ele>4</ele></trkpt>
<trkpt lat="42.24235" lon="3.06511"><ele>4</ele></trkpt>
<trkpt lat="42.24189" lon="3.06438"><ele>4</ele></trkpt>
<trkpt lat="42.24162" lon="3.06451"><ele>4</ele></trkpt>
<trkpt lat="42.24133" lon="3.06457"><ele>4</ele></trkpt>
<trkpt lat="42.24036" lon="3.06491"><ele>4</ele></trkpt>
<trkpt lat="42.24022" lon="3.06500"><ele>4</ele></trkpt>
<trkpt lat="42.23907" lon="3.06615"><ele>4</ele></trkpt>
<trkpt lat="42.23865" lon="3.06680"><ele>4</ele></trkpt>
<trkpt lat="42.23840" lon="3.06699"><ele>4</ele></trkpt>
<trkpt lat="42.23810" lon="3.06738"><ele>4</ele></trkpt>
<trkpt lat="42.23780" lon="3.06766"><ele>4</ele></trkpt>
<trkpt lat="42.23729" lon="3.06855"><ele>3</ele></trkpt>
<trkpt lat="42.23728" lon="3.06875"><ele>4</ele></trkpt>
<trkpt lat="42.23743" lon="3.06920"><ele>3</ele></trkpt>
<trkpt lat="42.23625" lon="3.06995"><ele>3</ele></trkpt>
<trkpt lat="42.23500" lon="3.07085"><ele>3</ele></trkpt>
<trkpt lat="42.23475" lon="3.07098"><ele>3</ele></trkpt>
<trkpt lat="42.23461" lon="3.07102"><ele>3</ele></trkpt>
<trkpt lat="42.23426" lon="3.07098"><ele>2</ele></trkpt>
<trkpt lat="42.23402" lon="3.07084"><ele>2</ele></trkpt>
<trkpt lat="42.23229" lon="3.06931"><ele>2</ele></trkpt>
<trkpt lat="42.23172" lon="3.06903"><ele>2</ele></trkpt>
<trkpt lat="42.23042" lon="3.06861"><ele>2</ele></trkpt>
<trkpt lat="42.23014" lon="3.06847"><ele>2</ele></trkpt>
<trkpt lat="42.23004" lon="3.06837"><ele>3</ele></trkpt>
<trkpt lat="42.22995" lon="3.06819"><ele>2</ele></trkpt>
<trkpt lat="42.22975" lon="3.06818"><ele>2</ele></trkpt>
<trkpt lat="42.22953" lon="3.06818"><ele>2</ele></trkpt>
<trkpt lat="42.22409" lon="3.06903"><ele>2</ele></trkpt>
<trkpt lat="42.22322" lon="3.06906"><ele>2</ele></trkpt>
<trkpt lat="42.22261" lon="3.06933"><ele>2</ele></trkpt>
<trkpt lat="42.22254" lon="3.06932"><ele>2</ele></trkpt>
<trkpt lat="42.22248" lon="3.06924"><ele>2</ele></trkpt>
<trkpt lat="42.22212" lon="3.06787"><ele>1</ele></trkpt>
<trkpt lat="42.22207" lon="3.06778"><ele>2</ele></trkpt>
<trkpt lat="42.22194" lon="3.06774"><ele>2</ele></trkpt>
<trkpt lat="42.22061" lon="3.06823"><ele>1</ele></trkpt>
<trkpt lat="42.22021" lon="3.06827"><ele>1</ele></trkpt>
<trkpt lat="42.21988" lon="3.06844"><ele>2</ele></trkpt>
<trkpt lat="42.21884" lon="3.06859"><ele>1</ele></trkpt>
<trkpt lat="42.21712" lon="3.06875"><ele>1</ele></trkpt>
<trkpt lat="42.21696" lon="3.06880"><ele>1</ele></trkpt>
<trkpt lat="42.21146" lon="3.06968"><ele>2</ele></trkpt>
<trkpt lat="42.21108" lon="3.07168"><ele>2</ele></trkpt>
<trkpt lat="42.20909" lon="3.07138"><ele>1</ele></trkpt>
<trkpt lat="42.20898" lon="3.07147"><ele>1</ele></trkpt>
<trkpt lat="42.20901" lon="3.07157"><ele>1</ele></trkpt>
<trkpt lat="42.20904" lon="3.07403"><ele>1</ele></trkpt>
<trkpt lat="42.20896" lon="3.07412"><ele>1</ele></trkpt>
<trkpt lat="42.20849" lon="3.07410"><ele>1</ele></trkpt>
<trkpt lat="42.20796" lon="3.07426"><ele>1</ele></trkpt>
<trkpt lat="42.20638" lon="3.07420"><ele>1</ele></trkpt>
<trkpt lat="42.20631" lon="3.07374"><ele>2</ele></trkpt>
<trkpt lat="42.20497" lon="3.07371"><ele>2</ele></trkpt>
<trkpt lat="42.20469" lon="3.07346"><ele>2</ele></trkpt>
<trkpt lat="42.20442" lon="3.07335"><ele>2</ele></trkpt>
<trkpt lat="42.20392" lon="3.07335"><ele>2</ele></trkpt>
<trkpt lat="42.20361" lon="3.07344"><ele>2</ele></trkpt>
<trkpt lat="42.20262" lon="3.07388"><ele>2</ele></trkpt>
<trkpt lat="42.20202" lon="3.07405"><ele>2</ele></trkpt>
<trkpt lat="42.20150" lon="3.07401"><ele>2</ele></trkpt>
<trkpt lat="42.20066" lon="3.07444"><ele>2</ele></trkpt>
<trkpt lat="42.19923" lon="3.07537"><ele>2</ele></trkpt>
<trkpt lat="42.19826" lon="3.07606"><ele>2</ele></trkpt>
<trkpt lat="42.19765" lon="3.07630"><ele>2</ele></trkpt>
<trkpt lat="42.19680" lon="3.07654"><ele>2</ele></trkpt>
<trkpt lat="42.19602" lon="3.07699"><ele>2</ele></trkpt>
<trkpt lat="42.19561" lon="3.07712"><ele>3</ele></trkpt>
<trkpt lat="42.19464" lon="3.07712"><ele>3</ele></trkpt>
<trkpt lat="42.19417" lon="3.07677"><ele>3</ele></trkpt>
<trkpt lat="42.19362" lon="3.07653"><ele>3</ele></trkpt>
<trkpt lat="42.19276" lon="3.07666"><ele>3</ele></trkpt>
<trkpt lat="42.19192" lon="3.07715"><ele>3</ele></trkpt>
<trkpt lat="42.19071" lon="3.07770"><ele>3</ele></trkpt>
<trkpt lat="42.19050" lon="3.07813"><ele>3</ele></trkpt>
<trkpt lat="42.18996" lon="3.07876"><ele>4</ele></trkpt>
<trkpt lat="42.18972" lon="3.08132"><ele>4</ele></trkpt>
<trkpt lat="42.18962" lon="3.08130"><ele>4</ele></trkpt>
<trkpt lat="42.18957" lon="3.08165"><ele>4</ele></trkpt>
<trkpt lat="42.18945" lon="3.08207"><ele>4</ele></trkpt>
<trkpt lat="42.18935" lon="3.08212"><ele>4</ele></trkpt>
<trkpt lat="42.18903" lon="3.08260"><ele>4</ele></trkpt>
<trkpt lat="42.18891" lon="3.08271"><ele>4</ele></trkpt>
<trkpt lat="42.18852" lon="3.08299"><ele>4</ele></trkpt>
<trkpt lat="42.18795" lon="3.08316"><ele>4</ele></trkpt>
<trkpt lat="42.18786" lon="3.08360"><ele>4</ele></trkpt>
<trkpt lat="42.18776" lon="3.08446"><ele>6</ele></trkpt>
<trkpt lat="42.18767" lon="3.08479"><ele>5</ele></trkpt>
<trkpt lat="42.18692" lon="3.08633"><ele>6</ele></trkpt>
<trkpt lat="42.18669" lon="3.08662"><ele>5</ele></trkpt>
<trkpt lat="42.18663" lon="3.08664"><ele>6</ele></trkpt>
<trkpt lat="42.18657" lon="3.08671"><ele>6</ele></trkpt>
<trkpt lat="42.18657" lon="3.08690"><ele>6</ele></trkpt>
<trkpt lat="42.18669" lon="3.08700"><ele>6</ele></trkpt>
<trkpt lat="42.18698" lon="3.08737"><ele>5</ele></trkpt>
<trkpt lat="42.18711" lon="3.08761"><ele>4</ele></trkpt>
<trkpt lat="42.18721" lon="3.08792"><ele>3</ele></trkpt>
<trkpt lat="42.18737" lon="3.08913"><ele>4</ele></trkpt>
<trkpt lat="42.18736" lon="3.08942"><ele>4</ele></trkpt>
<trkpt lat="42.18728" lon="3.08971"><ele>4</ele></trkpt>
<trkpt lat="42.18714" lon="3.08994"><ele>4</ele></trkpt>
<trkpt lat="42.18697" lon="3.09013"><ele>3</ele></trkpt>
<trkpt lat="42.18657" lon="3.09036"><ele>3</ele></trkpt>
<trkpt lat="42.18640" lon="3.09054"><ele>3</ele></trkpt>
<trkpt lat="42.18635" lon="3.09067"><ele>4</ele></trkpt>
<trkpt lat="42.18633" lon="3.09085"><ele>4</ele></trkpt>
<trkpt lat="42.18635" lon="3.09144"><ele>5</ele></trkpt>
<trkpt lat="42.18632" lon="3.09160"><ele>4</ele></trkpt>
<trkpt lat="42.18623" lon="3.09168"><ele>4</ele></trkpt>
<trkpt lat="42.18620" lon="3.09176"><ele>4</ele></trkpt>
<trkpt lat="42.18622" lon="3.09183"><ele>4</ele></trkpt>
<trkpt lat="42.18614" lon="3.09198"><ele>4</ele></trkpt>
<trkpt lat="42.18597" lon="3.09214"><ele>4</ele></trkpt>
<trkpt lat="42.18505" lon="3.09258"><ele>4</ele></trkpt>
<trkpt lat="42.18452" lon="3.09305"><ele>4</ele></trkpt>
<trkpt lat="42.18380" lon="3.09344"><ele>4</ele></trkpt>
<trkpt lat="42.18344" lon="3.09344"><ele>4</ele></trkpt>
<trkpt lat="42.18262" lon="3.09336"><ele>4</ele></trkpt>
<trkpt lat="42.18245" lon="3.09337"><ele>4</ele></trkpt>
<trkpt lat="42.18179" lon="3.09356"><ele>4</ele></trkpt>
<trkpt lat="42.18162" lon="3.09364"><ele>4</ele></trkpt>
<trkpt lat="42.18092" lon="3.09418"><ele>4</ele></trkpt>
<trkpt lat="42.18062" lon="3.09434"><ele>4</ele></trkpt>
<trkpt lat="42.17971" lon="3.09476"><ele>4</ele></trkpt>
<trkpt lat="42.17938" lon="3.09481"><ele>4</ele></trkpt>
<trkpt lat="42.17892" lon="3.09480"><ele>4</ele></trkpt>
<trkpt lat="42.17850" lon="3.09473"><ele>4</ele></trkpt>
<trkpt lat="42.17676" lon="3.09400"><ele>4</ele></trkpt>
<trkpt lat="42.17546" lon="3.09356"><ele>4</ele></trkpt>
<trkpt lat="42.17500" lon="3.09344"><ele>3</ele></trkpt>
<trkpt lat="42.17462" lon="3.09345"><ele>3</ele></trkpt>
<trkpt lat="42.17430" lon="3.09355"><ele>4</ele></trkpt>
<trkpt lat="42.17356" lon="3.09396"><ele>4</ele></trkpt>
<trkpt lat="42.17319" lon="3.09408"><ele>4</ele></trkpt>
<trkpt lat="42.17279" lon="3.09410"><ele>4</ele></trkpt>
<trkpt lat="42.17229" lon="3.09400"><ele>4</ele></trkpt>
<trkpt lat="42.17200" lon="3.09398"><ele>4</ele></trkpt>
<trkpt lat="42.17163" lon="3.09403"><ele>4</ele></trkpt>
<trkpt lat="42.17124" lon="3.09417"><ele>4</ele></trkpt>
<trkpt lat="42.16949" lon="3.09511"><ele>3</ele></trkpt>
<trkpt lat="42.16884" lon="3.09539"><ele>3</ele></trkpt>
<trkpt lat="42.16821" lon="3.09552"><ele>3</ele></trkpt>
<trkpt lat="42.16589" lon="3.09577"><ele>3</ele></trkpt>
<trkpt lat="42.16570" lon="3.09586"><ele>3</ele></trkpt>
<trkpt lat="42.16564" lon="3.09601"><ele>2</ele></trkpt>
<trkpt lat="42.16552" lon="3.09763"><ele>3</ele></trkpt>
<trkpt lat="42.16555" lon="3.09867"><ele>3</ele></trkpt>
<trkpt lat="42.16555" lon="3.10030"><ele>3</ele></trkpt>
<trkpt lat="42.16544" lon="3.10072"><ele>2</ele></trkpt>
<trkpt lat="42.16542" lon="3.10092"><ele>2</ele></trkpt>
<trkpt lat="42.16543" lon="3.10101"><ele>2</ele></trkpt>
<trkpt lat="42.16557" lon="3.10134"><ele>3</ele></trkpt>
<trkpt lat="42.16562" lon="3.10163"><ele>2</ele></trkpt>
<trkpt lat="42.16562" lon="3.10181"><ele>2</ele></trkpt>
<trkpt lat="42.16556" lon="3.10203"><ele>2</ele></trkpt>
<trkpt lat="42.16400" lon="3.10365"><ele>2</ele></trkpt>
<trkpt lat="42.16292" lon="3.10454"><ele>2</ele></trkpt>
<trkpt lat="42.16257" lon="3.10473"><ele>2</ele></trkpt>
<trkpt lat="42.16198" lon="3.10484"><ele>2</ele></trkpt>
<trkpt lat="42.16141" lon="3.10517"><ele>2</ele></trkpt>
<trkpt lat="42.16123" lon="3.10533"><ele>2</ele></trkpt>
<trkpt lat="42.16115" lon="3.10544"><ele>2</ele></trkpt>
<trkpt lat="42.16107" lon="3.10567"><ele>2</ele></trkpt>
<trkpt lat="42.16096" lon="3.10658"><ele>2</ele></trkpt>
<trkpt lat="42.16074" lon="3.10760"><ele>2</ele></trkpt>
<trkpt lat="42.16035" lon="3.10874"><ele>2</ele></trkpt>
<trkpt lat="42.16019" lon="3.10899"><ele>2</ele></trkpt>
<trkpt lat="42.15917" lon="3.11037"><ele>2</ele></trkpt>
<trkpt lat="42.15876" lon="3.11076"><ele>2</ele></trkpt>
<trkpt lat="42.15830" lon="3.11106"><ele>2</ele></trkpt>
<trkpt lat="42.15789" lon="3.11123"><ele>2</ele></trkpt>
<trkpt lat="42.15690" lon="3.11147"><ele>2</ele></trkpt>
<trkpt lat="42.15286" lon="3.11154"><ele>2</ele></trkpt>
<trkpt lat="42.15199" lon="3.11150"><ele>2</ele></trkpt>
<trkpt lat="42.14983" lon="3.11109"><ele>2</ele></trkpt>
<trkpt lat="42.14911" lon="3.11078"><ele>2</ele></trkpt>
<trkpt lat="42.14738" lon="3.10957"><ele>1</ele></trkpt>
<trkpt lat="42.14711" lon="3.10933"><ele>2</ele></trkpt>
<trkpt lat="42.14598" lon="3.10806"><ele>1</ele></trkpt>
<trkpt lat="42.14583" lon="3.10795"><ele>1</ele></trkpt>
<trkpt lat="42.14568" lon="3.10790"><ele>1</ele></trkpt>
<trkpt lat="42.14538" lon="3.10796"><ele>1</ele></trkpt>
<trkpt lat="42.14241" lon="3.10902"><ele>1</ele></trkpt>
<trkpt lat="42.14209" lon="3.10925"><ele>1</ele></trkpt>
<trkpt lat="42.14186" lon="3.10953"><ele>1</ele></trkpt>
<trkpt lat="42.14173" lon="3.10988"><ele>1</ele></trkpt>
<trkpt lat="42.14153" lon="3.11134"><ele>1</ele></trkpt>
<trkpt lat="42.14152" lon="3.11167"><ele>1</ele></trkpt>
<trkpt lat="42.14158" lon="3.11191"><ele>1</ele></trkpt>
<trkpt lat="42.14189" lon="3.11250"><ele>2</ele></trkpt>
<trkpt lat="42.14202" lon="3.11280"><ele>2</ele></trkpt>
<trkpt lat="42.14205" lon="3.11320"><ele>2</ele></trkpt>
<trkpt lat="42.14200" lon="3.11336"><ele>2</ele></trkpt>
<trkpt lat="42.14196" lon="3.11344"><ele>2</ele></trkpt>
<trkpt lat="42.14052" lon="3.11481"><ele>2</ele></trkpt>
<trkpt lat="42.14003" lon="3.11597"><ele>2</ele></trkpt>
<trkpt lat="42.13972" lon="3.11621"><ele>2</ele></trkpt>
<trkpt lat="42.13960" lon="3.11627"><ele>2</ele></trkpt>
<trkpt lat="42.13938" lon="3.11632"><ele>3</ele></trkpt>
<trkpt lat="42.13921" lon="3.11626"><ele>3</ele></trkpt>
<trkpt lat="42.13911" lon="3.11632"><ele>4</ele></trkpt>
<trkpt lat="42.13908" lon="3.11644"><ele>4</ele></trkpt>
<trkpt lat="42.13913" lon="3.11656"><ele>4</ele></trkpt>
<trkpt lat="42.13916" lon="3.11694"><ele>5</ele></trkpt>
<trkpt lat="42.13887" lon="3.11716"><ele>3</ele></trkpt>
<trkpt lat="42.13874" lon="3.11765"><ele>2</ele></trkpt>
<trkpt lat="42.13816" lon="3.11832"><ele>2</ele></trkpt>
<trkpt lat="42.13758" lon="3.11892"><ele>1</ele></trkpt>
<trkpt lat="42.13766" lon="3.11920"><ele>2</ele></trkpt>
<trkpt lat="42.13660" lon="3.11977"><ele>3</ele></trkpt>
<trkpt lat="42.13631" lon="3.12001"><ele>4</ele></trkpt>
<trkpt lat="42.13566" lon="3.12113"><ele>8</ele></trkpt>
<trkpt lat="42.13553" lon="3.12129"><ele>8</ele></trkpt>
<trkpt lat="42.13543" lon="3.12135"><ele>8</ele></trkpt>
<trkpt lat="42.13483" lon="3.12131"><ele>7</ele></trkpt>
<trkpt lat="42.13448" lon="3.12136"><ele>7</ele></trkpt>
<trkpt lat="42.13363" lon="3.12161"><ele>5</ele></trkpt>
<trkpt lat="42.13303" lon="3.12184"><ele>7</ele></trkpt>
<trkpt lat="42.13254" lon="3.12198"><ele>5</ele></trkpt>
<trkpt lat="42.13162" lon="3.12196"><ele>4</ele></trkpt>
<trkpt lat="42.13067" lon="3.12257"><ele>6</ele></trkpt>
<trkpt lat="42.13006" lon="3.12258"><ele>10</ele></trkpt>
<trkpt lat="42.12887" lon="3.12301"><ele>3</ele></trkpt>
<trkpt lat="42.12843" lon="3.12324"><ele>3</ele></trkpt>
<trkpt lat="42.12653" lon="3.12489"><ele>6</ele></trkpt>
<trkpt lat="42.12644" lon="3.12513"><ele>5</ele></trkpt>
<trkpt lat="42.12651" lon="3.12645"><ele>2</ele></trkpt>
<trkpt lat="42.12650" lon="3.12662"><ele>5</ele></trkpt>
<trkpt lat="42.12647" lon="3.12666"><ele>6</ele></trkpt>
<trkpt lat="42.12590" lon="3.12620"><ele>2</ele></trkpt>
<trkpt lat="42.12582" lon="3.12608"><ele>2</ele></trkpt>
<trkpt lat="42.12578" lon="3.12591"><ele>2</ele></trkpt>
<trkpt lat="42.12520" lon="3.12611"><ele>3</ele></trkpt>
<trkpt lat="42.12443" lon="3.12665"><ele>5</ele></trkpt>
<trkpt lat="42.12302" lon="3.12752"><ele>8</ele></trkpt>
<trkpt lat="42.12197" lon="3.12853"><ele>22</ele></trkpt>
<trkpt lat="42.12173" lon="3.12854"><ele>26</ele></trkpt>
<trkpt lat="42.12136" lon="3.12874"><ele>28</ele></trkpt>
<trkpt lat="42.12132" lon="3.12884"><ele>28</ele></trkpt>
<trkpt lat="42.12134" lon="3.12916"><ele>25</ele></trkpt>
<trkpt lat="42.12097" lon="3.12930"><ele>31</ele></trkpt>
<trkpt lat="42.12079" lon="3.12927"><ele>33</ele></trkpt>
<trkpt lat="42.12033" lon="3.12942"><ele>36</ele></trkpt>
<trkpt lat="42.12036" lon="3.12979"><ele>34</ele></trkpt>
<trkpt lat="42.11905" lon="3.13012"><ele>32</ele></trkpt>
<trkpt lat="42.11898" lon="3.13018"><ele>32</ele></trkpt>
<trkpt lat="42.11868" lon="3.12985"><ele>30</ele></trkpt>
<trkpt lat="42.11863" lon="3.12996"><ele>30</ele></trkpt>
<trkpt lat="42.11861" lon="3.13041"><ele>30</ele></trkpt>
<trkpt lat="42.11773" lon="3.13075"><ele>26</ele></trkpt>
<trkpt lat="42.11732" lon="3.13088"><ele>23</ele></trkpt>
<trkpt lat="42.11564" lon="3.13101"><ele>27</ele></trkpt>
<trkpt lat="42.11549" lon="3.13106"><ele>28</ele></trkpt>
<trkpt lat="42.11514" lon="3.12980"><ele>25</ele></trkpt>
<trkpt lat="42.11460" lon="3.13008"><ele>24</ele></trkpt>
<trkpt lat="42.11397" lon="3.13047"><ele>21</ele></trkpt>
<trkpt lat="42.11384" lon="3.12980"><ele>19</ele></trkpt>
<trkpt lat="42.11407" lon="3.12930"><ele>21</ele></trkpt>
<trkpt lat="42.11415" lon="3.12927"><ele>22</ele></trkpt>
<trkpt lat="42.11416" lon="3.12920"><ele>22</ele></trkpt>
<trkpt lat="42.11409" lon="3.12913"><ele>22</ele></trkpt>
<trkpt lat="42.11403" lon="3.12922"><ele>21</ele></trkpt>
<trkpt lat="42.11352" lon="3.12905"><ele>18</ele></trkpt>
<trkpt lat="42.11333" lon="3.12907"><ele>17</ele></trkpt>
<trkpt lat="42.11286" lon="3.12921"><ele>14</ele></trkpt>
<trkpt lat="42.11282" lon="3.12922"><ele>14</ele></trkpt>
<trkpt lat="42.11283" lon="3.12925"><ele>14</ele></trkpt>
<trkpt lat="42.10945" lon="3.13036"><ele>7</ele></trkpt>
<trkpt lat="42.10937" lon="3.12965"><ele>6</ele></trkpt>
<trkpt lat="42.10793" lon="3.12988"><ele>4</ele></trkpt>
<trkpt lat="42.10679" lon="3.12986"><ele>4</ele></trkpt>
<trkpt lat="42.10458" lon="3.13050"><ele>11</ele></trkpt>
<trkpt lat="42.10272" lon="3.13128"><ele>7</ele></trkpt>
<trkpt lat="42.10218" lon="3.13136"><ele>5</ele></trkpt>
<trkpt lat="42.10138" lon="3.13155"><ele>4</ele></trkpt>
<trkpt lat="42.10032" lon="3.13167"><ele>4</ele></trkpt>
<trkpt lat="42.09831" lon="3.13208"><ele>5</ele></trkpt>
<trkpt lat="42.09807" lon="3.13209"><ele>5</ele></trkpt>
<trkpt lat="42.09765" lon="3.13200"><ele>5</ele></trkpt>
<trkpt lat="42.09736" lon="3.13204"><ele>6</ele></trkpt>
<trkpt lat="42.09705" lon="3.13211"><ele>6</ele></trkpt>
<trkpt lat="42.09632" lon="3.13264"><ele>5</ele></trkpt>
<trkpt lat="42.09595" lon="3.13278"><ele>5</ele></trkpt>
<trkpt lat="42.09556" lon="3.13287"><ele>6</ele></trkpt>
<trkpt lat="42.09474" lon="3.13298"><ele>6</ele></trkpt>
<trkpt lat="42.09285" lon="3.13342"><ele>6</ele></trkpt>
<trkpt lat="42.09269" lon="3.13340"><ele>6</ele></trkpt>
<trkpt lat="42.09219" lon="3.13316"><ele>5</ele></trkpt>
<trkpt lat="42.09136" lon="3.13286"><ele>5</ele></trkpt>
<trkpt lat="42.08965" lon="3.13219"><ele>6</ele></trkpt>
<trkpt lat="42.08944" lon="3.13215"><ele>6</ele></trkpt>
<trkpt lat="42.08911" lon="3.13220"><ele>6</ele></trkpt>
<trkpt lat="42.08845" lon="3.13250"><ele>6</ele></trkpt>
<trkpt lat="42.08617" lon="3.13333"><ele>6</ele></trkpt>
<trkpt lat="42.08593" lon="3.13345"><ele>6</ele></trkpt>
<trkpt lat="42.08325" lon="3.13447"><ele>9</ele></trkpt>
<trkpt lat="42.08379" lon="3.13717"><ele>11</ele></trkpt>
<trkpt lat="42.08366" lon="3.13793"><ele>12</ele></trkpt>
<trkpt lat="42.08363" lon="3.13874"><ele>18</ele></trkpt>
<trkpt lat="42.08308" lon="3.14015"><ele>18</ele></trkpt>
<trkpt lat="42.08288" lon="3.14028"><ele>18</ele></trkpt>
<trkpt lat="42.08044" lon="3.14124"><ele>18</ele></trkpt>
<trkpt lat="42.07751" lon="3.14230"><ele>26</ele></trkpt>
<trkpt lat="42.07734" lon="3.14240"><ele>26</ele></trkpt>
<trkpt lat="42.07712" lon="3.14331"><ele>26</ele></trkpt>
<trkpt lat="42.07659" lon="3.14459"><ele>26</ele></trkpt>
<trkpt lat="42.07650" lon="3.14465"><ele>26</ele></trkpt>
<trkpt lat="42.07643" lon="3.14461"><ele>27</ele></trkpt>
<trkpt lat="42.07605" lon="3.14361"><ele>32</ele></trkpt>
<trkpt lat="42.07592" lon="3.14334"><ele>34</ele></trkpt>
<trkpt lat="42.07501" lon="3.14295"><ele>40</ele></trkpt>
<trkpt lat="42.07479" lon="3.14295"><ele>42</ele></trkpt>
<trkpt lat="42.07446" lon="3.14301"><ele>45</ele></trkpt>
<trkpt lat="42.07433" lon="3.14322"><ele>47</ele></trkpt>
<trkpt lat="42.07421" lon="3.14323"><ele>48</ele></trkpt>
<trkpt lat="42.07390" lon="3.14300"><ele>49</ele></trkpt>
<trkpt lat="42.07369" lon="3.14303"><ele>50</ele></trkpt>
<trkpt lat="42.07331" lon="3.14332"><ele>56</ele></trkpt>
<trkpt lat="42.07253" lon="3.14430"><ele>61</ele></trkpt>
<trkpt lat="42.07237" lon="3.14457"><ele>62</ele></trkpt>
<trkpt lat="42.07231" lon="3.14554"><ele>63</ele></trkpt>
<trkpt lat="42.07222" lon="3.14577"><ele>62</ele></trkpt>
<trkpt lat="42.07205" lon="3.14601"><ele>61</ele></trkpt>
<trkpt lat="42.07171" lon="3.14611"><ele>57</ele></trkpt>
<trkpt lat="42.07167" lon="3.14608"><ele>57</ele></trkpt>
<trkpt lat="42.07160" lon="3.14590"><ele>56</ele></trkpt>
<trkpt lat="42.07145" lon="3.14579"><ele>54</ele></trkpt>
<trkpt lat="42.07117" lon="3.14577"><ele>53</ele></trkpt>
<trkpt lat="42.07115" lon="3.14529"><ele>54</ele></trkpt>
<trkpt lat="42.07059" lon="3.14461"><ele>53</ele></trkpt>
<trkpt lat="42.07034" lon="3.14444"><ele>52</ele></trkpt>
<trkpt lat="42.07014" lon="3.14439"><ele>53</ele></trkpt>
<trkpt lat="42.06939" lon="3.14479"><ele>54</ele></trkpt>
<trkpt lat="42.06914" lon="3.14482"><ele>54</ele></trkpt>
<trkpt lat="42.06745" lon="3.14619"><ele>65</ele></trkpt>
<trkpt lat="42.06705" lon="3.14646"><ele>68</ele></trkpt>
<trkpt lat="42.06553" lon="3.14710"><ele>74</ele></trkpt>
<trkpt lat="42.06382" lon="3.14751"><ele>77</ele></trkpt>
<trkpt lat="42.06312" lon="3.14780"><ele>80</ele></trkpt>
<trkpt lat="42.06203" lon="3.14879"><ele>90</ele></trkpt>
<trkpt lat="42.06141" lon="3.14924"><ele>96</ele></trkpt>
<trkpt lat="42.06110" lon="3.14934"><ele>98</ele></trkpt>
<trkpt lat="42.06082" lon="3.14924"><ele>100</ele></trkpt>
<trkpt lat="42.06062" lon="3.14922"><ele>100</ele></trkpt>
<trkpt lat="42.06047" lon="3.14929"><ele>102</ele></trkpt>
<trkpt lat="42.06042" lon="3.14937"><ele>102</ele></trkpt>
<trkpt lat="42.06038" lon="3.14953"><ele>104</ele></trkpt>
<trkpt lat="42.06041" lon="3.15014"><ele>104</ele></trkpt>
<trkpt lat="42.06038" lon="3.15023"><ele>106</ele></trkpt>
<trkpt lat="42.06031" lon="3.15024"><ele>107</ele></trkpt>
<trkpt lat="42.06027" lon="3.15016"><ele>108</ele></trkpt>
<trkpt lat="42.06023" lon="3.14977"><ele>108</ele></trkpt>
<trkpt lat="42.06015" lon="3.14957"><ele>108</ele></trkpt>
<trkpt lat="42.06000" lon="3.14945"><ele>110</ele></trkpt>
<trkpt lat="42.05970" lon="3.14955"><ele>112</ele></trkpt>
<trkpt lat="42.05957" lon="3.14967"><ele>114</ele></trkpt>
<trkpt lat="42.05943" lon="3.14974"><ele>114</ele></trkpt>
<trkpt lat="42.05936" lon="3.14971"><ele>115</ele></trkpt>
<trkpt lat="42.05926" lon="3.14958"><ele>116</ele></trkpt>
<trkpt lat="42.05920" lon="3.14956"><ele>117</ele></trkpt>
<trkpt lat="42.05916" lon="3.14959"><ele>118</ele></trkpt>
<trkpt lat="42.05917" lon="3.14967"><ele>118</ele></trkpt>
<trkpt lat="42.05936" lon="3.15003"><ele>120</ele></trkpt>
<trkpt lat="42.05935" lon="3.15012"><ele>121</ele></trkpt>
<trkpt lat="42.05930" lon="3.15016"><ele>122</ele></trkpt>
<trkpt lat="42.05926" lon="3.15013"><ele>122</ele></trkpt>
<trkpt lat="42.05902" lon="3.14967"><ele>121</ele></trkpt>
<trkpt lat="42.05890" lon="3.14934"><ele>124</ele></trkpt>
<trkpt lat="42.05886" lon="3.14931"><ele>125</ele></trkpt>
<trkpt lat="42.05880" lon="3.14940"><ele>127</ele></trkpt>
<trkpt lat="42.05866" lon="3.15000"><ele>128</ele></trkpt>
<trkpt lat="42.05851" lon="3.15012"><ele>129</ele></trkpt>
<trkpt lat="42.05814" lon="3.15024"><ele>128</ele></trkpt>
<trkpt lat="42.05792" lon="3.14933"><ele>122</ele></trkpt>
<trkpt lat="42.05786" lon="3.14920"><ele>121</ele></trkpt>
<trkpt lat="42.05777" lon="3.14910"><ele>120</ele></trkpt>
<trkpt lat="42.05771" lon="3.14912"><ele>121</ele></trkpt>
<trkpt lat="42.05739" lon="3.14958"><ele>114</ele></trkpt>
<trkpt lat="42.05722" lon="3.14971"><ele>113</ele></trkpt>
<trkpt lat="42.05682" lon="3.14987"><ele>109</ele></trkpt>
<trkpt lat="42.05642" lon="3.14995"><ele>103</ele></trkpt>
<trkpt lat="42.05629" lon="3.14990"><ele>102</ele></trkpt>
<trkpt lat="42.05616" lon="3.14964"><ele>102</ele></trkpt>
<trkpt lat="42.05550" lon="3.14971"><ele>102</ele></trkpt>
<trkpt lat="42.05498" lon="3.14957"><ele>103</ele></trkpt>
<trkpt lat="42.05470" lon="3.14931"><ele>103</ele></trkpt>
<trkpt lat="42.05427" lon="3.14901"><ele>102</ele></trkpt>
<trkpt lat="42.05386" lon="3.14886"><ele>101</ele></trkpt>
<trkpt lat="42.05335" lon="3.14860"><ele>97</ele></trkpt>
<trkpt lat="42.05297" lon="3.14864"><ele>94</ele></trkpt>
<trkpt lat="42.05249" lon="3.14845"><ele>94</ele></trkpt>
<trkpt lat="42.05210" lon="3.14844"><ele>95</ele></trkpt>
<trkpt lat="42.05201" lon="3.14836"><ele>95</ele></trkpt>
<trkpt lat="42.05149" lon="3.14747"><ele>90</ele></trkpt>
<trkpt lat="42.05124" lon="3.14684"><ele>84</ele></trkpt>
<trkpt lat="42.05096" lon="3.14637"><ele>80</ele></trkpt>
<trkpt lat="42.05049" lon="3.14542"><ele>76</ele></trkpt>
<trkpt lat="42.04989" lon="3.14456"><ele>72</ele></trkpt>
<trkpt lat="42.04933" lon="3.14356"><ele>70</ele></trkpt>
<trkpt lat="42.04899" lon="3.14303"><ele>68</ele></trkpt>
<trkpt lat="42.04848" lon="3.14246"><ele>68</ele></trkpt>
<trkpt lat="42.04821" lon="3.14190"><ele>65</ele></trkpt>
<trkpt lat="42.04762" lon="3.14123"><ele>58</ele></trkpt>
<trkpt lat="42.04747" lon="3.14111"><ele>56</ele></trkpt>
<trkpt lat="42.04645" lon="3.14067"><ele>49</ele></trkpt>
<trkpt lat="42.04633" lon="3.14006"><ele>51</ele></trkpt>
<trkpt lat="42.04613" lon="3.13962"><ele>52</ele></trkpt>
<trkpt lat="42.04604" lon="3.13915"><ele>52</ele></trkpt>
<trkpt lat="42.04593" lon="3.13918"><ele>51</ele></trkpt>
<trkpt lat="42.04554" lon="3.13896"><ele>49</ele></trkpt>
<trkpt lat="42.04523" lon="3.13896"><ele>47</ele></trkpt>
<trkpt lat="42.04459" lon="3.13929"><ele>41</ele></trkpt>
<trkpt lat="42.04436" lon="3.13934"><ele>40</ele></trkpt>
<trkpt lat="42.04410" lon="3.13949"><ele>38</ele></trkpt>
<trkpt lat="42.04321" lon="3.13988"><ele>32</ele></trkpt>
<trkpt lat="42.04295" lon="3.13995"><ele>30</ele></trkpt>
<trkpt lat="42.04297" lon="3.14001"><ele>30</ele></trkpt>
<trkpt lat="42.04295" lon="3.14002"><ele>30</ele></trkpt>
<trkpt lat="42.04289" lon="3.13984"><ele>30</ele></trkpt>
<trkpt lat="42.04276" lon="3.13961"><ele>30</ele></trkpt>
<trkpt lat="42.04246" lon="3.13931"><ele>30</ele></trkpt>
<trkpt lat="42.04228" lon="3.13905"><ele>32</ele></trkpt>
<trkpt lat="42.04209" lon="3.13866"><ele>32</ele></trkpt>
<trkpt lat="42.04200" lon="3.13832"><ele>32</ele></trkpt>
<trkpt lat="42.04187" lon="3.13716"><ele>31</ele></trkpt>
<trkpt lat="42.04183" lon="3.13634"><ele>32</ele></trkpt>
<trkpt lat="42.04188" lon="3.13619"><ele>32</ele></trkpt>
<trkpt lat="42.04195" lon="3.13534"><ele>31</ele></trkpt>
<trkpt lat="42.04202" lon="3.13371"><ele>29</ele></trkpt>
<trkpt lat="42.04207" lon="3.13349"><ele>30</ele></trkpt>
<trkpt lat="42.04239" lon="3.13295"><ele>33</ele></trkpt>
<trkpt lat="42.04252" lon="3.13262"><ele>33</ele></trkpt>
<trkpt lat="42.04289" lon="3.13009"><ele>32</ele></trkpt>
<trkpt lat="42.04444" lon="3.13010"><ele>46</ele></trkpt>
<trkpt lat="42.04516" lon="3.12494"><ele>38</ele></trkpt>
<trkpt lat="42.04346" lon="3.12432"><ele>27</ele></trkpt>
<trkpt lat="42.04330" lon="3.12397"><ele>26</ele></trkpt>
<trkpt lat="42.04325" lon="3.12375"><ele>26</ele></trkpt>
<trkpt lat="42.04327" lon="3.12363"><ele>26</ele></trkpt>
<trkpt lat="42.04318" lon="3.12354"><ele>25</ele></trkpt>
<trkpt lat="42.04164" lon="3.12384"><ele>18</ele></trkpt>
<trkpt lat="42.04151" lon="3.12397"><ele>17</ele></trkpt>
<trkpt lat="42.04095" lon="3.12411"><ele>14</ele></trkpt>
<trkpt lat="42.03891" lon="3.12000"><ele>8</ele></trkpt>
<trkpt lat="42.03632" lon="3.12549"><ele>8</ele></trkpt>
<trkpt lat="42.03626" lon="3.12568"><ele>8</ele></trkpt>
<trkpt lat="42.03633" lon="3.12590"><ele>8</ele></trkpt>
<trkpt lat="42.03670" lon="3.12632"><ele>8</ele></trkpt>
<trkpt lat="42.03668" lon="3.12642"><ele>9</ele></trkpt>
<trkpt lat="42.03457" lon="3.12486"><ele>10</ele></trkpt>
<trkpt lat="42.03455" lon="3.12491"><ele>10</ele></trkpt>
<trkpt lat="42.03399" lon="3.12617"><ele>7</ele></trkpt>
<trkpt lat="42.03311" lon="3.12783"><ele>7</ele></trkpt>
<trkpt lat="42.02959" lon="3.13474"><ele>5</ele></trkpt>
<trkpt lat="42.02835" lon="3.13756"><ele>6</ele></trkpt>
<trkpt lat="42.02721" lon="3.14069"><ele>6</ele></trkpt>
<trkpt lat="42.02559" lon="3.14611"><ele>5</ele></trkpt>
<trkpt lat="42.02549" lon="3.14655"><ele>5</ele></trkpt>
<trkpt lat="42.02544" lon="3.14695"><ele>3</ele></trkpt>
<trkpt lat="42.02538" lon="3.14781"><ele>4</ele></trkpt>
<trkpt lat="42.02522" lon="3.15112"><ele>4</ele></trkpt>
<trkpt lat="42.02514" lon="3.15175"><ele>4</ele></trkpt>
<trkpt lat="42.02508" lon="3.15310"><ele>4</ele></trkpt>
<trkpt lat="42.02492" lon="3.15452"><ele>3</ele></trkpt>
<trkpt lat="42.02417" lon="3.15844"><ele>5</ele></trkpt>
<trkpt lat="42.02290" lon="3.16405"><ele>3</ele></trkpt>
<trkpt lat="42.02283" lon="3.16457"><ele>4</ele></trkpt>
<trkpt lat="42.02243" lon="3.16453"><ele>5</ele></trkpt>
<trkpt lat="42.02220" lon="3.16445"><ele>5</ele></trkpt>
<trkpt lat="42.02146" lon="3.16433"><ele>4</ele></trkpt>
<trkpt lat="42.02077" lon="3.16414"><ele>4</ele></trkpt>
<trkpt lat="42.02046" lon="3.16398"><ele>4</ele></trkpt>
<trkpt lat="42.01891" lon="3.16353"><ele>4</ele></trkpt>
<trkpt lat="42.01867" lon="3.16342"><ele>3</ele></trkpt>
<trkpt lat="42.01853" lon="3.16266"><ele>3</ele></trkpt>
<trkpt lat="42.01736" lon="3.16203"><ele>3</ele></trkpt>
<trkpt lat="42.01567" lon="3.16131"><ele>3</ele></trkpt>
<trkpt lat="42.01558" lon="3.16123"><ele>3</ele></trkpt>
<trkpt lat="42.01552" lon="3.16110"><ele>3</ele></trkpt>
<trkpt lat="42.01547" lon="3.16082"><ele>2</ele></trkpt>
<trkpt lat="42.01536" lon="3.16076"><ele>3</ele></trkpt>
<trkpt lat="42.01525" lon="3.16073"><ele>3</ele></trkpt>
<trkpt lat="42.01466" lon="3.16081"><ele>4</ele></trkpt>
<trkpt lat="42.01387" lon="3.16087"><ele>4</ele></trkpt>
<trkpt lat="42.01400" lon="3.16071"><ele>3</ele></trkpt>
<trkpt lat="42.01410" lon="3.16049"><ele>3</ele></trkpt>
<trkpt lat="42.01428" lon="3.15979"><ele>2</ele></trkpt>
<trkpt lat="42.01137" lon="3.15991"><ele>2</ele></trkpt>
<trkpt lat="42.01082" lon="3.15730"><ele>3</ele></trkpt>
<trkpt lat="42.00848" lon="3.15704"><ele>3</ele></trkpt>
<trkpt lat="42.00519" lon="3.15773"><ele>3</ele></trkpt>
<trkpt lat="42.00343" lon="3.15385"><ele>4</ele></trkpt>
<trkpt lat="42.00229" lon="3.15228"><ele>4</ele></trkpt>
<trkpt lat="42.00167" lon="3.15133"><ele>4</ele></trkpt>
<trkpt lat="42.00124" lon="3.15028"><ele>4</ele></trkpt>
<trkpt lat="42.00097" lon="3.14945"><ele>4</ele></trkpt>
<trkpt lat="42.00077" lon="3.14867"><ele>5</ele></trkpt>
<trkpt lat="42.00059" lon="3.14872"><ele>4</ele></trkpt>
<trkpt lat="42.00127" lon="3.15212"><ele>3</ele></trkpt>
<trkpt lat="42.00185" lon="3.15529"><ele>3</ele></trkpt>
<trkpt lat="42.00231" lon="3.15736"><ele>3</ele></trkpt>
<trkpt lat="42.00249" lon="3.15842"><ele>2</ele></trkpt>
<trkpt lat="42.00271" lon="3.15945"><ele>2</ele></trkpt>
<trkpt lat="42.00366" lon="3.16308"><ele>2</ele></trkpt>
<trkpt lat="42.00402" lon="3.16499"><ele>2</ele></trkpt>
<trkpt lat="42.00402" lon="3.16533"><ele>2</ele></trkpt>
<trkpt lat="42.00382" lon="3.16547"><ele>2</ele></trkpt>
<trkpt lat="42.00378" lon="3.16554"><ele>2</ele></trkpt>
<trkpt lat="42.00376" lon="3.16570"><ele>3</ele></trkpt>
<trkpt lat="42.00403" lon="3.16619"><ele>3</ele></trkpt>
<trkpt lat="42.00440" lon="3.16706"><ele>2</ele></trkpt>
<trkpt lat="42.00435" lon="3.16712"><ele>2</ele></trkpt>
<trkpt lat="42.00436" lon="3.16753"><ele>2</ele></trkpt>
<trkpt lat="42.00431" lon="3.16784"><ele>2</ele></trkpt>
<trkpt lat="42.00323" lon="3.17374"><ele>2</ele></trkpt>
<trkpt lat="42.00364" lon="3.17741"><ele>2</ele></trkpt>
<trkpt lat="42.00350" lon="3.17740"><ele>2</ele></trkpt>
<trkpt lat="42.00400" lon="3.18118"><ele>1</ele></trkpt>
<trkpt lat="42.00411" lon="3.18148"><ele>2</ele></trkpt>
<trkpt lat="42.00425" lon="3.18172"><ele>1</ele></trkpt>
<trkpt lat="42.00504" lon="3.18234"><ele>2</ele></trkpt>
<trkpt lat="42.00568" lon="3.18301"><ele>1</ele></trkpt>
<trkpt lat="42.00584" lon="3.18327"><ele>1</ele></trkpt>
<trkpt lat="42.00696" lon="3.18559"><ele>1</ele></trkpt>
<trkpt lat="42.00496" lon="3.18600"><ele>1</ele></trkpt>
<trkpt lat="42.00426" lon="3.18618"><ele>1</ele></trkpt>
<trkpt lat="42.00417" lon="3.18609"><ele>1</ele></trkpt>
<trkpt lat="42.00393" lon="3.18605"><ele>1</ele></trkpt>
<trkpt lat="42.00378" lon="3.18626"><ele>1</ele></trkpt>
<trkpt lat="42.00360" lon="3.18635"><ele>1</ele></trkpt>
<trkpt lat="42.00170" lon="3.18689"><ele>1</ele></trkpt>
<trkpt lat="42.00120" lon="3.18707"><ele>1</ele></trkpt>
<trkpt lat="42.00073" lon="3.18734"><ele>1</ele></trkpt>
<trkpt lat="41.99938" lon="3.18857"><ele>1</ele></trkpt>
<trkpt lat="41.99906" lon="3.18887"><ele>1</ele></trkpt>
<trkpt lat="41.99876" lon="3.18927"><ele>2</ele></trkpt>
<trkpt lat="41.99868" lon="3.18943"><ele>2</ele></trkpt>
<trkpt lat="41.99670" lon="3.18982"><ele>3</ele></trkpt>
<trkpt lat="41.99374" lon="3.19150"><ele>5</ele></trkpt>
<trkpt lat="41.99358" lon="3.19169"><ele>5</ele></trkpt>
<trkpt lat="41.99339" lon="3.19213"><ele>4</ele></trkpt>
<trkpt lat="41.99316" lon="3.19235"><ele>3</ele></trkpt>
<trkpt lat="41.99296" lon="3.19245"><ele>2</ele></trkpt>
<trkpt lat="41.99251" lon="3.19255"><ele>2</ele></trkpt>
<trkpt lat="41.99173" lon="3.19291"><ele>2</ele></trkpt>
<trkpt lat="41.99116" lon="3.19335"><ele>2</ele></trkpt>
<trkpt lat="41.99080" lon="3.19348"><ele>2</ele></trkpt>
<trkpt lat="41.99045" lon="3.19366"><ele>2</ele></trkpt>
<trkpt lat="41.99030" lon="3.19359"><ele>3</ele></trkpt>
<trkpt lat="41.99026" lon="3.19352"><ele>3</ele></trkpt>
<trkpt lat="41.99018" lon="3.19345"><ele>4</ele></trkpt>
<trkpt lat="41.99005" lon="3.19347"><ele>4</ele></trkpt>
<trkpt lat="41.98993" lon="3.19365"><ele>4</ele></trkpt>
<trkpt lat="41.98980" lon="3.19375"><ele>4</ele></trkpt>
<trkpt lat="41.98945" lon="3.19386"><ele>6</ele></trkpt>
<trkpt lat="41.98940" lon="3.19414"><ele>6</ele></trkpt>
<trkpt lat="41.98901" lon="3.19464"><ele>6</ele></trkpt>
<trkpt lat="41.98830" lon="3.19502"><ele>8</ele></trkpt>
<trkpt lat="41.98806" lon="3.19519"><ele>10</ele></trkpt>
<trkpt lat="41.98696" lon="3.19617"><ele>16</ele></trkpt>
<trkpt lat="41.98604" lon="3.19649"><ele>13</ele></trkpt>
<trkpt lat="41.98592" lon="3.19639"><ele>13</ele></trkpt>
<trkpt lat="41.98583" lon="3.19644"><ele>13</ele></trkpt>
<trkpt lat="41.98580" lon="3.19649"><ele>13</ele></trkpt>
<trkpt lat="41.98580" lon="3.19662"><ele>13</ele></trkpt>
<trkpt lat="41.98613" lon="3.19841"><ele>8</ele></trkpt>
<trkpt lat="41.98389" lon="3.19957"><ele>23</ele></trkpt>
<trkpt lat="41.98396" lon="3.20044"><ele>22</ele></trkpt>
<trkpt lat="41.98386" lon="3.20057"><ele>22</ele></trkpt>
<trkpt lat="41.98358" lon="3.20057"><ele>20</ele></trkpt>
<trkpt lat="41.98328" lon="3.20065"><ele>19</ele></trkpt>
<trkpt lat="41.98220" lon="3.20112"><ele>23</ele></trkpt>
<trkpt lat="41.98128" lon="3.20141"><ele>28</ele></trkpt>
<trkpt lat="41.98119" lon="3.20153"><ele>28</ele></trkpt>
<trkpt lat="41.98075" lon="3.20189"><ele>25</ele></trkpt>
<trkpt lat="41.98067" lon="3.20200"><ele>24</ele></trkpt>
<trkpt lat="41.98062" lon="3.20231"><ele>22</ele></trkpt>
<trkpt lat="41.98063" lon="3.20278"><ele>19</ele></trkpt>
<trkpt lat="41.98014" lon="3.20288"><ele>20</ele></trkpt>
<trkpt lat="41.97932" lon="3.20267"><ele>24</ele></trkpt>
<trkpt lat="41.97915" lon="3.20271"><ele>24</ele></trkpt>
<trkpt lat="41.97884" lon="3.20300"><ele>24</ele></trkpt>
<trkpt lat="41.97879" lon="3.20315"><ele>25</ele></trkpt>
<trkpt lat="41.97881" lon="3.20332"><ele>25</ele></trkpt>
<trkpt lat="41.97863" lon="3.20344"><ele>28</ele></trkpt>
<trkpt lat="41.97826" lon="3.20349"><ele>32</ele></trkpt>
<trkpt lat="41.97748" lon="3.20391"><ele>39</ele></trkpt>
<trkpt lat="41.97670" lon="3.20439"><ele>47</ele></trkpt>
<trkpt lat="41.97635" lon="3.20468"><ele>51</ele></trkpt>
<trkpt lat="41.97603" lon="3.20503"><ele>54</ele></trkpt>
<trkpt lat="41.97589" lon="3.20512"><ele>54</ele></trkpt>
<trkpt lat="41.97572" lon="3.20515"><ele>54</ele></trkpt>
<trkpt lat="41.97530" lon="3.20511"><ele>56</ele></trkpt>
<trkpt lat="41.97498" lon="3.20487"><ele>60</ele></trkpt>
<trkpt lat="41.97463" lon="3.20447"><ele>65</ele></trkpt>
<trkpt lat="41.97463" lon="3.20439"><ele>66</ele></trkpt>
<trkpt lat="41.97500" lon="3.20437"><ele>69</ele></trkpt>
<trkpt lat="41.97511" lon="3.20435"><ele>68</ele></trkpt>
<trkpt lat="41.97516" lon="3.20430"><ele>68</ele></trkpt>
<trkpt lat="41.97520" lon="3.20412"><ele>70</ele></trkpt>
<trkpt lat="41.97511" lon="3.20352"><ele>76</ele></trkpt>
<trkpt lat="41.97513" lon="3.20340"><ele>78</ele></trkpt>
<trkpt lat="41.97520" lon="3.20331"><ele>77</ele></trkpt>
<trkpt lat="41.97570" lon="3.20307"><ele>82</ele></trkpt>
<trkpt lat="41.97568" lon="3.20299"><ele>82</ele></trkpt>
<trkpt lat="41.97564" lon="3.20298"><ele>82</ele></trkpt>
<trkpt lat="41.97508" lon="3.20297"><ele>83</ele></trkpt>
<trkpt lat="41.97498" lon="3.20300"><ele>85</ele></trkpt>
<trkpt lat="41.97483" lon="3.20314"><ele>87</ele></trkpt>
<trkpt lat="41.97469" lon="3.20352"><ele>89</ele></trkpt>
<trkpt lat="41.97460" lon="3.20365"><ele>88</ele></trkpt>
<trkpt lat="41.97407" lon="3.20378"><ele>87</ele></trkpt>
<trkpt lat="41.97372" lon="3.20401"><ele>87</ele></trkpt>
<trkpt lat="41.97369" lon="3.20411"><ele>86</ele></trkpt>
<trkpt lat="41.97371" lon="3.20417"><ele>84</ele></trkpt>
<trkpt lat="41.97445" lon="3.20474"><ele>75</ele></trkpt>
<trkpt lat="41.97469" lon="3.20511"><ele>72</ele></trkpt>
<trkpt lat="41.97498" lon="3.20527"><ele>68</ele></trkpt>
<trkpt lat="41.97517" lon="3.20564"><ele>70</ele></trkpt>
<trkpt lat="41.97524" lon="3.20566"><ele>69</ele></trkpt>
<trkpt lat="41.97557" lon="3.20561"><ele>67</ele></trkpt>
<trkpt lat="41.97566" lon="3.20564"><ele>66</ele></trkpt>
<trkpt lat="41.97571" lon="3.20574"><ele>67</ele></trkpt>
<trkpt lat="41.97576" lon="3.20623"><ele>72</ele></trkpt>
<trkpt lat="41.97586" lon="3.20635"><ele>71</ele></trkpt>
<trkpt lat="41.97595" lon="3.20635"><ele>73</ele></trkpt>
<trkpt lat="41.97600" lon="3.20631"><ele>73</ele></trkpt>
<trkpt lat="41.97650" lon="3.20571"><ele>78</ele></trkpt>
<trkpt lat="41.97642" lon="3.20610"><ele>80</ele></trkpt>
<trkpt lat="41.97632" lon="3.20634"><ele>81</ele></trkpt>
<trkpt lat="41.97586" lon="3.20693"><ele>80</ele></trkpt>
<trkpt lat="41.97568" lon="3.20690"><ele>81</ele></trkpt>
<trkpt lat="41.97503" lon="3.20637"><ele>89</ele></trkpt>
<trkpt lat="41.97477" lon="3.20624"><ele>90</ele></trkpt>
<trkpt lat="41.97451" lon="3.20589"><ele>92</ele></trkpt>
<trkpt lat="41.97423" lon="3.20578"><ele>94</ele></trkpt>
<trkpt lat="41.97414" lon="3.20562"><ele>94</ele></trkpt>
<trkpt lat="41.97396" lon="3.20512"><ele>99</ele></trkpt>
<trkpt lat="41.97380" lon="3.20495"><ele>102</ele></trkpt>
<trkpt lat="41.97352" lon="3.20476"><ele>105</ele></trkpt>
<trkpt lat="41.97331" lon="3.20470"><ele>106</ele></trkpt>
<trkpt lat="41.97312" lon="3.20471"><ele>109</ele></trkpt>
<trkpt lat="41.97294" lon="3.20492"><ele>108</ele></trkpt>
<trkpt lat="41.97235" lon="3.20546"><ele>111</ele></trkpt>
<trkpt lat="41.97225" lon="3.20547"><ele>112</ele></trkpt>
<trkpt lat="41.97215" lon="3.20539"><ele>112</ele></trkpt>
<trkpt lat="41.97243" lon="3.20470"><ele>125</ele></trkpt>
<trkpt lat="41.97243" lon="3.20455"><ele>126</ele></trkpt>
<trkpt lat="41.97237" lon="3.20446"><ele>128</ele></trkpt>
<trkpt lat="41.97194" lon="3.20439"><ele>136</ele></trkpt>
<trkpt lat="41.97184" lon="3.20434"><ele>137</ele></trkpt>
<trkpt lat="41.97149" lon="3.20406"><ele>147</ele></trkpt>
<trkpt lat="41.97146" lon="3.20400"><ele>149</ele></trkpt>
<trkpt lat="41.97122" lon="3.20388"><ele>151</ele></trkpt>
<trkpt lat="41.97098" lon="3.20384"><ele>152</ele></trkpt>
<trkpt lat="41.97049" lon="3.20391"><ele>155</ele></trkpt>
<trkpt lat="41.97028" lon="3.20400"><ele>156</ele></trkpt>
<trkpt lat="41.96981" lon="3.20431"><ele>162</ele></trkpt>
<trkpt lat="41.96951" lon="3.20442"><ele>164</ele></trkpt>
<trkpt lat="41.96939" lon="3.20439"><ele>165</ele></trkpt>
<trkpt lat="41.96936" lon="3.20429"><ele>168</ele></trkpt>
<trkpt lat="41.96845" lon="3.20365"><ele>167</ele></trkpt>
<trkpt lat="41.96820" lon="3.20361"><ele>166</ele></trkpt>
<trkpt lat="41.96776" lon="3.20342"><ele>169</ele></trkpt>
<trkpt lat="41.96744" lon="3.20335"><ele>172</ele></trkpt>
<trkpt lat="41.96733" lon="3.20327"><ele>172</ele></trkpt>
<trkpt lat="41.96708" lon="3.20294"><ele>176</ele></trkpt>
<trkpt lat="41.96672" lon="3.20260"><ele>184</ele></trkpt>
<trkpt lat="41.96650" lon="3.20248"><ele>186</ele></trkpt>
<trkpt lat="41.96623" lon="3.20241"><ele>189</ele></trkpt>
<trkpt lat="41.96604" lon="3.20228"><ele>192</ele></trkpt>
<trkpt lat="41.96551" lon="3.20177"><ele>196</ele></trkpt>
<trkpt lat="41.96541" lon="3.20163"><ele>197</ele></trkpt>
<trkpt lat="41.96497" lon="3.20078"><ele>196</ele></trkpt>
<trkpt lat="41.96433" lon="3.20055"><ele>196</ele></trkpt>
<trkpt lat="41.96350" lon="3.20039"><ele>199</ele></trkpt>
<trkpt lat="41.96246" lon="3.20045"><ele>196</ele></trkpt>
<trkpt lat="41.96229" lon="3.20050"><ele>194</ele></trkpt>
<trkpt lat="41.96217" lon="3.20059"><ele>193</ele></trkpt>
<trkpt lat="41.96182" lon="3.20013"><ele>190</ele></trkpt>
<trkpt lat="41.96163" lon="3.20005"><ele>186</ele></trkpt>
<trkpt lat="41.96142" lon="3.20002"><ele>184</ele></trkpt>
<trkpt lat="41.96103" lon="3.20006"><ele>180</ele></trkpt>
<trkpt lat="41.96028" lon="3.20031"><ele>170</ele></trkpt>
<trkpt lat="41.96000" lon="3.20036"><ele>168</ele></trkpt>
<trkpt lat="41.95938" lon="3.20037"><ele>163</ele></trkpt>
<trkpt lat="41.95891" lon="3.20030"><ele>163</ele></trkpt>
<trkpt lat="41.95858" lon="3.20047"><ele>166</ele></trkpt>
<trkpt lat="41.95851" lon="3.20046"><ele>166</ele></trkpt>
<trkpt lat="41.95850" lon="3.20029"><ele>168</ele></trkpt>
<trkpt lat="41.95839" lon="3.20010"><ele>167</ele></trkpt>
<trkpt lat="41.95820" lon="3.19993"><ele>168</ele></trkpt>
<trkpt lat="41.95694" lon="3.19948"><ele>165</ele></trkpt>
<trkpt lat="41.95671" lon="3.19944"><ele>166</ele></trkpt>
<trkpt lat="41.95664" lon="3.19945"><ele>166</ele></trkpt>
<trkpt lat="41.95593" lon="3.19982"><ele>164</ele></trkpt>
<trkpt lat="41.95544" lon="3.20014"><ele>165</ele></trkpt>
<trkpt lat="41.95511" lon="3.20028"><ele>166</ele></trkpt>
<trkpt lat="41.95511" lon="3.20014"><ele>166</ele></trkpt>
<trkpt lat="41.95519" lon="3.19998"><ele>165</ele></trkpt>
<trkpt lat="41.95518" lon="3.19981"><ele>163</ele></trkpt>
<trkpt lat="41.95502" lon="3.19927"><ele>160</ele></trkpt>
<trkpt lat="41.95479" lon="3.19909"><ele>160</ele></trkpt>
<trkpt lat="41.95447" lon="3.19905"><ele>160</ele></trkpt>
<trkpt lat="41.95429" lon="3.19877"><ele>160</ele></trkpt>
<trkpt lat="41.95420" lon="3.19856"><ele>160</ele></trkpt>
<trkpt lat="41.95309" lon="3.19903"><ele>166</ele></trkpt>
<trkpt lat="41.95211" lon="3.19937"><ele>176</ele></trkpt>
<trkpt lat="41.95178" lon="3.19963"><ele>182</ele></trkpt>
<trkpt lat="41.95149" lon="3.19973"><ele>185</ele></trkpt>
<trkpt lat="41.95080" lon="3.19972"><ele>192</ele></trkpt>
<trkpt lat="41.95070" lon="3.19975"><ele>193</ele></trkpt>
<trkpt lat="41.95068" lon="3.19984"><ele>194</ele></trkpt>
<trkpt lat="41.95084" lon="3.20004"><ele>198</ele></trkpt>
<trkpt lat="41.95142" lon="3.20032"><ele>202</ele></trkpt>
<trkpt lat="41.95209" lon="3.20025"><ele>200</ele></trkpt>
<trkpt lat="41.95225" lon="3.20033"><ele>201</ele></trkpt>
<trkpt lat="41.95233" lon="3.20050"><ele>201</ele></trkpt>
<trkpt lat="41.95233" lon="3.20110"><ele>202</ele></trkpt>
<trkpt lat="41.95244" lon="3.20171"><ele>204</ele></trkpt>
<trkpt lat="41.95226" lon="3.20260"><ele>209</ele></trkpt>
<trkpt lat="41.95227" lon="3.20276"><ele>211</ele></trkpt>
<trkpt lat="41.95242" lon="3.20326"><ele>214</ele></trkpt>
<trkpt lat="41.95243" lon="3.20348"><ele>215</ele></trkpt>
<trkpt lat="41.95224" lon="3.20404"><ele>219</ele></trkpt>
<trkpt lat="41.95223" lon="3.20426"><ele>221</ele></trkpt>
<trkpt lat="41.95229" lon="3.20456"><ele>223</ele></trkpt>
<trkpt lat="41.95247" lon="3.20501"><ele>227</ele></trkpt>
<trkpt lat="41.95249" lon="3.20521"><ele>227</ele></trkpt>
<trkpt lat="41.95227" lon="3.20635"><ele>221</ele></trkpt>
<trkpt lat="41.95224" lon="3.20635"><ele>221</ele></trkpt>
<trkpt lat="41.95220" lon="3.20640"><ele>220</ele></trkpt>
<trkpt lat="41.95125" lon="3.20586"><ele>210</ele></trkpt>
<trkpt lat="41.95088" lon="3.20555"><ele>208</ele></trkpt>
<trkpt lat="41.95083" lon="3.20558"><ele>208</ele></trkpt>
<trkpt lat="41.95080" lon="3.20570"><ele>208</ele></trkpt>
<trkpt lat="41.95089" lon="3.20583"><ele>209</ele></trkpt>
<trkpt lat="41.95102" lon="3.20621"><ele>213</ele></trkpt>
<trkpt lat="41.95117" lon="3.20687"><ele>221</ele></trkpt>
<trkpt lat="41.95119" lon="3.20707"><ele>223</ele></trkpt>
<trkpt lat="41.95114" lon="3.20722"><ele>226</ele></trkpt>
<trkpt lat="41.95119" lon="3.20750"><ele>226</ele></trkpt>
<trkpt lat="41.95193" lon="3.20774"><ele>226</ele></trkpt>
<trkpt lat="41.95293" lon="3.20833"><ele>225</ele></trkpt>
<trkpt lat="41.95293" lon="3.20845"><ele>226</ele></trkpt>
<trkpt lat="41.95288" lon="3.20850"><ele>227</ele></trkpt>
<trkpt lat="41.95246" lon="3.20969"><ele>232</ele></trkpt>
<trkpt lat="41.95240" lon="3.21010"><ele>230</ele></trkpt>
<trkpt lat="41.95240" lon="3.21072"><ele>225</ele></trkpt>
<trkpt lat="41.95237" lon="3.21110"><ele>225</ele></trkpt>
<trkpt lat="41.95239" lon="3.21118"><ele>223</ele></trkpt>
<trkpt lat="41.95259" lon="3.21069"><ele>218</ele></trkpt>
<trkpt lat="41.95287" lon="3.21040"><ele>212</ele></trkpt>
<trkpt lat="41.95329" lon="3.20940"><ele>208</ele></trkpt>
<trkpt lat="41.95342" lon="3.20929"><ele>206</ele></trkpt>
<trkpt lat="41.95354" lon="3.20931"><ele>202</ele></trkpt>
<trkpt lat="41.95365" lon="3.20896"><ele>202</ele></trkpt>
<trkpt lat="41.95369" lon="3.20861"><ele>203</ele></trkpt>
<trkpt lat="41.95369" lon="3.20782"><ele>203</ele></trkpt>
<trkpt lat="41.95390" lon="3.20780"><ele>201</ele></trkpt>
    </trkseg>
  </trk>
</gpx>
