<?xml version="1.0" encoding="UTF-8"?>
<gpx version="1.1" creator="Gravel Kompass" xmlns="http://www.topografix.com/GPX/1/1">
  <metadata><name>Pirinexus-Runde: Girona, Pyrenäenrand &amp; Costa Brava – Etappe 6</name></metadata>
  <trk>
    <name>Etappe 6: Begur – Girona</name>
    <trkseg>
<trkpt lat="41.95390" lon="3.20780"><ele>201</ele></trkpt>
<trkpt lat="41.95365" lon="3.20781"><ele>203</ele></trkpt>
<trkpt lat="41.95350" lon="3.20775"><ele>205</ele></trkpt>
<trkpt lat="41.95323" lon="3.20751"><ele>207</ele></trkpt>
<trkpt lat="41.95275" lon="3.20731"><ele>214</ele></trkpt>
<trkpt lat="41.95294" lon="3.20668"><ele>215</ele></trkpt>
<trkpt lat="41.95261" lon="3.20623"><ele>219</ele></trkpt>
<trkpt lat="41.95249" lon="3.20643"><ele>220</ele></trkpt>
<trkpt lat="41.95237" lon="3.20647"><ele>220</ele></trkpt>
<trkpt lat="41.95230" lon="3.20645"><ele>220</ele></trkpt>
<trkpt lat="41.95230" lon="3.20638"><ele>220</ele></trkpt>
<trkpt lat="41.95227" lon="3.20635"><ele>221</ele></trkpt>
<trkpt lat="41.95224" lon="3.20635"><ele>221</ele></trkpt>
<trkpt lat="41.95220" lon="3.20640"><ele>220</ele></trkpt>
<trkpt lat="41.95125" lon="3.20586"><ele>210</ele></trkpt>
<trkpt lat="41.95088" lon="3.20555"><ele>208</ele></trkpt>
<trkpt lat="41.95061" lon="3.20537"><ele>206</ele></trkpt>
<trkpt lat="41.95033" lon="3.20534"><ele>204</ele></trkpt>
<trkpt lat="41.94957" lon="3.20547"><ele>202</ele></trkpt>
<trkpt lat="41.94935" lon="3.20535"><ele>204</ele></trkpt>
<trkpt lat="41.94844" lon="3.20372"><ele>206</ele></trkpt>
<trkpt lat="41.94823" lon="3.20280"><ele>208</ele></trkpt>
<trkpt lat="41.94818" lon="3.20268"><ele>207</ele></trkpt>
<trkpt lat="41.94797" lon="3.20254"><ele>208</ele></trkpt>
<trkpt lat="41.94775" lon="3.20248"><ele>207</ele></trkpt>
<trkpt lat="41.94731" lon="3.20225"><ele>208</ele></trkpt>
<trkpt lat="41.94712" lon="3.20171"><ele>210</ele></trkpt>
<trkpt lat="41.94703" lon="3.20157"><ele>211</ele></trkpt>
<trkpt lat="41.94708" lon="3.20196"><ele>208</ele></trkpt>
<trkpt lat="41.94628" lon="3.20200"><ele>198</ele></trkpt>
<trkpt lat="41.94592" lon="3.20194"><ele>196</ele></trkpt>
<trkpt lat="41.94563" lon="3.20178"><ele>190</ele></trkpt>
<trkpt lat="41.94552" lon="3.20167"><ele>187</ele></trkpt>
<trkpt lat="41.94543" lon="3.20148"><ele>185</ele></trkpt>
<trkpt lat="41.94538" lon="3.20085"><ele>180</ele></trkpt>
<trkpt lat="41.94535" lon="3.20070"><ele>179</ele></trkpt>
<trkpt lat="41.94526" lon="3.20058"><ele>176</ele></trkpt>
<trkpt lat="41.94519" lon="3.20056"><ele>175</ele></trkpt>
<trkpt lat="41.94482" lon="3.20109"><ele>169</ele></trkpt>
<trkpt lat="41.94413" lon="3.20093"><ele>163</ele></trkpt>
<trkpt lat="41.94402" lon="3.20166"><ele>165</ele></trkpt>
<trkpt lat="41.94399" lon="3.20175"><ele>166</ele></trkpt>
<trkpt lat="41.94392" lon="3.20180"><ele>166</ele></trkpt>
<trkpt lat="41.94187" lon="3.20125"><ele>152</ele></trkpt>
<trkpt lat="41.94158" lon="3.20126"><ele>152</ele></trkpt>
<trkpt lat="41.94057" lon="3.20098"><ele>152</ele></trkpt>
<trkpt lat="41.94029" lon="3.20100"><ele>154</ele></trkpt>
<trkpt lat="41.93787" lon="3.19747"><ele>148</ele></trkpt>
<trkpt lat="41.93761" lon="3.19716"><ele>147</ele></trkpt>
<trkpt lat="41.93634" lon="3.19613"><ele>142</ele></trkpt>
<trkpt lat="41.93547" lon="3.19566"><ele>140</ele></trkpt>
<trkpt lat="41.93471" lon="3.19486"><ele>136</ele></trkpt>
<trkpt lat="41.93280" lon="3.19387"><ele>136</ele></trkpt>
<trkpt lat="41.93107" lon="3.19276"><ele>132</ele></trkpt>
<trkpt lat="41.93108" lon="3.19266"><ele>132</ele></trkpt>
<trkpt lat="41.93104" lon="3.19259"><ele>132</ele></trkpt>
<trkpt lat="41.93072" lon="3.19228"><ele>138</ele></trkpt>
<trkpt lat="41.93066" lon="3.19208"><ele>140</ele></trkpt>
<trkpt lat="41.93072" lon="3.19186"><ele>142</ele></trkpt>
<trkpt lat="41.93075" lon="3.19097"><ele>138</ele></trkpt>
<trkpt lat="41.93061" lon="3.19037"><ele>134</ele></trkpt>
<trkpt lat="41.93068" lon="3.18959"><ele>132</ele></trkpt>
<trkpt lat="41.93065" lon="3.18857"><ele>127</ele></trkpt>
<trkpt lat="41.93080" lon="3.18793"><ele>124</ele></trkpt>
<trkpt lat="41.93090" lon="3.18663"><ele>119</ele></trkpt>
<trkpt lat="41.93098" lon="3.18598"><ele>122</ele></trkpt>
<trkpt lat="41.93120" lon="3.18548"><ele>121</ele></trkpt>
<trkpt lat="41.93100" lon="3.18478"><ele>120</ele></trkpt>
<trkpt lat="41.93094" lon="3.18420"><ele>118</ele></trkpt>
<trkpt lat="41.93098" lon="3.18379"><ele>114</ele></trkpt>
<trkpt lat="41.93111" lon="3.18348"><ele>114</ele></trkpt>
<trkpt lat="41.93151" lon="3.18286"><ele>114</ele></trkpt>
<trkpt lat="41.93153" lon="3.18253"><ele>112</ele></trkpt>
<trkpt lat="41.93144" lon="3.18196"><ele>105</ele></trkpt>
<trkpt lat="41.93124" lon="3.18123"><ele>100</ele></trkpt>
<trkpt lat="41.93120" lon="3.18091"><ele>98</ele></trkpt>
<trkpt lat="41.93121" lon="3.18055"><ele>96</ele></trkpt>
<trkpt lat="41.93091" lon="3.17948"><ele>91</ele></trkpt>
<trkpt lat="41.93079" lon="3.17917"><ele>91</ele></trkpt>
<trkpt lat="41.93062" lon="3.17907"><ele>89</ele></trkpt>
<trkpt lat="41.93035" lon="3.17905"><ele>88</ele></trkpt>
<trkpt lat="41.92982" lon="3.17915"><ele>84</ele></trkpt>
<trkpt lat="41.92968" lon="3.17912"><ele>84</ele></trkpt>
<trkpt lat="41.92956" lon="3.17893"><ele>84</ele></trkpt>
<trkpt lat="41.92950" lon="3.17890"><ele>84</ele></trkpt>
<trkpt lat="41.92922" lon="3.17821"><ele>82</ele></trkpt>
<trkpt lat="41.92907" lon="3.17801"><ele>82</ele></trkpt>
<trkpt lat="41.92897" lon="3.17798"><ele>82</ele></trkpt>
<trkpt lat="41.92890" lon="3.17806"><ele>84</ele></trkpt>
<trkpt lat="41.92882" lon="3.17804"><ele>84</ele></trkpt>
<trkpt lat="41.92868" lon="3.17733"><ele>82</ele></trkpt>
<trkpt lat="41.92797" lon="3.17439"><ele>71</ele></trkpt>
<trkpt lat="41.92786" lon="3.17401"><ele>70</ele></trkpt>
<trkpt lat="41.92773" lon="3.17373"><ele>69</ele></trkpt>
<trkpt lat="41.92706" lon="3.17255"><ele>64</ele></trkpt>
<trkpt lat="41.92683" lon="3.17223"><ele>63</ele></trkpt>
<trkpt lat="41.92541" lon="3.17080"><ele>60</ele></trkpt>
<trkpt lat="41.92426" lon="3.17016"><ele>59</ele></trkpt>
<trkpt lat="41.92412" lon="3.16998"><ele>59</ele></trkpt>
<trkpt lat="41.92409" lon="3.16983"><ele>58</ele></trkpt>
<trkpt lat="41.92404" lon="3.16977"><ele>58</ele></trkpt>
<trkpt lat="41.92394" lon="3.16972"><ele>59</ele></trkpt>
<trkpt lat="41.92384" lon="3.16974"><ele>59</ele></trkpt>
<trkpt lat="41.92379" lon="3.16980"><ele>59</ele></trkpt>
<trkpt lat="41.92375" lon="3.16987"><ele>59</ele></trkpt>
<trkpt lat="41.92374" lon="3.17005"><ele>59</ele></trkpt>
<trkpt lat="41.92360" lon="3.17019"><ele>59</ele></trkpt>
<trkpt lat="41.92232" lon="3.17063"><ele>62</ele></trkpt>
<trkpt lat="41.92214" lon="3.17059"><ele>62</ele></trkpt>
<trkpt lat="41.92202" lon="3.16227"><ele>78</ele></trkpt>
<trkpt lat="41.92112" lon="3.16255"><ele>77</ele></trkpt>
<trkpt lat="41.91982" lon="3.16236"><ele>72</ele></trkpt>
<trkpt lat="41.91949" lon="3.16235"><ele>70</ele></trkpt>
<trkpt lat="41.91962" lon="3.16324"><ele>74</ele></trkpt>
<trkpt lat="41.91923" lon="3.16336"><ele>72</ele></trkpt>
<trkpt lat="41.91902" lon="3.16356"><ele>72</ele></trkpt>
<trkpt lat="41.91889" lon="3.16373"><ele>72</ele></trkpt>
<trkpt lat="41.91843" lon="3.16382"><ele>68</ele></trkpt>
<trkpt lat="41.91850" lon="3.16422"><ele>69</ele></trkpt>
<trkpt lat="41.91833" lon="3.16416"><ele>68</ele></trkpt>
<trkpt lat="41.91857" lon="3.16426"><ele>69</ele></trkpt>
<trkpt lat="41.91886" lon="3.16419"><ele>71</ele></trkpt>
<trkpt lat="41.91902" lon="3.16403"><ele>72</ele></trkpt>
<trkpt lat="41.91893" lon="3.16369"><ele>72</ele></trkpt>
<trkpt lat="41.91902" lon="3.16356"><ele>72</ele></trkpt>
<trkpt lat="41.91923" lon="3.16336"><ele>72</ele></trkpt>
<trkpt lat="41.91960" lon="3.16326"><ele>74</ele></trkpt>
<trkpt lat="41.91962" lon="3.16322"><ele>74</ele></trkpt>
<trkpt lat="41.91949" lon="3.16235"><ele>70</ele></trkpt>
<trkpt lat="41.91959" lon="3.16235"><ele>71</ele></trkpt>
<trkpt lat="41.91965" lon="3.16146"><ele>69</ele></trkpt>
<trkpt lat="41.92006" lon="3.16132"><ele>71</ele></trkpt>
<trkpt lat="41.92019" lon="3.16112"><ele>72</ele></trkpt>
<trkpt lat="41.92088" lon="3.15900"><ele>83</ele></trkpt>
<trkpt lat="41.92103" lon="3.15868"><ele>84</ele></trkpt>
<trkpt lat="41.92101" lon="3.15838"><ele>82</ele></trkpt>
<trkpt lat="41.92078" lon="3.15721"><ele>74</ele></trkpt>
<trkpt lat="41.92109" lon="3.15697"><ele>72</ele></trkpt>
<trkpt lat="41.92129" lon="3.15567"><ele>59</ele></trkpt>
<trkpt lat="41.92134" lon="3.15549"><ele>58</ele></trkpt>
<trkpt lat="41.92222" lon="3.15470"><ele>55</ele></trkpt>
<trkpt lat="41.92246" lon="3.15460"><ele>54</ele></trkpt>
<trkpt lat="41.92264" lon="3.15462"><ele>55</ele></trkpt>
<trkpt lat="41.92349" lon="3.15496"><ele>56</ele></trkpt>
<trkpt lat="41.92356" lon="3.15494"><ele>56</ele></trkpt>
<trkpt lat="41.92364" lon="3.15484"><ele>55</ele></trkpt>
<trkpt lat="41.92404" lon="3.15332"><ele>49</ele></trkpt>
<trkpt lat="41.92427" lon="3.15309"><ele>49</ele></trkpt>
<trkpt lat="41.92441" lon="3.15306"><ele>49</ele></trkpt>
<trkpt lat="41.92449" lon="3.15313"><ele>49</ele></trkpt>
<trkpt lat="41.92456" lon="3.15315"><ele>49</ele></trkpt>
<trkpt lat="41.92488" lon="3.15305"><ele>48</ele></trkpt>
<trkpt lat="41.92600" lon="3.15346"><ele>44</ele></trkpt>
<trkpt lat="41.92606" lon="3.15359"><ele>44</ele></trkpt>
<trkpt lat="41.92605" lon="3.15462"><ele>47</ele></trkpt>
<trkpt lat="41.92606" lon="3.15469"><ele>47</ele></trkpt>
<trkpt lat="41.92613" lon="3.15478"><ele>47</ele></trkpt>
<trkpt lat="41.92783" lon="3.15547"><ele>44</ele></trkpt>
<trkpt lat="41.92976" lon="3.15619"><ele>40</ele></trkpt>
<trkpt lat="41.93034" lon="3.15562"><ele>38</ele></trkpt>
<trkpt lat="41.93061" lon="3.15558"><ele>37</ele></trkpt>
<trkpt lat="41.93099" lon="3.15573"><ele>36</ele></trkpt>
<trkpt lat="41.93107" lon="3.15572"><ele>36</ele></trkpt>
<trkpt lat="41.93116" lon="3.15556"><ele>36</ele></trkpt>
<trkpt lat="41.93116" lon="3.15531"><ele>36</ele></trkpt>
<trkpt lat="41.93104" lon="3.15520"><ele>36</ele></trkpt>
<trkpt lat="41.93089" lon="3.15498"><ele>37</ele></trkpt>
<trkpt lat="41.93084" lon="3.15478"><ele>35</ele></trkpt>
<trkpt lat="41.93084" lon="3.15464"><ele>35</ele></trkpt>
<trkpt lat="41.93091" lon="3.15455"><ele>36</ele></trkpt>
<trkpt lat="41.93119" lon="3.15448"><ele>36</ele></trkpt>
<trkpt lat="41.93152" lon="3.15421"><ele>36</ele></trkpt>
<trkpt lat="41.93257" lon="3.15411"><ele>37</ele></trkpt>
<trkpt lat="41.93323" lon="3.15395"><ele>37</ele></trkpt>
<trkpt lat="41.93368" lon="3.15393"><ele>37</ele></trkpt>
<trkpt lat="41.93554" lon="3.15326"><ele>38</ele></trkpt>
<trkpt lat="41.93556" lon="3.15302"><ele>38</ele></trkpt>
<trkpt lat="41.93528" lon="3.15158"><ele>40</ele></trkpt>
<trkpt lat="41.93526" lon="3.14988"><ele>40</ele></trkpt>
<trkpt lat="41.93531" lon="3.14989"><ele>40</ele></trkpt>
<trkpt lat="41.93537" lon="3.14973"><ele>40</ele></trkpt>
<trkpt lat="41.93539" lon="3.14945"><ele>40</ele></trkpt>
<trkpt lat="41.93536" lon="3.14932"><ele>39</ele></trkpt>
<trkpt lat="41.93524" lon="3.14911"><ele>36</ele></trkpt>
<trkpt lat="41.93503" lon="3.14896"><ele>36</ele></trkpt>
<trkpt lat="41.93485" lon="3.14891"><ele>35</ele></trkpt>
<trkpt lat="41.93482" lon="3.14887"><ele>35</ele></trkpt>
<trkpt lat="41.93481" lon="3.14877"><ele>36</ele></trkpt>
<trkpt lat="41.93499" lon="3.14823"><ele>38</ele></trkpt>
<trkpt lat="41.93523" lon="3.14717"><ele>42</ele></trkpt>
<trkpt lat="41.93549" lon="3.14630"><ele>44</ele></trkpt>
<trkpt lat="41.93559" lon="3.14561"><ele>45</ele></trkpt>
<trkpt lat="41.93563" lon="3.14553"><ele>45</ele></trkpt>
<trkpt lat="41.93570" lon="3.14549"><ele>45</ele></trkpt>
<trkpt lat="41.93619" lon="3.14548"><ele>45</ele></trkpt>
<trkpt lat="41.93637" lon="3.14544"><ele>44</ele></trkpt>
<trkpt lat="41.93598" lon="3.14356"><ele>46</ele></trkpt>
<trkpt lat="41.93593" lon="3.14300"><ele>47</ele></trkpt>
<trkpt lat="41.93570" lon="3.14254"><ele>48</ele></trkpt>
<trkpt lat="41.93573" lon="3.14252"><ele>48</ele></trkpt>
<trkpt lat="41.93587" lon="3.14191"><ele>47</ele></trkpt>
<trkpt lat="41.93595" lon="3.14167"><ele>47</ele></trkpt>
<trkpt lat="41.93638" lon="3.14084"><ele>49</ele></trkpt>
<trkpt lat="41.93651" lon="3.14015"><ele>48</ele></trkpt>
<trkpt lat="41.93656" lon="3.13932"><ele>50</ele></trkpt>
<trkpt lat="41.93655" lon="3.13881"><ele>50</ele></trkpt>
<trkpt lat="41.93647" lon="3.13830"><ele>50</ele></trkpt>
<trkpt lat="41.93635" lon="3.13776"><ele>51</ele></trkpt>
<trkpt lat="41.93630" lon="3.13770"><ele>51</ele></trkpt>
<trkpt lat="41.93847" lon="3.13694"><ele>48</ele></trkpt>
<trkpt lat="41.93877" lon="3.13658"><ele>48</ele></trkpt>
<trkpt lat="41.93935" lon="3.13632"><ele>47</ele></trkpt>
<trkpt lat="41.94012" lon="3.13590"><ele>47</ele></trkpt>
<trkpt lat="41.94052" lon="3.13552"><ele>46</ele></trkpt>
<trkpt lat="41.94085" lon="3.13535"><ele>46</ele></trkpt>
<trkpt lat="41.94088" lon="3.13524"><ele>46</ele></trkpt>
<trkpt lat="41.94136" lon="3.13541"><ele>45</ele></trkpt>
<trkpt lat="41.94251" lon="3.13614"><ele>42</ele></trkpt>
<trkpt lat="41.94315" lon="3.13618"><ele>42</ele></trkpt>
<trkpt lat="41.94449" lon="3.13567"><ele>40</ele></trkpt>
<trkpt lat="41.94535" lon="3.13554"><ele>39</ele></trkpt>
<trkpt lat="41.94573" lon="3.13575"><ele>38</ele></trkpt>
<trkpt lat="41.94701" lon="3.13591"><ele>38</ele></trkpt>
<trkpt lat="41.94803" lon="3.13674"><ele>37</ele></trkpt>
<trkpt lat="41.94837" lon="3.13679"><ele>36</ele></trkpt>
<trkpt lat="41.94865" lon="3.13557"><ele>30</ele></trkpt>
<trkpt lat="41.94878" lon="3.13514"><ele>30</ele></trkpt>
<trkpt lat="41.94890" lon="3.13483"><ele>30</ele></trkpt>
<trkpt lat="41.94919" lon="3.13379"><ele>34</ele></trkpt>
<trkpt lat="41.94938" lon="3.13277"><ele>34</ele></trkpt>
<trkpt lat="41.94953" lon="3.13135"><ele>36</ele></trkpt>
<trkpt lat="41.94952" lon="3.13080"><ele>38</ele></trkpt>
<trkpt lat="41.94971" lon="3.13000"><ele>39</ele></trkpt>
<trkpt lat="41.94978" lon="3.12952"><ele>40</ele></trkpt>
<trkpt lat="41.94985" lon="3.12942"><ele>40</ele></trkpt>
<trkpt lat="41.94998" lon="3.12932"><ele>40</ele></trkpt>
<trkpt lat="41.95001" lon="3.12915"><ele>40</ele></trkpt>
<trkpt lat="41.95010" lon="3.12901"><ele>40</ele></trkpt>
<trkpt lat="41.95090" lon="3.12854"><ele>41</ele></trkpt>
<trkpt lat="41.95155" lon="3.12836"><ele>38</ele></trkpt>
<trkpt lat="41.95216" lon="3.12841"><ele>37</ele></trkpt>
<trkpt lat="41.95242" lon="3.12840"><ele>37</ele></trkpt>
<trkpt lat="41.95322" lon="3.12812"><ele>38</ele></trkpt>
<trkpt lat="41.95339" lon="3.12802"><ele>39</ele></trkpt>
<trkpt lat="41.95354" lon="3.12787"><ele>39</ele></trkpt>
<trkpt lat="41.95380" lon="3.12752"><ele>40</ele></trkpt>
<trkpt lat="41.95396" lon="3.12726"><ele>41</ele></trkpt>
<trkpt lat="41.95417" lon="3.12679"><ele>42</ele></trkpt>
<trkpt lat="41.95436" lon="3.12661"><ele>44</ele></trkpt>
<trkpt lat="41.95568" lon="3.12644"><ele>43</ele></trkpt>
<trkpt lat="41.95774" lon="3.12653"><ele>41</ele></trkpt>
<trkpt lat="41.95887" lon="3.12637"><ele>39</ele></trkpt>
<trkpt lat="41.95903" lon="3.12638"><ele>39</ele></trkpt>
<trkpt lat="41.95983" lon="3.12663"><ele>39</ele></trkpt>
<trkpt lat="41.96069" lon="3.12655"><ele>39</ele></trkpt>
<trkpt lat="41.96091" lon="3.12661"><ele>37</ele></trkpt>
<trkpt lat="41.96151" lon="3.12689"><ele>36</ele></trkpt>
<trkpt lat="41.96175" lon="3.12692"><ele>35</ele></trkpt>
<trkpt lat="41.96394" lon="3.12690"><ele>32</ele></trkpt>
<trkpt lat="41.96513" lon="3.12703"><ele>31</ele></trkpt>
<trkpt lat="41.96625" lon="3.12695"><ele>30</ele></trkpt>
<trkpt lat="41.96729" lon="3.12708"><ele>30</ele></trkpt>
<trkpt lat="41.96783" lon="3.12700"><ele>29</ele></trkpt>
<trkpt lat="41.96987" lon="3.12612"><ele>27</ele></trkpt>
<trkpt lat="41.97010" lon="3.12637"><ele>26</ele></trkpt>
<trkpt lat="41.97070" lon="3.12656"><ele>25</ele></trkpt>
<trkpt lat="41.97097" lon="3.12653"><ele>26</ele></trkpt>
<trkpt lat="41.97136" lon="3.12640"><ele>25</ele></trkpt>
<trkpt lat="41.97155" lon="3.12614"><ele>25</ele></trkpt>
<trkpt lat="41.97150" lon="3.12606"><ele>26</ele></trkpt>
<trkpt lat="41.97124" lon="3.12593"><ele>27</ele></trkpt>
<trkpt lat="41.97043" lon="3.12562"><ele>30</ele></trkpt>
<trkpt lat="41.97022" lon="3.12546"><ele>30</ele></trkpt>
<trkpt lat="41.97014" lon="3.12537"><ele>31</ele></trkpt>
<trkpt lat="41.97009" lon="3.12517"><ele>32</ele></trkpt>
<trkpt lat="41.96999" lon="3.12499"><ele>33</ele></trkpt>
<trkpt lat="41.96994" lon="3.12481"><ele>34</ele></trkpt>
<trkpt lat="41.96995" lon="3.12465"><ele>34</ele></trkpt>
<trkpt lat="41.97009" lon="3.12442"><ele>35</ele></trkpt>
<trkpt lat="41.97028" lon="3.12431"><ele>34</ele></trkpt>
<trkpt lat="41.97047" lon="3.12409"><ele>34</ele></trkpt>
<trkpt lat="41.97064" lon="3.12378"><ele>34</ele></trkpt>
<trkpt lat="41.97132" lon="3.12223"><ele>34</ele></trkpt>
<trkpt lat="41.97137" lon="3.12161"><ele>39</ele></trkpt>
<trkpt lat="41.97170" lon="3.12125"><ele>39</ele></trkpt>
<trkpt lat="41.97181" lon="3.12079"><ele>42</ele></trkpt>
<trkpt lat="41.97207" lon="3.12055"><ele>42</ele></trkpt>
<trkpt lat="41.97211" lon="3.12046"><ele>42</ele></trkpt>
<trkpt lat="41.97208" lon="3.11989"><ele>46</ele></trkpt>
<trkpt lat="41.97231" lon="3.11872"><ele>52</ele></trkpt>
<trkpt lat="41.97241" lon="3.11763"><ele>50</ele></trkpt>
<trkpt lat="41.97215" lon="3.11628"><ele>46</ele></trkpt>
<trkpt lat="41.97214" lon="3.11604"><ele>46</ele></trkpt>
<trkpt lat="41.97219" lon="3.11575"><ele>45</ele></trkpt>
<trkpt lat="41.97218" lon="3.11560"><ele>45</ele></trkpt>
<trkpt lat="41.97213" lon="3.11537"><ele>46</ele></trkpt>
<trkpt lat="41.97200" lon="3.11511"><ele>47</ele></trkpt>
<trkpt lat="41.97187" lon="3.11494"><ele>47</ele></trkpt>
<trkpt lat="41.97153" lon="3.11434"><ele>46</ele></trkpt>
<trkpt lat="41.97131" lon="3.11383"><ele>46</ele></trkpt>
<trkpt lat="41.97100" lon="3.11274"><ele>48</ele></trkpt>
<trkpt lat="41.97099" lon="3.11262"><ele>49</ele></trkpt>
<trkpt lat="41.97086" lon="3.11228"><ele>49</ele></trkpt>
<trkpt lat="41.97066" lon="3.11203"><ele>49</ele></trkpt>
<trkpt lat="41.97043" lon="3.11166"><ele>47</ele></trkpt>
<trkpt lat="41.97020" lon="3.11096"><ele>48</ele></trkpt>
<trkpt lat="41.97003" lon="3.11100"><ele>47</ele></trkpt>
<trkpt lat="41.96989" lon="3.11039"><ele>51</ele></trkpt>
<trkpt lat="41.96983" lon="3.11026"><ele>52</ele></trkpt>
<trkpt lat="41.96958" lon="3.11002"><ele>54</ele></trkpt>
<trkpt lat="41.96941" lon="3.10973"><ele>54</ele></trkpt>
<trkpt lat="41.96931" lon="3.10923"><ele>55</ele></trkpt>
<trkpt lat="41.96921" lon="3.10917"><ele>54</ele></trkpt>
<trkpt lat="41.96905" lon="3.10920"><ele>53</ele></trkpt>
<trkpt lat="41.96793" lon="3.10915"><ele>52</ele></trkpt>
<trkpt lat="41.96800" lon="3.10882"><ele>53</ele></trkpt>
<trkpt lat="41.96805" lon="3.10822"><ele>54</ele></trkpt>
<trkpt lat="41.96802" lon="3.10814"><ele>55</ele></trkpt>
<trkpt lat="41.96793" lon="3.10805"><ele>55</ele></trkpt>
<trkpt lat="41.96788" lon="3.10795"><ele>56</ele></trkpt>
<trkpt lat="41.96778" lon="3.10651"><ele>58</ele></trkpt>
<trkpt lat="41.96783" lon="3.10643"><ele>59</ele></trkpt>
<trkpt lat="41.96792" lon="3.10639"><ele>59</ele></trkpt>
<trkpt lat="41.96849" lon="3.10636"><ele>59</ele></trkpt>
<trkpt lat="41.96871" lon="3.10639"><ele>60</ele></trkpt>
<trkpt lat="41.96867" lon="3.10627"><ele>60</ele></trkpt>
<trkpt lat="41.96823" lon="3.10572"><ele>62</ele></trkpt>
<trkpt lat="41.96793" lon="3.10559"><ele>63</ele></trkpt>
<trkpt lat="41.96763" lon="3.10564"><ele>62</ele></trkpt>
<trkpt lat="41.96755" lon="3.10558"><ele>62</ele></trkpt>
<trkpt lat="41.96742" lon="3.10532"><ele>64</ele></trkpt>
<trkpt lat="41.96735" lon="3.10525"><ele>64</ele></trkpt>
<trkpt lat="41.96740" lon="3.10514"><ele>64</ele></trkpt>
<trkpt lat="41.96753" lon="3.10508"><ele>64</ele></trkpt>
<trkpt lat="41.96844" lon="3.10480"><ele>62</ele></trkpt>
<trkpt lat="41.96861" lon="3.10481"><ele>62</ele></trkpt>
<trkpt lat="41.96871" lon="3.10471"><ele>61</ele></trkpt>
<trkpt lat="41.96873" lon="3.10438"><ele>62</ele></trkpt>
<trkpt lat="41.96872" lon="3.10368"><ele>62</ele></trkpt>
<trkpt lat="41.96880" lon="3.10316"><ele>58</ele></trkpt>
<trkpt lat="41.96901" lon="3.10253"><ele>51</ele></trkpt>
<trkpt lat="41.96916" lon="3.10219"><ele>46</ele></trkpt>
<trkpt lat="41.96921" lon="3.10189"><ele>43</ele></trkpt>
<trkpt lat="41.96932" lon="3.10152"><ele>42</ele></trkpt>
<trkpt lat="41.96885" lon="3.10130"><ele>42</ele></trkpt>
<trkpt lat="41.96838" lon="3.10101"><ele>42</ele></trkpt>
<trkpt lat="41.96790" lon="3.10060"><ele>42</ele></trkpt>
<trkpt lat="41.96775" lon="3.10054"><ele>42</ele></trkpt>
<trkpt lat="41.96678" lon="3.10045"><ele>44</ele></trkpt>
<trkpt lat="41.96669" lon="3.10048"><ele>44</ele></trkpt>
<trkpt lat="41.96632" lon="3.10017"><ele>45</ele></trkpt>
<trkpt lat="41.96601" lon="3.09970"><ele>46</ele></trkpt>
<trkpt lat="41.96579" lon="3.09944"><ele>46</ele></trkpt>
<trkpt lat="41.96528" lon="3.09911"><ele>46</ele></trkpt>
<trkpt lat="41.96484" lon="3.09902"><ele>48</ele></trkpt>
<trkpt lat="41.96479" lon="3.09890"><ele>48</ele></trkpt>
<trkpt lat="41.96451" lon="3.09775"><ele>46</ele></trkpt>
<trkpt lat="41.96431" lon="3.09724"><ele>47</ele></trkpt>
<trkpt lat="41.96426" lon="3.09696"><ele>46</ele></trkpt>
<trkpt lat="41.96420" lon="3.09576"><ele>47</ele></trkpt>
<trkpt lat="41.96409" lon="3.09480"><ele>45</ele></trkpt>
<trkpt lat="41.96406" lon="3.09470"><ele>45</ele></trkpt>
<trkpt lat="41.96400" lon="3.09464"><ele>45</ele></trkpt>
<trkpt lat="41.96346" lon="3.09452"><ele>44</ele></trkpt>
<trkpt lat="41.96334" lon="3.09447"><ele>44</ele></trkpt>
<trkpt lat="41.96328" lon="3.09437"><ele>44</ele></trkpt>
<trkpt lat="41.96323" lon="3.09409"><ele>44</ele></trkpt>
<trkpt lat="41.96316" lon="3.09393"><ele>43</ele></trkpt>
<trkpt lat="41.96312" lon="3.09374"><ele>43</ele></trkpt>
<trkpt lat="41.96309" lon="3.09347"><ele>44</ele></trkpt>
<trkpt lat="41.96321" lon="3.09321"><ele>46</ele></trkpt>
<trkpt lat="41.96316" lon="3.09262"><ele>46</ele></trkpt>
<trkpt lat="41.96312" lon="3.09251"><ele>46</ele></trkpt>
<trkpt lat="41.96276" lon="3.09207"><ele>46</ele></trkpt>
<trkpt lat="41.96266" lon="3.09183"><ele>47</ele></trkpt>
<trkpt lat="41.96265" lon="3.09142"><ele>48</ele></trkpt>
<trkpt lat="41.96270" lon="3.09144"><ele>48</ele></trkpt>
<trkpt lat="41.96251" lon="3.09004"><ele>49</ele></trkpt>
<trkpt lat="41.96246" lon="3.08939"><ele>50</ele></trkpt>
<trkpt lat="41.96247" lon="3.08660"><ele>54</ele></trkpt>
<trkpt lat="41.96241" lon="3.08612"><ele>54</ele></trkpt>
<trkpt lat="41.96233" lon="3.08602"><ele>54</ele></trkpt>
<trkpt lat="41.96186" lon="3.08577"><ele>54</ele></trkpt>
<trkpt lat="41.96129" lon="3.08499"><ele>56</ele></trkpt>
<trkpt lat="41.96112" lon="3.08450"><ele>57</ele></trkpt>
<trkpt lat="41.96162" lon="3.08276"><ele>58</ele></trkpt>
<trkpt lat="41.96207" lon="3.08007"><ele>59</ele></trkpt>
<trkpt lat="41.96194" lon="3.07949"><ele>59</ele></trkpt>
<trkpt lat="41.96189" lon="3.07906"><ele>58</ele></trkpt>
<trkpt lat="41.96185" lon="3.07899"><ele>58</ele></trkpt>
<trkpt lat="41.96189" lon="3.07790"><ele>57</ele></trkpt>
<trkpt lat="41.96221" lon="3.07546"><ele>55</ele></trkpt>
<trkpt lat="41.96232" lon="3.07524"><ele>55</ele></trkpt>
<trkpt lat="41.96252" lon="3.07510"><ele>55</ele></trkpt>
<trkpt lat="41.96262" lon="3.07493"><ele>55</ele></trkpt>
<trkpt lat="41.96242" lon="3.07251"><ele>53</ele></trkpt>
<trkpt lat="41.96243" lon="3.07179"><ele>52</ele></trkpt>
<trkpt lat="41.96253" lon="3.07062"><ele>51</ele></trkpt>
<trkpt lat="41.96238" lon="3.06916"><ele>51</ele></trkpt>
<trkpt lat="41.96224" lon="3.06824"><ele>50</ele></trkpt>
<trkpt lat="41.96214" lon="3.06783"><ele>50</ele></trkpt>
<trkpt lat="41.96173" lon="3.06650"><ele>50</ele></trkpt>
<trkpt lat="41.96155" lon="3.06580"><ele>50</ele></trkpt>
<trkpt lat="41.96128" lon="3.06510"><ele>51</ele></trkpt>
<trkpt lat="41.96089" lon="3.06376"><ele>50</ele></trkpt>
<trkpt lat="41.96067" lon="3.06329"><ele>49</ele></trkpt>
<trkpt lat="41.96060" lon="3.06304"><ele>48</ele></trkpt>
<trkpt lat="41.96063" lon="3.06277"><ele>48</ele></trkpt>
<trkpt lat="41.96079" lon="3.06199"><ele>48</ele></trkpt>
<trkpt lat="41.96086" lon="3.06087"><ele>46</ele></trkpt>
<trkpt lat="41.96069" lon="3.06007"><ele>47</ele></trkpt>
<trkpt lat="41.96040" lon="3.05914"><ele>48</ele></trkpt>
<trkpt lat="41.96034" lon="3.05847"><ele>48</ele></trkpt>
<trkpt lat="41.96022" lon="3.05806"><ele>49</ele></trkpt>
<trkpt lat="41.95989" lon="3.05642"><ele>50</ele></trkpt>
<trkpt lat="41.95981" lon="3.05565"><ele>50</ele></trkpt>
<trkpt lat="41.95981" lon="3.05413"><ele>49</ele></trkpt>
<trkpt lat="41.95972" lon="3.05407"><ele>49</ele></trkpt>
<trkpt lat="41.95756" lon="3.05174"><ele>67</ele></trkpt>
<trkpt lat="41.95722" lon="3.05116"><ele>68</ele></trkpt>
<trkpt lat="41.95704" lon="3.05077"><ele>67</ele></trkpt>
<trkpt lat="41.95692" lon="3.05044"><ele>66</ele></trkpt>
<trkpt lat="41.95681" lon="3.04994"><ele>66</ele></trkpt>
<trkpt lat="41.95678" lon="3.04949"><ele>65</ele></trkpt>
<trkpt lat="41.95685" lon="3.04885"><ele>64</ele></trkpt>
<trkpt lat="41.95679" lon="3.04873"><ele>63</ele></trkpt>
<trkpt lat="41.95688" lon="3.04701"><ele>56</ele></trkpt>
<trkpt lat="41.95682" lon="3.04620"><ele>54</ele></trkpt>
<trkpt lat="41.95731" lon="3.04560"><ele>54</ele></trkpt>
<trkpt lat="41.95782" lon="3.04454"><ele>52</ele></trkpt>
<trkpt lat="41.95856" lon="3.04351"><ele>45</ele></trkpt>
<trkpt lat="41.95884" lon="3.04269"><ele>43</ele></trkpt>
<trkpt lat="41.95894" lon="3.04206"><ele>42</ele></trkpt>
<trkpt lat="41.95867" lon="3.03980"><ele>38</ele></trkpt>
<trkpt lat="41.95840" lon="3.03960"><ele>39</ele></trkpt>
<trkpt lat="41.95812" lon="3.03948"><ele>39</ele></trkpt>
<trkpt lat="41.95774" lon="3.03948"><ele>40</ele></trkpt>
<trkpt lat="41.95778" lon="3.03828"><ele>39</ele></trkpt>
<trkpt lat="41.95845" lon="3.03812"><ele>38</ele></trkpt>
<trkpt lat="41.95878" lon="3.03797"><ele>37</ele></trkpt>
<trkpt lat="41.95890" lon="3.03796"><ele>37</ele></trkpt>
<trkpt lat="41.95895" lon="3.03698"><ele>37</ele></trkpt>
<trkpt lat="41.95924" lon="3.03702"><ele>36</ele></trkpt>
<trkpt lat="41.95876" lon="3.03695"><ele>37</ele></trkpt>
<trkpt lat="41.95878" lon="3.03797"><ele>37</ele></trkpt>
<trkpt lat="41.95890" lon="3.03796"><ele>37</ele></trkpt>
<trkpt lat="41.95873" lon="3.03970"><ele>39</ele></trkpt>
<trkpt lat="41.95867" lon="3.03980"><ele>38</ele></trkpt>
<trkpt lat="41.95872" lon="3.04011"><ele>39</ele></trkpt>
<trkpt lat="41.96167" lon="3.04057"><ele>37</ele></trkpt>
<trkpt lat="41.96213" lon="3.04049"><ele>37</ele></trkpt>
<trkpt lat="41.96218" lon="3.04043"><ele>36</ele></trkpt>
<trkpt lat="41.96218" lon="3.04031"><ele>36</ele></trkpt>
<trkpt lat="41.96213" lon="3.04024"><ele>36</ele></trkpt>
<trkpt lat="41.96206" lon="3.04023"><ele>36</ele></trkpt>
<trkpt lat="41.96277" lon="3.03925"><ele>35</ele></trkpt>
<trkpt lat="41.96303" lon="3.03899"><ele>34</ele></trkpt>
<trkpt lat="41.96307" lon="3.03889"><ele>35</ele></trkpt>
<trkpt lat="41.96314" lon="3.03887"><ele>34</ele></trkpt>
<trkpt lat="41.96316" lon="3.03878"><ele>34</ele></trkpt>
<trkpt lat="41.96390" lon="3.03879"><ele>32</ele></trkpt>
<trkpt lat="41.96428" lon="3.03866"><ele>32</ele></trkpt>
<trkpt lat="41.96465" lon="3.03849"><ele>34</ele></trkpt>
<trkpt lat="41.96452" lon="3.03789"><ele>33</ele></trkpt>
<trkpt lat="41.96435" lon="3.03679"><ele>34</ele></trkpt>
<trkpt lat="41.96479" lon="3.03570"><ele>33</ele></trkpt>
<trkpt lat="41.96804" lon="3.03289"><ele>32</ele></trkpt>
<trkpt lat="41.97154" lon="3.03246"><ele>30</ele></trkpt>
<trkpt lat="41.97227" lon="3.03242"><ele>30</ele></trkpt>
<trkpt lat="41.97352" lon="3.03218"><ele>30</ele></trkpt>
<trkpt lat="41.97410" lon="3.03199"><ele>30</ele></trkpt>
<trkpt lat="41.97597" lon="3.03054"><ele>30</ele></trkpt>
<trkpt lat="41.97741" lon="3.02983"><ele>30</ele></trkpt>
<trkpt lat="41.97834" lon="3.02931"><ele>31</ele></trkpt>
<trkpt lat="41.97930" lon="3.02892"><ele>31</ele></trkpt>
<trkpt lat="41.98077" lon="3.02826"><ele>32</ele></trkpt>
<trkpt lat="41.98246" lon="3.02740"><ele>33</ele></trkpt>
<trkpt lat="41.98258" lon="3.02763"><ele>32</ele></trkpt>
<trkpt lat="41.98264" lon="3.02766"><ele>32</ele></trkpt>
<trkpt lat="41.98321" lon="3.02740"><ele>32</ele></trkpt>
<trkpt lat="41.98371" lon="3.02685"><ele>32</ele></trkpt>
<trkpt lat="41.98515" lon="3.02593"><ele>33</ele></trkpt>
<trkpt lat="41.98548" lon="3.02563"><ele>33</ele></trkpt>
<trkpt lat="41.98645" lon="3.02441"><ele>34</ele></trkpt>
<trkpt lat="41.98662" lon="3.02414"><ele>34</ele></trkpt>
<trkpt lat="41.98695" lon="3.02349"><ele>34</ele></trkpt>
<trkpt lat="41.98702" lon="3.02341"><ele>36</ele></trkpt>
<trkpt lat="41.98712" lon="3.02341"><ele>36</ele></trkpt>
<trkpt lat="41.98719" lon="3.02311"><ele>36</ele></trkpt>
<trkpt lat="41.98720" lon="3.02279"><ele>35</ele></trkpt>
<trkpt lat="41.98725" lon="3.02258"><ele>35</ele></trkpt>
<trkpt lat="41.98753" lon="3.02214"><ele>36</ele></trkpt>
<trkpt lat="41.98776" lon="3.02168"><ele>37</ele></trkpt>
<trkpt lat="41.98814" lon="3.02113"><ele>37</ele></trkpt>
<trkpt lat="41.98819" lon="3.02104"><ele>37</ele></trkpt>
<trkpt lat="41.98820" lon="3.02088"><ele>37</ele></trkpt>
<trkpt lat="41.98826" lon="3.02078"><ele>37</ele></trkpt>
<trkpt lat="41.98886" lon="3.01994"><ele>39</ele></trkpt>
<trkpt lat="41.98991" lon="3.01826"><ele>42</ele></trkpt>
<trkpt lat="41.99005" lon="3.01834"><ele>42</ele></trkpt>
<trkpt lat="41.99042" lon="3.01723"><ele>48</ele></trkpt>
<trkpt lat="41.99070" lon="3.01667"><ele>50</ele></trkpt>
<trkpt lat="41.99112" lon="3.01601"><ele>51</ele></trkpt>
<trkpt lat="41.99158" lon="3.01540"><ele>50</ele></trkpt>
<trkpt lat="41.99203" lon="3.01491"><ele>50</ele></trkpt>
<trkpt lat="41.99219" lon="3.01449"><ele>49</ele></trkpt>
<trkpt lat="41.99220" lon="3.01390"><ele>50</ele></trkpt>
<trkpt lat="41.99229" lon="3.01342"><ele>51</ele></trkpt>
<trkpt lat="41.99234" lon="3.01290"><ele>52</ele></trkpt>
<trkpt lat="41.99247" lon="3.01223"><ele>53</ele></trkpt>
<trkpt lat="41.99278" lon="3.01150"><ele>55</ele></trkpt>
<trkpt lat="41.99313" lon="3.01088"><ele>57</ele></trkpt>
<trkpt lat="41.99335" lon="3.01037"><ele>58</ele></trkpt>
<trkpt lat="41.99329" lon="3.01035"><ele>58</ele></trkpt>
<trkpt lat="41.99325" lon="3.01046"><ele>58</ele></trkpt>
<trkpt lat="41.99295" lon="3.01006"><ele>57</ele></trkpt>
<trkpt lat="41.99289" lon="3.00993"><ele>57</ele></trkpt>
<trkpt lat="41.99286" lon="3.00977"><ele>56</ele></trkpt>
<trkpt lat="41.99288" lon="3.00947"><ele>57</ele></trkpt>
<trkpt lat="41.99293" lon="3.00930"><ele>58</ele></trkpt>
<trkpt lat="41.99324" lon="3.00875"><ele>60</ele></trkpt>
<trkpt lat="41.99329" lon="3.00844"><ele>59</ele></trkpt>
<trkpt lat="41.99333" lon="3.00794"><ele>57</ele></trkpt>
<trkpt lat="41.99329" lon="3.00766"><ele>56</ele></trkpt>
<trkpt lat="41.99331" lon="3.00761"><ele>56</ele></trkpt>
<trkpt lat="41.99326" lon="3.00740"><ele>56</ele></trkpt>
<trkpt lat="41.99321" lon="3.00737"><ele>56</ele></trkpt>
<trkpt lat="41.99333" lon="3.00690"><ele>58</ele></trkpt>
<trkpt lat="41.99341" lon="3.00609"><ele>62</ele></trkpt>
<trkpt lat="41.99365" lon="3.00538"><ele>64</ele></trkpt>
<trkpt lat="41.99385" lon="3.00508"><ele>64</ele></trkpt>
<trkpt lat="41.99411" lon="3.00457"><ele>66</ele></trkpt>
<trkpt lat="41.99420" lon="3.00446"><ele>66</ele></trkpt>
<trkpt lat="41.99426" lon="3.00425"><ele>68</ele></trkpt>
<trkpt lat="41.99432" lon="3.00340"><ele>68</ele></trkpt>
<trkpt lat="41.99452" lon="3.00296"><ele>68</ele></trkpt>
<trkpt lat="41.99496" lon="3.00231"><ele>67</ele></trkpt>
<trkpt lat="41.99562" lon="3.00189"><ele>66</ele></trkpt>
<trkpt lat="41.99617" lon="3.00141"><ele>70</ele></trkpt>
<trkpt lat="41.99627" lon="3.00125"><ele>71</ele></trkpt>
<trkpt lat="41.99613" lon="3.00088"><ele>71</ele></trkpt>
<trkpt lat="41.99597" lon="3.00060"><ele>72</ele></trkpt>
<trkpt lat="41.99597" lon="3.00053"><ele>73</ele></trkpt>
<trkpt lat="41.99560" lon="2.99976"><ele>74</ele></trkpt>
<trkpt lat="41.99542" lon="2.99917"><ele>79</ele></trkpt>
<trkpt lat="41.99539" lon="2.99883"><ele>80</ele></trkpt>
<trkpt lat="41.99542" lon="2.99849"><ele>81</ele></trkpt>
<trkpt lat="41.99550" lon="2.99824"><ele>82</ele></trkpt>
<trkpt lat="41.99603" lon="2.99801"><ele>88</ele></trkpt>
<trkpt lat="41.99607" lon="2.99781"><ele>88</ele></trkpt>
<trkpt lat="41.99594" lon="2.99733"><ele>90</ele></trkpt>
<trkpt lat="41.99588" lon="2.99673"><ele>91</ele></trkpt>
<trkpt lat="41.99591" lon="2.99659"><ele>92</ele></trkpt>
<trkpt lat="41.99580" lon="2.99630"><ele>92</ele></trkpt>
<trkpt lat="41.99548" lon="2.99579"><ele>91</ele></trkpt>
<trkpt lat="41.99537" lon="2.99554"><ele>90</ele></trkpt>
<trkpt lat="41.99524" lon="2.99491"><ele>90</ele></trkpt>
<trkpt lat="41.99513" lon="2.99456"><ele>88</ele></trkpt>
<trkpt lat="41.99513" lon="2.99435"><ele>87</ele></trkpt>
<trkpt lat="41.99529" lon="2.99400"><ele>87</ele></trkpt>
<trkpt lat="41.99544" lon="2.99354"><ele>88</ele></trkpt>
<trkpt lat="41.99557" lon="2.99343"><ele>88</ele></trkpt>
<trkpt lat="41.99592" lon="2.99350"><ele>88</ele></trkpt>
<trkpt lat="41.99612" lon="2.99346"><ele>88</ele></trkpt>
<trkpt lat="41.99641" lon="2.99333"><ele>89</ele></trkpt>
<trkpt lat="41.99661" lon="2.99329"><ele>90</ele></trkpt>
<trkpt lat="41.99691" lon="2.99337"><ele>90</ele></trkpt>
<trkpt lat="41.99701" lon="2.99333"><ele>90</ele></trkpt>
<trkpt lat="41.99742" lon="2.99298"><ele>91</ele></trkpt>
<trkpt lat="41.99759" lon="2.99289"><ele>92</ele></trkpt>
<trkpt lat="41.99795" lon="2.99287"><ele>94</ele></trkpt>
<trkpt lat="41.99820" lon="2.99260"><ele>94</ele></trkpt>
<trkpt lat="41.99831" lon="2.99255"><ele>94</ele></trkpt>
<trkpt lat="41.99927" lon="2.99260"><ele>96</ele></trkpt>
<trkpt lat="41.99984" lon="2.99247"><ele>96</ele></trkpt>
<trkpt lat="41.99999" lon="2.99254"><ele>97</ele></trkpt>
<trkpt lat="42.00018" lon="2.99286"><ele>99</ele></trkpt>
<trkpt lat="42.00030" lon="2.99292"><ele>100</ele></trkpt>
<trkpt lat="42.00082" lon="2.99295"><ele>106</ele></trkpt>
<trkpt lat="42.00118" lon="2.99320"><ele>110</ele></trkpt>
<trkpt lat="42.00232" lon="2.99348"><ele>116</ele></trkpt>
<trkpt lat="42.00294" lon="2.99352"><ele>118</ele></trkpt>
<trkpt lat="42.00375" lon="2.99336"><ele>121</ele></trkpt>
<trkpt lat="42.00418" lon="2.99340"><ele>121</ele></trkpt>
<trkpt lat="42.00468" lon="2.99336"><ele>122</ele></trkpt>
<trkpt lat="42.00531" lon="2.99337"><ele>126</ele></trkpt>
<trkpt lat="42.00599" lon="2.99360"><ele>131</ele></trkpt>
<trkpt lat="42.00618" lon="2.99363"><ele>132</ele></trkpt>
<trkpt lat="42.00666" lon="2.99361"><ele>133</ele></trkpt>
<trkpt lat="42.00717" lon="2.99366"><ele>131</ele></trkpt>
<trkpt lat="42.00745" lon="2.99373"><ele>131</ele></trkpt>
<trkpt lat="42.00783" lon="2.99369"><ele>132</ele></trkpt>
<trkpt lat="42.00799" lon="2.99379"><ele>134</ele></trkpt>
<trkpt lat="42.00830" lon="2.99411"><ele>134</ele></trkpt>
<trkpt lat="42.00886" lon="2.99419"><ele>135</ele></trkpt>
<trkpt lat="42.00898" lon="2.99441"><ele>134</ele></trkpt>
<trkpt lat="42.00934" lon="2.99475"><ele>132</ele></trkpt>
<trkpt lat="42.00954" lon="2.99499"><ele>129</ele></trkpt>
<trkpt lat="42.00971" lon="2.99487"><ele>131</ele></trkpt>
<trkpt lat="42.00997" lon="2.99477"><ele>131</ele></trkpt>
<trkpt lat="42.01092" lon="2.99343"><ele>126</ele></trkpt>
<trkpt lat="42.01170" lon="2.99259"><ele>121</ele></trkpt>
<trkpt lat="42.01278" lon="2.99183"><ele>116</ele></trkpt>
<trkpt lat="42.01321" lon="2.99109"><ele>116</ele></trkpt>
<trkpt lat="42.01374" lon="2.98963"><ele>123</ele></trkpt>
<trkpt lat="42.01414" lon="2.98880"><ele>128</ele></trkpt>
<trkpt lat="42.01427" lon="2.98811"><ele>126</ele></trkpt>
<trkpt lat="42.01427" lon="2.98796"><ele>124</ele></trkpt>
<trkpt lat="42.01369" lon="2.98671"><ele>117</ele></trkpt>
<trkpt lat="42.01364" lon="2.98642"><ele>115</ele></trkpt>
<trkpt lat="42.01383" lon="2.98490"><ele>110</ele></trkpt>
<trkpt lat="42.01381" lon="2.98358"><ele>100</ele></trkpt>
<trkpt lat="42.01400" lon="2.98343"><ele>100</ele></trkpt>
<trkpt lat="42.01450" lon="2.98356"><ele>102</ele></trkpt>
<trkpt lat="42.01478" lon="2.98357"><ele>101</ele></trkpt>
<trkpt lat="42.01493" lon="2.98319"><ele>98</ele></trkpt>
<trkpt lat="42.01519" lon="2.98271"><ele>92</ele></trkpt>
<trkpt lat="42.01542" lon="2.98260"><ele>90</ele></trkpt>
<trkpt lat="42.01531" lon="2.98205"><ele>88</ele></trkpt>
<trkpt lat="42.01587" lon="2.98159"><ele>86</ele></trkpt>
<trkpt lat="42.01603" lon="2.98143"><ele>86</ele></trkpt>
<trkpt lat="42.01621" lon="2.98114"><ele>86</ele></trkpt>
<trkpt lat="42.01649" lon="2.98024"><ele>84</ele></trkpt>
<trkpt lat="42.01677" lon="2.97957"><ele>82</ele></trkpt>
<trkpt lat="42.01694" lon="2.97892"><ele>82</ele></trkpt>
<trkpt lat="42.01874" lon="2.97554"><ele>84</ele></trkpt>
<trkpt lat="42.01923" lon="2.97455"><ele>84</ele></trkpt>
<trkpt lat="42.01904" lon="2.97447"><ele>84</ele></trkpt>
<trkpt lat="42.01883" lon="2.97431"><ele>86</ele></trkpt>
<trkpt lat="42.01891" lon="2.97354"><ele>83</ele></trkpt>
<trkpt lat="42.01927" lon="2.97243"><ele>77</ele></trkpt>
<trkpt lat="42.02044" lon="2.97022"><ele>71</ele></trkpt>
<trkpt lat="42.02061" lon="2.96921"><ele>72</ele></trkpt>
<trkpt lat="42.02076" lon="2.96874"><ele>74</ele></trkpt>
<trkpt lat="42.02086" lon="2.96819"><ele>74</ele></trkpt>
<trkpt lat="42.02110" lon="2.96755"><ele>75</ele></trkpt>
<trkpt lat="42.02138" lon="2.96693"><ele>76</ele></trkpt>
<trkpt lat="42.02180" lon="2.96619"><ele>80</ele></trkpt>
<trkpt lat="42.02244" lon="2.96493"><ele>84</ele></trkpt>
<trkpt lat="42.02273" lon="2.96427"><ele>85</ele></trkpt>
<trkpt lat="42.02361" lon="2.96284"><ele>86</ele></trkpt>
<trkpt lat="42.02459" lon="2.96186"><ele>90</ele></trkpt>
<trkpt lat="42.02548" lon="2.96082"><ele>94</ele></trkpt>
<trkpt lat="42.02634" lon="2.95955"><ele>100</ele></trkpt>
<trkpt lat="42.02667" lon="2.95894"><ele>104</ele></trkpt>
<trkpt lat="42.02683" lon="2.95884"><ele>103</ele></trkpt>
<trkpt lat="42.02758" lon="2.95871"><ele>95</ele></trkpt>
<trkpt lat="42.02807" lon="2.95805"><ele>97</ele></trkpt>
<trkpt lat="42.02824" lon="2.95789"><ele>95</ele></trkpt>
<trkpt lat="42.02833" lon="2.95775"><ele>94</ele></trkpt>
<trkpt lat="42.02833" lon="2.95759"><ele>94</ele></trkpt>
<trkpt lat="42.02828" lon="2.95738"><ele>95</ele></trkpt>
<trkpt lat="42.02837" lon="2.95705"><ele>94</ele></trkpt>
<trkpt lat="42.02843" lon="2.95701"><ele>94</ele></trkpt>
<trkpt lat="42.02894" lon="2.95697"><ele>95</ele></trkpt>
<trkpt lat="42.02977" lon="2.95678"><ele>100</ele></trkpt>
<trkpt lat="42.03087" lon="2.95627"><ele>100</ele></trkpt>
<trkpt lat="42.03143" lon="2.95641"><ele>98</ele></trkpt>
<trkpt lat="42.03251" lon="2.95643"><ele>93</ele></trkpt>
<trkpt lat="42.03261" lon="2.95656"><ele>92</ele></trkpt>
<trkpt lat="42.03276" lon="2.95700"><ele>93</ele></trkpt>
<trkpt lat="42.03281" lon="2.95707"><ele>93</ele></trkpt>
<trkpt lat="42.03307" lon="2.95723"><ele>93</ele></trkpt>
<trkpt lat="42.03428" lon="2.95775"><ele>94</ele></trkpt>
<trkpt lat="42.03504" lon="2.95795"><ele>98</ele></trkpt>
<trkpt lat="42.03548" lon="2.95798"><ele>102</ele></trkpt>
<trkpt lat="42.03679" lon="2.95778"><ele>102</ele></trkpt>
<trkpt lat="42.03800" lon="2.95738"><ele>100</ele></trkpt>
<trkpt lat="42.03828" lon="2.95736"><ele>100</ele></trkpt>
<trkpt lat="42.03953" lon="2.95709"><ele>95</ele></trkpt>
<trkpt lat="42.03970" lon="2.95693"><ele>93</ele></trkpt>
<trkpt lat="42.04006" lon="2.95620"><ele>88</ele></trkpt>
<trkpt lat="42.04015" lon="2.95607"><ele>86</ele></trkpt>
<trkpt lat="42.04028" lon="2.95600"><ele>86</ele></trkpt>
<trkpt lat="42.04095" lon="2.95592"><ele>83</ele></trkpt>
<trkpt lat="42.04104" lon="2.95599"><ele>82</ele></trkpt>
<trkpt lat="42.04133" lon="2.95608"><ele>78</ele></trkpt>
<trkpt lat="42.04225" lon="2.95612"><ele>68</ele></trkpt>
<trkpt lat="42.04251" lon="2.95639"><ele>64</ele></trkpt>
<trkpt lat="42.04290" lon="2.95657"><ele>61</ele></trkpt>
<trkpt lat="42.04309" lon="2.95685"><ele>56</ele></trkpt>
<trkpt lat="42.04328" lon="2.95701"><ele>54</ele></trkpt>
<trkpt lat="42.04379" lon="2.95709"><ele>52</ele></trkpt>
<trkpt lat="42.04439" lon="2.95711"><ele>48</ele></trkpt>
<trkpt lat="42.04478" lon="2.95725"><ele>45</ele></trkpt>
<trkpt lat="42.04495" lon="2.95747"><ele>44</ele></trkpt>
<trkpt lat="42.04524" lon="2.95760"><ele>41</ele></trkpt>
<trkpt lat="42.04630" lon="2.95757"><ele>38</ele></trkpt>
<trkpt lat="42.04626" lon="2.95736"><ele>38</ele></trkpt>
<trkpt lat="42.04636" lon="2.95569"><ele>38</ele></trkpt>
<trkpt lat="42.04635" lon="2.95486"><ele>38</ele></trkpt>
<trkpt lat="42.04593" lon="2.95332"><ele>38</ele></trkpt>
<trkpt lat="42.04613" lon="2.95326"><ele>37</ele></trkpt>
<trkpt lat="42.04637" lon="2.95336"><ele>37</ele></trkpt>
<trkpt lat="42.04638" lon="2.95286"><ele>38</ele></trkpt>
<trkpt lat="42.04635" lon="2.95277"><ele>38</ele></trkpt>
<trkpt lat="42.04629" lon="2.95184"><ele>38</ele></trkpt>
<trkpt lat="42.04635" lon="2.95077"><ele>38</ele></trkpt>
<trkpt lat="42.04637" lon="2.95072"><ele>38</ele></trkpt>
<trkpt lat="42.04661" lon="2.95072"><ele>37</ele></trkpt>
<trkpt lat="42.04651" lon="2.94435"><ele>40</ele></trkpt>
<trkpt lat="42.04661" lon="2.94435"><ele>40</ele></trkpt>
<trkpt lat="42.04685" lon="2.94345"><ele>41</ele></trkpt>
<trkpt lat="42.04690" lon="2.94310"><ele>41</ele></trkpt>
<trkpt lat="42.04686" lon="2.94275"><ele>42</ele></trkpt>
<trkpt lat="42.04670" lon="2.94205"><ele>42</ele></trkpt>
<trkpt lat="42.04618" lon="2.94093"><ele>43</ele></trkpt>
<trkpt lat="42.04612" lon="2.94071"><ele>42</ele></trkpt>
<trkpt lat="42.04600" lon="2.93984"><ele>43</ele></trkpt>
<trkpt lat="42.04585" lon="2.93909"><ele>44</ele></trkpt>
<trkpt lat="42.04565" lon="2.93828"><ele>50</ele></trkpt>
<trkpt lat="42.04532" lon="2.93598"><ele>59</ele></trkpt>
<trkpt lat="42.04526" lon="2.93577"><ele>60</ele></trkpt>
<trkpt lat="42.04514" lon="2.93587"><ele>60</ele></trkpt>
<trkpt lat="42.04504" lon="2.93550"><ele>59</ele></trkpt>
<trkpt lat="42.04483" lon="2.93510"><ele>58</ele></trkpt>
<trkpt lat="42.04440" lon="2.93454"><ele>54</ele></trkpt>
<trkpt lat="42.04442" lon="2.93444"><ele>54</ele></trkpt>
<trkpt lat="42.04368" lon="2.93342"><ele>51</ele></trkpt>
<trkpt lat="42.04354" lon="2.93312"><ele>51</ele></trkpt>
<trkpt lat="42.04317" lon="2.93210"><ele>46</ele></trkpt>
<trkpt lat="42.04267" lon="2.93088"><ele>45</ele></trkpt>
<trkpt lat="42.04245" lon="2.93007"><ele>45</ele></trkpt>
<trkpt lat="42.04224" lon="2.92941"><ele>45</ele></trkpt>
<trkpt lat="42.04201" lon="2.92892"><ele>46</ele></trkpt>
<trkpt lat="42.04195" lon="2.92875"><ele>45</ele></trkpt>
<trkpt lat="42.04167" lon="2.92750"><ele>44</ele></trkpt>
<trkpt lat="42.04136" lon="2.92648"><ele>43</ele></trkpt>
<trkpt lat="42.04129" lon="2.92627"><ele>43</ele></trkpt>
<trkpt lat="42.04106" lon="2.92596"><ele>43</ele></trkpt>
<trkpt lat="42.04088" lon="2.92562"><ele>44</ele></trkpt>
<trkpt lat="42.03985" lon="2.92284"><ele>48</ele></trkpt>
<trkpt lat="42.03996" lon="2.92282"><ele>48</ele></trkpt>
<trkpt lat="42.03862" lon="2.91727"><ele>47</ele></trkpt>
<trkpt lat="42.03884" lon="2.91701"><ele>46</ele></trkpt>
<trkpt lat="42.04020" lon="2.91461"><ele>44</ele></trkpt>
<trkpt lat="42.04101" lon="2.91343"><ele>44</ele></trkpt>
<trkpt lat="42.04175" lon="2.91263"><ele>43</ele></trkpt>
<trkpt lat="42.04212" lon="2.91215"><ele>43</ele></trkpt>
<trkpt lat="42.04245" lon="2.91147"><ele>42</ele></trkpt>
<trkpt lat="42.04322" lon="2.91052"><ele>42</ele></trkpt>
<trkpt lat="42.04295" lon="2.91049"><ele>42</ele></trkpt>
<trkpt lat="42.04281" lon="2.90991"><ele>42</ele></trkpt>
<trkpt lat="42.04273" lon="2.90977"><ele>42</ele></trkpt>
<trkpt lat="42.04261" lon="2.90966"><ele>42</ele></trkpt>
<trkpt lat="42.04241" lon="2.90960"><ele>42</ele></trkpt>
<trkpt lat="42.04237" lon="2.90890"><ele>43</ele></trkpt>
<trkpt lat="42.04230" lon="2.90837"><ele>43</ele></trkpt>
<trkpt lat="42.04174" lon="2.90609"><ele>44</ele></trkpt>
<trkpt lat="42.04168" lon="2.90573"><ele>43</ele></trkpt>
<trkpt lat="42.04154" lon="2.90558"><ele>44</ele></trkpt>
<trkpt lat="42.04113" lon="2.90529"><ele>43</ele></trkpt>
<trkpt lat="42.04097" lon="2.90513"><ele>44</ele></trkpt>
<trkpt lat="42.04030" lon="2.90428"><ele>44</ele></trkpt>
<trkpt lat="42.04016" lon="2.90409"><ele>45</ele></trkpt>
<trkpt lat="42.04003" lon="2.90375"><ele>45</ele></trkpt>
<trkpt lat="42.03994" lon="2.90341"><ele>45</ele></trkpt>
<trkpt lat="42.03977" lon="2.90335"><ele>44</ele></trkpt>
<trkpt lat="42.03963" lon="2.90325"><ele>46</ele></trkpt>
<trkpt lat="42.03923" lon="2.90265"><ele>47</ele></trkpt>
<trkpt lat="42.03862" lon="2.90187"><ele>48</ele></trkpt>
<trkpt lat="42.03758" lon="2.90086"><ele>48</ele></trkpt>
<trkpt lat="42.03723" lon="2.90046"><ele>49</ele></trkpt>
<trkpt lat="42.03643" lon="2.89965"><ele>50</ele></trkpt>
<trkpt lat="42.03590" lon="2.89890"><ele>51</ele></trkpt>
<trkpt lat="42.03467" lon="2.89830"><ele>53</ele></trkpt>
<trkpt lat="42.03461" lon="2.89737"><ele>52</ele></trkpt>
<trkpt lat="42.03440" lon="2.89654"><ele>53</ele></trkpt>
<trkpt lat="42.03517" lon="2.89619"><ele>53</ele></trkpt>
<trkpt lat="42.03389" lon="2.89094"><ele>55</ele></trkpt>
<trkpt lat="42.03388" lon="2.89067"><ele>55</ele></trkpt>
<trkpt lat="42.03391" lon="2.89052"><ele>55</ele></trkpt>
<trkpt lat="42.03372" lon="2.89019"><ele>55</ele></trkpt>
<trkpt lat="42.03351" lon="2.88939"><ele>55</ele></trkpt>
<trkpt lat="42.03234" lon="2.88992"><ele>56</ele></trkpt>
<trkpt lat="42.03220" lon="2.88990"><ele>56</ele></trkpt>
<trkpt lat="42.03215" lon="2.88983"><ele>56</ele></trkpt>
<trkpt lat="42.03129" lon="2.88644"><ele>57</ele></trkpt>
<trkpt lat="42.03121" lon="2.88635"><ele>57</ele></trkpt>
<trkpt lat="42.03117" lon="2.88621"><ele>57</ele></trkpt>
<trkpt lat="42.03105" lon="2.88606"><ele>57</ele></trkpt>
<trkpt lat="42.03075" lon="2.88462"><ele>56</ele></trkpt>
<trkpt lat="42.03032" lon="2.88298"><ele>56</ele></trkpt>
<trkpt lat="42.02989" lon="2.88297"><ele>57</ele></trkpt>
<trkpt lat="42.02963" lon="2.88283"><ele>56</ele></trkpt>
<trkpt lat="42.02907" lon="2.88268"><ele>59</ele></trkpt>
<trkpt lat="42.02617" lon="2.88221"><ele>63</ele></trkpt>
<trkpt lat="42.02608" lon="2.88220"><ele>63</ele></trkpt>
<trkpt lat="42.02607" lon="2.88226"><ele>63</ele></trkpt>
<trkpt lat="42.02490" lon="2.88179"><ele>68</ele></trkpt>
<trkpt lat="42.02298" lon="2.88147"><ele>80</ele></trkpt>
<trkpt lat="42.02074" lon="2.88124"><ele>95</ele></trkpt>
<trkpt lat="42.02067" lon="2.88136"><ele>96</ele></trkpt>
<trkpt lat="42.02063" lon="2.88152"><ele>98</ele></trkpt>
<trkpt lat="42.02012" lon="2.88155"><ele>102</ele></trkpt>
<trkpt lat="42.01971" lon="2.88121"><ele>102</ele></trkpt>
<trkpt lat="42.01967" lon="2.88112"><ele>102</ele></trkpt>
<trkpt lat="42.01966" lon="2.88089"><ele>102</ele></trkpt>
<trkpt lat="42.01996" lon="2.88044"><ele>100</ele></trkpt>
<trkpt lat="42.02033" lon="2.88020"><ele>98</ele></trkpt>
<trkpt lat="42.02086" lon="2.87924"><ele>98</ele></trkpt>
<trkpt lat="42.02093" lon="2.87896"><ele>98</ele></trkpt>
<trkpt lat="42.02043" lon="2.87884"><ele>101</ele></trkpt>
<trkpt lat="42.01983" lon="2.87838"><ele>107</ele></trkpt>
<trkpt lat="42.01966" lon="2.87815"><ele>108</ele></trkpt>
<trkpt lat="42.01944" lon="2.87814"><ele>111</ele></trkpt>
<trkpt lat="42.01915" lon="2.87803"><ele>115</ele></trkpt>
<trkpt lat="42.01911" lon="2.87781"><ele>116</ele></trkpt>
<trkpt lat="42.01906" lon="2.87772"><ele>117</ele></trkpt>
<trkpt lat="42.01901" lon="2.87770"><ele>118</ele></trkpt>
<trkpt lat="42.01893" lon="2.87772"><ele>119</ele></trkpt>
<trkpt lat="42.01868" lon="2.87822"><ele>123</ele></trkpt>
<trkpt lat="42.01861" lon="2.87825"><ele>124</ele></trkpt>
<trkpt lat="42.01848" lon="2.87825"><ele>126</ele></trkpt>
<trkpt lat="42.01829" lon="2.87818"><ele>128</ele></trkpt>
<trkpt lat="42.01822" lon="2.87812"><ele>130</ele></trkpt>
<trkpt lat="42.01819" lon="2.87802"><ele>130</ele></trkpt>
<trkpt lat="42.01813" lon="2.87748"><ele>134</ele></trkpt>
<trkpt lat="42.01816" lon="2.87729"><ele>134</ele></trkpt>
<trkpt lat="42.01833" lon="2.87677"><ele>136</ele></trkpt>
<trkpt lat="42.01830" lon="2.87671"><ele>137</ele></trkpt>
<trkpt lat="42.01770" lon="2.87666"><ele>141</ele></trkpt>
<trkpt lat="42.01745" lon="2.87657"><ele>142</ele></trkpt>
<trkpt lat="42.01715" lon="2.87652"><ele>144</ele></trkpt>
<trkpt lat="42.01694" lon="2.87627"><ele>146</ele></trkpt>
<trkpt lat="42.01685" lon="2.87589"><ele>147</ele></trkpt>
<trkpt lat="42.01664" lon="2.87549"><ele>150</ele></trkpt>
<trkpt lat="42.01649" lon="2.87499"><ele>156</ele></trkpt>
<trkpt lat="42.01643" lon="2.87464"><ele>160</ele></trkpt>
<trkpt lat="42.01648" lon="2.87412"><ele>160</ele></trkpt>
<trkpt lat="42.01645" lon="2.87385"><ele>160</ele></trkpt>
<trkpt lat="42.01640" lon="2.87375"><ele>160</ele></trkpt>
<trkpt lat="42.01624" lon="2.87362"><ele>161</ele></trkpt>
<trkpt lat="42.01615" lon="2.87361"><ele>162</ele></trkpt>
<trkpt lat="42.01560" lon="2.87320"><ele>166</ele></trkpt>
<trkpt lat="42.01543" lon="2.87310"><ele>168</ele></trkpt>
<trkpt lat="42.01512" lon="2.87272"><ele>168</ele></trkpt>
<trkpt lat="42.01465" lon="2.87240"><ele>169</ele></trkpt>
<trkpt lat="42.01426" lon="2.87169"><ele>170</ele></trkpt>
<trkpt lat="42.01412" lon="2.87154"><ele>171</ele></trkpt>
<trkpt lat="42.01368" lon="2.87147"><ele>177</ele></trkpt>
<trkpt lat="42.01266" lon="2.87069"><ele>191</ele></trkpt>
<trkpt lat="42.01229" lon="2.87054"><ele>192</ele></trkpt>
<trkpt lat="42.01188" lon="2.87056"><ele>200</ele></trkpt>
<trkpt lat="42.01141" lon="2.87040"><ele>208</ele></trkpt>
<trkpt lat="42.01117" lon="2.87020"><ele>208</ele></trkpt>
<trkpt lat="42.01082" lon="2.87031"><ele>216</ele></trkpt>
<trkpt lat="42.01067" lon="2.87016"><ele>216</ele></trkpt>
<trkpt lat="42.01017" lon="2.86991"><ele>221</ele></trkpt>
<trkpt lat="42.00957" lon="2.86988"><ele>236</ele></trkpt>
<trkpt lat="42.00930" lon="2.86944"><ele>242</ele></trkpt>
<trkpt lat="42.00923" lon="2.86937"><ele>244</ele></trkpt>
<trkpt lat="42.00914" lon="2.86935"><ele>246</ele></trkpt>
<trkpt lat="42.00872" lon="2.86948"><ele>253</ele></trkpt>
<trkpt lat="42.00853" lon="2.86945"><ele>254</ele></trkpt>
<trkpt lat="42.00828" lon="2.86930"><ele>258</ele></trkpt>
<trkpt lat="42.00820" lon="2.86913"><ele>259</ele></trkpt>
<trkpt lat="42.00815" lon="2.86860"><ele>265</ele></trkpt>
<trkpt lat="42.00815" lon="2.86836"><ele>268</ele></trkpt>
<trkpt lat="42.00822" lon="2.86813"><ele>270</ele></trkpt>
<trkpt lat="42.00823" lon="2.86794"><ele>272</ele></trkpt>
<trkpt lat="42.00814" lon="2.86772"><ele>274</ele></trkpt>
<trkpt lat="42.00807" lon="2.86763"><ele>276</ele></trkpt>
<trkpt lat="42.00800" lon="2.86718"><ele>278</ele></trkpt>
<trkpt lat="42.00820" lon="2.86665"><ele>286</ele></trkpt>
<trkpt lat="42.00823" lon="2.86661"><ele>285</ele></trkpt>
<trkpt lat="42.00825" lon="2.86649"><ele>285</ele></trkpt>
<trkpt lat="42.00820" lon="2.86638"><ele>287</ele></trkpt>
<trkpt lat="42.00806" lon="2.86622"><ele>291</ele></trkpt>
<trkpt lat="42.00801" lon="2.86590"><ele>292</ele></trkpt>
<trkpt lat="42.00789" lon="2.86542"><ele>295</ele></trkpt>
<trkpt lat="42.00785" lon="2.86499"><ele>300</ele></trkpt>
<trkpt lat="42.00787" lon="2.86418"><ele>309</ele></trkpt>
<trkpt lat="42.00776" lon="2.86357"><ele>323</ele></trkpt>
<trkpt lat="42.00763" lon="2.86319"><ele>330</ele></trkpt>
<trkpt lat="42.00759" lon="2.86313"><ele>330</ele></trkpt>
<trkpt lat="42.00734" lon="2.86297"><ele>336</ele></trkpt>
<trkpt lat="42.00764" lon="2.86297"><ele>337</ele></trkpt>
<trkpt lat="42.00790" lon="2.86315"><ele>334</ele></trkpt>
<trkpt lat="42.00823" lon="2.86295"><ele>336</ele></trkpt>
<trkpt lat="42.00855" lon="2.86297"><ele>335</ele></trkpt>
<trkpt lat="42.00878" lon="2.86281"><ele>336</ele></trkpt>
<trkpt lat="42.00926" lon="2.86271"><ele>334</ele></trkpt>
<trkpt lat="42.00939" lon="2.86274"><ele>332</ele></trkpt>
<trkpt lat="42.00961" lon="2.86290"><ele>328</ele></trkpt>
<trkpt lat="42.00963" lon="2.86259"><ele>332</ele></trkpt>
<trkpt lat="42.00960" lon="2.86242"><ele>334</ele></trkpt>
<trkpt lat="42.00924" lon="2.86188"><ele>345</ele></trkpt>
<trkpt lat="42.00923" lon="2.86182"><ele>344</ele></trkpt>
<trkpt lat="42.00834" lon="2.86187"><ele>341</ele></trkpt>
<trkpt lat="42.00801" lon="2.86158"><ele>338</ele></trkpt>
<trkpt lat="42.00773" lon="2.86111"><ele>335</ele></trkpt>
<trkpt lat="42.00761" lon="2.86096"><ele>333</ele></trkpt>
<trkpt lat="42.00751" lon="2.86091"><ele>333</ele></trkpt>
<trkpt lat="42.00727" lon="2.86087"><ele>336</ele></trkpt>
<trkpt lat="42.00708" lon="2.86074"><ele>336</ele></trkpt>
<trkpt lat="42.00701" lon="2.86053"><ele>334</ele></trkpt>
<trkpt lat="42.00704" lon="2.86002"><ele>330</ele></trkpt>
<trkpt lat="42.00685" lon="2.85918"><ele>322</ele></trkpt>
<trkpt lat="42.00689" lon="2.85892"><ele>319</ele></trkpt>
<trkpt lat="42.00707" lon="2.85849"><ele>311</ele></trkpt>
<trkpt lat="42.00716" lon="2.85847"><ele>309</ele></trkpt>
<trkpt lat="42.00728" lon="2.85854"><ele>308</ele></trkpt>
<trkpt lat="42.00769" lon="2.85837"><ele>302</ele></trkpt>
<trkpt lat="42.00774" lon="2.85829"><ele>303</ele></trkpt>
<trkpt lat="42.00774" lon="2.85793"><ele>300</ele></trkpt>
<trkpt lat="42.00771" lon="2.85763"><ele>297</ele></trkpt>
<trkpt lat="42.00745" lon="2.85648"><ele>297</ele></trkpt>
<trkpt lat="42.00753" lon="2.85597"><ele>292</ele></trkpt>
<trkpt lat="42.00772" lon="2.85566"><ele>285</ele></trkpt>
<trkpt lat="42.00771" lon="2.85549"><ele>283</ele></trkpt>
<trkpt lat="42.00758" lon="2.85516"><ele>278</ele></trkpt>
<trkpt lat="42.00758" lon="2.85509"><ele>278</ele></trkpt>
<trkpt lat="42.00765" lon="2.85494"><ele>275</ele></trkpt>
<trkpt lat="42.00796" lon="2.85457"><ele>270</ele></trkpt>
<trkpt lat="42.00800" lon="2.85446"><ele>270</ele></trkpt>
<trkpt lat="42.00799" lon="2.85429"><ele>271</ele></trkpt>
<trkpt lat="42.00786" lon="2.85400"><ele>272</ele></trkpt>
<trkpt lat="42.00786" lon="2.85386"><ele>273</ele></trkpt>
<trkpt lat="42.00811" lon="2.85346"><ele>274</ele></trkpt>
<trkpt lat="42.00825" lon="2.85286"><ele>264</ele></trkpt>
<trkpt lat="42.00824" lon="2.85256"><ele>258</ele></trkpt>
<trkpt lat="42.00834" lon="2.85201"><ele>246</ele></trkpt>
<trkpt lat="42.00858" lon="2.85136"><ele>232</ele></trkpt>
<trkpt lat="42.00859" lon="2.85090"><ele>224</ele></trkpt>
<trkpt lat="42.00852" lon="2.85082"><ele>222</ele></trkpt>
<trkpt lat="42.00820" lon="2.85099"><ele>217</ele></trkpt>
<trkpt lat="42.00800" lon="2.85101"><ele>212</ele></trkpt>
<trkpt lat="42.00790" lon="2.85097"><ele>212</ele></trkpt>
<trkpt lat="42.00779" lon="2.85088"><ele>209</ele></trkpt>
<trkpt lat="42.00756" lon="2.85054"><ele>204</ele></trkpt>
<trkpt lat="42.00742" lon="2.85040"><ele>200</ele></trkpt>
<trkpt lat="42.00722" lon="2.85030"><ele>196</ele></trkpt>
<trkpt lat="42.00711" lon="2.85031"><ele>194</ele></trkpt>
<trkpt lat="42.00691" lon="2.85043"><ele>191</ele></trkpt>
<trkpt lat="42.00678" lon="2.85054"><ele>188</ele></trkpt>
<trkpt lat="42.00648" lon="2.85096"><ele>185</ele></trkpt>
<trkpt lat="42.00638" lon="2.85106"><ele>184</ele></trkpt>
<trkpt lat="42.00634" lon="2.85106"><ele>186</ele></trkpt>
<trkpt lat="42.00623" lon="2.85032"><ele>190</ele></trkpt>
<trkpt lat="42.00605" lon="2.84950"><ele>195</ele></trkpt>
<trkpt lat="42.00594" lon="2.84929"><ele>194</ele></trkpt>
<trkpt lat="42.00587" lon="2.84901"><ele>189</ele></trkpt>
<trkpt lat="42.00545" lon="2.84833"><ele>182</ele></trkpt>
<trkpt lat="42.00521" lon="2.84782"><ele>174</ele></trkpt>
<trkpt lat="42.00473" lon="2.84767"><ele>171</ele></trkpt>
<trkpt lat="42.00419" lon="2.84738"><ele>164</ele></trkpt>
<trkpt lat="42.00409" lon="2.84727"><ele>162</ele></trkpt>
<trkpt lat="42.00402" lon="2.84706"><ele>158</ele></trkpt>
<trkpt lat="42.00394" lon="2.84653"><ele>161</ele></trkpt>
<trkpt lat="42.00450" lon="2.84624"><ele>166</ele></trkpt>
<trkpt lat="42.00458" lon="2.84614"><ele>168</ele></trkpt>
<trkpt lat="42.00460" lon="2.84606"><ele>169</ele></trkpt>
<trkpt lat="42.00458" lon="2.84602"><ele>170</ele></trkpt>
<trkpt lat="42.00445" lon="2.84589"><ele>170</ele></trkpt>
<trkpt lat="42.00401" lon="2.84559"><ele>177</ele></trkpt>
<trkpt lat="42.00397" lon="2.84550"><ele>178</ele></trkpt>
<trkpt lat="42.00393" lon="2.84519"><ele>179</ele></trkpt>
<trkpt lat="42.00382" lon="2.84499"><ele>179</ele></trkpt>
<trkpt lat="42.00357" lon="2.84473"><ele>180</ele></trkpt>
<trkpt lat="42.00327" lon="2.84435"><ele>180</ele></trkpt>
<trkpt lat="42.00288" lon="2.84401"><ele>178</ele></trkpt>
<trkpt lat="42.00229" lon="2.84332"><ele>176</ele></trkpt>
<trkpt lat="42.00217" lon="2.84312"><ele>174</ele></trkpt>
<trkpt lat="42.00214" lon="2.84298"><ele>173</ele></trkpt>
<trkpt lat="42.00214" lon="2.84254"><ele>174</ele></trkpt>
<trkpt lat="42.00221" lon="2.84212"><ele>176</ele></trkpt>
<trkpt lat="42.00203" lon="2.84165"><ele>180</ele></trkpt>
<trkpt lat="42.00206" lon="2.84112"><ele>186</ele></trkpt>
<trkpt lat="42.00204" lon="2.84095"><ele>187</ele></trkpt>
<trkpt lat="42.00181" lon="2.84062"><ele>191</ele></trkpt>
<trkpt lat="42.00100" lon="2.84017"><ele>200</ele></trkpt>
<trkpt lat="42.00027" lon="2.83990"><ele>203</ele></trkpt>
<trkpt lat="42.00015" lon="2.83981"><ele>203</ele></trkpt>
<trkpt lat="41.99992" lon="2.83953"><ele>205</ele></trkpt>
<trkpt lat="41.99959" lon="2.83932"><ele>204</ele></trkpt>
<trkpt lat="41.99834" lon="2.83872"><ele>210</ele></trkpt>
<trkpt lat="41.99818" lon="2.83862"><ele>209</ele></trkpt>
<trkpt lat="41.99803" lon="2.83846"><ele>208</ele></trkpt>
<trkpt lat="41.99693" lon="2.83665"><ele>203</ele></trkpt>
<trkpt lat="41.99688" lon="2.83651"><ele>203</ele></trkpt>
<trkpt lat="41.99658" lon="2.83496"><ele>196</ele></trkpt>
<trkpt lat="41.99643" lon="2.83443"><ele>194</ele></trkpt>
<trkpt lat="41.99634" lon="2.83423"><ele>194</ele></trkpt>
<trkpt lat="41.99524" lon="2.83237"><ele>189</ele></trkpt>
<trkpt lat="41.99514" lon="2.83204"><ele>188</ele></trkpt>
<trkpt lat="41.99519" lon="2.83151"><ele>184</ele></trkpt>
<trkpt lat="41.99514" lon="2.83122"><ele>182</ele></trkpt>
<trkpt lat="41.99452" lon="2.83021"><ele>174</ele></trkpt>
<trkpt lat="41.99435" lon="2.83012"><ele>173</ele></trkpt>
<trkpt lat="41.99419" lon="2.83011"><ele>172</ele></trkpt>
<trkpt lat="41.99345" lon="2.83045"><ele>168</ele></trkpt>
<trkpt lat="41.99255" lon="2.83039"><ele>158</ele></trkpt>
<trkpt lat="41.99239" lon="2.83030"><ele>156</ele></trkpt>
<trkpt lat="41.99243" lon="2.83013"><ele>156</ele></trkpt>
<trkpt lat="41.99294" lon="2.82912"><ele>154</ele></trkpt>
<trkpt lat="41.99297" lon="2.82896"><ele>153</ele></trkpt>
<trkpt lat="41.99294" lon="2.82880"><ele>152</ele></trkpt>
<trkpt lat="41.99288" lon="2.82866"><ele>150</ele></trkpt>
<trkpt lat="41.99270" lon="2.82852"><ele>145</ele></trkpt>
<trkpt lat="41.99263" lon="2.82850"><ele>144</ele></trkpt>
<trkpt lat="41.99247" lon="2.82853"><ele>144</ele></trkpt>
<trkpt lat="41.99235" lon="2.82866"><ele>143</ele></trkpt>
<trkpt lat="41.99177" lon="2.82971"><ele>138</ele></trkpt>
<trkpt lat="41.99166" lon="2.82984"><ele>139</ele></trkpt>
<trkpt lat="41.99147" lon="2.82989"><ele>138</ele></trkpt>
<trkpt lat="41.99096" lon="2.82979"><ele>135</ele></trkpt>
<trkpt lat="41.99085" lon="2.82981"><ele>134</ele></trkpt>
<trkpt lat="41.99070" lon="2.82990"><ele>134</ele></trkpt>
<trkpt lat="41.99032" lon="2.83033"><ele>130</ele></trkpt>
<trkpt lat="41.99009" lon="2.83033"><ele>128</ele></trkpt>
<trkpt lat="41.98996" lon="2.83020"><ele>126</ele></trkpt>
<trkpt lat="41.98986" lon="2.82996"><ele>124</ele></trkpt>
<trkpt lat="41.98985" lon="2.82981"><ele>124</ele></trkpt>
<trkpt lat="41.98986" lon="2.82967"><ele>123</ele></trkpt>
<trkpt lat="41.98993" lon="2.82952"><ele>123</ele></trkpt>
<trkpt lat="41.99005" lon="2.82941"><ele>122</ele></trkpt>
<trkpt lat="41.99077" lon="2.82907"><ele>121</ele></trkpt>
<trkpt lat="41.99091" lon="2.82896"><ele>120</ele></trkpt>
<trkpt lat="41.99103" lon="2.82871"><ele>120</ele></trkpt>
<trkpt lat="41.99107" lon="2.82836"><ele>119</ele></trkpt>
<trkpt lat="41.99105" lon="2.82819"><ele>118</ele></trkpt>
<trkpt lat="41.99101" lon="2.82807"><ele>116</ele></trkpt>
<trkpt lat="41.99083" lon="2.82785"><ele>112</ele></trkpt>
<trkpt lat="41.99056" lon="2.82775"><ele>108</ele></trkpt>
<trkpt lat="41.98977" lon="2.82768"><ele>97</ele></trkpt>
<trkpt lat="41.98969" lon="2.82759"><ele>95</ele></trkpt>
<trkpt lat="41.98967" lon="2.82749"><ele>94</ele></trkpt>
<trkpt lat="41.98976" lon="2.82730"><ele>93</ele></trkpt>
<trkpt lat="41.99026" lon="2.82690"><ele>86</ele></trkpt>
<trkpt lat="41.99037" lon="2.82687"><ele>85</ele></trkpt>
<trkpt lat="41.99065" lon="2.82694"><ele>84</ele></trkpt>
<trkpt lat="41.99073" lon="2.82682"><ele>84</ele></trkpt>
<trkpt lat="41.99071" lon="2.82674"><ele>84</ele></trkpt>
<trkpt lat="41.99064" lon="2.82667"><ele>84</ele></trkpt>
<trkpt lat="41.99025" lon="2.82671"><ele>79</ele></trkpt>
<trkpt lat="41.99018" lon="2.82664"><ele>77</ele></trkpt>
<trkpt lat="41.99016" lon="2.82653"><ele>74</ele></trkpt>
<trkpt lat="41.99021" lon="2.82641"><ele>72</ele></trkpt>
<trkpt lat="41.99049" lon="2.82630"><ele>70</ele></trkpt>
<trkpt lat="41.99061" lon="2.82608"><ele>68</ele></trkpt>
<trkpt lat="41.99032" lon="2.82601"><ele>68</ele></trkpt>
<trkpt lat="41.99012" lon="2.82590"><ele>68</ele></trkpt>
<trkpt lat="41.98966" lon="2.82479"><ele>68</ele></trkpt>
<trkpt lat="41.98944" lon="2.82449"><ele>68</ele></trkpt>
<trkpt lat="41.98965" lon="2.82417"><ele>69</ele></trkpt>
<trkpt lat="41.98955" lon="2.82390"><ele>68</ele></trkpt>
<trkpt lat="41.98950" lon="2.82363"><ele>68</ele></trkpt>
<trkpt lat="41.98946" lon="2.82280"><ele>68</ele></trkpt>
<trkpt lat="41.98929" lon="2.82282"><ele>68</ele></trkpt>
<trkpt lat="41.98905" lon="2.82266"><ele>68</ele></trkpt>
<trkpt lat="41.98898" lon="2.82272"><ele>68</ele></trkpt>
<trkpt lat="41.98808" lon="2.82295"><ele>68</ele></trkpt>
<trkpt lat="41.98783" lon="2.82272"><ele>68</ele></trkpt>
<trkpt lat="41.98774" lon="2.82252"><ele>68</ele></trkpt>
<trkpt lat="41.98664" lon="2.82139"><ele>68</ele></trkpt>
<trkpt lat="41.98444" lon="2.81921"><ele>69</ele></trkpt>
<trkpt lat="41.98354" lon="2.81840"><ele>72</ele></trkpt>
<trkpt lat="41.98330" lon="2.81824"><ele>72</ele></trkpt>
<trkpt lat="41.98279" lon="2.81796"><ele>72</ele></trkpt>
<trkpt lat="41.98090" lon="2.81727"><ele>73</ele></trkpt>
<trkpt lat="41.98093" lon="2.81753"><ele>73</ele></trkpt>
<trkpt lat="41.98069" lon="2.81869"><ele>71</ele></trkpt>
<trkpt lat="41.97934" lon="2.82135"><ele>72</ele></trkpt>
    </trkseg>
  </trk>
</gpx>
