<?xml version="1.0" encoding="UTF-8"?>
<gpx version="1.1" creator="Gravel Kompass" xmlns="http://www.topografix.com/GPX/1/1">
  <metadata><name>Pirinexus-Runde: Girona, Pyrenäenrand &amp; Costa Brava – Etappe 4</name></metadata>
  <trk>
    <name>Etappe 4: La Jonquera – Cadaqués</name>
    <trkseg>
<trkpt lat="42.41888" lon="2.87462"><ele>124</ele></trkpt>
<trkpt lat="42.41844" lon="2.87480"><ele>124</ele></trkpt>
<trkpt lat="42.41851" lon="2.87516"><ele>128</ele></trkpt>
<trkpt lat="42.41830" lon="2.87525"><ele>128</ele></trkpt>
<trkpt lat="42.41828" lon="2.87529"><ele>128</ele></trkpt>
<trkpt lat="42.41786" lon="2.87482"><ele>124</ele></trkpt>
<trkpt lat="42.41756" lon="2.87441"><ele>120</ele></trkpt>
<trkpt lat="42.41715" lon="2.87421"><ele>115</ele></trkpt>
<trkpt lat="42.41681" lon="2.87364"><ele>111</ele></trkpt>
<trkpt lat="42.41677" lon="2.87363"><ele>111</ele></trkpt>
<trkpt lat="42.41671" lon="2.87365"><ele>111</ele></trkpt>
<trkpt lat="42.41631" lon="2.87402"><ele>111</ele></trkpt>
<trkpt lat="42.41577" lon="2.87428"><ele>109</ele></trkpt>
<trkpt lat="42.41421" lon="2.87558"><ele>110</ele></trkpt>
<trkpt lat="42.41390" lon="2.87565"><ele>110</ele></trkpt>
<trkpt lat="42.41350" lon="2.87555"><ele>110</ele></trkpt>
<trkpt lat="42.41342" lon="2.87548"><ele>109</ele></trkpt>
<trkpt lat="42.41336" lon="2.87523"><ele>108</ele></trkpt>
<trkpt lat="42.41186" lon="2.87616"><ele>107</ele></trkpt>
<trkpt lat="42.41179" lon="2.87643"><ele>108</ele></trkpt>
<trkpt lat="42.41166" lon="2.87656"><ele>108</ele></trkpt>
<trkpt lat="42.41162" lon="2.87665"><ele>108</ele></trkpt>
<trkpt lat="42.41159" lon="2.87677"><ele>109</ele></trkpt>
<trkpt lat="42.41160" lon="2.87705"><ele>109</ele></trkpt>
<trkpt lat="42.41157" lon="2.87715"><ele>109</ele></trkpt>
<trkpt lat="42.41149" lon="2.87719"><ele>109</ele></trkpt>
<trkpt lat="42.41133" lon="2.87715"><ele>109</ele></trkpt>
<trkpt lat="42.41127" lon="2.87734"><ele>110</ele></trkpt>
<trkpt lat="42.41082" lon="2.87765"><ele>112</ele></trkpt>
<trkpt lat="42.41038" lon="2.87814"><ele>114</ele></trkpt>
<trkpt lat="42.40997" lon="2.87842"><ele>112</ele></trkpt>
<trkpt lat="42.40986" lon="2.87857"><ele>112</ele></trkpt>
<trkpt lat="42.40962" lon="2.87908"><ele>111</ele></trkpt>
<trkpt lat="42.40951" lon="2.87922"><ele>111</ele></trkpt>
<trkpt lat="42.40938" lon="2.87930"><ele>113</ele></trkpt>
<trkpt lat="42.40910" lon="2.87929"><ele>113</ele></trkpt>
<trkpt lat="42.40884" lon="2.87937"><ele>113</ele></trkpt>
<trkpt lat="42.40878" lon="2.87954"><ele>115</ele></trkpt>
<trkpt lat="42.40870" lon="2.87964"><ele>116</ele></trkpt>
<trkpt lat="42.40819" lon="2.88007"><ele>121</ele></trkpt>
<trkpt lat="42.40810" lon="2.88024"><ele>123</ele></trkpt>
<trkpt lat="42.40813" lon="2.88036"><ele>125</ele></trkpt>
<trkpt lat="42.40838" lon="2.88032"><ele>128</ele></trkpt>
<trkpt lat="42.40871" lon="2.88033"><ele>130</ele></trkpt>
<trkpt lat="42.40876" lon="2.88044"><ele>132</ele></trkpt>
<trkpt lat="42.40892" lon="2.88050"><ele>131</ele></trkpt>
<trkpt lat="42.40920" lon="2.88114"><ele>136</ele></trkpt>
<trkpt lat="42.40942" lon="2.88129"><ele>139</ele></trkpt>
<trkpt lat="42.40982" lon="2.88145"><ele>142</ele></trkpt>
<trkpt lat="42.41008" lon="2.88177"><ele>148</ele></trkpt>
<trkpt lat="42.41023" lon="2.88173"><ele>148</ele></trkpt>
<trkpt lat="42.41035" lon="2.88176"><ele>148</ele></trkpt>
<trkpt lat="42.41049" lon="2.88196"><ele>152</ele></trkpt>
<trkpt lat="42.41077" lon="2.88222"><ele>155</ele></trkpt>
<trkpt lat="42.41101" lon="2.88242"><ele>159</ele></trkpt>
<trkpt lat="42.41128" lon="2.88257"><ele>162</ele></trkpt>
<trkpt lat="42.41145" lon="2.88283"><ele>164</ele></trkpt>
<trkpt lat="42.41154" lon="2.88314"><ele>163</ele></trkpt>
<trkpt lat="42.41152" lon="2.88341"><ele>164</ele></trkpt>
<trkpt lat="42.41139" lon="2.88357"><ele>164</ele></trkpt>
<trkpt lat="42.41106" lon="2.88419"><ele>162</ele></trkpt>
<trkpt lat="42.41074" lon="2.88421"><ele>166</ele></trkpt>
<trkpt lat="42.41041" lon="2.88448"><ele>167</ele></trkpt>
<trkpt lat="42.41027" lon="2.88480"><ele>167</ele></trkpt>
<trkpt lat="42.41018" lon="2.88471"><ele>169</ele></trkpt>
<trkpt lat="42.41005" lon="2.88449"><ele>172</ele></trkpt>
<trkpt lat="42.41003" lon="2.88364"><ele>178</ele></trkpt>
<trkpt lat="42.40988" lon="2.88361"><ele>180</ele></trkpt>
<trkpt lat="42.40968" lon="2.88416"><ele>185</ele></trkpt>
<trkpt lat="42.40940" lon="2.88449"><ele>188</ele></trkpt>
<trkpt lat="42.40932" lon="2.88456"><ele>188</ele></trkpt>
<trkpt lat="42.40916" lon="2.88458"><ele>190</ele></trkpt>
<trkpt lat="42.40891" lon="2.88448"><ele>188</ele></trkpt>
<trkpt lat="42.40885" lon="2.88449"><ele>188</ele></trkpt>
<trkpt lat="42.40869" lon="2.88476"><ele>191</ele></trkpt>
<trkpt lat="42.40840" lon="2.88515"><ele>190</ele></trkpt>
<trkpt lat="42.40827" lon="2.88526"><ele>192</ele></trkpt>
<trkpt lat="42.40825" lon="2.88532"><ele>193</ele></trkpt>
<trkpt lat="42.40805" lon="2.88541"><ele>194</ele></trkpt>
<trkpt lat="42.40785" lon="2.88559"><ele>196</ele></trkpt>
<trkpt lat="42.40770" lon="2.88583"><ele>199</ele></trkpt>
<trkpt lat="42.40766" lon="2.88596"><ele>200</ele></trkpt>
<trkpt lat="42.40762" lon="2.88625"><ele>203</ele></trkpt>
<trkpt lat="42.40763" lon="2.88634"><ele>204</ele></trkpt>
<trkpt lat="42.40778" lon="2.88648"><ele>205</ele></trkpt>
<trkpt lat="42.40827" lon="2.88717"><ele>204</ele></trkpt>
<trkpt lat="42.40828" lon="2.88741"><ele>203</ele></trkpt>
<trkpt lat="42.40833" lon="2.88761"><ele>204</ele></trkpt>
<trkpt lat="42.40853" lon="2.88802"><ele>202</ele></trkpt>
<trkpt lat="42.40854" lon="2.88816"><ele>202</ele></trkpt>
<trkpt lat="42.40851" lon="2.88836"><ele>202</ele></trkpt>
<trkpt lat="42.40818" lon="2.88943"><ele>199</ele></trkpt>
<trkpt lat="42.40798" lon="2.88983"><ele>200</ele></trkpt>
<trkpt lat="42.40790" lon="2.89018"><ele>200</ele></trkpt>
<trkpt lat="42.40732" lon="2.89117"><ele>208</ele></trkpt>
<trkpt lat="42.40719" lon="2.89153"><ele>209</ele></trkpt>
<trkpt lat="42.40668" lon="2.89229"><ele>215</ele></trkpt>
<trkpt lat="42.40655" lon="2.89256"><ele>216</ele></trkpt>
<trkpt lat="42.40639" lon="2.89280"><ele>217</ele></trkpt>
<trkpt lat="42.40632" lon="2.89301"><ele>218</ele></trkpt>
<trkpt lat="42.40628" lon="2.89330"><ele>219</ele></trkpt>
<trkpt lat="42.40611" lon="2.89349"><ele>221</ele></trkpt>
<trkpt lat="42.40599" lon="2.89368"><ele>222</ele></trkpt>
<trkpt lat="42.40572" lon="2.89472"><ele>216</ele></trkpt>
<trkpt lat="42.40566" lon="2.89518"><ele>216</ele></trkpt>
<trkpt lat="42.40557" lon="2.89558"><ele>215</ele></trkpt>
<trkpt lat="42.40507" lon="2.89664"><ele>215</ele></trkpt>
<trkpt lat="42.40500" lon="2.89704"><ele>213</ele></trkpt>
<trkpt lat="42.40485" lon="2.89707"><ele>211</ele></trkpt>
<trkpt lat="42.40455" lon="2.89677"><ele>209</ele></trkpt>
<trkpt lat="42.40444" lon="2.89679"><ele>208</ele></trkpt>
<trkpt lat="42.40442" lon="2.89688"><ele>207</ele></trkpt>
<trkpt lat="42.40448" lon="2.89709"><ele>206</ele></trkpt>
<trkpt lat="42.40472" lon="2.89759"><ele>204</ele></trkpt>
<trkpt lat="42.40472" lon="2.89769"><ele>202</ele></trkpt>
<trkpt lat="42.40454" lon="2.89793"><ele>198</ele></trkpt>
<trkpt lat="42.40429" lon="2.89838"><ele>193</ele></trkpt>
<trkpt lat="42.40397" lon="2.89907"><ele>186</ele></trkpt>
<trkpt lat="42.40296" lon="2.90020"><ele>178</ele></trkpt>
<trkpt lat="42.40295" lon="2.90085"><ele>179</ele></trkpt>
<trkpt lat="42.40284" lon="2.90121"><ele>181</ele></trkpt>
<trkpt lat="42.40229" lon="2.90180"><ele>180</ele></trkpt>
<trkpt lat="42.40178" lon="2.90266"><ele>180</ele></trkpt>
<trkpt lat="42.40125" lon="2.90420"><ele>181</ele></trkpt>
<trkpt lat="42.40092" lon="2.90433"><ele>180</ele></trkpt>
<trkpt lat="42.40057" lon="2.90429"><ele>180</ele></trkpt>
<trkpt lat="42.40041" lon="2.90423"><ele>180</ele></trkpt>
<trkpt lat="42.40016" lon="2.90433"><ele>181</ele></trkpt>
<trkpt lat="42.39971" lon="2.90462"><ele>181</ele></trkpt>
<trkpt lat="42.39939" lon="2.90473"><ele>180</ele></trkpt>
<trkpt lat="42.39916" lon="2.90491"><ele>179</ele></trkpt>
<trkpt lat="42.39898" lon="2.90498"><ele>178</ele></trkpt>
<trkpt lat="42.39849" lon="2.90511"><ele>178</ele></trkpt>
<trkpt lat="42.39811" lon="2.90515"><ele>180</ele></trkpt>
<trkpt lat="42.39782" lon="2.90532"><ele>178</ele></trkpt>
<trkpt lat="42.39736" lon="2.90598"><ele>174</ele></trkpt>
<trkpt lat="42.39720" lon="2.90635"><ele>173</ele></trkpt>
<trkpt lat="42.39691" lon="2.90669"><ele>173</ele></trkpt>
<trkpt lat="42.39654" lon="2.90695"><ele>173</ele></trkpt>
<trkpt lat="42.39623" lon="2.90712"><ele>174</ele></trkpt>
<trkpt lat="42.39603" lon="2.90730"><ele>174</ele></trkpt>
<trkpt lat="42.39596" lon="2.90754"><ele>174</ele></trkpt>
<trkpt lat="42.39596" lon="2.90789"><ele>174</ele></trkpt>
<trkpt lat="42.39601" lon="2.90811"><ele>173</ele></trkpt>
<trkpt lat="42.39616" lon="2.90846"><ele>173</ele></trkpt>
<trkpt lat="42.39620" lon="2.90875"><ele>175</ele></trkpt>
<trkpt lat="42.39587" lon="2.90926"><ele>174</ele></trkpt>
<trkpt lat="42.39556" lon="2.90933"><ele>173</ele></trkpt>
<trkpt lat="42.39545" lon="2.90950"><ele>173</ele></trkpt>
<trkpt lat="42.39527" lon="2.90994"><ele>174</ele></trkpt>
<trkpt lat="42.39506" lon="2.91017"><ele>175</ele></trkpt>
<trkpt lat="42.39494" lon="2.91038"><ele>175</ele></trkpt>
<trkpt lat="42.39479" lon="2.91079"><ele>175</ele></trkpt>
<trkpt lat="42.39464" lon="2.91084"><ele>175</ele></trkpt>
<trkpt lat="42.39447" lon="2.91075"><ele>174</ele></trkpt>
<trkpt lat="42.39427" lon="2.91094"><ele>174</ele></trkpt>
<trkpt lat="42.39408" lon="2.91117"><ele>173</ele></trkpt>
<trkpt lat="42.39397" lon="2.91146"><ele>173</ele></trkpt>
<trkpt lat="42.39323" lon="2.91224"><ele>171</ele></trkpt>
<trkpt lat="42.39299" lon="2.91268"><ele>170</ele></trkpt>
<trkpt lat="42.39284" lon="2.91275"><ele>168</ele></trkpt>
<trkpt lat="42.39245" lon="2.91325"><ele>167</ele></trkpt>
<trkpt lat="42.39178" lon="2.91393"><ele>162</ele></trkpt>
<trkpt lat="42.39159" lon="2.91419"><ele>161</ele></trkpt>
<trkpt lat="42.39140" lon="2.91472"><ele>162</ele></trkpt>
<trkpt lat="42.39134" lon="2.91541"><ele>165</ele></trkpt>
<trkpt lat="42.39108" lon="2.91584"><ele>164</ele></trkpt>
<trkpt lat="42.39101" lon="2.91601"><ele>164</ele></trkpt>
<trkpt lat="42.39077" lon="2.91621"><ele>162</ele></trkpt>
<trkpt lat="42.39063" lon="2.91644"><ele>161</ele></trkpt>
<trkpt lat="42.39053" lon="2.91684"><ele>160</ele></trkpt>
<trkpt lat="42.39045" lon="2.91693"><ele>159</ele></trkpt>
<trkpt lat="42.39009" lon="2.91717"><ele>156</ele></trkpt>
<trkpt lat="42.38973" lon="2.91734"><ele>155</ele></trkpt>
<trkpt lat="42.38928" lon="2.91745"><ele>154</ele></trkpt>
<trkpt lat="42.38913" lon="2.91753"><ele>154</ele></trkpt>
<trkpt lat="42.38876" lon="2.91753"><ele>152</ele></trkpt>
<trkpt lat="42.38813" lon="2.91742"><ele>149</ele></trkpt>
<trkpt lat="42.38779" lon="2.91751"><ele>148</ele></trkpt>
<trkpt lat="42.38708" lon="2.91777"><ele>145</ele></trkpt>
<trkpt lat="42.38684" lon="2.91777"><ele>144</ele></trkpt>
<trkpt lat="42.38623" lon="2.91795"><ele>144</ele></trkpt>
<trkpt lat="42.38572" lon="2.91861"><ele>143</ele></trkpt>
<trkpt lat="42.38549" lon="2.91869"><ele>142</ele></trkpt>
<trkpt lat="42.38510" lon="2.91866"><ele>141</ele></trkpt>
<trkpt lat="42.38486" lon="2.91871"><ele>140</ele></trkpt>
<trkpt lat="42.38425" lon="2.91907"><ele>140</ele></trkpt>
<trkpt lat="42.38365" lon="2.91935"><ele>138</ele></trkpt>
<trkpt lat="42.38330" lon="2.91959"><ele>138</ele></trkpt>
<trkpt lat="42.38258" lon="2.91980"><ele>135</ele></trkpt>
<trkpt lat="42.38203" lon="2.92003"><ele>136</ele></trkpt>
<trkpt lat="42.38150" lon="2.92017"><ele>139</ele></trkpt>
<trkpt lat="42.38104" lon="2.92019"><ele>141</ele></trkpt>
<trkpt lat="42.38072" lon="2.92026"><ele>138</ele></trkpt>
<trkpt lat="42.38033" lon="2.92039"><ele>135</ele></trkpt>
<trkpt lat="42.37970" lon="2.92052"><ele>129</ele></trkpt>
<trkpt lat="42.37934" lon="2.92067"><ele>128</ele></trkpt>
<trkpt lat="42.37909" lon="2.92067"><ele>128</ele></trkpt>
<trkpt lat="42.37886" lon="2.92055"><ele>125</ele></trkpt>
<trkpt lat="42.37863" lon="2.92034"><ele>123</ele></trkpt>
<trkpt lat="42.37710" lon="2.91963"><ele>119</ele></trkpt>
<trkpt lat="42.37664" lon="2.91975"><ele>118</ele></trkpt>
<trkpt lat="42.37619" lon="2.91975"><ele>117</ele></trkpt>
<trkpt lat="42.37591" lon="2.91962"><ele>117</ele></trkpt>
<trkpt lat="42.37579" lon="2.91952"><ele>114</ele></trkpt>
<trkpt lat="42.37565" lon="2.91957"><ele>114</ele></trkpt>
<trkpt lat="42.37534" lon="2.91983"><ele>114</ele></trkpt>
<trkpt lat="42.37532" lon="2.91992"><ele>114</ele></trkpt>
<trkpt lat="42.37488" lon="2.92006"><ele>115</ele></trkpt>
<trkpt lat="42.37486" lon="2.91995"><ele>114</ele></trkpt>
<trkpt lat="42.37489" lon="2.91980"><ele>113</ele></trkpt>
<trkpt lat="42.37484" lon="2.91968"><ele>112</ele></trkpt>
<trkpt lat="42.37450" lon="2.91967"><ele>112</ele></trkpt>
<trkpt lat="42.37441" lon="2.91970"><ele>112</ele></trkpt>
<trkpt lat="42.37431" lon="2.92020"><ele>113</ele></trkpt>
<trkpt lat="42.37412" lon="2.92022"><ele>112</ele></trkpt>
<trkpt lat="42.37402" lon="2.92039"><ele>111</ele></trkpt>
<trkpt lat="42.37311" lon="2.92098"><ele>105</ele></trkpt>
<trkpt lat="42.37313" lon="2.92116"><ele>106</ele></trkpt>
<trkpt lat="42.37306" lon="2.92134"><ele>105</ele></trkpt>
<trkpt lat="42.37275" lon="2.92160"><ele>104</ele></trkpt>
<trkpt lat="42.37230" lon="2.92180"><ele>104</ele></trkpt>
<trkpt lat="42.37198" lon="2.92218"><ele>103</ele></trkpt>
<trkpt lat="42.37210" lon="2.92237"><ele>103</ele></trkpt>
<trkpt lat="42.37197" lon="2.92292"><ele>104</ele></trkpt>
<trkpt lat="42.37197" lon="2.92314"><ele>104</ele></trkpt>
<trkpt lat="42.37192" lon="2.92326"><ele>104</ele></trkpt>
<trkpt lat="42.37170" lon="2.92360"><ele>104</ele></trkpt>
<trkpt lat="42.37121" lon="2.92407"><ele>104</ele></trkpt>
<trkpt lat="42.37080" lon="2.92504"><ele>108</ele></trkpt>
<trkpt lat="42.37067" lon="2.92523"><ele>108</ele></trkpt>
<trkpt lat="42.37013" lon="2.92585"><ele>110</ele></trkpt>
<trkpt lat="42.36966" lon="2.92627"><ele>110</ele></trkpt>
<trkpt lat="42.36937" lon="2.92642"><ele>109</ele></trkpt>
<trkpt lat="42.36898" lon="2.92653"><ele>109</ele></trkpt>
<trkpt lat="42.36880" lon="2.92665"><ele>108</ele></trkpt>
<trkpt lat="42.36854" lon="2.92697"><ele>108</ele></trkpt>
<trkpt lat="42.36831" lon="2.92736"><ele>108</ele></trkpt>
<trkpt lat="42.36733" lon="2.92842"><ele>111</ele></trkpt>
<trkpt lat="42.36715" lon="2.92821"><ele>111</ele></trkpt>
<trkpt lat="42.36692" lon="2.92763"><ele>112</ele></trkpt>
<trkpt lat="42.36679" lon="2.92763"><ele>112</ele></trkpt>
<trkpt lat="42.36595" lon="2.92809"><ele>117</ele></trkpt>
<trkpt lat="42.36581" lon="2.92822"><ele>119</ele></trkpt>
<trkpt lat="42.36520" lon="2.92847"><ele>124</ele></trkpt>
<trkpt lat="42.36495" lon="2.92862"><ele>124</ele></trkpt>
<trkpt lat="42.36466" lon="2.92889"><ele>125</ele></trkpt>
<trkpt lat="42.36445" lon="2.92918"><ele>125</ele></trkpt>
<trkpt lat="42.36431" lon="2.92928"><ele>124</ele></trkpt>
<trkpt lat="42.36276" lon="2.93005"><ele>121</ele></trkpt>
<trkpt lat="42.36233" lon="2.93033"><ele>118</ele></trkpt>
<trkpt lat="42.36199" lon="2.93036"><ele>118</ele></trkpt>
<trkpt lat="42.36173" lon="2.93030"><ele>116</ele></trkpt>
<trkpt lat="42.36156" lon="2.93035"><ele>115</ele></trkpt>
<trkpt lat="42.36077" lon="2.93140"><ele>112</ele></trkpt>
<trkpt lat="42.36070" lon="2.93172"><ele>111</ele></trkpt>
<trkpt lat="42.36070" lon="2.93241"><ele>106</ele></trkpt>
<trkpt lat="42.36066" lon="2.93263"><ele>104</ele></trkpt>
<trkpt lat="42.36058" lon="2.93277"><ele>103</ele></trkpt>
<trkpt lat="42.36045" lon="2.93285"><ele>103</ele></trkpt>
<trkpt lat="42.35998" lon="2.93300"><ele>102</ele></trkpt>
<trkpt lat="42.35980" lon="2.93314"><ele>102</ele></trkpt>
<trkpt lat="42.35928" lon="2.93388"><ele>98</ele></trkpt>
<trkpt lat="42.35916" lon="2.93401"><ele>98</ele></trkpt>
<trkpt lat="42.35912" lon="2.93429"><ele>96</ele></trkpt>
<trkpt lat="42.35903" lon="2.93445"><ele>94</ele></trkpt>
<trkpt lat="42.35843" lon="2.93512"><ele>91</ele></trkpt>
<trkpt lat="42.35813" lon="2.93533"><ele>92</ele></trkpt>
<trkpt lat="42.35762" lon="2.93601"><ele>90</ele></trkpt>
<trkpt lat="42.35746" lon="2.93632"><ele>90</ele></trkpt>
<trkpt lat="42.35735" lon="2.93644"><ele>90</ele></trkpt>
<trkpt lat="42.35670" lon="2.93700"><ele>92</ele></trkpt>
<trkpt lat="42.35630" lon="2.93705"><ele>96</ele></trkpt>
<trkpt lat="42.35620" lon="2.93716"><ele>95</ele></trkpt>
<trkpt lat="42.35607" lon="2.93736"><ele>93</ele></trkpt>
<trkpt lat="42.35593" lon="2.93745"><ele>92</ele></trkpt>
<trkpt lat="42.35576" lon="2.93764"><ele>90</ele></trkpt>
<trkpt lat="42.35553" lon="2.93816"><ele>86</ele></trkpt>
<trkpt lat="42.35553" lon="2.93826"><ele>84</ele></trkpt>
<trkpt lat="42.35560" lon="2.93849"><ele>84</ele></trkpt>
<trkpt lat="42.35559" lon="2.93867"><ele>83</ele></trkpt>
<trkpt lat="42.35554" lon="2.93884"><ele>80</ele></trkpt>
<trkpt lat="42.35546" lon="2.93896"><ele>79</ele></trkpt>
<trkpt lat="42.35527" lon="2.93905"><ele>78</ele></trkpt>
<trkpt lat="42.35462" lon="2.93911"><ele>68</ele></trkpt>
<trkpt lat="42.35454" lon="2.93915"><ele>67</ele></trkpt>
<trkpt lat="42.35439" lon="2.93942"><ele>65</ele></trkpt>
<trkpt lat="42.35431" lon="2.93948"><ele>64</ele></trkpt>
<trkpt lat="42.35393" lon="2.93956"><ele>62</ele></trkpt>
<trkpt lat="42.35367" lon="2.93946"><ele>62</ele></trkpt>
<trkpt lat="42.35359" lon="2.93937"><ele>62</ele></trkpt>
<trkpt lat="42.35349" lon="2.93934"><ele>62</ele></trkpt>
<trkpt lat="42.35335" lon="2.93939"><ele>61</ele></trkpt>
<trkpt lat="42.35299" lon="2.93934"><ele>60</ele></trkpt>
<trkpt lat="42.35230" lon="2.93980"><ele>56</ele></trkpt>
<trkpt lat="42.35195" lon="2.93987"><ele>58</ele></trkpt>
<trkpt lat="42.35172" lon="2.94013"><ele>57</ele></trkpt>
<trkpt lat="42.35103" lon="2.94168"><ele>56</ele></trkpt>
<trkpt lat="42.35094" lon="2.94196"><ele>56</ele></trkpt>
<trkpt lat="42.35092" lon="2.94215"><ele>56</ele></trkpt>
<trkpt lat="42.35093" lon="2.94226"><ele>56</ele></trkpt>
<trkpt lat="42.35109" lon="2.94253"><ele>57</ele></trkpt>
<trkpt lat="42.35110" lon="2.94260"><ele>58</ele></trkpt>
<trkpt lat="42.35109" lon="2.94268"><ele>58</ele></trkpt>
<trkpt lat="42.35089" lon="2.94289"><ele>58</ele></trkpt>
<trkpt lat="42.35064" lon="2.94330"><ele>58</ele></trkpt>
<trkpt lat="42.35040" lon="2.94359"><ele>58</ele></trkpt>
<trkpt lat="42.34994" lon="2.94402"><ele>60</ele></trkpt>
<trkpt lat="42.34967" lon="2.94447"><ele>63</ele></trkpt>
<trkpt lat="42.34927" lon="2.94498"><ele>62</ele></trkpt>
<trkpt lat="42.34883" lon="2.94540"><ele>60</ele></trkpt>
<trkpt lat="42.34838" lon="2.94572"><ele>60</ele></trkpt>
<trkpt lat="42.34803" lon="2.94588"><ele>60</ele></trkpt>
<trkpt lat="42.34780" lon="2.94594"><ele>59</ele></trkpt>
<trkpt lat="42.34767" lon="2.94607"><ele>59</ele></trkpt>
<trkpt lat="42.34735" lon="2.94627"><ele>59</ele></trkpt>
<trkpt lat="42.34636" lon="2.94700"><ele>64</ele></trkpt>
<trkpt lat="42.34575" lon="2.94757"><ele>63</ele></trkpt>
<trkpt lat="42.34563" lon="2.94780"><ele>60</ele></trkpt>
<trkpt lat="42.34541" lon="2.94783"><ele>59</ele></trkpt>
<trkpt lat="42.34472" lon="2.94824"><ele>52</ele></trkpt>
<trkpt lat="42.34361" lon="2.94910"><ele>48</ele></trkpt>
<trkpt lat="42.34343" lon="2.94931"><ele>47</ele></trkpt>
<trkpt lat="42.34325" lon="2.94945"><ele>47</ele></trkpt>
<trkpt lat="42.34280" lon="2.94963"><ele>48</ele></trkpt>
<trkpt lat="42.34262" lon="2.94975"><ele>48</ele></trkpt>
<trkpt lat="42.34254" lon="2.94986"><ele>48</ele></trkpt>
<trkpt lat="42.34233" lon="2.94983"><ele>45</ele></trkpt>
<trkpt lat="42.34201" lon="2.94994"><ele>43</ele></trkpt>
<trkpt lat="42.34182" lon="2.95012"><ele>43</ele></trkpt>
<trkpt lat="42.34176" lon="2.95025"><ele>42</ele></trkpt>
<trkpt lat="42.34173" lon="2.95053"><ele>42</ele></trkpt>
<trkpt lat="42.34168" lon="2.95070"><ele>43</ele></trkpt>
<trkpt lat="42.34116" lon="2.95128"><ele>41</ele></trkpt>
<trkpt lat="42.34095" lon="2.95162"><ele>40</ele></trkpt>
<trkpt lat="42.34020" lon="2.95070"><ele>38</ele></trkpt>
<trkpt lat="42.33868" lon="2.94914"><ele>39</ele></trkpt>
<trkpt lat="42.33808" lon="2.94807"><ele>39</ele></trkpt>
<trkpt lat="42.33764" lon="2.94760"><ele>38</ele></trkpt>
<trkpt lat="42.33709" lon="2.94728"><ele>37</ele></trkpt>
<trkpt lat="42.33356" lon="2.94557"><ele>39</ele></trkpt>
<trkpt lat="42.33310" lon="2.94528"><ele>40</ele></trkpt>
<trkpt lat="42.33269" lon="2.94494"><ele>40</ele></trkpt>
<trkpt lat="42.33241" lon="2.94464"><ele>40</ele></trkpt>
<trkpt lat="42.33213" lon="2.94428"><ele>38</ele></trkpt>
<trkpt lat="42.32785" lon="2.93869"><ele>41</ele></trkpt>
<trkpt lat="42.32660" lon="2.93651"><ele>44</ele></trkpt>
<trkpt lat="42.32630" lon="2.93606"><ele>44</ele></trkpt>
<trkpt lat="42.32598" lon="2.93576"><ele>42</ele></trkpt>
<trkpt lat="42.32549" lon="2.93547"><ele>42</ele></trkpt>
<trkpt lat="42.32482" lon="2.93514"><ele>42</ele></trkpt>
<trkpt lat="42.32476" lon="2.93530"><ele>42</ele></trkpt>
<trkpt lat="42.32458" lon="2.93516"><ele>42</ele></trkpt>
<trkpt lat="42.32447" lon="2.93518"><ele>42</ele></trkpt>
<trkpt lat="42.32412" lon="2.93539"><ele>42</ele></trkpt>
<trkpt lat="42.31989" lon="2.93885"><ele>44</ele></trkpt>
<trkpt lat="42.31660" lon="2.94169"><ele>42</ele></trkpt>
<trkpt lat="42.31651" lon="2.94167"><ele>42</ele></trkpt>
<trkpt lat="42.31646" lon="2.94151"><ele>42</ele></trkpt>
<trkpt lat="42.31643" lon="2.93892"><ele>43</ele></trkpt>
<trkpt lat="42.31629" lon="2.93887"><ele>43</ele></trkpt>
<trkpt lat="42.31600" lon="2.93853"><ele>43</ele></trkpt>
<trkpt lat="42.31555" lon="2.93808"><ele>43</ele></trkpt>
<trkpt lat="42.31550" lon="2.93825"><ele>42</ele></trkpt>
<trkpt lat="42.31531" lon="2.93845"><ele>40</ele></trkpt>
<trkpt lat="42.31429" lon="2.93981"><ele>40</ele></trkpt>
<trkpt lat="42.31394" lon="2.94010"><ele>38</ele></trkpt>
<trkpt lat="42.31365" lon="2.94029"><ele>38</ele></trkpt>
<trkpt lat="42.31332" lon="2.94038"><ele>36</ele></trkpt>
<trkpt lat="42.31285" lon="2.94056"><ele>37</ele></trkpt>
<trkpt lat="42.31250" lon="2.94081"><ele>37</ele></trkpt>
<trkpt lat="42.31095" lon="2.94068"><ele>36</ele></trkpt>
<trkpt lat="42.31087" lon="2.94075"><ele>36</ele></trkpt>
<trkpt lat="42.31077" lon="2.94181"><ele>36</ele></trkpt>
<trkpt lat="42.31068" lon="2.94241"><ele>36</ele></trkpt>
<trkpt lat="42.31043" lon="2.94332"><ele>36</ele></trkpt>
<trkpt lat="42.31009" lon="2.94400"><ele>36</ele></trkpt>
<trkpt lat="42.30960" lon="2.94446"><ele>36</ele></trkpt>
<trkpt lat="42.30902" lon="2.94486"><ele>35</ele></trkpt>
<trkpt lat="42.30861" lon="2.94526"><ele>36</ele></trkpt>
<trkpt lat="42.30826" lon="2.94533"><ele>35</ele></trkpt>
<trkpt lat="42.30760" lon="2.94525"><ele>35</ele></trkpt>
<trkpt lat="42.30678" lon="2.94529"><ele>35</ele></trkpt>
<trkpt lat="42.30592" lon="2.94525"><ele>35</ele></trkpt>
<trkpt lat="42.30529" lon="2.94527"><ele>34</ele></trkpt>
<trkpt lat="42.30452" lon="2.94515"><ele>34</ele></trkpt>
<trkpt lat="42.30443" lon="2.94519"><ele>34</ele></trkpt>
<trkpt lat="42.30435" lon="2.94579"><ele>34</ele></trkpt>
<trkpt lat="42.30451" lon="2.94599"><ele>34</ele></trkpt>
<trkpt lat="42.30468" lon="2.94609"><ele>34</ele></trkpt>
<trkpt lat="42.30580" lon="2.94630"><ele>36</ele></trkpt>
<trkpt lat="42.30591" lon="2.94636"><ele>36</ele></trkpt>
<trkpt lat="42.30597" lon="2.94652"><ele>35</ele></trkpt>
<trkpt lat="42.30615" lon="2.94810"><ele>34</ele></trkpt>
<trkpt lat="42.30613" lon="2.94836"><ele>34</ele></trkpt>
<trkpt lat="42.30596" lon="2.94940"><ele>33</ele></trkpt>
<trkpt lat="42.30594" lon="2.95001"><ele>32</ele></trkpt>
<trkpt lat="42.30595" lon="2.95062"><ele>33</ele></trkpt>
<trkpt lat="42.30488" lon="2.95084"><ele>32</ele></trkpt>
<trkpt lat="42.30416" lon="2.95065"><ele>32</ele></trkpt>
<trkpt lat="42.30407" lon="2.95065"><ele>32</ele></trkpt>
<trkpt lat="42.30396" lon="2.95072"><ele>32</ele></trkpt>
<trkpt lat="42.30276" lon="2.95282"><ele>27</ele></trkpt>
<trkpt lat="42.30262" lon="2.95314"><ele>28</ele></trkpt>
<trkpt lat="42.30259" lon="2.95332"><ele>28</ele></trkpt>
<trkpt lat="42.30224" lon="2.95371"><ele>30</ele></trkpt>
<trkpt lat="42.30108" lon="2.95429"><ele>30</ele></trkpt>
<trkpt lat="42.29984" lon="2.95508"><ele>30</ele></trkpt>
<trkpt lat="42.29738" lon="2.95655"><ele>33</ele></trkpt>
<trkpt lat="42.29707" lon="2.95544"><ele>33</ele></trkpt>
<trkpt lat="42.29657" lon="2.95412"><ele>34</ele></trkpt>
<trkpt lat="42.29624" lon="2.95351"><ele>34</ele></trkpt>
<trkpt lat="42.29570" lon="2.95233"><ele>35</ele></trkpt>
<trkpt lat="42.29549" lon="2.95236"><ele>34</ele></trkpt>
<trkpt lat="42.29415" lon="2.95266"><ele>33</ele></trkpt>
<trkpt lat="42.29368" lon="2.95301"><ele>34</ele></trkpt>
<trkpt lat="42.29191" lon="2.95360"><ele>32</ele></trkpt>
<trkpt lat="42.29104" lon="2.95353"><ele>32</ele></trkpt>
<trkpt lat="42.29060" lon="2.95330"><ele>32</ele></trkpt>
<trkpt lat="42.29021" lon="2.95332"><ele>33</ele></trkpt>
<trkpt lat="42.28995" lon="2.95323"><ele>34</ele></trkpt>
<trkpt lat="42.28975" lon="2.95345"><ele>33</ele></trkpt>
<trkpt lat="42.28948" lon="2.95365"><ele>32</ele></trkpt>
<trkpt lat="42.28826" lon="2.95437"><ele>31</ele></trkpt>
<trkpt lat="42.28812" lon="2.95440"><ele>31</ele></trkpt>
<trkpt lat="42.28800" lon="2.95431"><ele>31</ele></trkpt>
<trkpt lat="42.28789" lon="2.95417"><ele>31</ele></trkpt>
<trkpt lat="42.28781" lon="2.95395"><ele>32</ele></trkpt>
<trkpt lat="42.28769" lon="2.95395"><ele>32</ele></trkpt>
<trkpt lat="42.28694" lon="2.95442"><ele>31</ele></trkpt>
<trkpt lat="42.28604" lon="2.95510"><ele>30</ele></trkpt>
<trkpt lat="42.28486" lon="2.95567"><ele>30</ele></trkpt>
<trkpt lat="42.28433" lon="2.95574"><ele>29</ele></trkpt>
<trkpt lat="42.28407" lon="2.95582"><ele>29</ele></trkpt>
<trkpt lat="42.28320" lon="2.95619"><ele>29</ele></trkpt>
<trkpt lat="42.28312" lon="2.95627"><ele>28</ele></trkpt>
<trkpt lat="42.28236" lon="2.95572"><ele>28</ele></trkpt>
<trkpt lat="42.28157" lon="2.95528"><ele>28</ele></trkpt>
<trkpt lat="42.28122" lon="2.95503"><ele>28</ele></trkpt>
<trkpt lat="42.28151" lon="2.95875"><ele>26</ele></trkpt>
<trkpt lat="42.27857" lon="2.96059"><ele>25</ele></trkpt>
<trkpt lat="42.27853" lon="2.96044"><ele>25</ele></trkpt>
<trkpt lat="42.27770" lon="2.96087"><ele>24</ele></trkpt>
<trkpt lat="42.27596" lon="2.96150"><ele>24</ele></trkpt>
<trkpt lat="42.27554" lon="2.96154"><ele>24</ele></trkpt>
<trkpt lat="42.27515" lon="2.96164"><ele>24</ele></trkpt>
<trkpt lat="42.27475" lon="2.96185"><ele>24</ele></trkpt>
<trkpt lat="42.27455" lon="2.96203"><ele>24</ele></trkpt>
<trkpt lat="42.27410" lon="2.96129"><ele>25</ele></trkpt>
<trkpt lat="42.27393" lon="2.96143"><ele>25</ele></trkpt>
<trkpt lat="42.27222" lon="2.96226"><ele>28</ele></trkpt>
<trkpt lat="42.27058" lon="2.96199"><ele>32</ele></trkpt>
<trkpt lat="42.27074" lon="2.96143"><ele>32</ele></trkpt>
<trkpt lat="42.26850" lon="2.96115"><ele>34</ele></trkpt>
<trkpt lat="42.26848" lon="2.96211"><ele>33</ele></trkpt>
<trkpt lat="42.26828" lon="2.96253"><ele>33</ele></trkpt>
<trkpt lat="42.26853" lon="2.96279"><ele>33</ele></trkpt>
<trkpt lat="42.26753" lon="2.96326"><ele>33</ele></trkpt>
<trkpt lat="42.26715" lon="2.96348"><ele>32</ele></trkpt>
<trkpt lat="42.26673" lon="2.96251"><ele>33</ele></trkpt>
<trkpt lat="42.26656" lon="2.96180"><ele>34</ele></trkpt>
<trkpt lat="42.26627" lon="2.96192"><ele>34</ele></trkpt>
<trkpt lat="42.26619" lon="2.96145"><ele>35</ele></trkpt>
<trkpt lat="42.26624" lon="2.96143"><ele>35</ele></trkpt>
<trkpt lat="42.26630" lon="2.96190"><ele>34</ele></trkpt>
<trkpt lat="42.26649" lon="2.96266"><ele>33</ele></trkpt>
<trkpt lat="42.26714" lon="2.96413"><ele>32</ele></trkpt>
<trkpt lat="42.26715" lon="2.96422"><ele>32</ele></trkpt>
<trkpt lat="42.26680" lon="2.96440"><ele>32</ele></trkpt>
<trkpt lat="42.26733" lon="2.96750"><ele>29</ele></trkpt>
<trkpt lat="42.26636" lon="2.96786"><ele>29</ele></trkpt>
<trkpt lat="42.26644" lon="2.97034"><ele>27</ele></trkpt>
<trkpt lat="42.26411" lon="2.97079"><ele>25</ele></trkpt>
<trkpt lat="42.26416" lon="2.97167"><ele>25</ele></trkpt>
<trkpt lat="42.26436" lon="2.97267"><ele>24</ele></trkpt>
<trkpt lat="42.26464" lon="2.97525"><ele>22</ele></trkpt>
<trkpt lat="42.26492" lon="2.97693"><ele>20</ele></trkpt>
<trkpt lat="42.26497" lon="2.97693"><ele>21</ele></trkpt>
<trkpt lat="42.26501" lon="2.97715"><ele>21</ele></trkpt>
<trkpt lat="42.26512" lon="2.97717"><ele>21</ele></trkpt>
<trkpt lat="42.26642" lon="2.97711"><ele>20</ele></trkpt>
<trkpt lat="42.26655" lon="2.97667"><ele>20</ele></trkpt>
<trkpt lat="42.26671" lon="2.97663"><ele>20</ele></trkpt>
<trkpt lat="42.26672" lon="2.97678"><ele>20</ele></trkpt>
<trkpt lat="42.26694" lon="2.97710"><ele>20</ele></trkpt>
<trkpt lat="42.26703" lon="2.97710"><ele>20</ele></trkpt>
<trkpt lat="42.26704" lon="2.97730"><ele>20</ele></trkpt>
<trkpt lat="42.26938" lon="2.97736"><ele>20</ele></trkpt>
<trkpt lat="42.26949" lon="2.97748"><ele>20</ele></trkpt>
<trkpt lat="42.26950" lon="2.97757"><ele>20</ele></trkpt>
<trkpt lat="42.26956" lon="2.97761"><ele>20</ele></trkpt>
<trkpt lat="42.26937" lon="2.97825"><ele>19</ele></trkpt>
<trkpt lat="42.26914" lon="2.98138"><ele>18</ele></trkpt>
<trkpt lat="42.26918" lon="2.98265"><ele>18</ele></trkpt>
<trkpt lat="42.26940" lon="2.98675"><ele>17</ele></trkpt>
<trkpt lat="42.26939" lon="2.98693"><ele>17</ele></trkpt>
<trkpt lat="42.26923" lon="2.98737"><ele>18</ele></trkpt>
<trkpt lat="42.26922" lon="2.98760"><ele>18</ele></trkpt>
<trkpt lat="42.27023" lon="2.99050"><ele>17</ele></trkpt>
<trkpt lat="42.27033" lon="2.99133"><ele>17</ele></trkpt>
<trkpt lat="42.27052" lon="2.99216"><ele>17</ele></trkpt>
<trkpt lat="42.27043" lon="2.99275"><ele>17</ele></trkpt>
<trkpt lat="42.27052" lon="2.99276"><ele>17</ele></trkpt>
<trkpt lat="42.27082" lon="2.99325"><ele>17</ele></trkpt>
<trkpt lat="42.27087" lon="2.99339"><ele>17</ele></trkpt>
<trkpt lat="42.27086" lon="2.99366"><ele>17</ele></trkpt>
<trkpt lat="42.27090" lon="2.99379"><ele>17</ele></trkpt>
<trkpt lat="42.27115" lon="2.99453"><ele>17</ele></trkpt>
<trkpt lat="42.27141" lon="2.99513"><ele>16</ele></trkpt>
<trkpt lat="42.27146" lon="2.99533"><ele>16</ele></trkpt>
<trkpt lat="42.27127" lon="2.99572"><ele>16</ele></trkpt>
<trkpt lat="42.27183" lon="2.99738"><ele>16</ele></trkpt>
<trkpt lat="42.27188" lon="2.99771"><ele>16</ele></trkpt>
<trkpt lat="42.27198" lon="2.99892"><ele>16</ele></trkpt>
<trkpt lat="42.27199" lon="2.99998"><ele>16</ele></trkpt>
<trkpt lat="42.27184" lon="3.00217"><ele>16</ele></trkpt>
<trkpt lat="42.27184" lon="3.00363"><ele>17</ele></trkpt>
<trkpt lat="42.27164" lon="3.00538"><ele>16</ele></trkpt>
<trkpt lat="42.27164" lon="3.00589"><ele>17</ele></trkpt>
<trkpt lat="42.27206" lon="3.00806"><ele>16</ele></trkpt>
<trkpt lat="42.27216" lon="3.00840"><ele>16</ele></trkpt>
<trkpt lat="42.27296" lon="3.01023"><ele>15</ele></trkpt>
<trkpt lat="42.27296" lon="3.01042"><ele>15</ele></trkpt>
<trkpt lat="42.27293" lon="3.01065"><ele>15</ele></trkpt>
<trkpt lat="42.27268" lon="3.01174"><ele>15</ele></trkpt>
<trkpt lat="42.27268" lon="3.01204"><ele>15</ele></trkpt>
<trkpt lat="42.27281" lon="3.01299"><ele>15</ele></trkpt>
<trkpt lat="42.27289" lon="3.01339"><ele>15</ele></trkpt>
<trkpt lat="42.27336" lon="3.01428"><ele>14</ele></trkpt>
<trkpt lat="42.27399" lon="3.01541"><ele>14</ele></trkpt>
<trkpt lat="42.27606" lon="3.01863"><ele>14</ele></trkpt>
<trkpt lat="42.27615" lon="3.01886"><ele>14</ele></trkpt>
<trkpt lat="42.27598" lon="3.02705"><ele>14</ele></trkpt>
<trkpt lat="42.27599" lon="3.02730"><ele>14</ele></trkpt>
<trkpt lat="42.27605" lon="3.02765"><ele>14</ele></trkpt>
<trkpt lat="42.27652" lon="3.02882"><ele>14</ele></trkpt>
<trkpt lat="42.27683" lon="3.02968"><ele>14</ele></trkpt>
<trkpt lat="42.27860" lon="3.03488"><ele>12</ele></trkpt>
<trkpt lat="42.27880" lon="3.03519"><ele>12</ele></trkpt>
<trkpt lat="42.27899" lon="3.03559"><ele>12</ele></trkpt>
<trkpt lat="42.28033" lon="3.03962"><ele>12</ele></trkpt>
<trkpt lat="42.28031" lon="3.03973"><ele>13</ele></trkpt>
<trkpt lat="42.28026" lon="3.03981"><ele>13</ele></trkpt>
<trkpt lat="42.27897" lon="3.04087"><ele>13</ele></trkpt>
<trkpt lat="42.27800" lon="3.04145"><ele>12</ele></trkpt>
<trkpt lat="42.27703" lon="3.04254"><ele>12</ele></trkpt>
<trkpt lat="42.27678" lon="3.04272"><ele>11</ele></trkpt>
<trkpt lat="42.27598" lon="3.04310"><ele>9</ele></trkpt>
<trkpt lat="42.27580" lon="3.04325"><ele>8</ele></trkpt>
<trkpt lat="42.27578" lon="3.04332"><ele>8</ele></trkpt>
<trkpt lat="42.27607" lon="3.04383"><ele>8</ele></trkpt>
<trkpt lat="42.27615" lon="3.04381"><ele>9</ele></trkpt>
<trkpt lat="42.27642" lon="3.04361"><ele>10</ele></trkpt>
<trkpt lat="42.27704" lon="3.04341"><ele>11</ele></trkpt>
<trkpt lat="42.27719" lon="3.04341"><ele>11</ele></trkpt>
<trkpt lat="42.27728" lon="3.04347"><ele>12</ele></trkpt>
<trkpt lat="42.27750" lon="3.04372"><ele>13</ele></trkpt>
<trkpt lat="42.27760" lon="3.04378"><ele>13</ele></trkpt>
<trkpt lat="42.27802" lon="3.04379"><ele>14</ele></trkpt>
<trkpt lat="42.27860" lon="3.04412"><ele>12</ele></trkpt>
<trkpt lat="42.27871" lon="3.04423"><ele>12</ele></trkpt>
<trkpt lat="42.27922" lon="3.04407"><ele>12</ele></trkpt>
<trkpt lat="42.28026" lon="3.04384"><ele>12</ele></trkpt>
<trkpt lat="42.28037" lon="3.04408"><ele>12</ele></trkpt>
<trkpt lat="42.28052" lon="3.04422"><ele>12</ele></trkpt>
<trkpt lat="42.28075" lon="3.04429"><ele>12</ele></trkpt>
<trkpt lat="42.28130" lon="3.04431"><ele>12</ele></trkpt>
<trkpt lat="42.28377" lon="3.04460"><ele>11</ele></trkpt>
<trkpt lat="42.28474" lon="3.04478"><ele>11</ele></trkpt>
<trkpt lat="42.28511" lon="3.04504"><ele>11</ele></trkpt>
<trkpt lat="42.28606" lon="3.04582"><ele>12</ele></trkpt>
<trkpt lat="42.28638" lon="3.04619"><ele>12</ele></trkpt>
<trkpt lat="42.28714" lon="3.04724"><ele>12</ele></trkpt>
<trkpt lat="42.28715" lon="3.04763"><ele>13</ele></trkpt>
<trkpt lat="42.28703" lon="3.04838"><ele>13</ele></trkpt>
<trkpt lat="42.28667" lon="3.04954"><ele>14</ele></trkpt>
<trkpt lat="42.28668" lon="3.04971"><ele>15</ele></trkpt>
<trkpt lat="42.28780" lon="3.05180"><ele>22</ele></trkpt>
<trkpt lat="42.28846" lon="3.05274"><ele>23</ele></trkpt>
<trkpt lat="42.28932" lon="3.05474"><ele>23</ele></trkpt>
<trkpt lat="42.28935" lon="3.05495"><ele>23</ele></trkpt>
<trkpt lat="42.28934" lon="3.05513"><ele>22</ele></trkpt>
<trkpt lat="42.28920" lon="3.05607"><ele>24</ele></trkpt>
<trkpt lat="42.28913" lon="3.05681"><ele>25</ele></trkpt>
<trkpt lat="42.28918" lon="3.05728"><ele>25</ele></trkpt>
<trkpt lat="42.28964" lon="3.05901"><ele>20</ele></trkpt>
<trkpt lat="42.28974" lon="3.06006"><ele>16</ele></trkpt>
<trkpt lat="42.28923" lon="3.06045"><ele>16</ele></trkpt>
<trkpt lat="42.28789" lon="3.06115"><ele>16</ele></trkpt>
<trkpt lat="42.28829" lon="3.06143"><ele>15</ele></trkpt>
<trkpt lat="42.28841" lon="3.06158"><ele>15</ele></trkpt>
<trkpt lat="42.28857" lon="3.06199"><ele>14</ele></trkpt>
<trkpt lat="42.28879" lon="3.06282"><ele>12</ele></trkpt>
<trkpt lat="42.28887" lon="3.06295"><ele>12</ele></trkpt>
<trkpt lat="42.28900" lon="3.06306"><ele>12</ele></trkpt>
<trkpt lat="42.28950" lon="3.06329"><ele>12</ele></trkpt>
<trkpt lat="42.28971" lon="3.06349"><ele>12</ele></trkpt>
<trkpt lat="42.28985" lon="3.06375"><ele>12</ele></trkpt>
<trkpt lat="42.28990" lon="3.06399"><ele>12</ele></trkpt>
<trkpt lat="42.28975" lon="3.06542"><ele>12</ele></trkpt>
<trkpt lat="42.28975" lon="3.06565"><ele>12</ele></trkpt>
<trkpt lat="42.28983" lon="3.06662"><ele>14</ele></trkpt>
<trkpt lat="42.28988" lon="3.06703"><ele>14</ele></trkpt>
<trkpt lat="42.29000" lon="3.06749"><ele>15</ele></trkpt>
<trkpt lat="42.29037" lon="3.06842"><ele>19</ele></trkpt>
<trkpt lat="42.29074" lon="3.06990"><ele>27</ele></trkpt>
<trkpt lat="42.29125" lon="3.07152"><ele>22</ele></trkpt>
<trkpt lat="42.29229" lon="3.07336"><ele>17</ele></trkpt>
<trkpt lat="42.29247" lon="3.07374"><ele>18</ele></trkpt>
<trkpt lat="42.29350" lon="3.07612"><ele>11</ele></trkpt>
<trkpt lat="42.29359" lon="3.07649"><ele>10</ele></trkpt>
<trkpt lat="42.29361" lon="3.07688"><ele>8</ele></trkpt>
<trkpt lat="42.29318" lon="3.07854"><ele>6</ele></trkpt>
<trkpt lat="42.29252" lon="3.07843"><ele>7</ele></trkpt>
<trkpt lat="42.29231" lon="3.07821"><ele>7</ele></trkpt>
<trkpt lat="42.29115" lon="3.07638"><ele>11</ele></trkpt>
<trkpt lat="42.29087" lon="3.07602"><ele>12</ele></trkpt>
<trkpt lat="42.29064" lon="3.07583"><ele>12</ele></trkpt>
<trkpt lat="42.28979" lon="3.07526"><ele>12</ele></trkpt>
<trkpt lat="42.28880" lon="3.07482"><ele>12</ele></trkpt>
<trkpt lat="42.28780" lon="3.07448"><ele>10</ele></trkpt>
<trkpt lat="42.28603" lon="3.07410"><ele>8</ele></trkpt>
<trkpt lat="42.28727" lon="3.07523"><ele>8</ele></trkpt>
<trkpt lat="42.28816" lon="3.07595"><ele>10</ele></trkpt>
<trkpt lat="42.28839" lon="3.07622"><ele>10</ele></trkpt>
<trkpt lat="42.28857" lon="3.07661"><ele>11</ele></trkpt>
<trkpt lat="42.28924" lon="3.07876"><ele>8</ele></trkpt>
<trkpt lat="42.28932" lon="3.07926"><ele>8</ele></trkpt>
<trkpt lat="42.28932" lon="3.07973"><ele>8</ele></trkpt>
<trkpt lat="42.28927" lon="3.08019"><ele>6</ele></trkpt>
<trkpt lat="42.28929" lon="3.08089"><ele>5</ele></trkpt>
<trkpt lat="42.28935" lon="3.08160"><ele>4</ele></trkpt>
<trkpt lat="42.28961" lon="3.08288"><ele>4</ele></trkpt>
<trkpt lat="42.29020" lon="3.08462"><ele>3</ele></trkpt>
<trkpt lat="42.29086" lon="3.08561"><ele>4</ele></trkpt>
<trkpt lat="42.29158" lon="3.08711"><ele>4</ele></trkpt>
<trkpt lat="42.29190" lon="3.08763"><ele>4</ele></trkpt>
<trkpt lat="42.29219" lon="3.08790"><ele>4</ele></trkpt>
<trkpt lat="42.29273" lon="3.08819"><ele>4</ele></trkpt>
<trkpt lat="42.29355" lon="3.08854"><ele>4</ele></trkpt>
<trkpt lat="42.29409" lon="3.08869"><ele>5</ele></trkpt>
<trkpt lat="42.29420" lon="3.08881"><ele>4</ele></trkpt>
<trkpt lat="42.29516" lon="3.09204"><ele>4</ele></trkpt>
<trkpt lat="42.29582" lon="3.09377"><ele>3</ele></trkpt>
<trkpt lat="42.29615" lon="3.09432"><ele>3</ele></trkpt>
<trkpt lat="42.29716" lon="3.09581"><ele>3</ele></trkpt>
<trkpt lat="42.29793" lon="3.09736"><ele>3</ele></trkpt>
<trkpt lat="42.29804" lon="3.09787"><ele>4</ele></trkpt>
<trkpt lat="42.29795" lon="3.09856"><ele>5</ele></trkpt>
<trkpt lat="42.29754" lon="3.10025"><ele>6</ele></trkpt>
<trkpt lat="42.29749" lon="3.10070"><ele>6</ele></trkpt>
<trkpt lat="42.29749" lon="3.10091"><ele>6</ele></trkpt>
<trkpt lat="42.29758" lon="3.10119"><ele>6</ele></trkpt>
<trkpt lat="42.29814" lon="3.10268"><ele>4</ele></trkpt>
<trkpt lat="42.29797" lon="3.10491"><ele>4</ele></trkpt>
<trkpt lat="42.29758" lon="3.10751"><ele>5</ele></trkpt>
<trkpt lat="42.29687" lon="3.10983"><ele>6</ele></trkpt>
<trkpt lat="42.29651" lon="3.11115"><ele>8</ele></trkpt>
<trkpt lat="42.29632" lon="3.11124"><ele>8</ele></trkpt>
<trkpt lat="42.29600" lon="3.11130"><ele>7</ele></trkpt>
<trkpt lat="42.29542" lon="3.11167"><ele>6</ele></trkpt>
<trkpt lat="42.29514" lon="3.11194"><ele>5</ele></trkpt>
<trkpt lat="42.29272" lon="3.11349"><ele>6</ele></trkpt>
<trkpt lat="42.29234" lon="3.11370"><ele>6</ele></trkpt>
<trkpt lat="42.29210" lon="3.11378"><ele>6</ele></trkpt>
<trkpt lat="42.29115" lon="3.11456"><ele>4</ele></trkpt>
<trkpt lat="42.29042" lon="3.11525"><ele>4</ele></trkpt>
<trkpt lat="42.29005" lon="3.11565"><ele>4</ele></trkpt>
<trkpt lat="42.28990" lon="3.11585"><ele>4</ele></trkpt>
<trkpt lat="42.28971" lon="3.11651"><ele>4</ele></trkpt>
<trkpt lat="42.28952" lon="3.11687"><ele>4</ele></trkpt>
<trkpt lat="42.28920" lon="3.11730"><ele>4</ele></trkpt>
<trkpt lat="42.28885" lon="3.11801"><ele>5</ele></trkpt>
<trkpt lat="42.28871" lon="3.11838"><ele>5</ele></trkpt>
<trkpt lat="42.28865" lon="3.11894"><ele>5</ele></trkpt>
<trkpt lat="42.28849" lon="3.11956"><ele>6</ele></trkpt>
<trkpt lat="42.28820" lon="3.12019"><ele>5</ele></trkpt>
<trkpt lat="42.28822" lon="3.12072"><ele>5</ele></trkpt>
<trkpt lat="42.28744" lon="3.12212"><ele>6</ele></trkpt>
<trkpt lat="42.28776" lon="3.12248"><ele>6</ele></trkpt>
<trkpt lat="42.28737" lon="3.12268"><ele>7</ele></trkpt>
<trkpt lat="42.28654" lon="3.12339"><ele>6</ele></trkpt>
<trkpt lat="42.28634" lon="3.12380"><ele>5</ele></trkpt>
<trkpt lat="42.28542" lon="3.12593"><ele>3</ele></trkpt>
<trkpt lat="42.28530" lon="3.12685"><ele>4</ele></trkpt>
<trkpt lat="42.28514" lon="3.12770"><ele>4</ele></trkpt>
<trkpt lat="42.28464" lon="3.12907"><ele>4</ele></trkpt>
<trkpt lat="42.28457" lon="3.12992"><ele>4</ele></trkpt>
<trkpt lat="42.28456" lon="3.13125"><ele>4</ele></trkpt>
<trkpt lat="42.28464" lon="3.13244"><ele>6</ele></trkpt>
<trkpt lat="42.28427" lon="3.13380"><ele>6</ele></trkpt>
<trkpt lat="42.28370" lon="3.13534"><ele>8</ele></trkpt>
<trkpt lat="42.28362" lon="3.13563"><ele>7</ele></trkpt>
<trkpt lat="42.28335" lon="3.13680"><ele>7</ele></trkpt>
<trkpt lat="42.28326" lon="3.13793"><ele>8</ele></trkpt>
<trkpt lat="42.28320" lon="3.13817"><ele>8</ele></trkpt>
<trkpt lat="42.28252" lon="3.13925"><ele>8</ele></trkpt>
<trkpt lat="42.28149" lon="3.14070"><ele>12</ele></trkpt>
<trkpt lat="42.28048" lon="3.14183"><ele>13</ele></trkpt>
<trkpt lat="42.27943" lon="3.14332"><ele>16</ele></trkpt>
<trkpt lat="42.27957" lon="3.14335"><ele>16</ele></trkpt>
<trkpt lat="42.28076" lon="3.14418"><ele>19</ele></trkpt>
<trkpt lat="42.28096" lon="3.14423"><ele>18</ele></trkpt>
<trkpt lat="42.28221" lon="3.14483"><ele>18</ele></trkpt>
<trkpt lat="42.28231" lon="3.14497"><ele>18</ele></trkpt>
<trkpt lat="42.28234" lon="3.14520"><ele>18</ele></trkpt>
<trkpt lat="42.28223" lon="3.14590"><ele>19</ele></trkpt>
<trkpt lat="42.28225" lon="3.14607"><ele>18</ele></trkpt>
<trkpt lat="42.28198" lon="3.14737"><ele>17</ele></trkpt>
<trkpt lat="42.28199" lon="3.14745"><ele>17</ele></trkpt>
<trkpt lat="42.28169" lon="3.14957"><ele>18</ele></trkpt>
<trkpt lat="42.28173" lon="3.15078"><ele>19</ele></trkpt>
<trkpt lat="42.28183" lon="3.15200"><ele>20</ele></trkpt>
<trkpt lat="42.28183" lon="3.15224"><ele>21</ele></trkpt>
<trkpt lat="42.28193" lon="3.15292"><ele>22</ele></trkpt>
<trkpt lat="42.28195" lon="3.15351"><ele>24</ele></trkpt>
<trkpt lat="42.28184" lon="3.15444"><ele>24</ele></trkpt>
<trkpt lat="42.28159" lon="3.15533"><ele>22</ele></trkpt>
<trkpt lat="42.28126" lon="3.15582"><ele>21</ele></trkpt>
<trkpt lat="42.28111" lon="3.15614"><ele>20</ele></trkpt>
<trkpt lat="42.28087" lon="3.15693"><ele>20</ele></trkpt>
<trkpt lat="42.28075" lon="3.15751"><ele>20</ele></trkpt>
<trkpt lat="42.28077" lon="3.15802"><ele>19</ele></trkpt>
<trkpt lat="42.28066" lon="3.15833"><ele>19</ele></trkpt>
<trkpt lat="42.28026" lon="3.15902"><ele>19</ele></trkpt>
<trkpt lat="42.27915" lon="3.16038"><ele>19</ele></trkpt>
<trkpt lat="42.27857" lon="3.16079"><ele>20</ele></trkpt>
<trkpt lat="42.27802" lon="3.16127"><ele>19</ele></trkpt>
<trkpt lat="42.27744" lon="3.16151"><ele>18</ele></trkpt>
<trkpt lat="42.27649" lon="3.16180"><ele>15</ele></trkpt>
<trkpt lat="42.27585" lon="3.16230"><ele>16</ele></trkpt>
<trkpt lat="42.27542" lon="3.16288"><ele>15</ele></trkpt>
<trkpt lat="42.27532" lon="3.16311"><ele>14</ele></trkpt>
<trkpt lat="42.27510" lon="3.16389"><ele>14</ele></trkpt>
<trkpt lat="42.27507" lon="3.16448"><ele>13</ele></trkpt>
<trkpt lat="42.27446" lon="3.16535"><ele>10</ele></trkpt>
<trkpt lat="42.27429" lon="3.16550"><ele>11</ele></trkpt>
<trkpt lat="42.27402" lon="3.16654"><ele>14</ele></trkpt>
<trkpt lat="42.27392" lon="3.16666"><ele>14</ele></trkpt>
<trkpt lat="42.27338" lon="3.16683"><ele>13</ele></trkpt>
<trkpt lat="42.27333" lon="3.16688"><ele>13</ele></trkpt>
<trkpt lat="42.27331" lon="3.16696"><ele>13</ele></trkpt>
<trkpt lat="42.27344" lon="3.16803"><ele>12</ele></trkpt>
<trkpt lat="42.27340" lon="3.16817"><ele>12</ele></trkpt>
<trkpt lat="42.27284" lon="3.16914"><ele>10</ele></trkpt>
<trkpt lat="42.27243" lon="3.16962"><ele>6</ele></trkpt>
<trkpt lat="42.27229" lon="3.16972"><ele>6</ele></trkpt>
<trkpt lat="42.27184" lon="3.17022"><ele>8</ele></trkpt>
<trkpt lat="42.27149" lon="3.17045"><ele>8</ele></trkpt>
<trkpt lat="42.27107" lon="3.17059"><ele>8</ele></trkpt>
<trkpt lat="42.27004" lon="3.17240"><ele>7</ele></trkpt>
<trkpt lat="42.26987" lon="3.17264"><ele>7</ele></trkpt>
<trkpt lat="42.26955" lon="3.17284"><ele>7</ele></trkpt>
<trkpt lat="42.26914" lon="3.17244"><ele>7</ele></trkpt>
<trkpt lat="42.26909" lon="3.17268"><ele>7</ele></trkpt>
<trkpt lat="42.26887" lon="3.17286"><ele>7</ele></trkpt>
<trkpt lat="42.26737" lon="3.17372"><ele>7</ele></trkpt>
<trkpt lat="42.26649" lon="3.17546"><ele>10</ele></trkpt>
<trkpt lat="42.26641" lon="3.17538"><ele>9</ele></trkpt>
<trkpt lat="42.26634" lon="3.17538"><ele>9</ele></trkpt>
<trkpt lat="42.26628" lon="3.17543"><ele>10</ele></trkpt>
<trkpt lat="42.26625" lon="3.17554"><ele>10</ele></trkpt>
<trkpt lat="42.26629" lon="3.17569"><ele>10</ele></trkpt>
<trkpt lat="42.26640" lon="3.17573"><ele>10</ele></trkpt>
<trkpt lat="42.26669" lon="3.17550"><ele>10</ele></trkpt>
<trkpt lat="42.26749" lon="3.17512"><ele>10</ele></trkpt>
<trkpt lat="42.26786" lon="3.17504"><ele>9</ele></trkpt>
<trkpt lat="42.26796" lon="3.17511"><ele>9</ele></trkpt>
<trkpt lat="42.26806" lon="3.17528"><ele>10</ele></trkpt>
<trkpt lat="42.26819" lon="3.17534"><ele>10</ele></trkpt>
<trkpt lat="42.26859" lon="3.17503"><ele>9</ele></trkpt>
<trkpt lat="42.26923" lon="3.17493"><ele>11</ele></trkpt>
<trkpt lat="42.26984" lon="3.17497"><ele>11</ele></trkpt>
<trkpt lat="42.27047" lon="3.17509"><ele>12</ele></trkpt>
<trkpt lat="42.27105" lon="3.17531"><ele>12</ele></trkpt>
<trkpt lat="42.27286" lon="3.17538"><ele>13</ele></trkpt>
<trkpt lat="42.27343" lon="3.17554"><ele>14</ele></trkpt>
<trkpt lat="42.27461" lon="3.17594"><ele>17</ele></trkpt>
<trkpt lat="42.27655" lon="3.17685"><ele>21</ele></trkpt>
<trkpt lat="42.27801" lon="3.17720"><ele>23</ele></trkpt>
<trkpt lat="42.27866" lon="3.17760"><ele>24</ele></trkpt>
<trkpt lat="42.28069" lon="3.17920"><ele>30</ele></trkpt>
<trkpt lat="42.28114" lon="3.17942"><ele>31</ele></trkpt>
<trkpt lat="42.28486" lon="3.18037"><ele>40</ele></trkpt>
<trkpt lat="42.28681" lon="3.18058"><ele>47</ele></trkpt>
<trkpt lat="42.28738" lon="3.18058"><ele>51</ele></trkpt>
<trkpt lat="42.28781" lon="3.18063"><ele>54</ele></trkpt>
<trkpt lat="42.28793" lon="3.18072"><ele>54</ele></trkpt>
<trkpt lat="42.28810" lon="3.18098"><ele>55</ele></trkpt>
<trkpt lat="42.28820" lon="3.18101"><ele>56</ele></trkpt>
<trkpt lat="42.28873" lon="3.18175"><ele>61</ele></trkpt>
<trkpt lat="42.28885" lon="3.18187"><ele>62</ele></trkpt>
<trkpt lat="42.28936" lon="3.18222"><ele>64</ele></trkpt>
<trkpt lat="42.28941" lon="3.18233"><ele>66</ele></trkpt>
<trkpt lat="42.28941" lon="3.18244"><ele>66</ele></trkpt>
<trkpt lat="42.28929" lon="3.18294"><ele>70</ele></trkpt>
<trkpt lat="42.28931" lon="3.18311"><ele>70</ele></trkpt>
<trkpt lat="42.28937" lon="3.18321"><ele>71</ele></trkpt>
<trkpt lat="42.28961" lon="3.18330"><ele>73</ele></trkpt>
<trkpt lat="42.29061" lon="3.18343"><ele>80</ele></trkpt>
<trkpt lat="42.29077" lon="3.18358"><ele>81</ele></trkpt>
<trkpt lat="42.29104" lon="3.18437"><ele>85</ele></trkpt>
<trkpt lat="42.29122" lon="3.18467"><ele>87</ele></trkpt>
<trkpt lat="42.29137" lon="3.18474"><ele>88</ele></trkpt>
<trkpt lat="42.29182" lon="3.18462"><ele>92</ele></trkpt>
<trkpt lat="42.29198" lon="3.18464"><ele>93</ele></trkpt>
<trkpt lat="42.29212" lon="3.18473"><ele>93</ele></trkpt>
<trkpt lat="42.29227" lon="3.18496"><ele>94</ele></trkpt>
<trkpt lat="42.29299" lon="3.18553"><ele>99</ele></trkpt>
<trkpt lat="42.29321" lon="3.18561"><ele>100</ele></trkpt>
<trkpt lat="42.29351" lon="3.18559"><ele>104</ele></trkpt>
<trkpt lat="42.29362" lon="3.18563"><ele>105</ele></trkpt>
<trkpt lat="42.29371" lon="3.18576"><ele>106</ele></trkpt>
<trkpt lat="42.29382" lon="3.18611"><ele>107</ele></trkpt>
<trkpt lat="42.29388" lon="3.18620"><ele>108</ele></trkpt>
<trkpt lat="42.29437" lon="3.18643"><ele>113</ele></trkpt>
<trkpt lat="42.29449" lon="3.18654"><ele>114</ele></trkpt>
<trkpt lat="42.29476" lon="3.18726"><ele>117</ele></trkpt>
<trkpt lat="42.29519" lon="3.18785"><ele>122</ele></trkpt>
<trkpt lat="42.29540" lon="3.18807"><ele>124</ele></trkpt>
<trkpt lat="42.29575" lon="3.18826"><ele>127</ele></trkpt>
<trkpt lat="42.29588" lon="3.18846"><ele>126</ele></trkpt>
<trkpt lat="42.29588" lon="3.18859"><ele>126</ele></trkpt>
<trkpt lat="42.29582" lon="3.18871"><ele>128</ele></trkpt>
<trkpt lat="42.29530" lon="3.18910"><ele>130</ele></trkpt>
<trkpt lat="42.29516" lon="3.18928"><ele>130</ele></trkpt>
<trkpt lat="42.29512" lon="3.18941"><ele>132</ele></trkpt>
<trkpt lat="42.29512" lon="3.18957"><ele>132</ele></trkpt>
<trkpt lat="42.29522" lon="3.19022"><ele>134</ele></trkpt>
<trkpt lat="42.29527" lon="3.19043"><ele>136</ele></trkpt>
<trkpt lat="42.29540" lon="3.19075"><ele>138</ele></trkpt>
<trkpt lat="42.29597" lon="3.19148"><ele>146</ele></trkpt>
<trkpt lat="42.29622" lon="3.19191"><ele>148</ele></trkpt>
<trkpt lat="42.29653" lon="3.19235"><ele>155</ele></trkpt>
<trkpt lat="42.29659" lon="3.19247"><ele>156</ele></trkpt>
<trkpt lat="42.29658" lon="3.19265"><ele>155</ele></trkpt>
<trkpt lat="42.29652" lon="3.19274"><ele>155</ele></trkpt>
<trkpt lat="42.29644" lon="3.19277"><ele>155</ele></trkpt>
<trkpt lat="42.29611" lon="3.19264"><ele>156</ele></trkpt>
<trkpt lat="42.29529" lon="3.19261"><ele>161</ele></trkpt>
<trkpt lat="42.29419" lon="3.19294"><ele>167</ele></trkpt>
<trkpt lat="42.29404" lon="3.19305"><ele>168</ele></trkpt>
<trkpt lat="42.29395" lon="3.19319"><ele>169</ele></trkpt>
<trkpt lat="42.29385" lon="3.19353"><ele>171</ele></trkpt>
<trkpt lat="42.29384" lon="3.19381"><ele>172</ele></trkpt>
<trkpt lat="42.29390" lon="3.19418"><ele>175</ele></trkpt>
<trkpt lat="42.29401" lon="3.19449"><ele>178</ele></trkpt>
<trkpt lat="42.29487" lon="3.19563"><ele>186</ele></trkpt>
<trkpt lat="42.29581" lon="3.19620"><ele>194</ele></trkpt>
<trkpt lat="42.29591" lon="3.19629"><ele>195</ele></trkpt>
<trkpt lat="42.29598" lon="3.19644"><ele>195</ele></trkpt>
<trkpt lat="42.29613" lon="3.19698"><ele>197</ele></trkpt>
<trkpt lat="42.29635" lon="3.19724"><ele>202</ele></trkpt>
<trkpt lat="42.29642" lon="3.19741"><ele>203</ele></trkpt>
<trkpt lat="42.29639" lon="3.19764"><ele>204</ele></trkpt>
<trkpt lat="42.29626" lon="3.19785"><ele>205</ele></trkpt>
<trkpt lat="42.29616" lon="3.19798"><ele>204</ele></trkpt>
<trkpt lat="42.29588" lon="3.19821"><ele>205</ele></trkpt>
<trkpt lat="42.29554" lon="3.19875"><ele>210</ele></trkpt>
<trkpt lat="42.29489" lon="3.19916"><ele>211</ele></trkpt>
<trkpt lat="42.29483" lon="3.19927"><ele>211</ele></trkpt>
<trkpt lat="42.29483" lon="3.19945"><ele>213</ele></trkpt>
<trkpt lat="42.29491" lon="3.19956"><ele>212</ele></trkpt>
<trkpt lat="42.29516" lon="3.19959"><ele>217</ele></trkpt>
<trkpt lat="42.29620" lon="3.20008"><ele>223</ele></trkpt>
<trkpt lat="42.29636" lon="3.20019"><ele>226</ele></trkpt>
<trkpt lat="42.29653" lon="3.20038"><ele>228</ele></trkpt>
<trkpt lat="42.29686" lon="3.20093"><ele>230</ele></trkpt>
<trkpt lat="42.29705" lon="3.20119"><ele>234</ele></trkpt>
<trkpt lat="42.29709" lon="3.20134"><ele>235</ele></trkpt>
<trkpt lat="42.29708" lon="3.20146"><ele>235</ele></trkpt>
<trkpt lat="42.29701" lon="3.20162"><ele>236</ele></trkpt>
<trkpt lat="42.29682" lon="3.20185"><ele>237</ele></trkpt>
<trkpt lat="42.29637" lon="3.20210"><ele>240</ele></trkpt>
<trkpt lat="42.29621" lon="3.20223"><ele>241</ele></trkpt>
<trkpt lat="42.29609" lon="3.20248"><ele>242</ele></trkpt>
<trkpt lat="42.29600" lon="3.20315"><ele>246</ele></trkpt>
<trkpt lat="42.29581" lon="3.20368"><ele>247</ele></trkpt>
<trkpt lat="42.29602" lon="3.20466"><ele>254</ele></trkpt>
<trkpt lat="42.29603" lon="3.20516"><ele>258</ele></trkpt>
<trkpt lat="42.29592" lon="3.20535"><ele>260</ele></trkpt>
<trkpt lat="42.29576" lon="3.20541"><ele>260</ele></trkpt>
<trkpt lat="42.29557" lon="3.20543"><ele>260</ele></trkpt>
<trkpt lat="42.29518" lon="3.20536"><ele>260</ele></trkpt>
<trkpt lat="42.29505" lon="3.20542"><ele>261</ele></trkpt>
<trkpt lat="42.29484" lon="3.20581"><ele>265</ele></trkpt>
<trkpt lat="42.29439" lon="3.20654"><ele>266</ele></trkpt>
<trkpt lat="42.29396" lon="3.20713"><ele>267</ele></trkpt>
<trkpt lat="42.29364" lon="3.20743"><ele>268</ele></trkpt>
<trkpt lat="42.29341" lon="3.20754"><ele>270</ele></trkpt>
<trkpt lat="42.29286" lon="3.20751"><ele>271</ele></trkpt>
<trkpt lat="42.29201" lon="3.20775"><ele>274</ele></trkpt>
<trkpt lat="42.29130" lon="3.20817"><ele>278</ele></trkpt>
<trkpt lat="42.29114" lon="3.20818"><ele>278</ele></trkpt>
<trkpt lat="42.29097" lon="3.20815"><ele>279</ele></trkpt>
<trkpt lat="42.29026" lon="3.20774"><ele>277</ele></trkpt>
<trkpt lat="42.29018" lon="3.20772"><ele>277</ele></trkpt>
<trkpt lat="42.29008" lon="3.20776"><ele>278</ele></trkpt>
<trkpt lat="42.29003" lon="3.20783"><ele>278</ele></trkpt>
<trkpt lat="42.28988" lon="3.20840"><ele>279</ele></trkpt>
<trkpt lat="42.28959" lon="3.20879"><ele>279</ele></trkpt>
<trkpt lat="42.28936" lon="3.20964"><ele>279</ele></trkpt>
<trkpt lat="42.28926" lon="3.20990"><ele>280</ele></trkpt>
<trkpt lat="42.28909" lon="3.21014"><ele>281</ele></trkpt>
<trkpt lat="42.28838" lon="3.21082"><ele>281</ele></trkpt>
<trkpt lat="42.28832" lon="3.21097"><ele>280</ele></trkpt>
<trkpt lat="42.28833" lon="3.21116"><ele>279</ele></trkpt>
<trkpt lat="42.28865" lon="3.21206"><ele>283</ele></trkpt>
<trkpt lat="42.28863" lon="3.21264"><ele>281</ele></trkpt>
<trkpt lat="42.28896" lon="3.21444"><ele>286</ele></trkpt>
<trkpt lat="42.28884" lon="3.21527"><ele>285</ele></trkpt>
<trkpt lat="42.28842" lon="3.21615"><ele>285</ele></trkpt>
<trkpt lat="42.28841" lon="3.21634"><ele>284</ele></trkpt>
<trkpt lat="42.28851" lon="3.21651"><ele>284</ele></trkpt>
<trkpt lat="42.28900" lon="3.21680"><ele>284</ele></trkpt>
<trkpt lat="42.29021" lon="3.21687"><ele>280</ele></trkpt>
<trkpt lat="42.29129" lon="3.21779"><ele>280</ele></trkpt>
<trkpt lat="42.29142" lon="3.21806"><ele>280</ele></trkpt>
<trkpt lat="42.29163" lon="3.21911"><ele>280</ele></trkpt>
<trkpt lat="42.29163" lon="3.21925"><ele>280</ele></trkpt>
<trkpt lat="42.29151" lon="3.21959"><ele>280</ele></trkpt>
<trkpt lat="42.29142" lon="3.21971"><ele>279</ele></trkpt>
<trkpt lat="42.29135" lon="3.21974"><ele>278</ele></trkpt>
<trkpt lat="42.29121" lon="3.21972"><ele>278</ele></trkpt>
<trkpt lat="42.29094" lon="3.21956"><ele>278</ele></trkpt>
<trkpt lat="42.29085" lon="3.21955"><ele>278</ele></trkpt>
<trkpt lat="42.29043" lon="3.21966"><ele>277</ele></trkpt>
<trkpt lat="42.29031" lon="3.21983"><ele>276</ele></trkpt>
<trkpt lat="42.29022" lon="3.22030"><ele>278</ele></trkpt>
<trkpt lat="42.29015" lon="3.22055"><ele>277</ele></trkpt>
<trkpt lat="42.29005" lon="3.22066"><ele>276</ele></trkpt>
<trkpt lat="42.28983" lon="3.22082"><ele>275</ele></trkpt>
<trkpt lat="42.28931" lon="3.22104"><ele>277</ele></trkpt>
<trkpt lat="42.28889" lon="3.22138"><ele>274</ele></trkpt>
<trkpt lat="42.28722" lon="3.22184"><ele>276</ele></trkpt>
<trkpt lat="42.28713" lon="3.22189"><ele>275</ele></trkpt>
<trkpt lat="42.28706" lon="3.22202"><ele>274</ele></trkpt>
<trkpt lat="42.28707" lon="3.22218"><ele>273</ele></trkpt>
<trkpt lat="42.28719" lon="3.22232"><ele>276</ele></trkpt>
<trkpt lat="42.28875" lon="3.22252"><ele>270</ele></trkpt>
<trkpt lat="42.28939" lon="3.22285"><ele>269</ele></trkpt>
<trkpt lat="42.29019" lon="3.22301"><ele>267</ele></trkpt>
<trkpt lat="42.29039" lon="3.22307"><ele>267</ele></trkpt>
<trkpt lat="42.29169" lon="3.22372"><ele>266</ele></trkpt>
<trkpt lat="42.29189" lon="3.22386"><ele>266</ele></trkpt>
<trkpt lat="42.29230" lon="3.22435"><ele>265</ele></trkpt>
<trkpt lat="42.29236" lon="3.22455"><ele>265</ele></trkpt>
<trkpt lat="42.29246" lon="3.22515"><ele>265</ele></trkpt>
<trkpt lat="42.29254" lon="3.22530"><ele>264</ele></trkpt>
<trkpt lat="42.29270" lon="3.22535"><ele>264</ele></trkpt>
<trkpt lat="42.29333" lon="3.22526"><ele>262</ele></trkpt>
<trkpt lat="42.29346" lon="3.22533"><ele>262</ele></trkpt>
<trkpt lat="42.29371" lon="3.22578"><ele>262</ele></trkpt>
<trkpt lat="42.29394" lon="3.22678"><ele>260</ele></trkpt>
<trkpt lat="42.29384" lon="3.22833"><ele>260</ele></trkpt>
<trkpt lat="42.29377" lon="3.22897"><ele>259</ele></trkpt>
<trkpt lat="42.29366" lon="3.22916"><ele>258</ele></trkpt>
<trkpt lat="42.29324" lon="3.22963"><ele>255</ele></trkpt>
<trkpt lat="42.29281" lon="3.23009"><ele>252</ele></trkpt>
<trkpt lat="42.29254" lon="3.23030"><ele>249</ele></trkpt>
<trkpt lat="42.29232" lon="3.23043"><ele>248</ele></trkpt>
<trkpt lat="42.29183" lon="3.23041"><ele>247</ele></trkpt>
<trkpt lat="42.29164" lon="3.23048"><ele>246</ele></trkpt>
<trkpt lat="42.29156" lon="3.23067"><ele>244</ele></trkpt>
<trkpt lat="42.29157" lon="3.23079"><ele>244</ele></trkpt>
<trkpt lat="42.29165" lon="3.23098"><ele>246</ele></trkpt>
<trkpt lat="42.29196" lon="3.23131"><ele>244</ele></trkpt>
<trkpt lat="42.29202" lon="3.23146"><ele>244</ele></trkpt>
<trkpt lat="42.29202" lon="3.23164"><ele>244</ele></trkpt>
<trkpt lat="42.29194" lon="3.23186"><ele>244</ele></trkpt>
<trkpt lat="42.29181" lon="3.23205"><ele>244</ele></trkpt>
<trkpt lat="42.29137" lon="3.23243"><ele>244</ele></trkpt>
<trkpt lat="42.29131" lon="3.23254"><ele>242</ele></trkpt>
<trkpt lat="42.29131" lon="3.23291"><ele>240</ele></trkpt>
<trkpt lat="42.29134" lon="3.23307"><ele>242</ele></trkpt>
<trkpt lat="42.29151" lon="3.23330"><ele>245</ele></trkpt>
<trkpt lat="42.29164" lon="3.23333"><ele>243</ele></trkpt>
<trkpt lat="42.29249" lon="3.23310"><ele>243</ele></trkpt>
<trkpt lat="42.29269" lon="3.23310"><ele>243</ele></trkpt>
<trkpt lat="42.29325" lon="3.23321"><ele>243</ele></trkpt>
<trkpt lat="42.29337" lon="3.23327"><ele>242</ele></trkpt>
<trkpt lat="42.29351" lon="3.23353"><ele>244</ele></trkpt>
<trkpt lat="42.29374" lon="3.23413"><ele>245</ele></trkpt>
<trkpt lat="42.29458" lon="3.23469"><ele>245</ele></trkpt>
<trkpt lat="42.29467" lon="3.23472"><ele>245</ele></trkpt>
<trkpt lat="42.29526" lon="3.23459"><ele>244</ele></trkpt>
<trkpt lat="42.29545" lon="3.23460"><ele>242</ele></trkpt>
<trkpt lat="42.29669" lon="3.23505"><ele>244</ele></trkpt>
<trkpt lat="42.29681" lon="3.23513"><ele>244</ele></trkpt>
<trkpt lat="42.29686" lon="3.23522"><ele>245</ele></trkpt>
<trkpt lat="42.29691" lon="3.23535"><ele>245</ele></trkpt>
<trkpt lat="42.29692" lon="3.23550"><ele>244</ele></trkpt>
<trkpt lat="42.29680" lon="3.23591"><ele>244</ele></trkpt>
<trkpt lat="42.29663" lon="3.23631"><ele>246</ele></trkpt>
<trkpt lat="42.29655" lon="3.23669"><ele>246</ele></trkpt>
<trkpt lat="42.29642" lon="3.23709"><ele>246</ele></trkpt>
<trkpt lat="42.29631" lon="3.23701"><ele>246</ele></trkpt>
<trkpt lat="42.29623" lon="3.23709"><ele>245</ele></trkpt>
<trkpt lat="42.29610" lon="3.23710"><ele>245</ele></trkpt>
<trkpt lat="42.29601" lon="3.23716"><ele>243</ele></trkpt>
<trkpt lat="42.29577" lon="3.23717"><ele>240</ele></trkpt>
<trkpt lat="42.29568" lon="3.23721"><ele>238</ele></trkpt>
<trkpt lat="42.29563" lon="3.23729"><ele>238</ele></trkpt>
<trkpt lat="42.29563" lon="3.23738"><ele>238</ele></trkpt>
<trkpt lat="42.29582" lon="3.23795"><ele>236</ele></trkpt>
<trkpt lat="42.29599" lon="3.23862"><ele>231</ele></trkpt>
<trkpt lat="42.29601" lon="3.23891"><ele>230</ele></trkpt>
<trkpt lat="42.29597" lon="3.23922"><ele>230</ele></trkpt>
<trkpt lat="42.29567" lon="3.24008"><ele>224</ele></trkpt>
<trkpt lat="42.29572" lon="3.24046"><ele>224</ele></trkpt>
<trkpt lat="42.29568" lon="3.24067"><ele>222</ele></trkpt>
<trkpt lat="42.29558" lon="3.24096"><ele>220</ele></trkpt>
<trkpt lat="42.29482" lon="3.24227"><ele>213</ele></trkpt>
<trkpt lat="42.29481" lon="3.24256"><ele>211</ele></trkpt>
<trkpt lat="42.29472" lon="3.24328"><ele>207</ele></trkpt>
<trkpt lat="42.29460" lon="3.24360"><ele>204</ele></trkpt>
<trkpt lat="42.29412" lon="3.24433"><ele>202</ele></trkpt>
<trkpt lat="42.29384" lon="3.24449"><ele>204</ele></trkpt>
<trkpt lat="42.29380" lon="3.24488"><ele>202</ele></trkpt>
<trkpt lat="42.29372" lon="3.24523"><ele>201</ele></trkpt>
<trkpt lat="42.29363" lon="3.24551"><ele>200</ele></trkpt>
<trkpt lat="42.29355" lon="3.24562"><ele>200</ele></trkpt>
<trkpt lat="42.29330" lon="3.24583"><ele>198</ele></trkpt>
<trkpt lat="42.29326" lon="3.24591"><ele>199</ele></trkpt>
<trkpt lat="42.29329" lon="3.24602"><ele>199</ele></trkpt>
<trkpt lat="42.29342" lon="3.24619"><ele>196</ele></trkpt>
<trkpt lat="42.29349" lon="3.24636"><ele>196</ele></trkpt>
<trkpt lat="42.29351" lon="3.24650"><ele>195</ele></trkpt>
<trkpt lat="42.29342" lon="3.24683"><ele>194</ele></trkpt>
<trkpt lat="42.29301" lon="3.24766"><ele>189</ele></trkpt>
<trkpt lat="42.29282" lon="3.24789"><ele>189</ele></trkpt>
<trkpt lat="42.29272" lon="3.24818"><ele>187</ele></trkpt>
<trkpt lat="42.29263" lon="3.24831"><ele>186</ele></trkpt>
<trkpt lat="42.29212" lon="3.24875"><ele>180</ele></trkpt>
<trkpt lat="42.29203" lon="3.24891"><ele>176</ele></trkpt>
<trkpt lat="42.29198" lon="3.24908"><ele>173</ele></trkpt>
<trkpt lat="42.29192" lon="3.24969"><ele>165</ele></trkpt>
<trkpt lat="42.29206" lon="3.25035"><ele>160</ele></trkpt>
<trkpt lat="42.29219" lon="3.25081"><ele>156</ele></trkpt>
<trkpt lat="42.29217" lon="3.25117"><ele>155</ele></trkpt>
<trkpt lat="42.29211" lon="3.25138"><ele>154</ele></trkpt>
<trkpt lat="42.29185" lon="3.25186"><ele>151</ele></trkpt>
<trkpt lat="42.29173" lon="3.25224"><ele>146</ele></trkpt>
<trkpt lat="42.29159" lon="3.25312"><ele>136</ele></trkpt>
<trkpt lat="42.29151" lon="3.25340"><ele>134</ele></trkpt>
<trkpt lat="42.29103" lon="3.25422"><ele>123</ele></trkpt>
<trkpt lat="42.29052" lon="3.25444"><ele>121</ele></trkpt>
<trkpt lat="42.29031" lon="3.25471"><ele>118</ele></trkpt>
<trkpt lat="42.29019" lon="3.25498"><ele>116</ele></trkpt>
<trkpt lat="42.29008" lon="3.25536"><ele>111</ele></trkpt>
<trkpt lat="42.29008" lon="3.25568"><ele>110</ele></trkpt>
<trkpt lat="42.29019" lon="3.25630"><ele>110</ele></trkpt>
<trkpt lat="42.29025" lon="3.25645"><ele>110</ele></trkpt>
<trkpt lat="42.29072" lon="3.25724"><ele>103</ele></trkpt>
<trkpt lat="42.29109" lon="3.25821"><ele>102</ele></trkpt>
<trkpt lat="42.29127" lon="3.25849"><ele>101</ele></trkpt>
<trkpt lat="42.29147" lon="3.25868"><ele>97</ele></trkpt>
<trkpt lat="42.29151" lon="3.25877"><ele>97</ele></trkpt>
<trkpt lat="42.29152" lon="3.25919"><ele>96</ele></trkpt>
<trkpt lat="42.29144" lon="3.25964"><ele>92</ele></trkpt>
<trkpt lat="42.29136" lon="3.25984"><ele>89</ele></trkpt>
<trkpt lat="42.29096" lon="3.26041"><ele>84</ele></trkpt>
<trkpt lat="42.29075" lon="3.26045"><ele>84</ele></trkpt>
<trkpt lat="42.29066" lon="3.26051"><ele>82</ele></trkpt>
<trkpt lat="42.29062" lon="3.26064"><ele>81</ele></trkpt>
<trkpt lat="42.29057" lon="3.26122"><ele>79</ele></trkpt>
<trkpt lat="42.29061" lon="3.26140"><ele>78</ele></trkpt>
<trkpt lat="42.29080" lon="3.26183"><ele>79</ele></trkpt>
<trkpt lat="42.29099" lon="3.26271"><ele>79</ele></trkpt>
<trkpt lat="42.29104" lon="3.26335"><ele>78</ele></trkpt>
<trkpt lat="42.29077" lon="3.26424"><ele>68</ele></trkpt>
<trkpt lat="42.29071" lon="3.26459"><ele>68</ele></trkpt>
<trkpt lat="42.29073" lon="3.26514"><ele>64</ele></trkpt>
<trkpt lat="42.29069" lon="3.26533"><ele>63</ele></trkpt>
<trkpt lat="42.29007" lon="3.26641"><ele>48</ele></trkpt>
<trkpt lat="42.28988" lon="3.26680"><ele>46</ele></trkpt>
<trkpt lat="42.28970" lon="3.26689"><ele>48</ele></trkpt>
<trkpt lat="42.28944" lon="3.26718"><ele>42</ele></trkpt>
<trkpt lat="42.28908" lon="3.26749"><ele>39</ele></trkpt>
<trkpt lat="42.28839" lon="3.26837"><ele>23</ele></trkpt>
<trkpt lat="42.28806" lon="3.26899"><ele>15</ele></trkpt>
<trkpt lat="42.28809" lon="3.26954"><ele>16</ele></trkpt>
<trkpt lat="42.28807" lon="3.26987"><ele>15</ele></trkpt>
<trkpt lat="42.28814" lon="3.27013"><ele>12</ele></trkpt>
<trkpt lat="42.28828" lon="3.27018"><ele>10</ele></trkpt>
<trkpt lat="42.28834" lon="3.27028"><ele>10</ele></trkpt>
<trkpt lat="42.28841" lon="3.27124"><ele>9</ele></trkpt>
<trkpt lat="42.28847" lon="3.27141"><ele>10</ele></trkpt>
<trkpt lat="42.28906" lon="3.27224"><ele>8</ele></trkpt>
<trkpt lat="42.28940" lon="3.27296"><ele>6</ele></trkpt>
<trkpt lat="42.28941" lon="3.27305"><ele>6</ele></trkpt>
<trkpt lat="42.28920" lon="3.27499"><ele>3</ele></trkpt>
<trkpt lat="42.28920" lon="3.27538"><ele>4</ele></trkpt>
<trkpt lat="42.28925" lon="3.27564"><ele>4</ele></trkpt>
<trkpt lat="42.28953" lon="3.27642"><ele>2</ele></trkpt>
<trkpt lat="42.28878" lon="3.27767"><ele>1</ele></trkpt>
    </trkseg>
  </trk>
</gpx>
