<?xml version="1.0" encoding="UTF-8"?>
<gpx version="1.1" creator="Gravel Kompass" xmlns="http://www.topografix.com/GPX/1/1">
  <metadata><name>Grevet 2026 Saisonabschluss</name></metadata>
  <trk>
    <name>Grevet 2026 Saisonabschluss (komplett)</name>
    <trkseg>
<trkpt lat="48.09280" lon="11.39979"><ele>565</ele></trkpt>
<trkpt lat="48.09259" lon="11.39943"><ele>565</ele></trkpt>
<trkpt lat="48.09224" lon="11.39932"><ele>565</ele></trkpt>
<trkpt lat="48.09196" lon="11.39902"><ele>565</ele></trkpt>
<trkpt lat="48.09126" lon="11.39814"><ele>565</ele></trkpt>
<trkpt lat="48.09071" lon="11.39567"><ele>565</ele></trkpt>
<trkpt lat="48.09025" lon="11.39432"><ele>566</ele></trkpt>
<trkpt lat="48.08985" lon="11.39355"><ele>566</ele></trkpt>
<trkpt lat="48.08926" lon="11.39258"><ele>566</ele></trkpt>
<trkpt lat="48.08852" lon="11.39152"><ele>565</ele></trkpt>
<trkpt lat="48.08798" lon="11.39093"><ele>564</ele></trkpt>
<trkpt lat="48.08745" lon="11.39016"><ele>564</ele></trkpt>
<trkpt lat="48.08690" lon="11.38944"><ele>565</ele></trkpt>
<trkpt lat="48.08625" lon="11.38833"><ele>566</ele></trkpt>
<trkpt lat="48.08567" lon="11.38666"><ele>570</ele></trkpt>
<trkpt lat="48.08532" lon="11.38544"><ele>569</ele></trkpt>
<trkpt lat="48.08503" lon="11.38419"><ele>568</ele></trkpt>
<trkpt lat="48.08450" lon="11.38254"><ele>567</ele></trkpt>
<trkpt lat="48.08419" lon="11.38209"><ele>567</ele></trkpt>
<trkpt lat="48.08367" lon="11.38105"><ele>567</ele></trkpt>
<trkpt lat="48.08344" lon="11.37985"><ele>567</ele></trkpt>
<trkpt lat="48.08317" lon="11.37901"><ele>567</ele></trkpt>
<trkpt lat="48.08304" lon="11.37873"><ele>568</ele></trkpt>
<trkpt lat="48.08287" lon="11.37749"><ele>569</ele></trkpt>
<trkpt lat="48.08286" lon="11.37711"><ele>569</ele></trkpt>
<trkpt lat="48.08279" lon="11.37664"><ele>570</ele></trkpt>
<trkpt lat="48.08251" lon="11.37581"><ele>569</ele></trkpt>
<trkpt lat="48.08169" lon="11.37306"><ele>569</ele></trkpt>
<trkpt lat="48.08139" lon="11.37231"><ele>568</ele></trkpt>
<trkpt lat="48.08443" lon="11.36680"><ele>568</ele></trkpt>
<trkpt lat="48.08463" lon="11.36633"><ele>568</ele></trkpt>
<trkpt lat="48.08702" lon="11.36214"><ele>566</ele></trkpt>
<trkpt lat="48.09039" lon="11.35604"><ele>567</ele></trkpt>
<trkpt lat="48.08647" lon="11.35136"><ele>568</ele></trkpt>
<trkpt lat="48.08390" lon="11.34837"><ele>570</ele></trkpt>
<trkpt lat="48.08502" lon="11.34603"><ele>570</ele></trkpt>
<trkpt lat="48.08707" lon="11.34200"><ele>569</ele></trkpt>
<trkpt lat="48.08726" lon="11.34151"><ele>570</ele></trkpt>
<trkpt lat="48.08591" lon="11.34072"><ele>571</ele></trkpt>
<trkpt lat="48.08562" lon="11.33953"><ele>572</ele></trkpt>
<trkpt lat="48.08561" lon="11.33730"><ele>572</ele></trkpt>
<trkpt lat="48.08583" lon="11.33609"><ele>573</ele></trkpt>
<trkpt lat="48.08588" lon="11.33503"><ele>574</ele></trkpt>
<trkpt lat="48.08619" lon="11.33361"><ele>575</ele></trkpt>
<trkpt lat="48.08621" lon="11.33255"><ele>576</ele></trkpt>
<trkpt lat="48.08615" lon="11.33145"><ele>577</ele></trkpt>
<trkpt lat="48.08575" lon="11.32984"><ele>579</ele></trkpt>
<trkpt lat="48.08551" lon="11.32963"><ele>579</ele></trkpt>
<trkpt lat="48.08552" lon="11.32912"><ele>580</ele></trkpt>
<trkpt lat="48.08523" lon="11.32570"><ele>580</ele></trkpt>
<trkpt lat="48.08510" lon="11.32488"><ele>581</ele></trkpt>
<trkpt lat="48.08490" lon="11.32395"><ele>581</ele></trkpt>
<trkpt lat="48.08479" lon="11.32366"><ele>581</ele></trkpt>
<trkpt lat="48.08451" lon="11.32334"><ele>581</ele></trkpt>
<trkpt lat="48.08442" lon="11.32284"><ele>582</ele></trkpt>
<trkpt lat="48.08444" lon="11.32246"><ele>582</ele></trkpt>
<trkpt lat="48.08465" lon="11.32140"><ele>584</ele></trkpt>
<trkpt lat="48.08467" lon="11.32100"><ele>585</ele></trkpt>
<trkpt lat="48.08415" lon="11.31873"><ele>588</ele></trkpt>
<trkpt lat="48.08358" lon="11.31846"><ele>587</ele></trkpt>
<trkpt lat="48.08304" lon="11.31831"><ele>587</ele></trkpt>
<trkpt lat="48.08275" lon="11.31829"><ele>587</ele></trkpt>
<trkpt lat="48.08243" lon="11.31835"><ele>587</ele></trkpt>
<trkpt lat="48.08160" lon="11.31869"><ele>584</ele></trkpt>
<trkpt lat="48.08131" lon="11.31869"><ele>583</ele></trkpt>
<trkpt lat="48.08089" lon="11.31842"><ele>582</ele></trkpt>
<trkpt lat="48.08041" lon="11.31792"><ele>581</ele></trkpt>
<trkpt lat="48.08004" lon="11.31764"><ele>581</ele></trkpt>
<trkpt lat="48.07961" lon="11.31746"><ele>580</ele></trkpt>
<trkpt lat="48.07951" lon="11.31701"><ele>580</ele></trkpt>
<trkpt lat="48.07931" lon="11.31640"><ele>580</ele></trkpt>
<trkpt lat="48.07923" lon="11.31558"><ele>581</ele></trkpt>
<trkpt lat="48.07859" lon="11.31443"><ele>583</ele></trkpt>
<trkpt lat="48.07851" lon="11.31399"><ele>582</ele></trkpt>
<trkpt lat="48.07851" lon="11.31361"><ele>582</ele></trkpt>
<trkpt lat="48.07856" lon="11.31323"><ele>582</ele></trkpt>
<trkpt lat="48.07885" lon="11.31222"><ele>582</ele></trkpt>
<trkpt lat="48.07724" lon="11.31053"><ele>582</ele></trkpt>
<trkpt lat="48.07567" lon="11.30874"><ele>587</ele></trkpt>
<trkpt lat="48.07470" lon="11.31030"><ele>590</ele></trkpt>
<trkpt lat="48.07441" lon="11.31036"><ele>591</ele></trkpt>
<trkpt lat="48.07373" lon="11.30998"><ele>591</ele></trkpt>
<trkpt lat="48.07333" lon="11.30960"><ele>591</ele></trkpt>
<trkpt lat="48.07021" lon="11.30639"><ele>590</ele></trkpt>
<trkpt lat="48.06982" lon="11.30582"><ele>590</ele></trkpt>
<trkpt lat="48.06948" lon="11.30545"><ele>590</ele></trkpt>
<trkpt lat="48.06689" lon="11.30511"><ele>592</ele></trkpt>
<trkpt lat="48.06618" lon="11.30495"><ele>593</ele></trkpt>
<trkpt lat="48.06393" lon="11.30391"><ele>595</ele></trkpt>
<trkpt lat="48.06374" lon="11.30366"><ele>595</ele></trkpt>
<trkpt lat="48.06350" lon="11.30324"><ele>595</ele></trkpt>
<trkpt lat="48.06250" lon="11.29784"><ele>596</ele></trkpt>
<trkpt lat="48.06239" lon="11.29704"><ele>597</ele></trkpt>
<trkpt lat="48.06217" lon="11.29629"><ele>597</ele></trkpt>
<trkpt lat="48.06186" lon="11.29568"><ele>598</ele></trkpt>
<trkpt lat="48.06130" lon="11.29476"><ele>598</ele></trkpt>
<trkpt lat="48.06073" lon="11.29359"><ele>599</ele></trkpt>
<trkpt lat="48.06051" lon="11.29307"><ele>599</ele></trkpt>
<trkpt lat="48.06019" lon="11.29216"><ele>600</ele></trkpt>
<trkpt lat="48.05985" lon="11.29150"><ele>600</ele></trkpt>
<trkpt lat="48.05847" lon="11.28943"><ele>602</ele></trkpt>
<trkpt lat="48.05697" lon="11.28649"><ele>604</ele></trkpt>
<trkpt lat="48.05572" lon="11.28339"><ele>606</ele></trkpt>
<trkpt lat="48.05562" lon="11.28304"><ele>606</ele></trkpt>
<trkpt lat="48.05595" lon="11.28217"><ele>607</ele></trkpt>
<trkpt lat="48.05612" lon="11.28156"><ele>608</ele></trkpt>
<trkpt lat="48.05625" lon="11.28073"><ele>610</ele></trkpt>
<trkpt lat="48.05629" lon="11.27965"><ele>613</ele></trkpt>
<trkpt lat="48.05629" lon="11.27860"><ele>615</ele></trkpt>
<trkpt lat="48.05626" lon="11.27811"><ele>616</ele></trkpt>
<trkpt lat="48.05627" lon="11.27692"><ele>618</ele></trkpt>
<trkpt lat="48.05621" lon="11.27603"><ele>618</ele></trkpt>
<trkpt lat="48.05631" lon="11.27537"><ele>618</ele></trkpt>
<trkpt lat="48.05641" lon="11.27402"><ele>618</ele></trkpt>
<trkpt lat="48.05638" lon="11.27305"><ele>618</ele></trkpt>
<trkpt lat="48.05626" lon="11.27241"><ele>618</ele></trkpt>
<trkpt lat="48.05616" lon="11.27207"><ele>618</ele></trkpt>
<trkpt lat="48.05582" lon="11.27018"><ele>616</ele></trkpt>
<trkpt lat="48.05584" lon="11.26860"><ele>615</ele></trkpt>
<trkpt lat="48.05567" lon="11.26823"><ele>614</ele></trkpt>
<trkpt lat="48.05578" lon="11.26650"><ele>611</ele></trkpt>
<trkpt lat="48.05578" lon="11.26598"><ele>610</ele></trkpt>
<trkpt lat="48.05555" lon="11.26596"><ele>609</ele></trkpt>
<trkpt lat="48.05545" lon="11.26547"><ele>608</ele></trkpt>
<trkpt lat="48.05544" lon="11.26482"><ele>607</ele></trkpt>
<trkpt lat="48.05555" lon="11.26426"><ele>606</ele></trkpt>
<trkpt lat="48.05549" lon="11.26388"><ele>604</ele></trkpt>
<trkpt lat="48.05507" lon="11.26321"><ele>601</ele></trkpt>
<trkpt lat="48.05427" lon="11.26239"><ele>596</ele></trkpt>
<trkpt lat="48.05402" lon="11.26190"><ele>596</ele></trkpt>
<trkpt lat="48.05376" lon="11.26164"><ele>596</ele></trkpt>
<trkpt lat="48.05339" lon="11.26109"><ele>596</ele></trkpt>
<trkpt lat="48.05310" lon="11.26080"><ele>596</ele></trkpt>
<trkpt lat="48.05206" lon="11.26022"><ele>598</ele></trkpt>
<trkpt lat="48.05146" lon="11.25959"><ele>599</ele></trkpt>
<trkpt lat="48.05080" lon="11.25863"><ele>600</ele></trkpt>
<trkpt lat="48.05050" lon="11.25806"><ele>601</ele></trkpt>
<trkpt lat="48.04944" lon="11.25670"><ele>603</ele></trkpt>
<trkpt lat="48.04913" lon="11.25619"><ele>604</ele></trkpt>
<trkpt lat="48.04877" lon="11.25570"><ele>605</ele></trkpt>
<trkpt lat="48.04850" lon="11.25494"><ele>607</ele></trkpt>
<trkpt lat="48.04795" lon="11.25383"><ele>609</ele></trkpt>
<trkpt lat="48.04750" lon="11.25327"><ele>610</ele></trkpt>
<trkpt lat="48.04676" lon="11.25276"><ele>611</ele></trkpt>
<trkpt lat="48.04536" lon="11.25102"><ele>614</ele></trkpt>
<trkpt lat="48.04486" lon="11.24995"><ele>615</ele></trkpt>
<trkpt lat="48.04445" lon="11.24878"><ele>616</ele></trkpt>
<trkpt lat="48.04543" lon="11.24728"><ele>614</ele></trkpt>
<trkpt lat="48.04592" lon="11.24634"><ele>612</ele></trkpt>
<trkpt lat="48.04655" lon="11.24553"><ele>608</ele></trkpt>
<trkpt lat="48.04691" lon="11.24531"><ele>606</ele></trkpt>
<trkpt lat="48.04833" lon="11.24487"><ele>597</ele></trkpt>
<trkpt lat="48.04867" lon="11.24470"><ele>594</ele></trkpt>
<trkpt lat="48.04967" lon="11.24454"><ele>586</ele></trkpt>
<trkpt lat="48.04985" lon="11.24439"><ele>584</ele></trkpt>
<trkpt lat="48.05425" lon="11.23818"><ele>560</ele></trkpt>
<trkpt lat="48.05754" lon="11.23503"><ele>574</ele></trkpt>
<trkpt lat="48.05800" lon="11.23519"><ele>577</ele></trkpt>
<trkpt lat="48.05890" lon="11.23603"><ele>579</ele></trkpt>
<trkpt lat="48.05912" lon="11.23638"><ele>580</ele></trkpt>
<trkpt lat="48.05936" lon="11.23640"><ele>580</ele></trkpt>
<trkpt lat="48.05953" lon="11.23614"><ele>581</ele></trkpt>
<trkpt lat="48.06038" lon="11.23522"><ele>584</ele></trkpt>
<trkpt lat="48.06154" lon="11.23453"><ele>590</ele></trkpt>
<trkpt lat="48.06198" lon="11.23421"><ele>593</ele></trkpt>
<trkpt lat="48.06295" lon="11.23291"><ele>598</ele></trkpt>
<trkpt lat="48.06326" lon="11.23291"><ele>598</ele></trkpt>
<trkpt lat="48.06388" lon="11.23306"><ele>599</ele></trkpt>
<trkpt lat="48.06419" lon="11.23299"><ele>599</ele></trkpt>
<trkpt lat="48.06446" lon="11.23287"><ele>599</ele></trkpt>
<trkpt lat="48.06441" lon="11.23103"><ele>596</ele></trkpt>
<trkpt lat="48.06458" lon="11.23049"><ele>595</ele></trkpt>
<trkpt lat="48.06476" lon="11.22959"><ele>594</ele></trkpt>
<trkpt lat="48.06641" lon="11.22779"><ele>590</ele></trkpt>
<trkpt lat="48.06600" lon="11.22611"><ele>589</ele></trkpt>
<trkpt lat="48.06619" lon="11.22499"><ele>590</ele></trkpt>
<trkpt lat="48.06623" lon="11.22403"><ele>590</ele></trkpt>
<trkpt lat="48.06657" lon="11.22392"><ele>590</ele></trkpt>
<trkpt lat="48.06731" lon="11.22382"><ele>589</ele></trkpt>
<trkpt lat="48.06849" lon="11.22321"><ele>589</ele></trkpt>
<trkpt lat="48.06861" lon="11.22256"><ele>589</ele></trkpt>
<trkpt lat="48.06870" lon="11.22129"><ele>589</ele></trkpt>
<trkpt lat="48.06979" lon="11.21966"><ele>587</ele></trkpt>
<trkpt lat="48.07001" lon="11.21949"><ele>586</ele></trkpt>
<trkpt lat="48.07168" lon="11.21739"><ele>581</ele></trkpt>
<trkpt lat="48.07194" lon="11.21712"><ele>581</ele></trkpt>
<trkpt lat="48.07423" lon="11.21781"><ele>577</ele></trkpt>
<trkpt lat="48.07473" lon="11.21790"><ele>576</ele></trkpt>
<trkpt lat="48.07522" lon="11.21789"><ele>576</ele></trkpt>
<trkpt lat="48.07503" lon="11.21718"><ele>576</ele></trkpt>
<trkpt lat="48.07518" lon="11.21671"><ele>576</ele></trkpt>
<trkpt lat="48.07533" lon="11.21636"><ele>576</ele></trkpt>
<trkpt lat="48.07628" lon="11.21544"><ele>576</ele></trkpt>
<trkpt lat="48.07644" lon="11.21502"><ele>576</ele></trkpt>
<trkpt lat="48.07639" lon="11.21436"><ele>577</ele></trkpt>
<trkpt lat="48.07649" lon="11.21396"><ele>577</ele></trkpt>
<trkpt lat="48.07640" lon="11.21271"><ele>578</ele></trkpt>
<trkpt lat="48.07608" lon="11.21216"><ele>578</ele></trkpt>
<trkpt lat="48.07573" lon="11.21119"><ele>578</ele></trkpt>
<trkpt lat="48.07543" lon="11.21057"><ele>578</ele></trkpt>
<trkpt lat="48.07503" lon="11.20995"><ele>579</ele></trkpt>
<trkpt lat="48.07400" lon="11.20891"><ele>579</ele></trkpt>
<trkpt lat="48.07337" lon="11.20800"><ele>579</ele></trkpt>
<trkpt lat="48.07327" lon="11.20759"><ele>579</ele></trkpt>
<trkpt lat="48.07346" lon="11.20707"><ele>579</ele></trkpt>
<trkpt lat="48.07373" lon="11.20518"><ele>579</ele></trkpt>
<trkpt lat="48.07377" lon="11.20466"><ele>579</ele></trkpt>
<trkpt lat="48.07397" lon="11.20424"><ele>579</ele></trkpt>
<trkpt lat="48.07477" lon="11.20281"><ele>579</ele></trkpt>
<trkpt lat="48.07463" lon="11.20246"><ele>579</ele></trkpt>
<trkpt lat="48.07429" lon="11.20250"><ele>579</ele></trkpt>
<trkpt lat="48.07426" lon="11.20205"><ele>579</ele></trkpt>
<trkpt lat="48.07409" lon="11.20107"><ele>577</ele></trkpt>
<trkpt lat="48.07349" lon="11.19894"><ele>571</ele></trkpt>
<trkpt lat="48.07331" lon="11.19851"><ele>569</ele></trkpt>
<trkpt lat="48.07309" lon="11.19815"><ele>568</ele></trkpt>
<trkpt lat="48.07284" lon="11.19784"><ele>566</ele></trkpt>
<trkpt lat="48.07246" lon="11.19746"><ele>564</ele></trkpt>
<trkpt lat="48.07267" lon="11.19650"><ele>564</ele></trkpt>
<trkpt lat="48.07282" lon="11.19615"><ele>563</ele></trkpt>
<trkpt lat="48.07307" lon="11.19581"><ele>563</ele></trkpt>
<trkpt lat="48.07377" lon="11.19510"><ele>565</ele></trkpt>
<trkpt lat="48.07405" lon="11.19471"><ele>566</ele></trkpt>
<trkpt lat="48.07471" lon="11.19404"><ele>569</ele></trkpt>
<trkpt lat="48.07486" lon="11.19347"><ele>571</ele></trkpt>
<trkpt lat="48.07484" lon="11.19311"><ele>572</ele></trkpt>
<trkpt lat="48.07438" lon="11.19206"><ele>575</ele></trkpt>
<trkpt lat="48.07428" lon="11.19161"><ele>577</ele></trkpt>
<trkpt lat="48.07426" lon="11.19097"><ele>578</ele></trkpt>
<trkpt lat="48.07418" lon="11.19008"><ele>581</ele></trkpt>
<trkpt lat="48.07348" lon="11.18725"><ele>586</ele></trkpt>
<trkpt lat="48.07341" lon="11.18686"><ele>586</ele></trkpt>
<trkpt lat="48.07337" lon="11.18636"><ele>586</ele></trkpt>
<trkpt lat="48.07350" lon="11.18387"><ele>586</ele></trkpt>
<trkpt lat="48.07326" lon="11.18347"><ele>584</ele></trkpt>
<trkpt lat="48.07318" lon="11.18281"><ele>582</ele></trkpt>
<trkpt lat="48.07320" lon="11.18240"><ele>581</ele></trkpt>
<trkpt lat="48.07314" lon="11.18199"><ele>580</ele></trkpt>
<trkpt lat="48.07298" lon="11.18153"><ele>578</ele></trkpt>
<trkpt lat="48.07259" lon="11.18092"><ele>576</ele></trkpt>
<trkpt lat="48.07193" lon="11.17922"><ele>570</ele></trkpt>
<trkpt lat="48.07149" lon="11.17844"><ele>569</ele></trkpt>
<trkpt lat="48.07127" lon="11.17794"><ele>569</ele></trkpt>
<trkpt lat="48.07116" lon="11.17748"><ele>569</ele></trkpt>
<trkpt lat="48.07113" lon="11.17696"><ele>568</ele></trkpt>
<trkpt lat="48.07134" lon="11.17673"><ele>568</ele></trkpt>
<trkpt lat="48.07154" lon="11.17642"><ele>568</ele></trkpt>
<trkpt lat="48.07223" lon="11.17512"><ele>566</ele></trkpt>
<trkpt lat="48.07268" lon="11.17462"><ele>567</ele></trkpt>
<trkpt lat="48.07292" lon="11.17453"><ele>568</ele></trkpt>
<trkpt lat="48.07326" lon="11.17429"><ele>569</ele></trkpt>
<trkpt lat="48.07341" lon="11.17383"><ele>570</ele></trkpt>
<trkpt lat="48.07343" lon="11.17313"><ele>572</ele></trkpt>
<trkpt lat="48.07349" lon="11.17265"><ele>573</ele></trkpt>
<trkpt lat="48.07381" lon="11.17192"><ele>575</ele></trkpt>
<trkpt lat="48.07378" lon="11.17040"><ele>578</ele></trkpt>
<trkpt lat="48.07433" lon="11.16732"><ele>580</ele></trkpt>
<trkpt lat="48.07438" lon="11.16657"><ele>580</ele></trkpt>
<trkpt lat="48.07371" lon="11.16603"><ele>581</ele></trkpt>
<trkpt lat="48.07334" lon="11.16602"><ele>582</ele></trkpt>
<trkpt lat="48.07297" lon="11.16583"><ele>583</ele></trkpt>
<trkpt lat="48.06982" lon="11.16501"><ele>579</ele></trkpt>
<trkpt lat="48.06933" lon="11.16516"><ele>577</ele></trkpt>
<trkpt lat="48.06834" lon="11.16452"><ele>574</ele></trkpt>
<trkpt lat="48.06678" lon="11.16388"><ele>571</ele></trkpt>
<trkpt lat="48.06645" lon="11.16386"><ele>570</ele></trkpt>
<trkpt lat="48.06632" lon="11.16416"><ele>570</ele></trkpt>
<trkpt lat="48.06517" lon="11.16399"><ele>569</ele></trkpt>
<trkpt lat="48.06468" lon="11.16384"><ele>568</ele></trkpt>
<trkpt lat="48.06430" lon="11.16342"><ele>568</ele></trkpt>
<trkpt lat="48.06405" lon="11.16334"><ele>567</ele></trkpt>
<trkpt lat="48.06350" lon="11.16411"><ele>567</ele></trkpt>
<trkpt lat="48.06328" lon="11.16397"><ele>568</ele></trkpt>
<trkpt lat="48.06327" lon="11.16256"><ele>571</ele></trkpt>
<trkpt lat="48.06366" lon="11.16179"><ele>573</ele></trkpt>
<trkpt lat="48.06421" lon="11.16138"><ele>574</ele></trkpt>
<trkpt lat="48.06499" lon="11.15990"><ele>575</ele></trkpt>
<trkpt lat="48.06583" lon="11.15898"><ele>574</ele></trkpt>
<trkpt lat="48.06609" lon="11.15863"><ele>574</ele></trkpt>
<trkpt lat="48.06617" lon="11.15787"><ele>573</ele></trkpt>
<trkpt lat="48.06607" lon="11.15717"><ele>572</ele></trkpt>
<trkpt lat="48.06586" lon="11.15635"><ele>571</ele></trkpt>
<trkpt lat="48.06569" lon="11.15591"><ele>571</ele></trkpt>
<trkpt lat="48.06564" lon="11.15551"><ele>570</ele></trkpt>
<trkpt lat="48.06534" lon="11.15474"><ele>570</ele></trkpt>
<trkpt lat="48.06462" lon="11.15366"><ele>568</ele></trkpt>
<trkpt lat="48.06423" lon="11.15313"><ele>569</ele></trkpt>
<trkpt lat="48.06379" lon="11.15262"><ele>569</ele></trkpt>
<trkpt lat="48.06334" lon="11.15259"><ele>569</ele></trkpt>
<trkpt lat="48.06312" lon="11.15243"><ele>569</ele></trkpt>
<trkpt lat="48.06293" lon="11.15152"><ele>569</ele></trkpt>
<trkpt lat="48.06260" lon="11.15159"><ele>569</ele></trkpt>
<trkpt lat="48.06233" lon="11.15170"><ele>569</ele></trkpt>
<trkpt lat="48.06062" lon="11.15177"><ele>569</ele></trkpt>
<trkpt lat="48.05870" lon="11.15230"><ele>571</ele></trkpt>
<trkpt lat="48.05836" lon="11.15234"><ele>571</ele></trkpt>
<trkpt lat="48.05813" lon="11.15233"><ele>571</ele></trkpt>
<trkpt lat="48.05547" lon="11.15172"><ele>573</ele></trkpt>
<trkpt lat="48.05526" lon="11.15159"><ele>573</ele></trkpt>
<trkpt lat="48.05332" lon="11.14976"><ele>572</ele></trkpt>
<trkpt lat="48.05179" lon="11.14874"><ele>573</ele></trkpt>
<trkpt lat="48.05047" lon="11.14808"><ele>571</ele></trkpt>
<trkpt lat="48.04998" lon="11.14793"><ele>571</ele></trkpt>
<trkpt lat="48.04934" lon="11.14794"><ele>570</ele></trkpt>
<trkpt lat="48.04825" lon="11.14783"><ele>570</ele></trkpt>
<trkpt lat="48.04766" lon="11.14766"><ele>571</ele></trkpt>
<trkpt lat="48.04734" lon="11.14766"><ele>571</ele></trkpt>
<trkpt lat="48.04687" lon="11.14734"><ele>572</ele></trkpt>
<trkpt lat="48.04669" lon="11.14777"><ele>573</ele></trkpt>
<trkpt lat="48.04641" lon="11.14768"><ele>574</ele></trkpt>
<trkpt lat="48.04596" lon="11.14807"><ele>576</ele></trkpt>
<trkpt lat="48.04536" lon="11.14815"><ele>578</ele></trkpt>
<trkpt lat="48.04509" lon="11.14801"><ele>579</ele></trkpt>
<trkpt lat="48.04406" lon="11.14779"><ele>582</ele></trkpt>
<trkpt lat="48.04352" lon="11.14782"><ele>584</ele></trkpt>
<trkpt lat="48.04317" lon="11.14796"><ele>585</ele></trkpt>
<trkpt lat="48.04271" lon="11.14801"><ele>586</ele></trkpt>
<trkpt lat="48.04210" lon="11.14794"><ele>588</ele></trkpt>
<trkpt lat="48.04149" lon="11.14804"><ele>590</ele></trkpt>
<trkpt lat="48.04125" lon="11.14826"><ele>591</ele></trkpt>
<trkpt lat="48.04069" lon="11.14853"><ele>593</ele></trkpt>
<trkpt lat="48.04029" lon="11.14855"><ele>594</ele></trkpt>
<trkpt lat="48.04003" lon="11.14869"><ele>595</ele></trkpt>
<trkpt lat="48.03981" lon="11.14904"><ele>597</ele></trkpt>
<trkpt lat="48.03965" lon="11.14959"><ele>596</ele></trkpt>
<trkpt lat="48.03939" lon="11.15006"><ele>596</ele></trkpt>
<trkpt lat="48.03894" lon="11.15053"><ele>596</ele></trkpt>
<trkpt lat="48.03859" lon="11.15108"><ele>596</ele></trkpt>
<trkpt lat="48.03828" lon="11.15147"><ele>596</ele></trkpt>
<trkpt lat="48.03802" lon="11.15173"><ele>595</ele></trkpt>
<trkpt lat="48.03764" lon="11.15199"><ele>595</ele></trkpt>
<trkpt lat="48.03737" lon="11.15212"><ele>595</ele></trkpt>
<trkpt lat="48.03727" lon="11.15156"><ele>595</ele></trkpt>
<trkpt lat="48.03698" lon="11.15156"><ele>595</ele></trkpt>
<trkpt lat="48.03686" lon="11.15186"><ele>595</ele></trkpt>
<trkpt lat="48.03630" lon="11.15245"><ele>596</ele></trkpt>
<trkpt lat="48.03582" lon="11.15279"><ele>597</ele></trkpt>
<trkpt lat="48.03534" lon="11.15302"><ele>597</ele></trkpt>
<trkpt lat="48.03467" lon="11.15343"><ele>597</ele></trkpt>
<trkpt lat="48.03368" lon="11.15507"><ele>597</ele></trkpt>
<trkpt lat="48.03350" lon="11.15583"><ele>597</ele></trkpt>
<trkpt lat="48.03354" lon="11.15653"><ele>597</ele></trkpt>
<trkpt lat="48.03347" lon="11.15725"><ele>597</ele></trkpt>
<trkpt lat="48.03330" lon="11.15756"><ele>598</ele></trkpt>
<trkpt lat="48.03098" lon="11.15744"><ele>600</ele></trkpt>
<trkpt lat="48.03001" lon="11.15718"><ele>600</ele></trkpt>
<trkpt lat="48.02946" lon="11.15683"><ele>601</ele></trkpt>
<trkpt lat="48.02830" lon="11.15690"><ele>601</ele></trkpt>
<trkpt lat="48.02772" lon="11.15670"><ele>600</ele></trkpt>
<trkpt lat="48.02705" lon="11.15660"><ele>600</ele></trkpt>
<trkpt lat="48.02654" lon="11.15616"><ele>599</ele></trkpt>
<trkpt lat="48.02599" lon="11.15587"><ele>599</ele></trkpt>
<trkpt lat="48.02535" lon="11.15564"><ele>599</ele></trkpt>
<trkpt lat="48.02465" lon="11.15477"><ele>599</ele></trkpt>
<trkpt lat="48.02444" lon="11.15462"><ele>599</ele></trkpt>
<trkpt lat="48.02417" lon="11.15451"><ele>599</ele></trkpt>
<trkpt lat="48.02369" lon="11.15448"><ele>599</ele></trkpt>
<trkpt lat="48.02257" lon="11.15476"><ele>597</ele></trkpt>
<trkpt lat="48.02126" lon="11.15430"><ele>593</ele></trkpt>
<trkpt lat="48.02096" lon="11.15428"><ele>593</ele></trkpt>
<trkpt lat="48.02055" lon="11.15439"><ele>591</ele></trkpt>
<trkpt lat="48.02002" lon="11.15422"><ele>590</ele></trkpt>
<trkpt lat="48.01945" lon="11.15393"><ele>590</ele></trkpt>
<trkpt lat="48.01859" lon="11.15379"><ele>588</ele></trkpt>
<trkpt lat="48.01716" lon="11.15373"><ele>587</ele></trkpt>
<trkpt lat="48.01670" lon="11.15387"><ele>587</ele></trkpt>
<trkpt lat="48.01527" lon="11.15448"><ele>586</ele></trkpt>
<trkpt lat="48.01471" lon="11.15492"><ele>586</ele></trkpt>
<trkpt lat="48.01415" lon="11.15550"><ele>585</ele></trkpt>
<trkpt lat="48.01399" lon="11.15583"><ele>584</ele></trkpt>
<trkpt lat="48.01372" lon="11.15663"><ele>583</ele></trkpt>
<trkpt lat="48.01337" lon="11.15713"><ele>582</ele></trkpt>
<trkpt lat="48.01299" lon="11.15748"><ele>582</ele></trkpt>
<trkpt lat="48.01275" lon="11.15794"><ele>581</ele></trkpt>
<trkpt lat="48.01258" lon="11.15904"><ele>577</ele></trkpt>
<trkpt lat="48.01212" lon="11.15947"><ele>573</ele></trkpt>
<trkpt lat="48.01176" lon="11.15957"><ele>571</ele></trkpt>
<trkpt lat="48.01113" lon="11.16005"><ele>566</ele></trkpt>
<trkpt lat="48.00998" lon="11.16080"><ele>556</ele></trkpt>
<trkpt lat="48.00973" lon="11.16103"><ele>554</ele></trkpt>
<trkpt lat="48.00948" lon="11.16136"><ele>553</ele></trkpt>
<trkpt lat="48.00935" lon="11.16171"><ele>552</ele></trkpt>
<trkpt lat="48.00847" lon="11.16207"><ele>547</ele></trkpt>
<trkpt lat="48.00782" lon="11.16218"><ele>545</ele></trkpt>
<trkpt lat="48.00727" lon="11.16244"><ele>544</ele></trkpt>
<trkpt lat="48.00705" lon="11.16262"><ele>543</ele></trkpt>
<trkpt lat="48.00672" lon="11.16299"><ele>542</ele></trkpt>
<trkpt lat="48.00641" lon="11.16341"><ele>541</ele></trkpt>
<trkpt lat="48.00565" lon="11.16373"><ele>539</ele></trkpt>
<trkpt lat="48.00516" lon="11.16412"><ele>537</ele></trkpt>
<trkpt lat="48.00426" lon="11.16519"><ele>535</ele></trkpt>
<trkpt lat="48.00396" lon="11.16546"><ele>534</ele></trkpt>
<trkpt lat="48.00342" lon="11.16640"><ele>534</ele></trkpt>
<trkpt lat="48.00307" lon="11.16714"><ele>534</ele></trkpt>
<trkpt lat="48.00258" lon="11.16752"><ele>534</ele></trkpt>
<trkpt lat="48.00242" lon="11.16907"><ele>534</ele></trkpt>
<trkpt lat="48.00210" lon="11.16923"><ele>534</ele></trkpt>
<trkpt lat="48.00167" lon="11.16912"><ele>535</ele></trkpt>
<trkpt lat="48.00063" lon="11.16895"><ele>535</ele></trkpt>
<trkpt lat="48.00003" lon="11.16875"><ele>535</ele></trkpt>
<trkpt lat="47.99867" lon="11.16820"><ele>536</ele></trkpt>
<trkpt lat="47.99840" lon="11.16828"><ele>537</ele></trkpt>
<trkpt lat="47.99786" lon="11.16872"><ele>537</ele></trkpt>
<trkpt lat="47.99749" lon="11.16894"><ele>537</ele></trkpt>
<trkpt lat="47.99530" lon="11.17000"><ele>537</ele></trkpt>
<trkpt lat="47.99554" lon="11.17087"><ele>538</ele></trkpt>
<trkpt lat="47.99698" lon="11.17069"><ele>539</ele></trkpt>
<trkpt lat="47.99737" lon="11.17077"><ele>540</ele></trkpt>
<trkpt lat="47.99761" lon="11.17087"><ele>540</ele></trkpt>
<trkpt lat="47.99808" lon="11.17095"><ele>540</ele></trkpt>
<trkpt lat="47.99860" lon="11.17092"><ele>540</ele></trkpt>
<trkpt lat="47.99883" lon="11.17095"><ele>540</ele></trkpt>
<trkpt lat="47.99901" lon="11.17116"><ele>540</ele></trkpt>
<trkpt lat="47.99953" lon="11.17132"><ele>540</ele></trkpt>
<trkpt lat="48.00131" lon="11.17172"><ele>538</ele></trkpt>
<trkpt lat="48.00146" lon="11.17139"><ele>538</ele></trkpt>
<trkpt lat="48.00410" lon="11.17197"><ele>537</ele></trkpt>
<trkpt lat="48.00509" lon="11.17224"><ele>536</ele></trkpt>
<trkpt lat="48.00536" lon="11.17229"><ele>536</ele></trkpt>
<trkpt lat="48.00564" lon="11.17225"><ele>536</ele></trkpt>
<trkpt lat="48.00724" lon="11.17250"><ele>535</ele></trkpt>
<trkpt lat="48.01249" lon="11.17265"><ele>535</ele></trkpt>
<trkpt lat="48.01273" lon="11.17269"><ele>535</ele></trkpt>
<trkpt lat="48.01835" lon="11.17281"><ele>537</ele></trkpt>
<trkpt lat="48.01871" lon="11.17301"><ele>538</ele></trkpt>
<trkpt lat="48.01899" lon="11.17304"><ele>538</ele></trkpt>
<trkpt lat="48.01927" lon="11.17313"><ele>539</ele></trkpt>
<trkpt lat="48.01953" lon="11.17327"><ele>539</ele></trkpt>
<trkpt lat="48.02024" lon="11.17384"><ele>540</ele></trkpt>
<trkpt lat="48.02335" lon="11.17704"><ele>541</ele></trkpt>
<trkpt lat="48.02371" lon="11.17747"><ele>541</ele></trkpt>
<trkpt lat="48.02403" lon="11.17790"><ele>540</ele></trkpt>
<trkpt lat="48.02500" lon="11.17947"><ele>540</ele></trkpt>
<trkpt lat="48.02569" lon="11.18069"><ele>540</ele></trkpt>
<trkpt lat="48.02610" lon="11.18131"><ele>541</ele></trkpt>
<trkpt lat="48.02658" lon="11.18195"><ele>542</ele></trkpt>
<trkpt lat="48.02797" lon="11.18356"><ele>543</ele></trkpt>
<trkpt lat="48.02813" lon="11.18390"><ele>544</ele></trkpt>
<trkpt lat="48.02831" lon="11.18413"><ele>544</ele></trkpt>
<trkpt lat="48.02860" lon="11.18438"><ele>543</ele></trkpt>
<trkpt lat="48.02947" lon="11.18546"><ele>543</ele></trkpt>
<trkpt lat="48.03038" lon="11.18643"><ele>544</ele></trkpt>
<trkpt lat="48.03091" lon="11.18722"><ele>545</ele></trkpt>
<trkpt lat="48.03125" lon="11.18762"><ele>546</ele></trkpt>
<trkpt lat="48.03177" lon="11.18807"><ele>547</ele></trkpt>
<trkpt lat="48.03211" lon="11.18843"><ele>547</ele></trkpt>
<trkpt lat="48.03329" lon="11.18995"><ele>548</ele></trkpt>
<trkpt lat="48.03461" lon="11.19173"><ele>545</ele></trkpt>
<trkpt lat="48.03496" lon="11.19300"><ele>544</ele></trkpt>
<trkpt lat="48.03521" lon="11.19358"><ele>543</ele></trkpt>
<trkpt lat="48.03540" lon="11.19389"><ele>543</ele></trkpt>
<trkpt lat="48.03607" lon="11.19477"><ele>541</ele></trkpt>
<trkpt lat="48.03695" lon="11.19528"><ele>542</ele></trkpt>
<trkpt lat="48.03823" lon="11.19673"><ele>543</ele></trkpt>
<trkpt lat="48.03841" lon="11.19701"><ele>543</ele></trkpt>
<trkpt lat="48.03866" lon="11.19761"><ele>542</ele></trkpt>
<trkpt lat="48.03863" lon="11.19789"><ele>542</ele></trkpt>
<trkpt lat="48.03673" lon="11.19995"><ele>537</ele></trkpt>
<trkpt lat="48.03536" lon="11.20127"><ele>537</ele></trkpt>
<trkpt lat="48.03502" lon="11.20176"><ele>537</ele></trkpt>
<trkpt lat="48.03430" lon="11.20307"><ele>538</ele></trkpt>
<trkpt lat="48.03348" lon="11.20443"><ele>540</ele></trkpt>
<trkpt lat="48.03313" lon="11.20513"><ele>542</ele></trkpt>
<trkpt lat="48.03291" lon="11.20485"><ele>544</ele></trkpt>
<trkpt lat="48.03248" lon="11.20468"><ele>546</ele></trkpt>
<trkpt lat="48.03223" lon="11.20487"><ele>548</ele></trkpt>
<trkpt lat="48.03206" lon="11.20546"><ele>551</ele></trkpt>
<trkpt lat="48.03316" lon="11.20751"><ele>561</ele></trkpt>
<trkpt lat="48.03329" lon="11.20785"><ele>562</ele></trkpt>
<trkpt lat="48.03287" lon="11.20759"><ele>563</ele></trkpt>
<trkpt lat="48.03244" lon="11.20715"><ele>563</ele></trkpt>
<trkpt lat="48.03189" lon="11.20651"><ele>564</ele></trkpt>
<trkpt lat="48.03167" lon="11.20620"><ele>563</ele></trkpt>
<trkpt lat="48.03133" lon="11.20563"><ele>562</ele></trkpt>
<trkpt lat="48.03124" lon="11.20529"><ele>562</ele></trkpt>
<trkpt lat="48.03115" lon="11.20449"><ele>561</ele></trkpt>
<trkpt lat="48.03082" lon="11.20451"><ele>561</ele></trkpt>
<trkpt lat="48.03054" lon="11.20459"><ele>561</ele></trkpt>
<trkpt lat="48.02997" lon="11.20509"><ele>562</ele></trkpt>
<trkpt lat="48.02778" lon="11.20550"><ele>570</ele></trkpt>
<trkpt lat="48.02709" lon="11.20543"><ele>571</ele></trkpt>
<trkpt lat="48.02662" lon="11.20476"><ele>572</ele></trkpt>
<trkpt lat="48.02636" lon="11.20421"><ele>573</ele></trkpt>
<trkpt lat="48.02588" lon="11.20364"><ele>573</ele></trkpt>
<trkpt lat="48.02503" lon="11.20232"><ele>575</ele></trkpt>
<trkpt lat="48.02481" lon="11.20167"><ele>576</ele></trkpt>
<trkpt lat="48.02458" lon="11.20077"><ele>578</ele></trkpt>
<trkpt lat="48.02421" lon="11.20030"><ele>580</ele></trkpt>
<trkpt lat="48.02385" lon="11.20009"><ele>581</ele></trkpt>
<trkpt lat="48.02360" lon="11.20008"><ele>581</ele></trkpt>
<trkpt lat="48.02327" lon="11.20014"><ele>582</ele></trkpt>
<trkpt lat="48.02277" lon="11.20004"><ele>583</ele></trkpt>
<trkpt lat="48.02222" lon="11.20002"><ele>584</ele></trkpt>
<trkpt lat="48.02102" lon="11.19931"><ele>588</ele></trkpt>
<trkpt lat="48.02056" lon="11.19891"><ele>590</ele></trkpt>
<trkpt lat="48.02041" lon="11.19855"><ele>591</ele></trkpt>
<trkpt lat="48.01994" lon="11.19793"><ele>592</ele></trkpt>
<trkpt lat="48.01959" lon="11.19755"><ele>594</ele></trkpt>
<trkpt lat="48.01944" lon="11.19702"><ele>595</ele></trkpt>
<trkpt lat="48.01933" lon="11.19605"><ele>595</ele></trkpt>
<trkpt lat="48.01921" lon="11.19576"><ele>595</ele></trkpt>
<trkpt lat="48.01904" lon="11.19549"><ele>595</ele></trkpt>
<trkpt lat="48.01870" lon="11.19507"><ele>596</ele></trkpt>
<trkpt lat="48.01807" lon="11.19464"><ele>598</ele></trkpt>
<trkpt lat="48.01695" lon="11.19425"><ele>605</ele></trkpt>
<trkpt lat="48.01662" lon="11.19395"><ele>607</ele></trkpt>
<trkpt lat="48.01633" lon="11.19385"><ele>608</ele></trkpt>
<trkpt lat="48.01608" lon="11.19383"><ele>609</ele></trkpt>
<trkpt lat="48.01455" lon="11.19349"><ele>614</ele></trkpt>
<trkpt lat="48.01342" lon="11.19295"><ele>614</ele></trkpt>
<trkpt lat="48.01260" lon="11.19235"><ele>615</ele></trkpt>
<trkpt lat="48.01161" lon="11.19189"><ele>616</ele></trkpt>
<trkpt lat="48.01015" lon="11.19108"><ele>617</ele></trkpt>
<trkpt lat="48.00883" lon="11.19011"><ele>621</ele></trkpt>
<trkpt lat="48.00841" lon="11.18992"><ele>622</ele></trkpt>
<trkpt lat="48.00815" lon="11.18984"><ele>622</ele></trkpt>
<trkpt lat="48.00729" lon="11.18971"><ele>626</ele></trkpt>
<trkpt lat="48.00534" lon="11.18880"><ele>633</ele></trkpt>
<trkpt lat="48.00497" lon="11.18873"><ele>634</ele></trkpt>
<trkpt lat="48.00443" lon="11.18851"><ele>635</ele></trkpt>
<trkpt lat="48.00338" lon="11.18797"><ele>638</ele></trkpt>
<trkpt lat="48.00301" lon="11.18820"><ele>639</ele></trkpt>
<trkpt lat="48.00259" lon="11.18853"><ele>640</ele></trkpt>
<trkpt lat="48.00250" lon="11.18903"><ele>641</ele></trkpt>
<trkpt lat="48.00211" lon="11.18973"><ele>643</ele></trkpt>
<trkpt lat="48.00189" lon="11.18998"><ele>644</ele></trkpt>
<trkpt lat="48.00120" lon="11.19013"><ele>646</ele></trkpt>
<trkpt lat="48.00042" lon="11.19017"><ele>649</ele></trkpt>
<trkpt lat="47.99967" lon="11.19004"><ele>651</ele></trkpt>
<trkpt lat="47.99710" lon="11.18882"><ele>656</ele></trkpt>
<trkpt lat="47.99667" lon="11.18867"><ele>656</ele></trkpt>
<trkpt lat="47.99590" lon="11.18850"><ele>656</ele></trkpt>
<trkpt lat="47.99473" lon="11.18833"><ele>657</ele></trkpt>
<trkpt lat="47.99371" lon="11.18837"><ele>658</ele></trkpt>
<trkpt lat="47.99333" lon="11.18843"><ele>658</ele></trkpt>
<trkpt lat="47.99273" lon="11.18859"><ele>658</ele></trkpt>
<trkpt lat="47.99180" lon="11.18900"><ele>657</ele></trkpt>
<trkpt lat="47.99096" lon="11.18914"><ele>656</ele></trkpt>
<trkpt lat="47.99093" lon="11.18809"><ele>654</ele></trkpt>
<trkpt lat="47.99032" lon="11.18808"><ele>653</ele></trkpt>
<trkpt lat="47.99002" lon="11.18817"><ele>654</ele></trkpt>
<trkpt lat="47.98979" lon="11.18814"><ele>655</ele></trkpt>
<trkpt lat="47.98920" lon="11.18802"><ele>657</ele></trkpt>
<trkpt lat="47.98788" lon="11.18749"><ele>658</ele></trkpt>
<trkpt lat="47.98793" lon="11.18676"><ele>657</ele></trkpt>
<trkpt lat="47.98818" lon="11.18620"><ele>656</ele></trkpt>
<trkpt lat="47.98853" lon="11.18566"><ele>653</ele></trkpt>
<trkpt lat="47.98887" lon="11.18548"><ele>650</ele></trkpt>
<trkpt lat="47.98920" lon="11.18561"><ele>648</ele></trkpt>
<trkpt lat="47.98929" lon="11.18600"><ele>646</ele></trkpt>
<trkpt lat="47.98931" lon="11.18642"><ele>644</ele></trkpt>
<trkpt lat="47.98972" lon="11.18695"><ele>640</ele></trkpt>
<trkpt lat="47.99028" lon="11.18696"><ele>637</ele></trkpt>
<trkpt lat="47.99132" lon="11.18578"><ele>626</ele></trkpt>
<trkpt lat="47.99160" lon="11.18518"><ele>622</ele></trkpt>
<trkpt lat="47.99165" lon="11.18484"><ele>619</ele></trkpt>
<trkpt lat="47.99146" lon="11.18423"><ele>615</ele></trkpt>
<trkpt lat="47.99100" lon="11.18309"><ele>610</ele></trkpt>
<trkpt lat="47.99073" lon="11.18289"><ele>608</ele></trkpt>
<trkpt lat="47.99071" lon="11.18257"><ele>607</ele></trkpt>
<trkpt lat="47.99030" lon="11.18237"><ele>605</ele></trkpt>
<trkpt lat="47.98987" lon="11.18267"><ele>603</ele></trkpt>
<trkpt lat="47.98958" lon="11.18239"><ele>602</ele></trkpt>
<trkpt lat="47.98947" lon="11.18185"><ele>601</ele></trkpt>
<trkpt lat="47.98900" lon="11.18091"><ele>600</ele></trkpt>
<trkpt lat="47.98763" lon="11.18052"><ele>600</ele></trkpt>
<trkpt lat="47.98694" lon="11.18043"><ele>602</ele></trkpt>
<trkpt lat="47.98625" lon="11.18069"><ele>606</ele></trkpt>
<trkpt lat="47.98580" lon="11.17989"><ele>608</ele></trkpt>
<trkpt lat="47.98551" lon="11.17970"><ele>609</ele></trkpt>
<trkpt lat="47.98498" lon="11.17955"><ele>610</ele></trkpt>
<trkpt lat="47.98426" lon="11.17963"><ele>612</ele></trkpt>
<trkpt lat="47.98333" lon="11.17924"><ele>615</ele></trkpt>
<trkpt lat="47.98309" lon="11.17926"><ele>615</ele></trkpt>
<trkpt lat="47.98221" lon="11.18005"><ele>618</ele></trkpt>
<trkpt lat="47.98166" lon="11.18020"><ele>620</ele></trkpt>
<trkpt lat="47.98024" lon="11.18004"><ele>626</ele></trkpt>
<trkpt lat="47.97975" lon="11.18029"><ele>629</ele></trkpt>
<trkpt lat="47.97890" lon="11.18027"><ele>633</ele></trkpt>
<trkpt lat="47.97868" lon="11.18018"><ele>634</ele></trkpt>
<trkpt lat="47.97832" lon="11.17995"><ele>637</ele></trkpt>
<trkpt lat="47.97802" lon="11.18006"><ele>638</ele></trkpt>
<trkpt lat="47.97743" lon="11.17979"><ele>642</ele></trkpt>
<trkpt lat="47.97633" lon="11.17995"><ele>648</ele></trkpt>
<trkpt lat="47.97597" lon="11.17967"><ele>651</ele></trkpt>
<trkpt lat="47.97577" lon="11.17931"><ele>653</ele></trkpt>
<trkpt lat="47.97553" lon="11.17925"><ele>654</ele></trkpt>
<trkpt lat="47.97492" lon="11.17960"><ele>657</ele></trkpt>
<trkpt lat="47.97444" lon="11.17978"><ele>660</ele></trkpt>
<trkpt lat="47.97419" lon="11.17983"><ele>661</ele></trkpt>
<trkpt lat="47.97318" lon="11.17982"><ele>663</ele></trkpt>
<trkpt lat="47.97287" lon="11.18004"><ele>664</ele></trkpt>
<trkpt lat="47.97288" lon="11.18084"><ele>665</ele></trkpt>
<trkpt lat="47.97252" lon="11.18127"><ele>664</ele></trkpt>
<trkpt lat="47.97208" lon="11.18160"><ele>664</ele></trkpt>
<trkpt lat="47.97158" lon="11.18154"><ele>664</ele></trkpt>
<trkpt lat="47.97095" lon="11.18160"><ele>663</ele></trkpt>
<trkpt lat="47.97077" lon="11.18139"><ele>663</ele></trkpt>
<trkpt lat="47.97012" lon="11.18111"><ele>662</ele></trkpt>
<trkpt lat="47.96980" lon="11.18118"><ele>661</ele></trkpt>
<trkpt lat="47.96958" lon="11.18141"><ele>661</ele></trkpt>
<trkpt lat="47.96920" lon="11.18135"><ele>661</ele></trkpt>
<trkpt lat="47.96894" lon="11.18149"><ele>661</ele></trkpt>
<trkpt lat="47.96888" lon="11.18201"><ele>661</ele></trkpt>
<trkpt lat="47.96913" lon="11.18244"><ele>662</ele></trkpt>
<trkpt lat="47.96925" lon="11.18281"><ele>662</ele></trkpt>
<trkpt lat="47.96913" lon="11.18335"><ele>662</ele></trkpt>
<trkpt lat="47.96890" lon="11.18342"><ele>662</ele></trkpt>
<trkpt lat="47.96857" lon="11.18360"><ele>663</ele></trkpt>
<trkpt lat="47.96832" lon="11.18364"><ele>663</ele></trkpt>
<trkpt lat="47.96796" lon="11.18360"><ele>663</ele></trkpt>
<trkpt lat="47.96774" lon="11.18347"><ele>664</ele></trkpt>
<trkpt lat="47.96770" lon="11.18300"><ele>664</ele></trkpt>
<trkpt lat="47.96758" lon="11.18265"><ele>664</ele></trkpt>
<trkpt lat="47.96753" lon="11.18230"><ele>664</ele></trkpt>
<trkpt lat="47.96706" lon="11.18232"><ele>664</ele></trkpt>
<trkpt lat="47.96668" lon="11.18212"><ele>664</ele></trkpt>
<trkpt lat="47.96628" lon="11.18224"><ele>666</ele></trkpt>
<trkpt lat="47.96592" lon="11.18053"><ele>670</ele></trkpt>
<trkpt lat="47.96544" lon="11.17962"><ele>674</ele></trkpt>
<trkpt lat="47.96527" lon="11.17919"><ele>676</ele></trkpt>
<trkpt lat="47.96502" lon="11.17831"><ele>679</ele></trkpt>
<trkpt lat="47.96464" lon="11.17735"><ele>681</ele></trkpt>
<trkpt lat="47.96448" lon="11.17704"><ele>681</ele></trkpt>
<trkpt lat="47.96427" lon="11.17722"><ele>682</ele></trkpt>
<trkpt lat="47.96404" lon="11.17721"><ele>682</ele></trkpt>
<trkpt lat="47.96336" lon="11.17691"><ele>683</ele></trkpt>
<trkpt lat="47.96255" lon="11.17675"><ele>683</ele></trkpt>
<trkpt lat="47.96223" lon="11.17681"><ele>684</ele></trkpt>
<trkpt lat="47.96172" lon="11.17673"><ele>684</ele></trkpt>
<trkpt lat="47.96063" lon="11.17680"><ele>687</ele></trkpt>
<trkpt lat="47.96025" lon="11.17690"><ele>688</ele></trkpt>
<trkpt lat="47.95686" lon="11.17829"><ele>703</ele></trkpt>
<trkpt lat="47.95634" lon="11.17836"><ele>705</ele></trkpt>
<trkpt lat="47.95595" lon="11.17814"><ele>705</ele></trkpt>
<trkpt lat="47.95520" lon="11.17807"><ele>707</ele></trkpt>
<trkpt lat="47.95439" lon="11.17848"><ele>709</ele></trkpt>
<trkpt lat="47.95412" lon="11.17871"><ele>711</ele></trkpt>
<trkpt lat="47.95325" lon="11.17932"><ele>714</ele></trkpt>
<trkpt lat="47.95240" lon="11.17978"><ele>717</ele></trkpt>
<trkpt lat="47.95016" lon="11.18049"><ele>722</ele></trkpt>
<trkpt lat="47.94989" lon="11.18049"><ele>723</ele></trkpt>
<trkpt lat="47.94956" lon="11.18082"><ele>724</ele></trkpt>
<trkpt lat="47.94890" lon="11.18117"><ele>725</ele></trkpt>
<trkpt lat="47.94840" lon="11.18149"><ele>727</ele></trkpt>
<trkpt lat="47.94769" lon="11.18158"><ele>728</ele></trkpt>
<trkpt lat="47.94720" lon="11.18216"><ele>729</ele></trkpt>
<trkpt lat="47.94674" lon="11.18248"><ele>730</ele></trkpt>
<trkpt lat="47.94572" lon="11.18262"><ele>731</ele></trkpt>
<trkpt lat="47.94543" lon="11.18285"><ele>731</ele></trkpt>
<trkpt lat="47.94529" lon="11.18318"><ele>731</ele></trkpt>
<trkpt lat="47.94509" lon="11.18342"><ele>731</ele></trkpt>
<trkpt lat="47.94434" lon="11.18365"><ele>729</ele></trkpt>
<trkpt lat="47.94400" lon="11.18384"><ele>729</ele></trkpt>
<trkpt lat="47.94310" lon="11.18402"><ele>727</ele></trkpt>
<trkpt lat="47.94272" lon="11.18401"><ele>727</ele></trkpt>
<trkpt lat="47.94085" lon="11.18489"><ele>725</ele></trkpt>
<trkpt lat="47.94019" lon="11.18499"><ele>724</ele></trkpt>
<trkpt lat="47.93975" lon="11.18501"><ele>723</ele></trkpt>
<trkpt lat="47.93951" lon="11.18495"><ele>722</ele></trkpt>
<trkpt lat="47.93870" lon="11.18459"><ele>719</ele></trkpt>
<trkpt lat="47.93828" lon="11.18433"><ele>718</ele></trkpt>
<trkpt lat="47.93792" lon="11.18427"><ele>717</ele></trkpt>
<trkpt lat="47.93772" lon="11.18444"><ele>716</ele></trkpt>
<trkpt lat="47.93720" lon="11.18465"><ele>715</ele></trkpt>
<trkpt lat="47.93691" lon="11.18500"><ele>714</ele></trkpt>
<trkpt lat="47.93617" lon="11.18483"><ele>712</ele></trkpt>
<trkpt lat="47.93501" lon="11.18482"><ele>708</ele></trkpt>
<trkpt lat="47.93461" lon="11.18505"><ele>707</ele></trkpt>
<trkpt lat="47.93374" lon="11.18513"><ele>705</ele></trkpt>
<trkpt lat="47.93334" lon="11.18521"><ele>704</ele></trkpt>
<trkpt lat="47.93292" lon="11.18545"><ele>704</ele></trkpt>
<trkpt lat="47.93247" lon="11.18546"><ele>703</ele></trkpt>
<trkpt lat="47.93160" lon="11.18524"><ele>701</ele></trkpt>
<trkpt lat="47.93119" lon="11.18501"><ele>701</ele></trkpt>
<trkpt lat="47.93040" lon="11.18500"><ele>697</ele></trkpt>
<trkpt lat="47.93013" lon="11.18504"><ele>696</ele></trkpt>
<trkpt lat="47.92960" lon="11.18534"><ele>693</ele></trkpt>
<trkpt lat="47.92850" lon="11.18538"><ele>687</ele></trkpt>
<trkpt lat="47.92823" lon="11.18533"><ele>685</ele></trkpt>
<trkpt lat="47.92599" lon="11.18439"><ele>676</ele></trkpt>
<trkpt lat="47.92544" lon="11.18407"><ele>674</ele></trkpt>
<trkpt lat="47.92481" lon="11.18386"><ele>673</ele></trkpt>
<trkpt lat="47.92341" lon="11.18355"><ele>669</ele></trkpt>
<trkpt lat="47.92312" lon="11.18358"><ele>668</ele></trkpt>
<trkpt lat="47.92286" lon="11.18375"><ele>667</ele></trkpt>
<trkpt lat="47.92247" lon="11.18409"><ele>666</ele></trkpt>
<trkpt lat="47.92180" lon="11.18426"><ele>665</ele></trkpt>
<trkpt lat="47.92131" lon="11.18425"><ele>664</ele></trkpt>
<trkpt lat="47.92088" lon="11.18438"><ele>663</ele></trkpt>
<trkpt lat="47.92018" lon="11.18475"><ele>663</ele></trkpt>
<trkpt lat="47.91985" lon="11.18485"><ele>663</ele></trkpt>
<trkpt lat="47.91713" lon="11.18486"><ele>665</ele></trkpt>
<trkpt lat="47.91675" lon="11.18483"><ele>666</ele></trkpt>
<trkpt lat="47.91645" lon="11.18459"><ele>666</ele></trkpt>
<trkpt lat="47.91598" lon="11.18389"><ele>668</ele></trkpt>
<trkpt lat="47.91601" lon="11.18351"><ele>668</ele></trkpt>
<trkpt lat="47.91592" lon="11.18314"><ele>669</ele></trkpt>
<trkpt lat="47.91556" lon="11.18271"><ele>666</ele></trkpt>
<trkpt lat="47.91491" lon="11.18227"><ele>662</ele></trkpt>
<trkpt lat="47.91489" lon="11.18192"><ele>661</ele></trkpt>
<trkpt lat="47.91480" lon="11.18158"><ele>659</ele></trkpt>
<trkpt lat="47.91411" lon="11.18110"><ele>651</ele></trkpt>
<trkpt lat="47.91368" lon="11.18097"><ele>646</ele></trkpt>
<trkpt lat="47.91339" lon="11.18095"><ele>642</ele></trkpt>
<trkpt lat="47.91273" lon="11.18120"><ele>634</ele></trkpt>
<trkpt lat="47.91201" lon="11.18113"><ele>626</ele></trkpt>
<trkpt lat="47.91161" lon="11.18125"><ele>621</ele></trkpt>
<trkpt lat="47.91130" lon="11.18122"><ele>617</ele></trkpt>
<trkpt lat="47.91085" lon="11.18099"><ele>612</ele></trkpt>
<trkpt lat="47.91040" lon="11.18064"><ele>607</ele></trkpt>
<trkpt lat="47.90981" lon="11.18003"><ele>599</ele></trkpt>
<trkpt lat="47.90945" lon="11.17991"><ele>596</ele></trkpt>
<trkpt lat="47.90874" lon="11.17999"><ele>593</ele></trkpt>
<trkpt lat="47.90833" lon="11.17998"><ele>590</ele></trkpt>
<trkpt lat="47.90794" lon="11.17972"><ele>588</ele></trkpt>
<trkpt lat="47.90771" lon="11.17944"><ele>587</ele></trkpt>
<trkpt lat="47.90729" lon="11.17918"><ele>587</ele></trkpt>
<trkpt lat="47.90689" lon="11.17958"><ele>586</ele></trkpt>
<trkpt lat="47.90618" lon="11.17963"><ele>586</ele></trkpt>
<trkpt lat="47.90626" lon="11.18026"><ele>588</ele></trkpt>
<trkpt lat="47.90677" lon="11.18134"><ele>591</ele></trkpt>
<trkpt lat="47.90668" lon="11.18178"><ele>593</ele></trkpt>
<trkpt lat="47.90638" lon="11.18252"><ele>594</ele></trkpt>
<trkpt lat="47.90619" lon="11.18275"><ele>594</ele></trkpt>
<trkpt lat="47.90638" lon="11.18252"><ele>595</ele></trkpt>
<trkpt lat="47.90650" lon="11.18224"><ele>596</ele></trkpt>
<trkpt lat="47.90660" lon="11.18188"><ele>596</ele></trkpt>
<trkpt lat="47.90592" lon="11.18264"><ele>598</ele></trkpt>
<trkpt lat="47.90548" lon="11.18359"><ele>600</ele></trkpt>
<trkpt lat="47.90483" lon="11.18473"><ele>605</ele></trkpt>
<trkpt lat="47.90467" lon="11.18504"><ele>607</ele></trkpt>
<trkpt lat="47.90425" lon="11.18624"><ele>613</ele></trkpt>
<trkpt lat="47.90379" lon="11.18736"><ele>623</ele></trkpt>
<trkpt lat="47.90377" lon="11.18773"><ele>625</ele></trkpt>
<trkpt lat="47.90392" lon="11.18876"><ele>634</ele></trkpt>
<trkpt lat="47.90420" lon="11.18908"><ele>639</ele></trkpt>
<trkpt lat="47.90433" lon="11.18948"><ele>642</ele></trkpt>
<trkpt lat="47.90435" lon="11.18990"><ele>646</ele></trkpt>
<trkpt lat="47.90432" lon="11.19026"><ele>649</ele></trkpt>
<trkpt lat="47.90390" lon="11.19117"><ele>656</ele></trkpt>
<trkpt lat="47.90361" lon="11.19209"><ele>661</ele></trkpt>
<trkpt lat="47.90324" lon="11.19250"><ele>665</ele></trkpt>
<trkpt lat="47.90305" lon="11.19288"><ele>667</ele></trkpt>
<trkpt lat="47.90281" lon="11.19361"><ele>669</ele></trkpt>
<trkpt lat="47.90271" lon="11.19408"><ele>670</ele></trkpt>
<trkpt lat="47.90277" lon="11.19471"><ele>671</ele></trkpt>
<trkpt lat="47.90298" lon="11.19526"><ele>673</ele></trkpt>
<trkpt lat="47.90319" lon="11.19614"><ele>673</ele></trkpt>
<trkpt lat="47.90358" lon="11.19797"><ele>674</ele></trkpt>
<trkpt lat="47.90366" lon="11.19848"><ele>674</ele></trkpt>
<trkpt lat="47.90365" lon="11.19942"><ele>675</ele></trkpt>
<trkpt lat="47.90332" lon="11.20146"><ele>678</ele></trkpt>
<trkpt lat="47.90342" lon="11.20208"><ele>680</ele></trkpt>
<trkpt lat="47.90389" lon="11.20325"><ele>680</ele></trkpt>
<trkpt lat="47.90400" lon="11.20363"><ele>680</ele></trkpt>
<trkpt lat="47.90401" lon="11.20438"><ele>679</ele></trkpt>
<trkpt lat="47.90367" lon="11.20577"><ele>677</ele></trkpt>
<trkpt lat="47.90363" lon="11.20616"><ele>676</ele></trkpt>
<trkpt lat="47.90367" lon="11.20664"><ele>675</ele></trkpt>
<trkpt lat="47.90377" lon="11.20698"><ele>674</ele></trkpt>
<trkpt lat="47.90417" lon="11.20787"><ele>672</ele></trkpt>
<trkpt lat="47.90430" lon="11.20825"><ele>671</ele></trkpt>
<trkpt lat="47.90452" lon="11.20950"><ele>669</ele></trkpt>
<trkpt lat="47.90485" lon="11.21078"><ele>668</ele></trkpt>
<trkpt lat="47.90500" lon="11.21171"><ele>668</ele></trkpt>
<trkpt lat="47.90500" lon="11.21219"><ele>668</ele></trkpt>
<trkpt lat="47.90482" lon="11.21350"><ele>669</ele></trkpt>
<trkpt lat="47.90476" lon="11.21445"><ele>670</ele></trkpt>
<trkpt lat="47.90478" lon="11.21495"><ele>671</ele></trkpt>
<trkpt lat="47.90483" lon="11.21536"><ele>672</ele></trkpt>
<trkpt lat="47.90528" lon="11.21720"><ele>677</ele></trkpt>
<trkpt lat="47.90561" lon="11.21799"><ele>680</ele></trkpt>
<trkpt lat="47.90575" lon="11.21905"><ele>681</ele></trkpt>
<trkpt lat="47.90519" lon="11.21939"><ele>682</ele></trkpt>
<trkpt lat="47.90494" lon="11.21984"><ele>683</ele></trkpt>
<trkpt lat="47.90455" lon="11.22025"><ele>683</ele></trkpt>
<trkpt lat="47.90472" lon="11.22102"><ele>682</ele></trkpt>
<trkpt lat="47.90484" lon="11.22132"><ele>682</ele></trkpt>
<trkpt lat="47.90490" lon="11.22165"><ele>682</ele></trkpt>
<trkpt lat="47.90437" lon="11.22320"><ele>679</ele></trkpt>
<trkpt lat="47.90428" lon="11.22368"><ele>678</ele></trkpt>
<trkpt lat="47.90412" lon="11.22420"><ele>677</ele></trkpt>
<trkpt lat="47.90377" lon="11.22477"><ele>675</ele></trkpt>
<trkpt lat="47.90338" lon="11.22560"><ele>673</ele></trkpt>
<trkpt lat="47.90328" lon="11.22622"><ele>672</ele></trkpt>
<trkpt lat="47.90305" lon="11.22692"><ele>670</ele></trkpt>
<trkpt lat="47.90299" lon="11.22735"><ele>670</ele></trkpt>
<trkpt lat="47.90222" lon="11.22807"><ele>667</ele></trkpt>
<trkpt lat="47.90162" lon="11.22976"><ele>664</ele></trkpt>
<trkpt lat="47.90148" lon="11.23035"><ele>663</ele></trkpt>
<trkpt lat="47.90123" lon="11.23112"><ele>661</ele></trkpt>
<trkpt lat="47.90077" lon="11.23221"><ele>661</ele></trkpt>
<trkpt lat="47.90036" lon="11.23281"><ele>660</ele></trkpt>
<trkpt lat="47.90004" lon="11.23311"><ele>660</ele></trkpt>
<trkpt lat="47.89997" lon="11.23349"><ele>661</ele></trkpt>
<trkpt lat="47.90011" lon="11.23392"><ele>662</ele></trkpt>
<trkpt lat="47.89999" lon="11.23518"><ele>665</ele></trkpt>
<trkpt lat="47.90003" lon="11.23578"><ele>666</ele></trkpt>
<trkpt lat="47.90085" lon="11.23821"><ele>679</ele></trkpt>
<trkpt lat="47.90095" lon="11.23893"><ele>683</ele></trkpt>
<trkpt lat="47.90122" lon="11.23923"><ele>687</ele></trkpt>
<trkpt lat="47.90124" lon="11.23968"><ele>690</ele></trkpt>
<trkpt lat="47.90112" lon="11.24091"><ele>696</ele></trkpt>
<trkpt lat="47.90094" lon="11.24141"><ele>698</ele></trkpt>
<trkpt lat="47.89981" lon="11.24346"><ele>704</ele></trkpt>
<trkpt lat="47.89912" lon="11.24407"><ele>705</ele></trkpt>
<trkpt lat="47.89872" lon="11.24534"><ele>707</ele></trkpt>
<trkpt lat="47.89844" lon="11.24591"><ele>708</ele></trkpt>
<trkpt lat="47.89821" lon="11.24663"><ele>709</ele></trkpt>
<trkpt lat="47.89855" lon="11.24737"><ele>710</ele></trkpt>
<trkpt lat="47.89866" lon="11.24773"><ele>710</ele></trkpt>
<trkpt lat="47.89888" lon="11.24751"><ele>711</ele></trkpt>
<trkpt lat="47.89911" lon="11.24706"><ele>712</ele></trkpt>
<trkpt lat="47.89933" lon="11.24620"><ele>713</ele></trkpt>
<trkpt lat="47.89951" lon="11.24596"><ele>713</ele></trkpt>
<trkpt lat="47.89977" lon="11.24586"><ele>714</ele></trkpt>
<trkpt lat="47.90001" lon="11.24585"><ele>714</ele></trkpt>
<trkpt lat="47.90046" lon="11.24601"><ele>715</ele></trkpt>
<trkpt lat="47.90031" lon="11.24628"><ele>715</ele></trkpt>
<trkpt lat="47.89998" lon="11.24718"><ele>716</ele></trkpt>
<trkpt lat="47.90028" lon="11.24765"><ele>716</ele></trkpt>
<trkpt lat="47.90069" lon="11.24812"><ele>717</ele></trkpt>
<trkpt lat="47.90127" lon="11.24897"><ele>717</ele></trkpt>
<trkpt lat="47.90189" lon="11.24975"><ele>718</ele></trkpt>
<trkpt lat="47.90427" lon="11.25044"><ele>716</ele></trkpt>
<trkpt lat="47.90460" lon="11.25105"><ele>715</ele></trkpt>
<trkpt lat="47.90480" lon="11.25125"><ele>715</ele></trkpt>
<trkpt lat="47.90642" lon="11.25194"><ele>713</ele></trkpt>
<trkpt lat="47.90679" lon="11.25206"><ele>712</ele></trkpt>
<trkpt lat="47.90702" lon="11.25228"><ele>711</ele></trkpt>
<trkpt lat="47.90723" lon="11.25258"><ele>710</ele></trkpt>
<trkpt lat="47.90731" lon="11.25293"><ele>710</ele></trkpt>
<trkpt lat="47.90722" lon="11.25449"><ele>706</ele></trkpt>
<trkpt lat="47.90757" lon="11.25447"><ele>705</ele></trkpt>
<trkpt lat="47.90781" lon="11.25454"><ele>704</ele></trkpt>
<trkpt lat="47.90855" lon="11.25526"><ele>703</ele></trkpt>
<trkpt lat="47.90877" lon="11.25542"><ele>703</ele></trkpt>
<trkpt lat="47.90911" lon="11.25556"><ele>702</ele></trkpt>
<trkpt lat="47.90963" lon="11.25543"><ele>702</ele></trkpt>
<trkpt lat="47.91066" lon="11.25464"><ele>702</ele></trkpt>
<trkpt lat="47.91121" lon="11.25434"><ele>703</ele></trkpt>
<trkpt lat="47.91156" lon="11.25394"><ele>703</ele></trkpt>
<trkpt lat="47.91189" lon="11.25384"><ele>703</ele></trkpt>
<trkpt lat="47.91233" lon="11.25426"><ele>703</ele></trkpt>
<trkpt lat="47.91368" lon="11.25478"><ele>703</ele></trkpt>
<trkpt lat="47.91461" lon="11.25527"><ele>702</ele></trkpt>
<trkpt lat="47.91468" lon="11.25568"><ele>702</ele></trkpt>
<trkpt lat="47.91492" lon="11.25633"><ele>701</ele></trkpt>
<trkpt lat="47.91645" lon="11.25730"><ele>696</ele></trkpt>
<trkpt lat="47.91688" lon="11.25723"><ele>695</ele></trkpt>
<trkpt lat="47.91748" lon="11.25699"><ele>693</ele></trkpt>
<trkpt lat="47.91781" lon="11.25676"><ele>693</ele></trkpt>
<trkpt lat="47.91813" lon="11.25664"><ele>693</ele></trkpt>
<trkpt lat="47.91815" lon="11.25801"><ele>692</ele></trkpt>
<trkpt lat="47.91840" lon="11.25846"><ele>693</ele></trkpt>
<trkpt lat="47.91850" lon="11.25879"><ele>693</ele></trkpt>
<trkpt lat="47.91855" lon="11.25915"><ele>693</ele></trkpt>
<trkpt lat="47.91883" lon="11.25953"><ele>694</ele></trkpt>
<trkpt lat="47.91914" lon="11.25959"><ele>694</ele></trkpt>
<trkpt lat="47.91948" lon="11.25958"><ele>694</ele></trkpt>
<trkpt lat="47.91990" lon="11.25950"><ele>694</ele></trkpt>
<trkpt lat="47.92012" lon="11.25940"><ele>694</ele></trkpt>
<trkpt lat="47.92048" lon="11.25938"><ele>694</ele></trkpt>
<trkpt lat="47.92113" lon="11.26026"><ele>693</ele></trkpt>
<trkpt lat="47.92127" lon="11.26062"><ele>693</ele></trkpt>
<trkpt lat="47.92142" lon="11.26116"><ele>692</ele></trkpt>
<trkpt lat="47.92158" lon="11.26198"><ele>691</ele></trkpt>
<trkpt lat="47.92191" lon="11.26251"><ele>691</ele></trkpt>
<trkpt lat="47.92218" lon="11.26367"><ele>689</ele></trkpt>
<trkpt lat="47.92219" lon="11.26403"><ele>689</ele></trkpt>
<trkpt lat="47.92253" lon="11.26460"><ele>688</ele></trkpt>
<trkpt lat="47.92260" lon="11.26508"><ele>688</ele></trkpt>
<trkpt lat="47.92260" lon="11.26552"><ele>687</ele></trkpt>
<trkpt lat="47.92282" lon="11.26646"><ele>687</ele></trkpt>
<trkpt lat="47.92287" lon="11.26657"><ele>686</ele></trkpt>
<trkpt lat="47.92404" lon="11.26629"><ele>686</ele></trkpt>
<trkpt lat="47.92450" lon="11.26641"><ele>686</ele></trkpt>
<trkpt lat="47.92544" lon="11.26602"><ele>686</ele></trkpt>
<trkpt lat="47.92610" lon="11.26605"><ele>686</ele></trkpt>
<trkpt lat="47.92677" lon="11.26572"><ele>685</ele></trkpt>
<trkpt lat="47.92698" lon="11.26556"><ele>685</ele></trkpt>
<trkpt lat="47.92922" lon="11.26496"><ele>683</ele></trkpt>
<trkpt lat="47.93013" lon="11.26418"><ele>682</ele></trkpt>
<trkpt lat="47.93066" lon="11.26345"><ele>682</ele></trkpt>
<trkpt lat="47.93139" lon="11.26339"><ele>682</ele></trkpt>
<trkpt lat="47.93169" lon="11.26292"><ele>681</ele></trkpt>
<trkpt lat="47.93216" lon="11.26229"><ele>682</ele></trkpt>
<trkpt lat="47.93246" lon="11.26206"><ele>682</ele></trkpt>
<trkpt lat="47.93289" lon="11.26192"><ele>682</ele></trkpt>
<trkpt lat="47.93354" lon="11.26179"><ele>680</ele></trkpt>
<trkpt lat="47.93410" lon="11.26185"><ele>678</ele></trkpt>
<trkpt lat="47.93446" lon="11.26168"><ele>677</ele></trkpt>
<trkpt lat="47.93472" lon="11.26131"><ele>675</ele></trkpt>
<trkpt lat="47.93531" lon="11.26125"><ele>674</ele></trkpt>
<trkpt lat="47.93555" lon="11.26117"><ele>673</ele></trkpt>
<trkpt lat="47.93661" lon="11.26035"><ele>670</ele></trkpt>
<trkpt lat="47.93696" lon="11.26020"><ele>669</ele></trkpt>
<trkpt lat="47.93744" lon="11.26013"><ele>668</ele></trkpt>
<trkpt lat="47.93773" lon="11.26004"><ele>667</ele></trkpt>
<trkpt lat="47.93830" lon="11.25977"><ele>667</ele></trkpt>
<trkpt lat="47.93897" lon="11.25933"><ele>666</ele></trkpt>
<trkpt lat="47.94012" lon="11.25889"><ele>666</ele></trkpt>
<trkpt lat="47.94042" lon="11.25870"><ele>665</ele></trkpt>
<trkpt lat="47.94061" lon="11.25853"><ele>665</ele></trkpt>
<trkpt lat="47.94098" lon="11.25848"><ele>665</ele></trkpt>
<trkpt lat="47.94168" lon="11.25849"><ele>664</ele></trkpt>
<trkpt lat="47.94214" lon="11.25840"><ele>664</ele></trkpt>
<trkpt lat="47.94247" lon="11.25820"><ele>664</ele></trkpt>
<trkpt lat="47.94271" lon="11.25793"><ele>664</ele></trkpt>
<trkpt lat="47.94329" lon="11.25706"><ele>664</ele></trkpt>
<trkpt lat="47.94363" lon="11.25739"><ele>664</ele></trkpt>
<trkpt lat="47.94459" lon="11.25778"><ele>664</ele></trkpt>
<trkpt lat="47.94512" lon="11.25566"><ele>665</ele></trkpt>
<trkpt lat="47.94525" lon="11.25530"><ele>665</ele></trkpt>
<trkpt lat="47.94574" lon="11.25427"><ele>667</ele></trkpt>
<trkpt lat="47.94585" lon="11.25381"><ele>668</ele></trkpt>
<trkpt lat="47.94595" lon="11.25279"><ele>670</ele></trkpt>
<trkpt lat="47.94594" lon="11.25236"><ele>671</ele></trkpt>
<trkpt lat="47.94588" lon="11.25184"><ele>672</ele></trkpt>
<trkpt lat="47.94614" lon="11.25133"><ele>673</ele></trkpt>
<trkpt lat="47.94643" lon="11.25115"><ele>674</ele></trkpt>
<trkpt lat="47.94815" lon="11.25134"><ele>675</ele></trkpt>
<trkpt lat="47.94857" lon="11.25132"><ele>675</ele></trkpt>
<trkpt lat="47.94891" lon="11.25117"><ele>674</ele></trkpt>
<trkpt lat="47.94964" lon="11.25038"><ele>673</ele></trkpt>
<trkpt lat="47.94989" lon="11.25025"><ele>673</ele></trkpt>
<trkpt lat="47.95025" lon="11.25028"><ele>672</ele></trkpt>
<trkpt lat="47.95085" lon="11.25059"><ele>673</ele></trkpt>
<trkpt lat="47.95141" lon="11.25054"><ele>673</ele></trkpt>
<trkpt lat="47.95169" lon="11.25046"><ele>673</ele></trkpt>
<trkpt lat="47.95192" lon="11.25034"><ele>673</ele></trkpt>
<trkpt lat="47.95247" lon="11.24989"><ele>673</ele></trkpt>
<trkpt lat="47.95304" lon="11.24960"><ele>673</ele></trkpt>
<trkpt lat="47.95359" lon="11.24912"><ele>673</ele></trkpt>
<trkpt lat="47.95381" lon="11.24908"><ele>672</ele></trkpt>
<trkpt lat="47.95510" lon="11.24952"><ele>669</ele></trkpt>
<trkpt lat="47.95549" lon="11.24956"><ele>669</ele></trkpt>
<trkpt lat="47.95691" lon="11.24917"><ele>666</ele></trkpt>
<trkpt lat="47.95780" lon="11.24921"><ele>664</ele></trkpt>
<trkpt lat="47.95800" lon="11.25098"><ele>662</ele></trkpt>
<trkpt lat="47.95814" lon="11.25148"><ele>662</ele></trkpt>
<trkpt lat="47.95829" lon="11.25230"><ele>662</ele></trkpt>
<trkpt lat="47.95846" lon="11.25285"><ele>662</ele></trkpt>
<trkpt lat="47.95923" lon="11.25327"><ele>662</ele></trkpt>
<trkpt lat="47.96038" lon="11.25343"><ele>661</ele></trkpt>
<trkpt lat="47.96085" lon="11.25380"><ele>660</ele></trkpt>
<trkpt lat="47.96124" lon="11.25394"><ele>659</ele></trkpt>
<trkpt lat="47.96156" lon="11.25381"><ele>658</ele></trkpt>
<trkpt lat="47.96316" lon="11.25380"><ele>654</ele></trkpt>
<trkpt lat="47.96401" lon="11.25418"><ele>652</ele></trkpt>
<trkpt lat="47.96440" lon="11.25431"><ele>651</ele></trkpt>
<trkpt lat="47.96471" lon="11.25453"><ele>650</ele></trkpt>
<trkpt lat="47.96498" lon="11.25458"><ele>649</ele></trkpt>
<trkpt lat="47.96520" lon="11.25519"><ele>648</ele></trkpt>
<trkpt lat="47.96533" lon="11.25612"><ele>646</ele></trkpt>
<trkpt lat="47.96562" lon="11.25623"><ele>646</ele></trkpt>
<trkpt lat="47.96581" lon="11.25647"><ele>645</ele></trkpt>
<trkpt lat="47.96584" lon="11.25683"><ele>644</ele></trkpt>
<trkpt lat="47.96573" lon="11.25734"><ele>643</ele></trkpt>
<trkpt lat="47.96597" lon="11.25803"><ele>643</ele></trkpt>
<trkpt lat="47.96615" lon="11.25818"><ele>643</ele></trkpt>
<trkpt lat="47.96645" lon="11.25891"><ele>642</ele></trkpt>
<trkpt lat="47.96671" lon="11.25900"><ele>642</ele></trkpt>
<trkpt lat="47.96711" lon="11.25899"><ele>642</ele></trkpt>
<trkpt lat="47.96834" lon="11.25832"><ele>641</ele></trkpt>
<trkpt lat="47.96869" lon="11.25836"><ele>641</ele></trkpt>
<trkpt lat="47.96920" lon="11.25944"><ele>640</ele></trkpt>
<trkpt lat="47.97015" lon="11.26232"><ele>637</ele></trkpt>
<trkpt lat="47.97034" lon="11.26281"><ele>637</ele></trkpt>
<trkpt lat="47.97089" lon="11.26387"><ele>637</ele></trkpt>
<trkpt lat="47.97103" lon="11.26583"><ele>638</ele></trkpt>
<trkpt lat="47.97104" lon="11.26699"><ele>638</ele></trkpt>
<trkpt lat="47.97113" lon="11.26936"><ele>637</ele></trkpt>
<trkpt lat="47.97127" lon="11.27167"><ele>637</ele></trkpt>
<trkpt lat="47.97179" lon="11.27570"><ele>635</ele></trkpt>
<trkpt lat="47.97206" lon="11.27661"><ele>635</ele></trkpt>
<trkpt lat="47.97249" lon="11.27704"><ele>635</ele></trkpt>
<trkpt lat="47.97298" lon="11.27784"><ele>635</ele></trkpt>
<trkpt lat="47.97318" lon="11.27826"><ele>635</ele></trkpt>
<trkpt lat="47.97353" lon="11.27861"><ele>636</ele></trkpt>
<trkpt lat="47.97390" lon="11.27883"><ele>636</ele></trkpt>
<trkpt lat="47.97492" lon="11.27931"><ele>636</ele></trkpt>
<trkpt lat="47.97613" lon="11.28059"><ele>636</ele></trkpt>
<trkpt lat="47.97756" lon="11.28230"><ele>634</ele></trkpt>
<trkpt lat="47.97775" lon="11.28248"><ele>634</ele></trkpt>
<trkpt lat="47.97802" lon="11.28260"><ele>634</ele></trkpt>
<trkpt lat="47.97839" lon="11.28257"><ele>634</ele></trkpt>
<trkpt lat="47.97945" lon="11.28264"><ele>635</ele></trkpt>
<trkpt lat="47.98008" lon="11.28291"><ele>635</ele></trkpt>
<trkpt lat="47.98033" lon="11.28307"><ele>635</ele></trkpt>
<trkpt lat="47.98066" lon="11.28301"><ele>635</ele></trkpt>
<trkpt lat="47.98106" lon="11.28279"><ele>635</ele></trkpt>
<trkpt lat="47.98131" lon="11.28280"><ele>635</ele></trkpt>
<trkpt lat="47.98154" lon="11.28311"><ele>635</ele></trkpt>
<trkpt lat="47.98169" lon="11.28341"><ele>635</ele></trkpt>
<trkpt lat="47.98196" lon="11.28367"><ele>635</ele></trkpt>
<trkpt lat="47.98219" lon="11.28351"><ele>635</ele></trkpt>
<trkpt lat="47.98236" lon="11.28399"><ele>635</ele></trkpt>
<trkpt lat="47.98276" lon="11.28475"><ele>635</ele></trkpt>
<trkpt lat="47.98315" lon="11.28529"><ele>636</ele></trkpt>
<trkpt lat="47.98356" lon="11.28598"><ele>636</ele></trkpt>
<trkpt lat="47.98377" lon="11.28666"><ele>638</ele></trkpt>
<trkpt lat="47.98430" lon="11.28679"><ele>639</ele></trkpt>
<trkpt lat="47.98462" lon="11.28728"><ele>640</ele></trkpt>
<trkpt lat="47.98481" lon="11.28747"><ele>641</ele></trkpt>
<trkpt lat="47.98532" lon="11.28734"><ele>642</ele></trkpt>
<trkpt lat="47.98540" lon="11.28833"><ele>643</ele></trkpt>
<trkpt lat="47.98550" lon="11.28887"><ele>643</ele></trkpt>
<trkpt lat="47.98528" lon="11.28905"><ele>643</ele></trkpt>
<trkpt lat="47.98526" lon="11.28956"><ele>642</ele></trkpt>
<trkpt lat="47.98530" lon="11.28995"><ele>641</ele></trkpt>
<trkpt lat="47.98525" lon="11.29064"><ele>639</ele></trkpt>
<trkpt lat="47.98535" lon="11.29153"><ele>637</ele></trkpt>
<trkpt lat="47.98546" lon="11.29194"><ele>636</ele></trkpt>
<trkpt lat="47.98555" lon="11.29289"><ele>635</ele></trkpt>
<trkpt lat="47.98569" lon="11.29342"><ele>634</ele></trkpt>
<trkpt lat="47.98621" lon="11.29403"><ele>632</ele></trkpt>
<trkpt lat="47.98644" lon="11.29453"><ele>633</ele></trkpt>
<trkpt lat="47.98647" lon="11.29518"><ele>633</ele></trkpt>
<trkpt lat="47.98704" lon="11.29508"><ele>633</ele></trkpt>
<trkpt lat="47.98758" lon="11.29567"><ele>634</ele></trkpt>
<trkpt lat="47.98790" lon="11.29584"><ele>633</ele></trkpt>
<trkpt lat="47.98823" lon="11.29579"><ele>633</ele></trkpt>
<trkpt lat="47.98844" lon="11.29560"><ele>633</ele></trkpt>
<trkpt lat="47.98868" lon="11.29551"><ele>633</ele></trkpt>
<trkpt lat="47.98899" lon="11.29567"><ele>633</ele></trkpt>
<trkpt lat="47.98919" lon="11.29593"><ele>634</ele></trkpt>
<trkpt lat="47.98944" lon="11.29642"><ele>634</ele></trkpt>
<trkpt lat="47.98962" lon="11.29685"><ele>635</ele></trkpt>
<trkpt lat="47.98974" lon="11.29730"><ele>635</ele></trkpt>
<trkpt lat="47.98994" lon="11.29764"><ele>636</ele></trkpt>
<trkpt lat="47.99028" lon="11.29806"><ele>636</ele></trkpt>
<trkpt lat="47.99064" lon="11.29910"><ele>636</ele></trkpt>
<trkpt lat="47.99103" lon="11.30074"><ele>637</ele></trkpt>
<trkpt lat="47.99146" lon="11.30128"><ele>637</ele></trkpt>
<trkpt lat="47.99157" lon="11.30165"><ele>637</ele></trkpt>
<trkpt lat="47.99137" lon="11.30258"><ele>637</ele></trkpt>
<trkpt lat="47.99152" lon="11.30367"><ele>636</ele></trkpt>
<trkpt lat="47.99190" lon="11.30417"><ele>634</ele></trkpt>
<trkpt lat="47.99207" lon="11.30453"><ele>634</ele></trkpt>
<trkpt lat="47.99201" lon="11.30528"><ele>634</ele></trkpt>
<trkpt lat="47.99200" lon="11.30588"><ele>634</ele></trkpt>
<trkpt lat="47.99207" lon="11.30653"><ele>634</ele></trkpt>
<trkpt lat="47.99219" lon="11.30711"><ele>634</ele></trkpt>
<trkpt lat="47.99222" lon="11.30746"><ele>634</ele></trkpt>
<trkpt lat="47.99234" lon="11.30789"><ele>633</ele></trkpt>
<trkpt lat="47.99249" lon="11.30825"><ele>633</ele></trkpt>
<trkpt lat="47.99291" lon="11.31031"><ele>630</ele></trkpt>
<trkpt lat="47.99290" lon="11.31067"><ele>628</ele></trkpt>
<trkpt lat="47.99256" lon="11.31219"><ele>623</ele></trkpt>
<trkpt lat="47.99250" lon="11.31338"><ele>620</ele></trkpt>
<trkpt lat="47.99237" lon="11.31500"><ele>615</ele></trkpt>
<trkpt lat="47.99221" lon="11.31570"><ele>614</ele></trkpt>
<trkpt lat="47.99223" lon="11.31653"><ele>613</ele></trkpt>
<trkpt lat="47.99285" lon="11.31752"><ele>612</ele></trkpt>
<trkpt lat="47.99305" lon="11.31799"><ele>613</ele></trkpt>
<trkpt lat="47.99311" lon="11.31840"><ele>613</ele></trkpt>
<trkpt lat="47.99324" lon="11.31890"><ele>614</ele></trkpt>
<trkpt lat="47.99339" lon="11.31918"><ele>614</ele></trkpt>
<trkpt lat="47.99360" lon="11.31988"><ele>614</ele></trkpt>
<trkpt lat="47.99400" lon="11.32036"><ele>615</ele></trkpt>
<trkpt lat="47.99426" lon="11.32114"><ele>615</ele></trkpt>
<trkpt lat="47.99467" lon="11.32146"><ele>615</ele></trkpt>
<trkpt lat="47.99498" lon="11.32151"><ele>615</ele></trkpt>
<trkpt lat="47.99535" lon="11.32167"><ele>615</ele></trkpt>
<trkpt lat="47.99553" lon="11.32188"><ele>615</ele></trkpt>
<trkpt lat="47.99572" lon="11.32228"><ele>614</ele></trkpt>
<trkpt lat="47.99609" lon="11.32288"><ele>614</ele></trkpt>
<trkpt lat="47.99668" lon="11.32472"><ele>612</ele></trkpt>
<trkpt lat="47.99704" lon="11.32628"><ele>610</ele></trkpt>
<trkpt lat="47.99720" lon="11.32658"><ele>610</ele></trkpt>
<trkpt lat="47.99753" lon="11.32802"><ele>608</ele></trkpt>
<trkpt lat="47.99800" lon="11.32785"><ele>608</ele></trkpt>
<trkpt lat="47.99830" lon="11.32808"><ele>609</ele></trkpt>
<trkpt lat="47.99844" lon="11.32853"><ele>609</ele></trkpt>
<trkpt lat="47.99868" lon="11.32881"><ele>609</ele></trkpt>
<trkpt lat="47.99902" lon="11.32912"><ele>612</ele></trkpt>
<trkpt lat="47.99945" lon="11.32802"><ele>619</ele></trkpt>
<trkpt lat="47.99970" lon="11.32750"><ele>622</ele></trkpt>
<trkpt lat="47.99990" lon="11.32713"><ele>625</ele></trkpt>
<trkpt lat="48.00028" lon="11.32659"><ele>630</ele></trkpt>
<trkpt lat="48.00077" lon="11.32709"><ele>637</ele></trkpt>
<trkpt lat="48.00102" lon="11.32705"><ele>640</ele></trkpt>
<trkpt lat="48.00160" lon="11.32661"><ele>646</ele></trkpt>
<trkpt lat="48.00175" lon="11.32613"><ele>650</ele></trkpt>
<trkpt lat="48.00214" lon="11.32594"><ele>653</ele></trkpt>
<trkpt lat="48.00332" lon="11.32472"><ele>658</ele></trkpt>
<trkpt lat="48.00361" lon="11.32533"><ele>659</ele></trkpt>
<trkpt lat="48.00368" lon="11.32577"><ele>659</ele></trkpt>
<trkpt lat="48.00426" lon="11.32682"><ele>655</ele></trkpt>
<trkpt lat="48.00480" lon="11.32794"><ele>652</ele></trkpt>
<trkpt lat="48.00686" lon="11.33161"><ele>655</ele></trkpt>
<trkpt lat="48.00719" lon="11.33175"><ele>656</ele></trkpt>
<trkpt lat="48.00765" lon="11.33202"><ele>659</ele></trkpt>
<trkpt lat="48.00794" lon="11.33161"><ele>662</ele></trkpt>
<trkpt lat="48.00858" lon="11.33203"><ele>666</ele></trkpt>
<trkpt lat="48.00910" lon="11.33205"><ele>668</ele></trkpt>
<trkpt lat="48.00946" lon="11.33214"><ele>670</ele></trkpt>
<trkpt lat="48.01026" lon="11.33222"><ele>674</ele></trkpt>
<trkpt lat="48.01049" lon="11.33232"><ele>675</ele></trkpt>
<trkpt lat="48.01066" lon="11.33308"><ele>675</ele></trkpt>
<trkpt lat="48.01134" lon="11.33288"><ele>675</ele></trkpt>
<trkpt lat="48.01180" lon="11.33266"><ele>676</ele></trkpt>
<trkpt lat="48.01239" lon="11.33224"><ele>675</ele></trkpt>
<trkpt lat="48.01271" lon="11.33242"><ele>674</ele></trkpt>
<trkpt lat="48.01338" lon="11.33330"><ele>673</ele></trkpt>
<trkpt lat="48.01374" lon="11.33387"><ele>673</ele></trkpt>
<trkpt lat="48.01403" lon="11.33423"><ele>673</ele></trkpt>
<trkpt lat="48.01439" lon="11.33446"><ele>672</ele></trkpt>
<trkpt lat="48.01495" lon="11.33518"><ele>673</ele></trkpt>
<trkpt lat="48.01558" lon="11.33582"><ele>673</ele></trkpt>
<trkpt lat="48.01587" lon="11.33622"><ele>673</ele></trkpt>
<trkpt lat="48.01608" lon="11.33617"><ele>673</ele></trkpt>
<trkpt lat="48.01898" lon="11.33906"><ele>676</ele></trkpt>
<trkpt lat="48.01908" lon="11.33951"><ele>676</ele></trkpt>
<trkpt lat="48.01951" lon="11.34042"><ele>673</ele></trkpt>
<trkpt lat="48.02013" lon="11.34052"><ele>671</ele></trkpt>
<trkpt lat="48.02055" lon="11.34079"><ele>669</ele></trkpt>
<trkpt lat="48.02158" lon="11.34085"><ele>664</ele></trkpt>
<trkpt lat="48.02182" lon="11.34079"><ele>663</ele></trkpt>
<trkpt lat="48.02205" lon="11.34079"><ele>662</ele></trkpt>
<trkpt lat="48.02376" lon="11.34181"><ele>651</ele></trkpt>
<trkpt lat="48.02402" lon="11.34188"><ele>649</ele></trkpt>
<trkpt lat="48.02481" lon="11.34198"><ele>644</ele></trkpt>
<trkpt lat="48.02515" lon="11.34190"><ele>642</ele></trkpt>
<trkpt lat="48.02545" lon="11.34175"><ele>640</ele></trkpt>
<trkpt lat="48.02627" lon="11.34109"><ele>639</ele></trkpt>
<trkpt lat="48.02708" lon="11.34051"><ele>638</ele></trkpt>
<trkpt lat="48.02736" lon="11.34050"><ele>638</ele></trkpt>
<trkpt lat="48.02778" lon="11.34081"><ele>637</ele></trkpt>
<trkpt lat="48.02855" lon="11.34106"><ele>636</ele></trkpt>
<trkpt lat="48.02904" lon="11.34111"><ele>635</ele></trkpt>
<trkpt lat="48.03040" lon="11.34067"><ele>632</ele></trkpt>
<trkpt lat="48.03129" lon="11.34004"><ele>631</ele></trkpt>
<trkpt lat="48.03212" lon="11.33964"><ele>630</ele></trkpt>
<trkpt lat="48.03260" lon="11.33947"><ele>629</ele></trkpt>
<trkpt lat="48.03520" lon="11.34037"><ele>627</ele></trkpt>
<trkpt lat="48.03583" lon="11.34065"><ele>627</ele></trkpt>
<trkpt lat="48.03603" lon="11.34081"><ele>627</ele></trkpt>
<trkpt lat="48.03711" lon="11.34253"><ele>630</ele></trkpt>
<trkpt lat="48.03737" lon="11.34285"><ele>630</ele></trkpt>
<trkpt lat="48.03690" lon="11.34347"><ele>632</ele></trkpt>
<trkpt lat="48.03637" lon="11.34428"><ele>633</ele></trkpt>
<trkpt lat="48.03578" lon="11.34536"><ele>636</ele></trkpt>
<trkpt lat="48.03533" lon="11.34643"><ele>638</ele></trkpt>
<trkpt lat="48.03496" lon="11.34755"><ele>638</ele></trkpt>
<trkpt lat="48.03444" lon="11.35019"><ele>638</ele></trkpt>
<trkpt lat="48.03395" lon="11.35215"><ele>634</ele></trkpt>
<trkpt lat="48.03367" lon="11.35288"><ele>632</ele></trkpt>
<trkpt lat="48.03343" lon="11.35331"><ele>630</ele></trkpt>
<trkpt lat="48.03303" lon="11.35362"><ele>628</ele></trkpt>
<trkpt lat="48.03263" lon="11.35419"><ele>626</ele></trkpt>
<trkpt lat="48.03228" lon="11.35430"><ele>624</ele></trkpt>
<trkpt lat="48.03211" lon="11.35379"><ele>623</ele></trkpt>
<trkpt lat="48.03189" lon="11.35344"><ele>621</ele></trkpt>
<trkpt lat="48.03126" lon="11.35282"><ele>619</ele></trkpt>
<trkpt lat="48.03101" lon="11.35310"><ele>617</ele></trkpt>
<trkpt lat="48.03026" lon="11.35439"><ele>614</ele></trkpt>
<trkpt lat="48.03020" lon="11.35481"><ele>614</ele></trkpt>
<trkpt lat="48.03033" lon="11.35533"><ele>613</ele></trkpt>
<trkpt lat="48.03084" lon="11.35612"><ele>611</ele></trkpt>
<trkpt lat="48.03146" lon="11.35632"><ele>609</ele></trkpt>
<trkpt lat="48.03196" lon="11.35680"><ele>607</ele></trkpt>
<trkpt lat="48.03216" lon="11.35716"><ele>606</ele></trkpt>
<trkpt lat="48.03280" lon="11.35900"><ele>598</ele></trkpt>
<trkpt lat="48.03305" lon="11.35948"><ele>596</ele></trkpt>
<trkpt lat="48.03344" lon="11.35884"><ele>594</ele></trkpt>
<trkpt lat="48.03369" lon="11.35850"><ele>594</ele></trkpt>
<trkpt lat="48.03399" lon="11.35833"><ele>594</ele></trkpt>
<trkpt lat="48.03441" lon="11.35836"><ele>593</ele></trkpt>
<trkpt lat="48.03473" lon="11.35850"><ele>593</ele></trkpt>
<trkpt lat="48.03539" lon="11.35899"><ele>594</ele></trkpt>
<trkpt lat="48.03561" lon="11.35943"><ele>595</ele></trkpt>
<trkpt lat="48.03555" lon="11.35996"><ele>595</ele></trkpt>
<trkpt lat="48.03583" lon="11.36086"><ele>596</ele></trkpt>
<trkpt lat="48.03594" lon="11.36145"><ele>596</ele></trkpt>
<trkpt lat="48.03603" lon="11.36223"><ele>595</ele></trkpt>
<trkpt lat="48.03600" lon="11.36327"><ele>595</ele></trkpt>
<trkpt lat="48.03620" lon="11.36390"><ele>595</ele></trkpt>
<trkpt lat="48.03640" lon="11.36481"><ele>594</ele></trkpt>
<trkpt lat="48.03655" lon="11.36525"><ele>594</ele></trkpt>
<trkpt lat="48.03666" lon="11.36623"><ele>593</ele></trkpt>
<trkpt lat="48.03689" lon="11.36732"><ele>592</ele></trkpt>
<trkpt lat="48.03744" lon="11.36936"><ele>588</ele></trkpt>
<trkpt lat="48.03772" lon="11.37025"><ele>587</ele></trkpt>
<trkpt lat="48.03843" lon="11.37174"><ele>584</ele></trkpt>
<trkpt lat="48.03864" lon="11.37208"><ele>584</ele></trkpt>
<trkpt lat="48.03949" lon="11.37314"><ele>583</ele></trkpt>
<trkpt lat="48.04006" lon="11.37330"><ele>582</ele></trkpt>
<trkpt lat="48.04034" lon="11.37350"><ele>582</ele></trkpt>
<trkpt lat="48.04075" lon="11.37389"><ele>581</ele></trkpt>
<trkpt lat="48.04112" lon="11.37361"><ele>581</ele></trkpt>
<trkpt lat="48.04225" lon="11.37180"><ele>578</ele></trkpt>
<trkpt lat="48.04239" lon="11.37142"><ele>578</ele></trkpt>
<trkpt lat="48.04246" lon="11.37051"><ele>577</ele></trkpt>
<trkpt lat="48.04247" lon="11.36955"><ele>576</ele></trkpt>
<trkpt lat="48.04228" lon="11.36838"><ele>576</ele></trkpt>
<trkpt lat="48.04210" lon="11.36764"><ele>576</ele></trkpt>
<trkpt lat="48.04222" lon="11.36709"><ele>576</ele></trkpt>
<trkpt lat="48.04252" lon="11.36669"><ele>577</ele></trkpt>
<trkpt lat="48.04276" lon="11.36664"><ele>577</ele></trkpt>
<trkpt lat="48.04301" lon="11.36680"><ele>578</ele></trkpt>
<trkpt lat="48.04360" lon="11.36754"><ele>579</ele></trkpt>
<trkpt lat="48.04375" lon="11.36789"><ele>579</ele></trkpt>
<trkpt lat="48.04438" lon="11.36896"><ele>580</ele></trkpt>
<trkpt lat="48.04457" lon="11.36916"><ele>581</ele></trkpt>
<trkpt lat="48.04509" lon="11.36956"><ele>581</ele></trkpt>
<trkpt lat="48.04530" lon="11.36984"><ele>581</ele></trkpt>
<trkpt lat="48.04674" lon="11.37071"><ele>579</ele></trkpt>
<trkpt lat="48.04728" lon="11.37109"><ele>578</ele></trkpt>
<trkpt lat="48.04790" lon="11.37132"><ele>577</ele></trkpt>
<trkpt lat="48.04868" lon="11.37148"><ele>575</ele></trkpt>
<trkpt lat="48.04899" lon="11.37149"><ele>575</ele></trkpt>
<trkpt lat="48.04934" lon="11.37142"><ele>574</ele></trkpt>
<trkpt lat="48.04967" lon="11.37141"><ele>574</ele></trkpt>
<trkpt lat="48.04996" lon="11.37150"><ele>574</ele></trkpt>
<trkpt lat="48.05042" lon="11.37178"><ele>574</ele></trkpt>
<trkpt lat="48.05081" lon="11.37194"><ele>574</ele></trkpt>
<trkpt lat="48.05182" lon="11.37316"><ele>575</ele></trkpt>
<trkpt lat="48.05202" lon="11.37367"><ele>575</ele></trkpt>
<trkpt lat="48.05306" lon="11.37487"><ele>574</ele></trkpt>
<trkpt lat="48.05374" lon="11.37475"><ele>572</ele></trkpt>
<trkpt lat="48.05406" lon="11.37493"><ele>571</ele></trkpt>
<trkpt lat="48.05452" lon="11.37580"><ele>570</ele></trkpt>
<trkpt lat="48.05479" lon="11.37598"><ele>569</ele></trkpt>
<trkpt lat="48.05519" lon="11.37649"><ele>568</ele></trkpt>
<trkpt lat="48.05556" lon="11.37679"><ele>568</ele></trkpt>
<trkpt lat="48.05574" lon="11.37703"><ele>567</ele></trkpt>
<trkpt lat="48.05619" lon="11.37824"><ele>567</ele></trkpt>
<trkpt lat="48.05633" lon="11.37853"><ele>567</ele></trkpt>
<trkpt lat="48.05710" lon="11.37935"><ele>568</ele></trkpt>
<trkpt lat="48.05782" lon="11.37987"><ele>570</ele></trkpt>
<trkpt lat="48.05774" lon="11.38104"><ele>574</ele></trkpt>
<trkpt lat="48.05754" lon="11.38173"><ele>578</ele></trkpt>
<trkpt lat="48.05729" lon="11.38205"><ele>581</ele></trkpt>
<trkpt lat="48.05693" lon="11.38227"><ele>584</ele></trkpt>
<trkpt lat="48.05652" lon="11.38230"><ele>588</ele></trkpt>
<trkpt lat="48.05618" lon="11.38253"><ele>590</ele></trkpt>
<trkpt lat="48.05603" lon="11.38340"><ele>593</ele></trkpt>
<trkpt lat="48.05591" lon="11.38452"><ele>596</ele></trkpt>
<trkpt lat="48.05592" lon="11.38496"><ele>597</ele></trkpt>
<trkpt lat="48.05619" lon="11.38618"><ele>599</ele></trkpt>
<trkpt lat="48.05635" lon="11.38709"><ele>601</ele></trkpt>
<trkpt lat="48.05697" lon="11.38947"><ele>602</ele></trkpt>
<trkpt lat="48.05772" lon="11.39184"><ele>596</ele></trkpt>
<trkpt lat="48.05788" lon="11.39225"><ele>595</ele></trkpt>
<trkpt lat="48.05794" lon="11.39309"><ele>594</ele></trkpt>
<trkpt lat="48.05832" lon="11.39510"><ele>592</ele></trkpt>
<trkpt lat="48.05842" lon="11.39598"><ele>592</ele></trkpt>
<trkpt lat="48.05845" lon="11.39634"><ele>592</ele></trkpt>
<trkpt lat="48.05843" lon="11.39710"><ele>592</ele></trkpt>
<trkpt lat="48.05822" lon="11.39804"><ele>592</ele></trkpt>
<trkpt lat="48.05804" lon="11.39860"><ele>592</ele></trkpt>
<trkpt lat="48.05746" lon="11.40104"><ele>591</ele></trkpt>
<trkpt lat="48.05806" lon="11.40116"><ele>591</ele></trkpt>
<trkpt lat="48.05939" lon="11.40122"><ele>589</ele></trkpt>
<trkpt lat="48.06053" lon="11.40071"><ele>588</ele></trkpt>
<trkpt lat="48.06082" lon="11.40067"><ele>587</ele></trkpt>
<trkpt lat="48.06155" lon="11.40073"><ele>586</ele></trkpt>
<trkpt lat="48.06215" lon="11.40088"><ele>586</ele></trkpt>
<trkpt lat="48.06249" lon="11.40084"><ele>586</ele></trkpt>
<trkpt lat="48.06397" lon="11.40047"><ele>585</ele></trkpt>
<trkpt lat="48.06429" lon="11.40035"><ele>585</ele></trkpt>
<trkpt lat="48.06473" lon="11.40034"><ele>584</ele></trkpt>
<trkpt lat="48.06578" lon="11.40075"><ele>584</ele></trkpt>
<trkpt lat="48.06615" lon="11.40081"><ele>583</ele></trkpt>
<trkpt lat="48.06669" lon="11.40071"><ele>583</ele></trkpt>
<trkpt lat="48.06769" lon="11.40098"><ele>582</ele></trkpt>
<trkpt lat="48.06856" lon="11.40129"><ele>582</ele></trkpt>
<trkpt lat="48.06947" lon="11.40104"><ele>581</ele></trkpt>
<trkpt lat="48.07015" lon="11.40077"><ele>580</ele></trkpt>
<trkpt lat="48.07041" lon="11.40072"><ele>579</ele></trkpt>
<trkpt lat="48.07172" lon="11.40002"><ele>576</ele></trkpt>
<trkpt lat="48.07346" lon="11.39927"><ele>574</ele></trkpt>
<trkpt lat="48.07379" lon="11.39927"><ele>574</ele></trkpt>
<trkpt lat="48.07442" lon="11.39955"><ele>575</ele></trkpt>
<trkpt lat="48.07482" lon="11.39965"><ele>575</ele></trkpt>
<trkpt lat="48.07511" lon="11.39979"><ele>575</ele></trkpt>
<trkpt lat="48.07545" lon="11.39989"><ele>576</ele></trkpt>
<trkpt lat="48.07574" lon="11.40010"><ele>576</ele></trkpt>
<trkpt lat="48.07621" lon="11.40032"><ele>575</ele></trkpt>
<trkpt lat="48.07697" lon="11.40083"><ele>574</ele></trkpt>
<trkpt lat="48.07740" lon="11.40089"><ele>574</ele></trkpt>
<trkpt lat="48.07773" lon="11.40100"><ele>572</ele></trkpt>
<trkpt lat="48.07931" lon="11.40114"><ele>564</ele></trkpt>
<trkpt lat="48.07963" lon="11.40094"><ele>563</ele></trkpt>
<trkpt lat="48.07988" lon="11.40059"><ele>562</ele></trkpt>
<trkpt lat="48.08021" lon="11.40038"><ele>560</ele></trkpt>
<trkpt lat="48.08070" lon="11.39963"><ele>557</ele></trkpt>
<trkpt lat="48.08113" lon="11.39942"><ele>557</ele></trkpt>
<trkpt lat="48.08167" lon="11.39889"><ele>556</ele></trkpt>
<trkpt lat="48.08179" lon="11.39854"><ele>556</ele></trkpt>
<trkpt lat="48.08210" lon="11.39848"><ele>556</ele></trkpt>
<trkpt lat="48.08234" lon="11.39678"><ele>555</ele></trkpt>
<trkpt lat="48.08264" lon="11.39565"><ele>555</ele></trkpt>
<trkpt lat="48.08297" lon="11.39405"><ele>554</ele></trkpt>
<trkpt lat="48.08318" lon="11.39320"><ele>554</ele></trkpt>
<trkpt lat="48.08438" lon="11.39406"><ele>553</ele></trkpt>
<trkpt lat="48.08546" lon="11.39503"><ele>552</ele></trkpt>
<trkpt lat="48.08587" lon="11.39581"><ele>552</ele></trkpt>
<trkpt lat="48.08630" lon="11.39646"><ele>551</ele></trkpt>
<trkpt lat="48.08673" lon="11.39699"><ele>550</ele></trkpt>
<trkpt lat="48.08729" lon="11.39784"><ele>548</ele></trkpt>
<trkpt lat="48.08756" lon="11.39808"><ele>548</ele></trkpt>
<trkpt lat="48.08784" lon="11.39841"><ele>548</ele></trkpt>
<trkpt lat="48.08804" lon="11.39875"><ele>548</ele></trkpt>
<trkpt lat="48.08851" lon="11.39941"><ele>549</ele></trkpt>
<trkpt lat="48.08908" lon="11.40008"><ele>550</ele></trkpt>
<trkpt lat="48.08928" lon="11.40038"><ele>551</ele></trkpt>
<trkpt lat="48.08979" lon="11.40049"><ele>552</ele></trkpt>
<trkpt lat="48.09007" lon="11.40062"><ele>553</ele></trkpt>
<trkpt lat="48.09048" lon="11.40117"><ele>554</ele></trkpt>
<trkpt lat="48.09162" lon="11.40220"><ele>555</ele></trkpt>
<trkpt lat="48.09217" lon="11.40250"><ele>558</ele></trkpt>
<trkpt lat="48.09227" lon="11.40233"><ele>558</ele></trkpt>
<trkpt lat="48.09215" lon="11.40099"><ele>562</ele></trkpt>
<trkpt lat="48.09246" lon="11.40021"><ele>562</ele></trkpt>
<trkpt lat="48.09265" lon="11.39987"><ele>562</ele></trkpt>
<trkpt lat="48.09278" lon="11.39978"><ele>562</ele></trkpt>
    </trkseg>
  </trk>
</gpx>
