<?xml version="1.0" encoding="UTF-8"?>
<gpx version="1.1" creator="Gravel Kompass" xmlns="http://www.topografix.com/GPX/1/1">
  <metadata><name>Loiretal-Runde: Schlösser &amp; Weinberge – Etappe 4</name></metadata>
  <trk>
    <name>Etappe 4: Saumur – Langeais</name>
    <trkseg>
<trkpt lat="47.25999" lon="-0.07699"><ele>29</ele></trkpt>
<trkpt lat="47.26004" lon="-0.07694"><ele>29</ele></trkpt>
<trkpt lat="47.25990" lon="-0.07658"><ele>30</ele></trkpt>
<trkpt lat="47.26052" lon="-0.07610"><ele>31</ele></trkpt>
<trkpt lat="47.26095" lon="-0.07713"><ele>32</ele></trkpt>
<trkpt lat="47.26126" lon="-0.07675"><ele>33</ele></trkpt>
<trkpt lat="47.26125" lon="-0.07667"><ele>33</ele></trkpt>
<trkpt lat="47.26127" lon="-0.07660"><ele>32</ele></trkpt>
<trkpt lat="47.26133" lon="-0.07658"><ele>31</ele></trkpt>
<trkpt lat="47.26137" lon="-0.07661"><ele>31</ele></trkpt>
<trkpt lat="47.26142" lon="-0.07656"><ele>29</ele></trkpt>
<trkpt lat="47.26398" lon="-0.07362"><ele>34</ele></trkpt>
<trkpt lat="47.26406" lon="-0.07347"><ele>34</ele></trkpt>
<trkpt lat="47.26404" lon="-0.07340"><ele>34</ele></trkpt>
<trkpt lat="47.26406" lon="-0.07332"><ele>34</ele></trkpt>
<trkpt lat="47.26412" lon="-0.07329"><ele>34</ele></trkpt>
<trkpt lat="47.26417" lon="-0.07334"><ele>34</ele></trkpt>
<trkpt lat="47.26433" lon="-0.07325"><ele>33</ele></trkpt>
<trkpt lat="47.26434" lon="-0.07314"><ele>34</ele></trkpt>
<trkpt lat="47.26439" lon="-0.07310"><ele>34</ele></trkpt>
<trkpt lat="47.26444" lon="-0.07312"><ele>34</ele></trkpt>
<trkpt lat="47.26540" lon="-0.07194"><ele>34</ele></trkpt>
<trkpt lat="47.26539" lon="-0.07182"><ele>33</ele></trkpt>
<trkpt lat="47.26543" lon="-0.07175"><ele>32</ele></trkpt>
<trkpt lat="47.26551" lon="-0.07173"><ele>31</ele></trkpt>
<trkpt lat="47.26556" lon="-0.07179"><ele>31</ele></trkpt>
<trkpt lat="47.26715" lon="-0.06996"><ele>32</ele></trkpt>
<trkpt lat="47.26713" lon="-0.06989"><ele>32</ele></trkpt>
<trkpt lat="47.26715" lon="-0.06978"><ele>33</ele></trkpt>
<trkpt lat="47.26724" lon="-0.06974"><ele>34</ele></trkpt>
<trkpt lat="47.26768" lon="-0.06924"><ele>33</ele></trkpt>
<trkpt lat="47.26769" lon="-0.06919"><ele>34</ele></trkpt>
<trkpt lat="47.26766" lon="-0.06901"><ele>34</ele></trkpt>
<trkpt lat="47.26755" lon="-0.06881"><ele>32</ele></trkpt>
<trkpt lat="47.26689" lon="-0.06780"><ele>30</ele></trkpt>
<trkpt lat="47.26872" lon="-0.06570"><ele>30</ele></trkpt>
<trkpt lat="47.26799" lon="-0.06437"><ele>30</ele></trkpt>
<trkpt lat="47.26750" lon="-0.06299"><ele>30</ele></trkpt>
<trkpt lat="47.26727" lon="-0.06254"><ele>30</ele></trkpt>
<trkpt lat="47.26703" lon="-0.06215"><ele>29</ele></trkpt>
<trkpt lat="47.26644" lon="-0.06146"><ele>29</ele></trkpt>
<trkpt lat="47.26612" lon="-0.06068"><ele>30</ele></trkpt>
<trkpt lat="47.26432" lon="-0.05781"><ele>28</ele></trkpt>
<trkpt lat="47.26424" lon="-0.05765"><ele>28</ele></trkpt>
<trkpt lat="47.26420" lon="-0.05748"><ele>29</ele></trkpt>
<trkpt lat="47.26406" lon="-0.05611"><ele>28</ele></trkpt>
<trkpt lat="47.26436" lon="-0.05593"><ele>27</ele></trkpt>
<trkpt lat="47.26526" lon="-0.05562"><ele>27</ele></trkpt>
<trkpt lat="47.26600" lon="-0.05513"><ele>27</ele></trkpt>
<trkpt lat="47.26622" lon="-0.05502"><ele>27</ele></trkpt>
<trkpt lat="47.26576" lon="-0.05358"><ele>27</ele></trkpt>
<trkpt lat="47.26504" lon="-0.05185"><ele>27</ele></trkpt>
<trkpt lat="47.26498" lon="-0.05174"><ele>27</ele></trkpt>
<trkpt lat="47.26434" lon="-0.05109"><ele>27</ele></trkpt>
<trkpt lat="47.26447" lon="-0.05052"><ele>27</ele></trkpt>
<trkpt lat="47.26399" lon="-0.05029"><ele>27</ele></trkpt>
<trkpt lat="47.26394" lon="-0.05019"><ele>27</ele></trkpt>
<trkpt lat="47.26367" lon="-0.04868"><ele>26</ele></trkpt>
<trkpt lat="47.26414" lon="-0.04822"><ele>26</ele></trkpt>
<trkpt lat="47.26415" lon="-0.04814"><ele>26</ele></trkpt>
<trkpt lat="47.26376" lon="-0.04591"><ele>26</ele></trkpt>
<trkpt lat="47.26340" lon="-0.04504"><ele>26</ele></trkpt>
<trkpt lat="47.26335" lon="-0.04483"><ele>26</ele></trkpt>
<trkpt lat="47.26361" lon="-0.04473"><ele>26</ele></trkpt>
<trkpt lat="47.26431" lon="-0.04435"><ele>26</ele></trkpt>
<trkpt lat="47.26632" lon="-0.04284"><ele>26</ele></trkpt>
<trkpt lat="47.26672" lon="-0.04261"><ele>26</ele></trkpt>
<trkpt lat="47.26703" lon="-0.04247"><ele>26</ele></trkpt>
<trkpt lat="47.26652" lon="-0.04056"><ele>26</ele></trkpt>
<trkpt lat="47.26602" lon="-0.03845"><ele>26</ele></trkpt>
<trkpt lat="47.26584" lon="-0.03714"><ele>26</ele></trkpt>
<trkpt lat="47.26562" lon="-0.03482"><ele>26</ele></trkpt>
<trkpt lat="47.26514" lon="-0.03487"><ele>26</ele></trkpt>
<trkpt lat="47.26451" lon="-0.03482"><ele>26</ele></trkpt>
<trkpt lat="47.26258" lon="-0.03447"><ele>26</ele></trkpt>
<trkpt lat="47.26221" lon="-0.03436"><ele>27</ele></trkpt>
<trkpt lat="47.26147" lon="-0.02550"><ele>26</ele></trkpt>
<trkpt lat="47.26098" lon="-0.02023"><ele>26</ele></trkpt>
<trkpt lat="47.26101" lon="-0.01979"><ele>27</ele></trkpt>
<trkpt lat="47.26186" lon="-0.01896"><ele>26</ele></trkpt>
<trkpt lat="47.26221" lon="-0.01866"><ele>26</ele></trkpt>
<trkpt lat="47.26245" lon="-0.01850"><ele>26</ele></trkpt>
<trkpt lat="47.26314" lon="-0.01836"><ele>26</ele></trkpt>
<trkpt lat="47.26345" lon="-0.01815"><ele>26</ele></trkpt>
<trkpt lat="47.26543" lon="-0.01630"><ele>26</ele></trkpt>
<trkpt lat="47.26599" lon="-0.01571"><ele>26</ele></trkpt>
<trkpt lat="47.26822" lon="-0.01351"><ele>25</ele></trkpt>
<trkpt lat="47.26797" lon="-0.01316"><ele>26</ele></trkpt>
<trkpt lat="47.26705" lon="-0.01022"><ele>26</ele></trkpt>
<trkpt lat="47.26761" lon="-0.00969"><ele>26</ele></trkpt>
<trkpt lat="47.26862" lon="-0.00892"><ele>25</ele></trkpt>
<trkpt lat="47.26852" lon="-0.00875"><ele>25</ele></trkpt>
<trkpt lat="47.26838" lon="-0.00824"><ele>26</ele></trkpt>
<trkpt lat="47.26825" lon="-0.00756"><ele>26</ele></trkpt>
<trkpt lat="47.26811" lon="-0.00712"><ele>26</ele></trkpt>
<trkpt lat="47.26767" lon="-0.00588"><ele>25</ele></trkpt>
<trkpt lat="47.26742" lon="-0.00531"><ele>25</ele></trkpt>
<trkpt lat="47.26721" lon="-0.00462"><ele>25</ele></trkpt>
<trkpt lat="47.26669" lon="-0.00261"><ele>25</ele></trkpt>
<trkpt lat="47.26641" lon="-0.00174"><ele>26</ele></trkpt>
<trkpt lat="47.26586" lon="0.00015"><ele>26</ele></trkpt>
<trkpt lat="47.26685" lon="0.00256"><ele>26</ele></trkpt>
<trkpt lat="47.26742" lon="0.00338"><ele>25</ele></trkpt>
<trkpt lat="47.26774" lon="0.00368"><ele>25</ele></trkpt>
<trkpt lat="47.26755" lon="0.00385"><ele>25</ele></trkpt>
<trkpt lat="47.26665" lon="0.00440"><ele>26</ele></trkpt>
<trkpt lat="47.26651" lon="0.00451"><ele>26</ele></trkpt>
<trkpt lat="47.26643" lon="0.00462"><ele>26</ele></trkpt>
<trkpt lat="47.26609" lon="0.00594"><ele>26</ele></trkpt>
<trkpt lat="47.26575" lon="0.00735"><ele>26</ele></trkpt>
<trkpt lat="47.26543" lon="0.00835"><ele>25</ele></trkpt>
<trkpt lat="47.26507" lon="0.00966"><ele>26</ele></trkpt>
<trkpt lat="47.26483" lon="0.01109"><ele>26</ele></trkpt>
<trkpt lat="47.26486" lon="0.01174"><ele>26</ele></trkpt>
<trkpt lat="47.26484" lon="0.01190"><ele>26</ele></trkpt>
<trkpt lat="47.26458" lon="0.01330"><ele>26</ele></trkpt>
<trkpt lat="47.26439" lon="0.01371"><ele>25</ele></trkpt>
<trkpt lat="47.26384" lon="0.01431"><ele>26</ele></trkpt>
<trkpt lat="47.26373" lon="0.01445"><ele>26</ele></trkpt>
<trkpt lat="47.26363" lon="0.01470"><ele>26</ele></trkpt>
<trkpt lat="47.26361" lon="0.01497"><ele>26</ele></trkpt>
<trkpt lat="47.26366" lon="0.01602"><ele>26</ele></trkpt>
<trkpt lat="47.26367" lon="0.01717"><ele>25</ele></trkpt>
<trkpt lat="47.26366" lon="0.01771"><ele>26</ele></trkpt>
<trkpt lat="47.26359" lon="0.01808"><ele>26</ele></trkpt>
<trkpt lat="47.26375" lon="0.01834"><ele>26</ele></trkpt>
<trkpt lat="47.26377" lon="0.01853"><ele>25</ele></trkpt>
<trkpt lat="47.26377" lon="0.01910"><ele>25</ele></trkpt>
<trkpt lat="47.26374" lon="0.01929"><ele>25</ele></trkpt>
<trkpt lat="47.26354" lon="0.01996"><ele>25</ele></trkpt>
<trkpt lat="47.26251" lon="0.02165"><ele>25</ele></trkpt>
<trkpt lat="47.26244" lon="0.02186"><ele>25</ele></trkpt>
<trkpt lat="47.26245" lon="0.02193"><ele>25</ele></trkpt>
<trkpt lat="47.26330" lon="0.02273"><ele>25</ele></trkpt>
<trkpt lat="47.26327" lon="0.02292"><ele>25</ele></trkpt>
<trkpt lat="47.26292" lon="0.02384"><ele>25</ele></trkpt>
<trkpt lat="47.26252" lon="0.02477"><ele>25</ele></trkpt>
<trkpt lat="47.26126" lon="0.02510"><ele>26</ele></trkpt>
<trkpt lat="47.26119" lon="0.02524"><ele>25</ele></trkpt>
<trkpt lat="47.26112" lon="0.02555"><ele>25</ele></trkpt>
<trkpt lat="47.26085" lon="0.02604"><ele>25</ele></trkpt>
<trkpt lat="47.26080" lon="0.02605"><ele>25</ele></trkpt>
<trkpt lat="47.26074" lon="0.02600"><ele>25</ele></trkpt>
<trkpt lat="47.26029" lon="0.02555"><ele>26</ele></trkpt>
<trkpt lat="47.26010" lon="0.02531"><ele>26</ele></trkpt>
<trkpt lat="47.25962" lon="0.02579"><ele>26</ele></trkpt>
<trkpt lat="47.25894" lon="0.02620"><ele>26</ele></trkpt>
<trkpt lat="47.25878" lon="0.02641"><ele>26</ele></trkpt>
<trkpt lat="47.25853" lon="0.02692"><ele>26</ele></trkpt>
<trkpt lat="47.25846" lon="0.02730"><ele>26</ele></trkpt>
<trkpt lat="47.25842" lon="0.02775"><ele>26</ele></trkpt>
<trkpt lat="47.25832" lon="0.02795"><ele>26</ele></trkpt>
<trkpt lat="47.25788" lon="0.02826"><ele>26</ele></trkpt>
<trkpt lat="47.25719" lon="0.02898"><ele>25</ele></trkpt>
<trkpt lat="47.25671" lon="0.02933"><ele>27</ele></trkpt>
<trkpt lat="47.25612" lon="0.03608"><ele>27</ele></trkpt>
<trkpt lat="47.25727" lon="0.03665"><ele>26</ele></trkpt>
<trkpt lat="47.25828" lon="0.03740"><ele>26</ele></trkpt>
<trkpt lat="47.25886" lon="0.03790"><ele>26</ele></trkpt>
<trkpt lat="47.25952" lon="0.03831"><ele>26</ele></trkpt>
<trkpt lat="47.25898" lon="0.04007"><ele>26</ele></trkpt>
<trkpt lat="47.25893" lon="0.04014"><ele>26</ele></trkpt>
<trkpt lat="47.25879" lon="0.04082"><ele>26</ele></trkpt>
<trkpt lat="47.25814" lon="0.04265"><ele>26</ele></trkpt>
<trkpt lat="47.25812" lon="0.04286"><ele>26</ele></trkpt>
<trkpt lat="47.25815" lon="0.04292"><ele>26</ele></trkpt>
<trkpt lat="47.25886" lon="0.04331"><ele>26</ele></trkpt>
<trkpt lat="47.25898" lon="0.04349"><ele>26</ele></trkpt>
<trkpt lat="47.25909" lon="0.04383"><ele>26</ele></trkpt>
<trkpt lat="47.25918" lon="0.04394"><ele>26</ele></trkpt>
<trkpt lat="47.25981" lon="0.04434"><ele>26</ele></trkpt>
<trkpt lat="47.25962" lon="0.04520"><ele>26</ele></trkpt>
<trkpt lat="47.25935" lon="0.04740"><ele>26</ele></trkpt>
<trkpt lat="47.25908" lon="0.04894"><ele>26</ele></trkpt>
<trkpt lat="47.25895" lon="0.04941"><ele>26</ele></trkpt>
<trkpt lat="47.25883" lon="0.04961"><ele>26</ele></trkpt>
<trkpt lat="47.25840" lon="0.05011"><ele>26</ele></trkpt>
<trkpt lat="47.25831" lon="0.05030"><ele>26</ele></trkpt>
<trkpt lat="47.25827" lon="0.05046"><ele>26</ele></trkpt>
<trkpt lat="47.25827" lon="0.05067"><ele>26</ele></trkpt>
<trkpt lat="47.25831" lon="0.05169"><ele>27</ele></trkpt>
<trkpt lat="47.25826" lon="0.05214"><ele>27</ele></trkpt>
<trkpt lat="47.25816" lon="0.05243"><ele>27</ele></trkpt>
<trkpt lat="47.25802" lon="0.05236"><ele>27</ele></trkpt>
<trkpt lat="47.25699" lon="0.05742"><ele>27</ele></trkpt>
<trkpt lat="47.25776" lon="0.05744"><ele>27</ele></trkpt>
<trkpt lat="47.25792" lon="0.05752"><ele>27</ele></trkpt>
<trkpt lat="47.25860" lon="0.05771"><ele>27</ele></trkpt>
<trkpt lat="47.25872" lon="0.05788"><ele>27</ele></trkpt>
<trkpt lat="47.25881" lon="0.05819"><ele>27</ele></trkpt>
<trkpt lat="47.25892" lon="0.05839"><ele>27</ele></trkpt>
<trkpt lat="47.25928" lon="0.05886"><ele>27</ele></trkpt>
<trkpt lat="47.25933" lon="0.05904"><ele>27</ele></trkpt>
<trkpt lat="47.25933" lon="0.05922"><ele>27</ele></trkpt>
<trkpt lat="47.25921" lon="0.06002"><ele>27</ele></trkpt>
<trkpt lat="47.25921" lon="0.06018"><ele>27</ele></trkpt>
<trkpt lat="47.25941" lon="0.06118"><ele>27</ele></trkpt>
<trkpt lat="47.25947" lon="0.06248"><ele>27</ele></trkpt>
<trkpt lat="47.25959" lon="0.06399"><ele>27</ele></trkpt>
<trkpt lat="47.26015" lon="0.06401"><ele>27</ele></trkpt>
<trkpt lat="47.26031" lon="0.06409"><ele>27</ele></trkpt>
<trkpt lat="47.26055" lon="0.06581"><ele>27</ele></trkpt>
<trkpt lat="47.26065" lon="0.06637"><ele>27</ele></trkpt>
<trkpt lat="47.26070" lon="0.06696"><ele>27</ele></trkpt>
<trkpt lat="47.26065" lon="0.06855"><ele>27</ele></trkpt>
<trkpt lat="47.26073" lon="0.06868"><ele>27</ele></trkpt>
<trkpt lat="47.26086" lon="0.06978"><ele>27</ele></trkpt>
<trkpt lat="47.26107" lon="0.07067"><ele>27</ele></trkpt>
<trkpt lat="47.26112" lon="0.07101"><ele>27</ele></trkpt>
<trkpt lat="47.26113" lon="0.07129"><ele>27</ele></trkpt>
<trkpt lat="47.26103" lon="0.07262"><ele>27</ele></trkpt>
<trkpt lat="47.26104" lon="0.07282"><ele>27</ele></trkpt>
<trkpt lat="47.26112" lon="0.07320"><ele>27</ele></trkpt>
<trkpt lat="47.26133" lon="0.07376"><ele>27</ele></trkpt>
<trkpt lat="47.26158" lon="0.07471"><ele>27</ele></trkpt>
<trkpt lat="47.26227" lon="0.07483"><ele>27</ele></trkpt>
<trkpt lat="47.26244" lon="0.07490"><ele>27</ele></trkpt>
<trkpt lat="47.26342" lon="0.07604"><ele>27</ele></trkpt>
<trkpt lat="47.26355" lon="0.07625"><ele>27</ele></trkpt>
<trkpt lat="47.26391" lon="0.07697"><ele>27</ele></trkpt>
<trkpt lat="47.26407" lon="0.07753"><ele>27</ele></trkpt>
<trkpt lat="47.26462" lon="0.07903"><ele>27</ele></trkpt>
<trkpt lat="47.26497" lon="0.07972"><ele>27</ele></trkpt>
<trkpt lat="47.26510" lon="0.08012"><ele>27</ele></trkpt>
<trkpt lat="47.26514" lon="0.08052"><ele>27</ele></trkpt>
<trkpt lat="47.26514" lon="0.08071"><ele>27</ele></trkpt>
<trkpt lat="47.26508" lon="0.08099"><ele>27</ele></trkpt>
<trkpt lat="47.26480" lon="0.08146"><ele>27</ele></trkpt>
<trkpt lat="47.26477" lon="0.08162"><ele>27</ele></trkpt>
<trkpt lat="47.26480" lon="0.08218"><ele>28</ele></trkpt>
<trkpt lat="47.26497" lon="0.08317"><ele>27</ele></trkpt>
<trkpt lat="47.26500" lon="0.08363"><ele>28</ele></trkpt>
<trkpt lat="47.26497" lon="0.08386"><ele>28</ele></trkpt>
<trkpt lat="47.26488" lon="0.08394"><ele>28</ele></trkpt>
<trkpt lat="47.26392" lon="0.08398"><ele>28</ele></trkpt>
<trkpt lat="47.26369" lon="0.08404"><ele>28</ele></trkpt>
<trkpt lat="47.26357" lon="0.08411"><ele>28</ele></trkpt>
<trkpt lat="47.26352" lon="0.08429"><ele>28</ele></trkpt>
<trkpt lat="47.26335" lon="0.08433"><ele>28</ele></trkpt>
<trkpt lat="47.26289" lon="0.08458"><ele>29</ele></trkpt>
<trkpt lat="47.26266" lon="0.08474"><ele>29</ele></trkpt>
<trkpt lat="47.26242" lon="0.08498"><ele>30</ele></trkpt>
<trkpt lat="47.26234" lon="0.08499"><ele>30</ele></trkpt>
<trkpt lat="47.26255" lon="0.08559"><ele>32</ele></trkpt>
<trkpt lat="47.26261" lon="0.08617"><ele>30</ele></trkpt>
<trkpt lat="47.26259" lon="0.08622"><ele>30</ele></trkpt>
<trkpt lat="47.26212" lon="0.08647"><ele>31</ele></trkpt>
<trkpt lat="47.26207" lon="0.08662"><ele>31</ele></trkpt>
<trkpt lat="47.26217" lon="0.08786"><ele>29</ele></trkpt>
<trkpt lat="47.26218" lon="0.08841"><ele>29</ele></trkpt>
<trkpt lat="47.26212" lon="0.08928"><ele>31</ele></trkpt>
<trkpt lat="47.26210" lon="0.09049"><ele>34</ele></trkpt>
<trkpt lat="47.26179" lon="0.09061"><ele>35</ele></trkpt>
<trkpt lat="47.26166" lon="0.09070"><ele>35</ele></trkpt>
<trkpt lat="47.26151" lon="0.09091"><ele>35</ele></trkpt>
<trkpt lat="47.26145" lon="0.09094"><ele>35</ele></trkpt>
<trkpt lat="47.26024" lon="0.09095"><ele>33</ele></trkpt>
<trkpt lat="47.26026" lon="0.09153"><ele>33</ele></trkpt>
<trkpt lat="47.25991" lon="0.09435"><ele>33</ele></trkpt>
<trkpt lat="47.26096" lon="0.09517"><ele>28</ele></trkpt>
<trkpt lat="47.26136" lon="0.09538"><ele>28</ele></trkpt>
<trkpt lat="47.26235" lon="0.09573"><ele>28</ele></trkpt>
<trkpt lat="47.26325" lon="0.09571"><ele>28</ele></trkpt>
<trkpt lat="47.26362" lon="0.09585"><ele>28</ele></trkpt>
<trkpt lat="47.26468" lon="0.09638"><ele>29</ele></trkpt>
<trkpt lat="47.26520" lon="0.09653"><ele>29</ele></trkpt>
<trkpt lat="47.26526" lon="0.09742"><ele>30</ele></trkpt>
<trkpt lat="47.26524" lon="0.09857"><ele>31</ele></trkpt>
<trkpt lat="47.26516" lon="0.09905"><ele>30</ele></trkpt>
<trkpt lat="47.26494" lon="0.10004"><ele>29</ele></trkpt>
<trkpt lat="47.26460" lon="0.10100"><ele>28</ele></trkpt>
<trkpt lat="47.26473" lon="0.10105"><ele>28</ele></trkpt>
<trkpt lat="47.26512" lon="0.10108"><ele>28</ele></trkpt>
<trkpt lat="47.26539" lon="0.10120"><ele>28</ele></trkpt>
<trkpt lat="47.26606" lon="0.10161"><ele>28</ele></trkpt>
<trkpt lat="47.26622" lon="0.10186"><ele>28</ele></trkpt>
<trkpt lat="47.26639" lon="0.10242"><ele>28</ele></trkpt>
<trkpt lat="47.26649" lon="0.10255"><ele>28</ele></trkpt>
<trkpt lat="47.26683" lon="0.10260"><ele>28</ele></trkpt>
<trkpt lat="47.26717" lon="0.10257"><ele>28</ele></trkpt>
<trkpt lat="47.26770" lon="0.10240"><ele>28</ele></trkpt>
<trkpt lat="47.26782" lon="0.10240"><ele>28</ele></trkpt>
<trkpt lat="47.26792" lon="0.10242"><ele>28</ele></trkpt>
<trkpt lat="47.26806" lon="0.10252"><ele>28</ele></trkpt>
<trkpt lat="47.26815" lon="0.10266"><ele>28</ele></trkpt>
<trkpt lat="47.26869" lon="0.10468"><ele>28</ele></trkpt>
<trkpt lat="47.26871" lon="0.10511"><ele>28</ele></trkpt>
<trkpt lat="47.26865" lon="0.10532"><ele>28</ele></trkpt>
<trkpt lat="47.26853" lon="0.10542"><ele>28</ele></trkpt>
<trkpt lat="47.26827" lon="0.10545"><ele>28</ele></trkpt>
<trkpt lat="47.26818" lon="0.10553"><ele>28</ele></trkpt>
<trkpt lat="47.26812" lon="0.10568"><ele>28</ele></trkpt>
<trkpt lat="47.26787" lon="0.10749"><ele>28</ele></trkpt>
<trkpt lat="47.26773" lon="0.10806"><ele>28</ele></trkpt>
<trkpt lat="47.26871" lon="0.10891"><ele>27</ele></trkpt>
<trkpt lat="47.26914" lon="0.10923"><ele>27</ele></trkpt>
<trkpt lat="47.26937" lon="0.10934"><ele>28</ele></trkpt>
<trkpt lat="47.26966" lon="0.10941"><ele>28</ele></trkpt>
<trkpt lat="47.27047" lon="0.10925"><ele>28</ele></trkpt>
<trkpt lat="47.27074" lon="0.10925"><ele>30</ele></trkpt>
<trkpt lat="47.27090" lon="0.10930"><ele>30</ele></trkpt>
<trkpt lat="47.27152" lon="0.10972"><ele>32</ele></trkpt>
<trkpt lat="47.27362" lon="0.11130"><ele>28</ele></trkpt>
<trkpt lat="47.27358" lon="0.11141"><ele>28</ele></trkpt>
<trkpt lat="47.27347" lon="0.11153"><ele>28</ele></trkpt>
<trkpt lat="47.27321" lon="0.11163"><ele>28</ele></trkpt>
<trkpt lat="47.27288" lon="0.11329"><ele>28</ele></trkpt>
<trkpt lat="47.27283" lon="0.11369"><ele>28</ele></trkpt>
<trkpt lat="47.27283" lon="0.11401"><ele>28</ele></trkpt>
<trkpt lat="47.27298" lon="0.11477"><ele>28</ele></trkpt>
<trkpt lat="47.27297" lon="0.11502"><ele>28</ele></trkpt>
<trkpt lat="47.27289" lon="0.11515"><ele>28</ele></trkpt>
<trkpt lat="47.27228" lon="0.11572"><ele>28</ele></trkpt>
<trkpt lat="47.27199" lon="0.11622"><ele>28</ele></trkpt>
<trkpt lat="47.27163" lon="0.11675"><ele>28</ele></trkpt>
<trkpt lat="47.27155" lon="0.11696"><ele>28</ele></trkpt>
<trkpt lat="47.27152" lon="0.11737"><ele>28</ele></trkpt>
<trkpt lat="47.27154" lon="0.11759"><ele>28</ele></trkpt>
<trkpt lat="47.27161" lon="0.11773"><ele>28</ele></trkpt>
<trkpt lat="47.27184" lon="0.11789"><ele>28</ele></trkpt>
<trkpt lat="47.27189" lon="0.11811"><ele>28</ele></trkpt>
<trkpt lat="47.27180" lon="0.11965"><ele>28</ele></trkpt>
<trkpt lat="47.27176" lon="0.11984"><ele>28</ele></trkpt>
<trkpt lat="47.27122" lon="0.12053"><ele>28</ele></trkpt>
<trkpt lat="47.27091" lon="0.12078"><ele>28</ele></trkpt>
<trkpt lat="47.27017" lon="0.12092"><ele>28</ele></trkpt>
<trkpt lat="47.26981" lon="0.12113"><ele>28</ele></trkpt>
<trkpt lat="47.26955" lon="0.12103"><ele>28</ele></trkpt>
<trkpt lat="47.26945" lon="0.12106"><ele>28</ele></trkpt>
<trkpt lat="47.26890" lon="0.12201"><ele>28</ele></trkpt>
<trkpt lat="47.26944" lon="0.12316"><ele>28</ele></trkpt>
<trkpt lat="47.26914" lon="0.12391"><ele>28</ele></trkpt>
<trkpt lat="47.26909" lon="0.12448"><ele>28</ele></trkpt>
<trkpt lat="47.26883" lon="0.12511"><ele>28</ele></trkpt>
<trkpt lat="47.26876" lon="0.12545"><ele>28</ele></trkpt>
<trkpt lat="47.26871" lon="0.12629"><ele>29</ele></trkpt>
<trkpt lat="47.26855" lon="0.12727"><ele>29</ele></trkpt>
<trkpt lat="47.26828" lon="0.12954"><ele>29</ele></trkpt>
<trkpt lat="47.26829" lon="0.13053"><ele>29</ele></trkpt>
<trkpt lat="47.26826" lon="0.13115"><ele>29</ele></trkpt>
<trkpt lat="47.26867" lon="0.13121"><ele>29</ele></trkpt>
<trkpt lat="47.26904" lon="0.13131"><ele>29</ele></trkpt>
<trkpt lat="47.26922" lon="0.13314"><ele>29</ele></trkpt>
<trkpt lat="47.26923" lon="0.13417"><ele>29</ele></trkpt>
<trkpt lat="47.26920" lon="0.13439"><ele>30</ele></trkpt>
<trkpt lat="47.26914" lon="0.13452"><ele>30</ele></trkpt>
<trkpt lat="47.26888" lon="0.13490"><ele>29</ele></trkpt>
<trkpt lat="47.26868" lon="0.13511"><ele>29</ele></trkpt>
<trkpt lat="47.26857" lon="0.13543"><ele>29</ele></trkpt>
<trkpt lat="47.26852" lon="0.13575"><ele>29</ele></trkpt>
<trkpt lat="47.26855" lon="0.13629"><ele>29</ele></trkpt>
<trkpt lat="47.26868" lon="0.13688"><ele>29</ele></trkpt>
<trkpt lat="47.26870" lon="0.13708"><ele>29</ele></trkpt>
<trkpt lat="47.26844" lon="0.13784"><ele>29</ele></trkpt>
<trkpt lat="47.26829" lon="0.13876"><ele>29</ele></trkpt>
<trkpt lat="47.26817" lon="0.13926"><ele>29</ele></trkpt>
<trkpt lat="47.26802" lon="0.13972"><ele>29</ele></trkpt>
<trkpt lat="47.26796" lon="0.14004"><ele>29</ele></trkpt>
<trkpt lat="47.26785" lon="0.14165"><ele>29</ele></trkpt>
<trkpt lat="47.26784" lon="0.14213"><ele>29</ele></trkpt>
<trkpt lat="47.26779" lon="0.14244"><ele>29</ele></trkpt>
<trkpt lat="47.26773" lon="0.14265"><ele>29</ele></trkpt>
<trkpt lat="47.26746" lon="0.14329"><ele>29</ele></trkpt>
<trkpt lat="47.26739" lon="0.14359"><ele>29</ele></trkpt>
<trkpt lat="47.26733" lon="0.14414"><ele>29</ele></trkpt>
<trkpt lat="47.26742" lon="0.14523"><ele>29</ele></trkpt>
<trkpt lat="47.26739" lon="0.14563"><ele>29</ele></trkpt>
<trkpt lat="47.26731" lon="0.14604"><ele>29</ele></trkpt>
<trkpt lat="47.26715" lon="0.14861"><ele>30</ele></trkpt>
<trkpt lat="47.26709" lon="0.14900"><ele>29</ele></trkpt>
<trkpt lat="47.26626" lon="0.15074"><ele>29</ele></trkpt>
<trkpt lat="47.26600" lon="0.15188"><ele>29</ele></trkpt>
<trkpt lat="47.26596" lon="0.15196"><ele>29</ele></trkpt>
<trkpt lat="47.26582" lon="0.15211"><ele>30</ele></trkpt>
<trkpt lat="47.26573" lon="0.15214"><ele>29</ele></trkpt>
<trkpt lat="47.26537" lon="0.15200"><ele>30</ele></trkpt>
<trkpt lat="47.26521" lon="0.15205"><ele>30</ele></trkpt>
<trkpt lat="47.26511" lon="0.15218"><ele>29</ele></trkpt>
<trkpt lat="47.26490" lon="0.15274"><ele>29</ele></trkpt>
<trkpt lat="47.26450" lon="0.15444"><ele>29</ele></trkpt>
<trkpt lat="47.26389" lon="0.15637"><ele>30</ele></trkpt>
<trkpt lat="47.26291" lon="0.15883"><ele>30</ele></trkpt>
<trkpt lat="47.26273" lon="0.15925"><ele>30</ele></trkpt>
<trkpt lat="47.26255" lon="0.15956"><ele>30</ele></trkpt>
<trkpt lat="47.26215" lon="0.16054"><ele>30</ele></trkpt>
<trkpt lat="47.26179" lon="0.16166"><ele>30</ele></trkpt>
<trkpt lat="47.26131" lon="0.16475"><ele>30</ele></trkpt>
<trkpt lat="47.26063" lon="0.16461"><ele>30</ele></trkpt>
<trkpt lat="47.26025" lon="0.16448"><ele>30</ele></trkpt>
<trkpt lat="47.25922" lon="0.16400"><ele>31</ele></trkpt>
<trkpt lat="47.25754" lon="0.16354"><ele>36</ele></trkpt>
<trkpt lat="47.25550" lon="0.16336"><ele>30</ele></trkpt>
<trkpt lat="47.25490" lon="0.16339"><ele>32</ele></trkpt>
<trkpt lat="47.25350" lon="0.16354"><ele>31</ele></trkpt>
<trkpt lat="47.25215" lon="0.16356"><ele>31</ele></trkpt>
<trkpt lat="47.25191" lon="0.16349"><ele>31</ele></trkpt>
<trkpt lat="47.25174" lon="0.16327"><ele>31</ele></trkpt>
<trkpt lat="47.25169" lon="0.16314"><ele>31</ele></trkpt>
<trkpt lat="47.25162" lon="0.16309"><ele>31</ele></trkpt>
<trkpt lat="47.25158" lon="0.16310"><ele>31</ele></trkpt>
<trkpt lat="47.25139" lon="0.16330"><ele>31</ele></trkpt>
<trkpt lat="47.25119" lon="0.16330"><ele>31</ele></trkpt>
<trkpt lat="47.25111" lon="0.16332"><ele>31</ele></trkpt>
<trkpt lat="47.25110" lon="0.16336"><ele>31</ele></trkpt>
<trkpt lat="47.25054" lon="0.16321"><ele>30</ele></trkpt>
<trkpt lat="47.24983" lon="0.16310"><ele>31</ele></trkpt>
<trkpt lat="47.24974" lon="0.16323"><ele>31</ele></trkpt>
<trkpt lat="47.24893" lon="0.16379"><ele>30</ele></trkpt>
<trkpt lat="47.24858" lon="0.16401"><ele>30</ele></trkpt>
<trkpt lat="47.24833" lon="0.16409"><ele>31</ele></trkpt>
<trkpt lat="47.24827" lon="0.16415"><ele>31</ele></trkpt>
<trkpt lat="47.24824" lon="0.16429"><ele>31</ele></trkpt>
<trkpt lat="47.24797" lon="0.16889"><ele>31</ele></trkpt>
<trkpt lat="47.24773" lon="0.16884"><ele>32</ele></trkpt>
<trkpt lat="47.24761" lon="0.16877"><ele>31</ele></trkpt>
<trkpt lat="47.24715" lon="0.16840"><ele>31</ele></trkpt>
<trkpt lat="47.24690" lon="0.16815"><ele>31</ele></trkpt>
<trkpt lat="47.24608" lon="0.16716"><ele>31</ele></trkpt>
<trkpt lat="47.24599" lon="0.16681"><ele>31</ele></trkpt>
<trkpt lat="47.24497" lon="0.16699"><ele>32</ele></trkpt>
<trkpt lat="47.24437" lon="0.16685"><ele>31</ele></trkpt>
<trkpt lat="47.24431" lon="0.16687"><ele>31</ele></trkpt>
<trkpt lat="47.24421" lon="0.16718"><ele>32</ele></trkpt>
<trkpt lat="47.24406" lon="0.16838"><ele>32</ele></trkpt>
<trkpt lat="47.24238" lon="0.16787"><ele>31</ele></trkpt>
<trkpt lat="47.24226" lon="0.16786"><ele>32</ele></trkpt>
<trkpt lat="47.24213" lon="0.16793"><ele>33</ele></trkpt>
<trkpt lat="47.24203" lon="0.16808"><ele>34</ele></trkpt>
<trkpt lat="47.24189" lon="0.16873"><ele>34</ele></trkpt>
<trkpt lat="47.24185" lon="0.16879"><ele>34</ele></trkpt>
<trkpt lat="47.24172" lon="0.16880"><ele>36</ele></trkpt>
<trkpt lat="47.24173" lon="0.16785"><ele>34</ele></trkpt>
<trkpt lat="47.24169" lon="0.16771"><ele>33</ele></trkpt>
<trkpt lat="47.24158" lon="0.16762"><ele>32</ele></trkpt>
<trkpt lat="47.24129" lon="0.16757"><ele>33</ele></trkpt>
<trkpt lat="47.24051" lon="0.16760"><ele>34</ele></trkpt>
<trkpt lat="47.24042" lon="0.16758"><ele>34</ele></trkpt>
<trkpt lat="47.24037" lon="0.16750"><ele>34</ele></trkpt>
<trkpt lat="47.24036" lon="0.16740"><ele>34</ele></trkpt>
<trkpt lat="47.24038" lon="0.16721"><ele>34</ele></trkpt>
<trkpt lat="47.24070" lon="0.16632"><ele>34</ele></trkpt>
<trkpt lat="47.24073" lon="0.16611"><ele>34</ele></trkpt>
<trkpt lat="47.24070" lon="0.16531"><ele>33</ele></trkpt>
<trkpt lat="47.24049" lon="0.16388"><ele>32</ele></trkpt>
<trkpt lat="47.24046" lon="0.16322"><ele>33</ele></trkpt>
<trkpt lat="47.24042" lon="0.16317"><ele>33</ele></trkpt>
<trkpt lat="47.24018" lon="0.16326"><ele>33</ele></trkpt>
<trkpt lat="47.24010" lon="0.16321"><ele>32</ele></trkpt>
<trkpt lat="47.24004" lon="0.16310"><ele>32</ele></trkpt>
<trkpt lat="47.23998" lon="0.16250"><ele>32</ele></trkpt>
<trkpt lat="47.23988" lon="0.16231"><ele>32</ele></trkpt>
<trkpt lat="47.23975" lon="0.16228"><ele>33</ele></trkpt>
<trkpt lat="47.23950" lon="0.16236"><ele>32</ele></trkpt>
<trkpt lat="47.23922" lon="0.16253"><ele>31</ele></trkpt>
<trkpt lat="47.23903" lon="0.16254"><ele>32</ele></trkpt>
<trkpt lat="47.23881" lon="0.16246"><ele>32</ele></trkpt>
<trkpt lat="47.23878" lon="0.16240"><ele>32</ele></trkpt>
<trkpt lat="47.23871" lon="0.16203"><ele>31</ele></trkpt>
<trkpt lat="47.23870" lon="0.16149"><ele>32</ele></trkpt>
<trkpt lat="47.23876" lon="0.16104"><ele>32</ele></trkpt>
<trkpt lat="47.23932" lon="0.16127"><ele>37</ele></trkpt>
<trkpt lat="47.23964" lon="0.16130"><ele>37</ele></trkpt>
<trkpt lat="47.23969" lon="0.16137"><ele>38</ele></trkpt>
<trkpt lat="47.23969" lon="0.16149"><ele>37</ele></trkpt>
<trkpt lat="47.23408" lon="0.16061"><ele>40</ele></trkpt>
<trkpt lat="47.23349" lon="0.16059"><ele>39</ele></trkpt>
<trkpt lat="47.23322" lon="0.16065"><ele>38</ele></trkpt>
<trkpt lat="47.23270" lon="0.16085"><ele>38</ele></trkpt>
<trkpt lat="47.23257" lon="0.16095"><ele>37</ele></trkpt>
<trkpt lat="47.23255" lon="0.16090"><ele>37</ele></trkpt>
<trkpt lat="47.23262" lon="0.16080"><ele>37</ele></trkpt>
<trkpt lat="47.23283" lon="0.16067"><ele>37</ele></trkpt>
<trkpt lat="47.23284" lon="0.16038"><ele>35</ele></trkpt>
<trkpt lat="47.23320" lon="0.16000"><ele>34</ele></trkpt>
<trkpt lat="47.23325" lon="0.15961"><ele>34</ele></trkpt>
<trkpt lat="47.23328" lon="0.15867"><ele>34</ele></trkpt>
<trkpt lat="47.23327" lon="0.15791"><ele>34</ele></trkpt>
<trkpt lat="47.23143" lon="0.15767"><ele>34</ele></trkpt>
<trkpt lat="47.23075" lon="0.15752"><ele>34</ele></trkpt>
<trkpt lat="47.23013" lon="0.15723"><ele>34</ele></trkpt>
<trkpt lat="47.22916" lon="0.15670"><ele>34</ele></trkpt>
<trkpt lat="47.22895" lon="0.15655"><ele>34</ele></trkpt>
<trkpt lat="47.22838" lon="0.15591"><ele>34</ele></trkpt>
<trkpt lat="47.22803" lon="0.15555"><ele>34</ele></trkpt>
<trkpt lat="47.22768" lon="0.15527"><ele>34</ele></trkpt>
<trkpt lat="47.22639" lon="0.15436"><ele>34</ele></trkpt>
<trkpt lat="47.22526" lon="0.15371"><ele>35</ele></trkpt>
<trkpt lat="47.22473" lon="0.15297"><ele>34</ele></trkpt>
<trkpt lat="47.22452" lon="0.15300"><ele>34</ele></trkpt>
<trkpt lat="47.22398" lon="0.15280"><ele>34</ele></trkpt>
<trkpt lat="47.22253" lon="0.15191"><ele>34</ele></trkpt>
<trkpt lat="47.22164" lon="0.15153"><ele>35</ele></trkpt>
<trkpt lat="47.21975" lon="0.15102"><ele>36</ele></trkpt>
<trkpt lat="47.21802" lon="0.15032"><ele>35</ele></trkpt>
<trkpt lat="47.21584" lon="0.14957"><ele>36</ele></trkpt>
<trkpt lat="47.21439" lon="0.14919"><ele>35</ele></trkpt>
<trkpt lat="47.21386" lon="0.14913"><ele>36</ele></trkpt>
<trkpt lat="47.21277" lon="0.14875"><ele>36</ele></trkpt>
<trkpt lat="47.21123" lon="0.14812"><ele>40</ele></trkpt>
<trkpt lat="47.20965" lon="0.14716"><ele>42</ele></trkpt>
<trkpt lat="47.20956" lon="0.14770"><ele>44</ele></trkpt>
<trkpt lat="47.20937" lon="0.14835"><ele>44</ele></trkpt>
<trkpt lat="47.20925" lon="0.14845"><ele>44</ele></trkpt>
<trkpt lat="47.20898" lon="0.14857"><ele>44</ele></trkpt>
<trkpt lat="47.20887" lon="0.14868"><ele>44</ele></trkpt>
<trkpt lat="47.20813" lon="0.15042"><ele>43</ele></trkpt>
<trkpt lat="47.20835" lon="0.15063"><ele>43</ele></trkpt>
<trkpt lat="47.20816" lon="0.15209"><ele>42</ele></trkpt>
<trkpt lat="47.20810" lon="0.15224"><ele>42</ele></trkpt>
<trkpt lat="47.20776" lon="0.15270"><ele>41</ele></trkpt>
<trkpt lat="47.20572" lon="0.15138"><ele>38</ele></trkpt>
<trkpt lat="47.20564" lon="0.15141"><ele>38</ele></trkpt>
<trkpt lat="47.20594" lon="0.15309"><ele>38</ele></trkpt>
<trkpt lat="47.20600" lon="0.15398"><ele>38</ele></trkpt>
<trkpt lat="47.20602" lon="0.15487"><ele>38</ele></trkpt>
<trkpt lat="47.20599" lon="0.15576"><ele>37</ele></trkpt>
<trkpt lat="47.20574" lon="0.15829"><ele>35</ele></trkpt>
<trkpt lat="47.20538" lon="0.15919"><ele>35</ele></trkpt>
<trkpt lat="47.20530" lon="0.15952"><ele>35</ele></trkpt>
<trkpt lat="47.20535" lon="0.16002"><ele>35</ele></trkpt>
<trkpt lat="47.20565" lon="0.16103"><ele>35</ele></trkpt>
<trkpt lat="47.20568" lon="0.16133"><ele>35</ele></trkpt>
<trkpt lat="47.20559" lon="0.16172"><ele>35</ele></trkpt>
<trkpt lat="47.20542" lon="0.16356"><ele>35</ele></trkpt>
<trkpt lat="47.20542" lon="0.16493"><ele>35</ele></trkpt>
<trkpt lat="47.20539" lon="0.16552"><ele>35</ele></trkpt>
<trkpt lat="47.20531" lon="0.16589"><ele>35</ele></trkpt>
<trkpt lat="47.20531" lon="0.16602"><ele>35</ele></trkpt>
<trkpt lat="47.20496" lon="0.16674"><ele>35</ele></trkpt>
<trkpt lat="47.20589" lon="0.16700"><ele>34</ele></trkpt>
<trkpt lat="47.20647" lon="0.16750"><ele>35</ele></trkpt>
<trkpt lat="47.20701" lon="0.16816"><ele>35</ele></trkpt>
<trkpt lat="47.20737" lon="0.16897"><ele>35</ele></trkpt>
<trkpt lat="47.20771" lon="0.16950"><ele>35</ele></trkpt>
<trkpt lat="47.20800" lon="0.16983"><ele>35</ele></trkpt>
<trkpt lat="47.20791" lon="0.17025"><ele>35</ele></trkpt>
<trkpt lat="47.20792" lon="0.17089"><ele>35</ele></trkpt>
<trkpt lat="47.20788" lon="0.17143"><ele>35</ele></trkpt>
<trkpt lat="47.20760" lon="0.17316"><ele>35</ele></trkpt>
<trkpt lat="47.20754" lon="0.17383"><ele>35</ele></trkpt>
<trkpt lat="47.20746" lon="0.17414"><ele>35</ele></trkpt>
<trkpt lat="47.20741" lon="0.17548"><ele>35</ele></trkpt>
<trkpt lat="47.20738" lon="0.17553"><ele>35</ele></trkpt>
<trkpt lat="47.20714" lon="0.17558"><ele>35</ele></trkpt>
<trkpt lat="47.20712" lon="0.17566"><ele>35</ele></trkpt>
<trkpt lat="47.20712" lon="0.17692"><ele>34</ele></trkpt>
<trkpt lat="47.20706" lon="0.17701"><ele>34</ele></trkpt>
<trkpt lat="47.20648" lon="0.17704"><ele>34</ele></trkpt>
<trkpt lat="47.20640" lon="0.17716"><ele>34</ele></trkpt>
<trkpt lat="47.20642" lon="0.17885"><ele>34</ele></trkpt>
<trkpt lat="47.20639" lon="0.17998"><ele>34</ele></trkpt>
<trkpt lat="47.20637" lon="0.18005"><ele>34</ele></trkpt>
<trkpt lat="47.20632" lon="0.18011"><ele>34</ele></trkpt>
<trkpt lat="47.20667" lon="0.18018"><ele>34</ele></trkpt>
<trkpt lat="47.20670" lon="0.18024"><ele>35</ele></trkpt>
<trkpt lat="47.20734" lon="0.18027"><ele>35</ele></trkpt>
<trkpt lat="47.20716" lon="0.18112"><ele>35</ele></trkpt>
<trkpt lat="47.20708" lon="0.18132"><ele>35</ele></trkpt>
<trkpt lat="47.20717" lon="0.18138"><ele>35</ele></trkpt>
<trkpt lat="47.20757" lon="0.18140"><ele>35</ele></trkpt>
<trkpt lat="47.20769" lon="0.18148"><ele>35</ele></trkpt>
<trkpt lat="47.20775" lon="0.18155"><ele>35</ele></trkpt>
<trkpt lat="47.20792" lon="0.18206"><ele>35</ele></trkpt>
<trkpt lat="47.20800" lon="0.18219"><ele>34</ele></trkpt>
<trkpt lat="47.20817" lon="0.18232"><ele>34</ele></trkpt>
<trkpt lat="47.20814" lon="0.18243"><ele>34</ele></trkpt>
<trkpt lat="47.20893" lon="0.18286"><ele>35</ele></trkpt>
<trkpt lat="47.20918" lon="0.18337"><ele>35</ele></trkpt>
<trkpt lat="47.20925" lon="0.18335"><ele>35</ele></trkpt>
<trkpt lat="47.20938" lon="0.18314"><ele>36</ele></trkpt>
<trkpt lat="47.20943" lon="0.18315"><ele>36</ele></trkpt>
<trkpt lat="47.21048" lon="0.18372"><ele>35</ele></trkpt>
<trkpt lat="47.21147" lon="0.18405"><ele>36</ele></trkpt>
<trkpt lat="47.21154" lon="0.18417"><ele>36</ele></trkpt>
<trkpt lat="47.21166" lon="0.18415"><ele>36</ele></trkpt>
<trkpt lat="47.21217" lon="0.18444"><ele>36</ele></trkpt>
<trkpt lat="47.21263" lon="0.18484"><ele>36</ele></trkpt>
<trkpt lat="47.21266" lon="0.18499"><ele>36</ele></trkpt>
<trkpt lat="47.21265" lon="0.18512"><ele>36</ele></trkpt>
<trkpt lat="47.21259" lon="0.18523"><ele>36</ele></trkpt>
<trkpt lat="47.21262" lon="0.18534"><ele>36</ele></trkpt>
<trkpt lat="47.21266" lon="0.18537"><ele>36</ele></trkpt>
<trkpt lat="47.21274" lon="0.18535"><ele>36</ele></trkpt>
<trkpt lat="47.21320" lon="0.18588"><ele>37</ele></trkpt>
<trkpt lat="47.21391" lon="0.18651"><ele>37</ele></trkpt>
<trkpt lat="47.21481" lon="0.18702"><ele>37</ele></trkpt>
<trkpt lat="47.21556" lon="0.18778"><ele>37</ele></trkpt>
<trkpt lat="47.21601" lon="0.18838"><ele>37</ele></trkpt>
<trkpt lat="47.21636" lon="0.18862"><ele>37</ele></trkpt>
<trkpt lat="47.21669" lon="0.18892"><ele>37</ele></trkpt>
<trkpt lat="47.21710" lon="0.18922"><ele>37</ele></trkpt>
<trkpt lat="47.21731" lon="0.18947"><ele>37</ele></trkpt>
<trkpt lat="47.21740" lon="0.18953"><ele>37</ele></trkpt>
<trkpt lat="47.21750" lon="0.18952"><ele>37</ele></trkpt>
<trkpt lat="47.21811" lon="0.19879"><ele>37</ele></trkpt>
<trkpt lat="47.21808" lon="0.19885"><ele>37</ele></trkpt>
<trkpt lat="47.21742" lon="0.19917"><ele>37</ele></trkpt>
<trkpt lat="47.21739" lon="0.20015"><ele>38</ele></trkpt>
<trkpt lat="47.21702" lon="0.20191"><ele>38</ele></trkpt>
<trkpt lat="47.21672" lon="0.20306"><ele>37</ele></trkpt>
<trkpt lat="47.21671" lon="0.20337"><ele>37</ele></trkpt>
<trkpt lat="47.21673" lon="0.20365"><ele>38</ele></trkpt>
<trkpt lat="47.21698" lon="0.20513"><ele>38</ele></trkpt>
<trkpt lat="47.21714" lon="0.20582"><ele>38</ele></trkpt>
<trkpt lat="47.21741" lon="0.20666"><ele>38</ele></trkpt>
<trkpt lat="47.21753" lon="0.20711"><ele>38</ele></trkpt>
<trkpt lat="47.21764" lon="0.20778"><ele>38</ele></trkpt>
<trkpt lat="47.21788" lon="0.21007"><ele>40</ele></trkpt>
<trkpt lat="47.21784" lon="0.21140"><ele>41</ele></trkpt>
<trkpt lat="47.21788" lon="0.21302"><ele>41</ele></trkpt>
<trkpt lat="47.21799" lon="0.21377"><ele>40</ele></trkpt>
<trkpt lat="47.21813" lon="0.21585"><ele>40</ele></trkpt>
<trkpt lat="47.21804" lon="0.21751"><ele>39</ele></trkpt>
<trkpt lat="47.21814" lon="0.21852"><ele>40</ele></trkpt>
<trkpt lat="47.21820" lon="0.21881"><ele>40</ele></trkpt>
<trkpt lat="47.21841" lon="0.21926"><ele>40</ele></trkpt>
<trkpt lat="47.21850" lon="0.21958"><ele>39</ele></trkpt>
<trkpt lat="47.21849" lon="0.22068"><ele>39</ele></trkpt>
<trkpt lat="47.21856" lon="0.22082"><ele>39</ele></trkpt>
<trkpt lat="47.21912" lon="0.22299"><ele>39</ele></trkpt>
<trkpt lat="47.21949" lon="0.22363"><ele>39</ele></trkpt>
<trkpt lat="47.22005" lon="0.22472"><ele>39</ele></trkpt>
<trkpt lat="47.22045" lon="0.22524"><ele>39</ele></trkpt>
<trkpt lat="47.22096" lon="0.22611"><ele>39</ele></trkpt>
<trkpt lat="47.22105" lon="0.22630"><ele>39</ele></trkpt>
<trkpt lat="47.22096" lon="0.22655"><ele>39</ele></trkpt>
<trkpt lat="47.22176" lon="0.22753"><ele>38</ele></trkpt>
<trkpt lat="47.22289" lon="0.22948"><ele>36</ele></trkpt>
<trkpt lat="47.22304" lon="0.22968"><ele>36</ele></trkpt>
<trkpt lat="47.22344" lon="0.23000"><ele>38</ele></trkpt>
<trkpt lat="47.22400" lon="0.23086"><ele>40</ele></trkpt>
<trkpt lat="47.22465" lon="0.23174"><ele>40</ele></trkpt>
<trkpt lat="47.22489" lon="0.23217"><ele>40</ele></trkpt>
<trkpt lat="47.22516" lon="0.23289"><ele>40</ele></trkpt>
<trkpt lat="47.22578" lon="0.23485"><ele>42</ele></trkpt>
<trkpt lat="47.22647" lon="0.23769"><ele>44</ele></trkpt>
<trkpt lat="47.22688" lon="0.23966"><ele>49</ele></trkpt>
<trkpt lat="47.22701" lon="0.24006"><ele>50</ele></trkpt>
<trkpt lat="47.22732" lon="0.24060"><ele>51</ele></trkpt>
<trkpt lat="47.22823" lon="0.24187"><ele>55</ele></trkpt>
<trkpt lat="47.22863" lon="0.24230"><ele>56</ele></trkpt>
<trkpt lat="47.22943" lon="0.24294"><ele>59</ele></trkpt>
<trkpt lat="47.22971" lon="0.24328"><ele>60</ele></trkpt>
<trkpt lat="47.22993" lon="0.24369"><ele>62</ele></trkpt>
<trkpt lat="47.23040" lon="0.24514"><ele>64</ele></trkpt>
<trkpt lat="47.23072" lon="0.24571"><ele>66</ele></trkpt>
<trkpt lat="47.23095" lon="0.24590"><ele>66</ele></trkpt>
<trkpt lat="47.23132" lon="0.24601"><ele>66</ele></trkpt>
<trkpt lat="47.23148" lon="0.24616"><ele>66</ele></trkpt>
<trkpt lat="47.23161" lon="0.24639"><ele>67</ele></trkpt>
<trkpt lat="47.23176" lon="0.24683"><ele>68</ele></trkpt>
<trkpt lat="47.23187" lon="0.24735"><ele>68</ele></trkpt>
<trkpt lat="47.23194" lon="0.24805"><ele>70</ele></trkpt>
<trkpt lat="47.23231" lon="0.25013"><ele>76</ele></trkpt>
<trkpt lat="47.23240" lon="0.25100"><ele>81</ele></trkpt>
<trkpt lat="47.23253" lon="0.25158"><ele>82</ele></trkpt>
<trkpt lat="47.23265" lon="0.25189"><ele>82</ele></trkpt>
<trkpt lat="47.23272" lon="0.25198"><ele>82</ele></trkpt>
<trkpt lat="47.23308" lon="0.25131"><ele>81</ele></trkpt>
<trkpt lat="47.23353" lon="0.25036"><ele>78</ele></trkpt>
<trkpt lat="47.23381" lon="0.24987"><ele>77</ele></trkpt>
<trkpt lat="47.23509" lon="0.24812"><ele>74</ele></trkpt>
<trkpt lat="47.23528" lon="0.24796"><ele>74</ele></trkpt>
<trkpt lat="47.23545" lon="0.24793"><ele>74</ele></trkpt>
<trkpt lat="47.23566" lon="0.24801"><ele>74</ele></trkpt>
<trkpt lat="47.23655" lon="0.24862"><ele>68</ele></trkpt>
<trkpt lat="47.23726" lon="0.24882"><ele>62</ele></trkpt>
<trkpt lat="47.23730" lon="0.24876"><ele>62</ele></trkpt>
<trkpt lat="47.23757" lon="0.24877"><ele>60</ele></trkpt>
<trkpt lat="47.23831" lon="0.24866"><ele>51</ele></trkpt>
<trkpt lat="47.24070" lon="0.24750"><ele>36</ele></trkpt>
<trkpt lat="47.24091" lon="0.24828"><ele>34</ele></trkpt>
<trkpt lat="47.24129" lon="0.24902"><ele>34</ele></trkpt>
<trkpt lat="47.24143" lon="0.24938"><ele>34</ele></trkpt>
<trkpt lat="47.24181" lon="0.25033"><ele>35</ele></trkpt>
<trkpt lat="47.24210" lon="0.25120"><ele>35</ele></trkpt>
<trkpt lat="47.24250" lon="0.25286"><ele>34</ele></trkpt>
<trkpt lat="47.24300" lon="0.25472"><ele>34</ele></trkpt>
<trkpt lat="47.24302" lon="0.25493"><ele>34</ele></trkpt>
<trkpt lat="47.24321" lon="0.25519"><ele>34</ele></trkpt>
<trkpt lat="47.24370" lon="0.25629"><ele>33</ele></trkpt>
<trkpt lat="47.24405" lon="0.25724"><ele>34</ele></trkpt>
<trkpt lat="47.24413" lon="0.25764"><ele>33</ele></trkpt>
<trkpt lat="47.24416" lon="0.25829"><ele>34</ele></trkpt>
<trkpt lat="47.24448" lon="0.25939"><ele>34</ele></trkpt>
<trkpt lat="47.24486" lon="0.26111"><ele>34</ele></trkpt>
<trkpt lat="47.24567" lon="0.26331"><ele>34</ele></trkpt>
<trkpt lat="47.24583" lon="0.26360"><ele>35</ele></trkpt>
<trkpt lat="47.24618" lon="0.26406"><ele>36</ele></trkpt>
<trkpt lat="47.24625" lon="0.26430"><ele>36</ele></trkpt>
<trkpt lat="47.24624" lon="0.26448"><ele>36</ele></trkpt>
<trkpt lat="47.24650" lon="0.26499"><ele>36</ele></trkpt>
<trkpt lat="47.24694" lon="0.26554"><ele>35</ele></trkpt>
<trkpt lat="47.24703" lon="0.26560"><ele>34</ele></trkpt>
<trkpt lat="47.24729" lon="0.26560"><ele>34</ele></trkpt>
<trkpt lat="47.24835" lon="0.26506"><ele>34</ele></trkpt>
<trkpt lat="47.25095" lon="0.26387"><ele>34</ele></trkpt>
<trkpt lat="47.25136" lon="0.26359"><ele>34</ele></trkpt>
<trkpt lat="47.25200" lon="0.26341"><ele>35</ele></trkpt>
<trkpt lat="47.25209" lon="0.26360"><ele>35</ele></trkpt>
<trkpt lat="47.25270" lon="0.26455"><ele>35</ele></trkpt>
<trkpt lat="47.25291" lon="0.26471"><ele>35</ele></trkpt>
<trkpt lat="47.25318" lon="0.26827"><ele>34</ele></trkpt>
<trkpt lat="47.25337" lon="0.26913"><ele>35</ele></trkpt>
<trkpt lat="47.25359" lon="0.26985"><ele>35</ele></trkpt>
<trkpt lat="47.25375" lon="0.27030"><ele>35</ele></trkpt>
<trkpt lat="47.25475" lon="0.27221"><ele>35</ele></trkpt>
<trkpt lat="47.25489" lon="0.27256"><ele>35</ele></trkpt>
<trkpt lat="47.25550" lon="0.27388"><ele>35</ele></trkpt>
<trkpt lat="47.25564" lon="0.27409"><ele>35</ele></trkpt>
<trkpt lat="47.25568" lon="0.27408"><ele>35</ele></trkpt>
<trkpt lat="47.25574" lon="0.27419"><ele>35</ele></trkpt>
<trkpt lat="47.25594" lon="0.27475"><ele>35</ele></trkpt>
<trkpt lat="47.25618" lon="0.27603"><ele>35</ele></trkpt>
<trkpt lat="47.25664" lon="0.27807"><ele>35</ele></trkpt>
<trkpt lat="47.25688" lon="0.27896"><ele>35</ele></trkpt>
<trkpt lat="47.25686" lon="0.27900"><ele>35</ele></trkpt>
<trkpt lat="47.25795" lon="0.28116"><ele>35</ele></trkpt>
<trkpt lat="47.25885" lon="0.28270"><ele>35</ele></trkpt>
<trkpt lat="47.25907" lon="0.28314"><ele>36</ele></trkpt>
<trkpt lat="47.25946" lon="0.28354"><ele>37</ele></trkpt>
<trkpt lat="47.25959" lon="0.28391"><ele>36</ele></trkpt>
<trkpt lat="47.25981" lon="0.28507"><ele>36</ele></trkpt>
<trkpt lat="47.25996" lon="0.28564"><ele>36</ele></trkpt>
<trkpt lat="47.25999" lon="0.28680"><ele>36</ele></trkpt>
<trkpt lat="47.26006" lon="0.28753"><ele>36</ele></trkpt>
<trkpt lat="47.26023" lon="0.28796"><ele>36</ele></trkpt>
<trkpt lat="47.26053" lon="0.28860"><ele>37</ele></trkpt>
<trkpt lat="47.26079" lon="0.28884"><ele>36</ele></trkpt>
<trkpt lat="47.26088" lon="0.28899"><ele>36</ele></trkpt>
<trkpt lat="47.26094" lon="0.28916"><ele>36</ele></trkpt>
<trkpt lat="47.26097" lon="0.28933"><ele>36</ele></trkpt>
<trkpt lat="47.26099" lon="0.29073"><ele>36</ele></trkpt>
<trkpt lat="47.26119" lon="0.29171"><ele>36</ele></trkpt>
<trkpt lat="47.26161" lon="0.29315"><ele>36</ele></trkpt>
<trkpt lat="47.26172" lon="0.29343"><ele>36</ele></trkpt>
<trkpt lat="47.26201" lon="0.29393"><ele>36</ele></trkpt>
<trkpt lat="47.26203" lon="0.29407"><ele>36</ele></trkpt>
<trkpt lat="47.26202" lon="0.29542"><ele>36</ele></trkpt>
<trkpt lat="47.26199" lon="0.29591"><ele>36</ele></trkpt>
<trkpt lat="47.26219" lon="0.29680"><ele>36</ele></trkpt>
<trkpt lat="47.26212" lon="0.29774"><ele>36</ele></trkpt>
<trkpt lat="47.26213" lon="0.29819"><ele>36</ele></trkpt>
<trkpt lat="47.26222" lon="0.29856"><ele>36</ele></trkpt>
<trkpt lat="47.26264" lon="0.29945"><ele>36</ele></trkpt>
<trkpt lat="47.26278" lon="0.29987"><ele>36</ele></trkpt>
<trkpt lat="47.26286" lon="0.30025"><ele>36</ele></trkpt>
<trkpt lat="47.26287" lon="0.30087"><ele>36</ele></trkpt>
<trkpt lat="47.26296" lon="0.30140"><ele>36</ele></trkpt>
<trkpt lat="47.26378" lon="0.30369"><ele>36</ele></trkpt>
<trkpt lat="47.26462" lon="0.30517"><ele>36</ele></trkpt>
<trkpt lat="47.26484" lon="0.30597"><ele>36</ele></trkpt>
<trkpt lat="47.26561" lon="0.30813"><ele>36</ele></trkpt>
<trkpt lat="47.26588" lon="0.30867"><ele>36</ele></trkpt>
<trkpt lat="47.26602" lon="0.30915"><ele>36</ele></trkpt>
<trkpt lat="47.26593" lon="0.30920"><ele>36</ele></trkpt>
<trkpt lat="47.26642" lon="0.31054"><ele>36</ele></trkpt>
<trkpt lat="47.26693" lon="0.31209"><ele>36</ele></trkpt>
<trkpt lat="47.26694" lon="0.31226"><ele>36</ele></trkpt>
<trkpt lat="47.26683" lon="0.31277"><ele>36</ele></trkpt>
<trkpt lat="47.26684" lon="0.31305"><ele>36</ele></trkpt>
<trkpt lat="47.26690" lon="0.31335"><ele>36</ele></trkpt>
<trkpt lat="47.26707" lon="0.31374"><ele>36</ele></trkpt>
<trkpt lat="47.27005" lon="0.31978"><ele>37</ele></trkpt>
<trkpt lat="47.26957" lon="0.32075"><ele>37</ele></trkpt>
<trkpt lat="47.26962" lon="0.32132"><ele>36</ele></trkpt>
<trkpt lat="47.26971" lon="0.32156"><ele>37</ele></trkpt>
<trkpt lat="47.26993" lon="0.32197"><ele>37</ele></trkpt>
<trkpt lat="47.27028" lon="0.32247"><ele>37</ele></trkpt>
<trkpt lat="47.27068" lon="0.32283"><ele>37</ele></trkpt>
<trkpt lat="47.27054" lon="0.32320"><ele>36</ele></trkpt>
<trkpt lat="47.27054" lon="0.32327"><ele>37</ele></trkpt>
<trkpt lat="47.27087" lon="0.32426"><ele>37</ele></trkpt>
<trkpt lat="47.27134" lon="0.32540"><ele>37</ele></trkpt>
<trkpt lat="47.27155" lon="0.32599"><ele>37</ele></trkpt>
<trkpt lat="47.27160" lon="0.32603"><ele>38</ele></trkpt>
<trkpt lat="47.27173" lon="0.32650"><ele>37</ele></trkpt>
<trkpt lat="47.27196" lon="0.32770"><ele>38</ele></trkpt>
<trkpt lat="47.27204" lon="0.32796"><ele>37</ele></trkpt>
<trkpt lat="47.27243" lon="0.32883"><ele>37</ele></trkpt>
<trkpt lat="47.27290" lon="0.32962"><ele>37</ele></trkpt>
<trkpt lat="47.27298" lon="0.32982"><ele>37</ele></trkpt>
<trkpt lat="47.27302" lon="0.33077"><ele>38</ele></trkpt>
<trkpt lat="47.27306" lon="0.33123"><ele>39</ele></trkpt>
<trkpt lat="47.27325" lon="0.33209"><ele>37</ele></trkpt>
<trkpt lat="47.27366" lon="0.33326"><ele>38</ele></trkpt>
<trkpt lat="47.27369" lon="0.33356"><ele>38</ele></trkpt>
<trkpt lat="47.27341" lon="0.33689"><ele>38</ele></trkpt>
<trkpt lat="47.27346" lon="0.33735"><ele>38</ele></trkpt>
<trkpt lat="47.27388" lon="0.33829"><ele>37</ele></trkpt>
<trkpt lat="47.27420" lon="0.33890"><ele>37</ele></trkpt>
<trkpt lat="47.27460" lon="0.33950"><ele>36</ele></trkpt>
<trkpt lat="47.27482" lon="0.33976"><ele>36</ele></trkpt>
<trkpt lat="47.27500" lon="0.33986"><ele>36</ele></trkpt>
<trkpt lat="47.27537" lon="0.33980"><ele>36</ele></trkpt>
<trkpt lat="47.27549" lon="0.34003"><ele>35</ele></trkpt>
<trkpt lat="47.27604" lon="0.34177"><ele>36</ele></trkpt>
<trkpt lat="47.27618" lon="0.34202"><ele>36</ele></trkpt>
<trkpt lat="47.27638" lon="0.34224"><ele>37</ele></trkpt>
<trkpt lat="47.27670" lon="0.34287"><ele>36</ele></trkpt>
<trkpt lat="47.27699" lon="0.34363"><ele>37</ele></trkpt>
<trkpt lat="47.27726" lon="0.34400"><ele>36</ele></trkpt>
<trkpt lat="47.27743" lon="0.34432"><ele>36</ele></trkpt>
<trkpt lat="47.27755" lon="0.34464"><ele>36</ele></trkpt>
<trkpt lat="47.27773" lon="0.34494"><ele>36</ele></trkpt>
<trkpt lat="47.27792" lon="0.34506"><ele>36</ele></trkpt>
<trkpt lat="47.27891" lon="0.34549"><ele>37</ele></trkpt>
<trkpt lat="47.27992" lon="0.34566"><ele>36</ele></trkpt>
<trkpt lat="47.28021" lon="0.34580"><ele>37</ele></trkpt>
<trkpt lat="47.28045" lon="0.34602"><ele>36</ele></trkpt>
<trkpt lat="47.28063" lon="0.34625"><ele>36</ele></trkpt>
<trkpt lat="47.28081" lon="0.34659"><ele>38</ele></trkpt>
<trkpt lat="47.28116" lon="0.34762"><ele>37</ele></trkpt>
<trkpt lat="47.28141" lon="0.34848"><ele>37</ele></trkpt>
<trkpt lat="47.28147" lon="0.34856"><ele>37</ele></trkpt>
<trkpt lat="47.28154" lon="0.34859"><ele>37</ele></trkpt>
<trkpt lat="47.28183" lon="0.34844"><ele>37</ele></trkpt>
<trkpt lat="47.28213" lon="0.34847"><ele>37</ele></trkpt>
<trkpt lat="47.28242" lon="0.34843"><ele>37</ele></trkpt>
<trkpt lat="47.28251" lon="0.34847"><ele>36</ele></trkpt>
<trkpt lat="47.28305" lon="0.34891"><ele>37</ele></trkpt>
<trkpt lat="47.28332" lon="0.34908"><ele>36</ele></trkpt>
<trkpt lat="47.28348" lon="0.34931"><ele>36</ele></trkpt>
<trkpt lat="47.28358" lon="0.34968"><ele>37</ele></trkpt>
<trkpt lat="47.28364" lon="0.35029"><ele>38</ele></trkpt>
<trkpt lat="47.28362" lon="0.35059"><ele>38</ele></trkpt>
<trkpt lat="47.28349" lon="0.35120"><ele>37</ele></trkpt>
<trkpt lat="47.28352" lon="0.35147"><ele>37</ele></trkpt>
<trkpt lat="47.28357" lon="0.35167"><ele>38</ele></trkpt>
<trkpt lat="47.28364" lon="0.35172"><ele>38</ele></trkpt>
<trkpt lat="47.28370" lon="0.35186"><ele>36</ele></trkpt>
<trkpt lat="47.28379" lon="0.35238"><ele>36</ele></trkpt>
<trkpt lat="47.28402" lon="0.35314"><ele>36</ele></trkpt>
<trkpt lat="47.28426" lon="0.35422"><ele>37</ele></trkpt>
<trkpt lat="47.28452" lon="0.35500"><ele>37</ele></trkpt>
<trkpt lat="47.28498" lon="0.35665"><ele>37</ele></trkpt>
<trkpt lat="47.28533" lon="0.35748"><ele>36</ele></trkpt>
<trkpt lat="47.28555" lon="0.35812"><ele>37</ele></trkpt>
<trkpt lat="47.28575" lon="0.35896"><ele>37</ele></trkpt>
<trkpt lat="47.28581" lon="0.36009"><ele>38</ele></trkpt>
<trkpt lat="47.28590" lon="0.36027"><ele>37</ele></trkpt>
<trkpt lat="47.28737" lon="0.36199"><ele>37</ele></trkpt>
<trkpt lat="47.28748" lon="0.36220"><ele>37</ele></trkpt>
<trkpt lat="47.28760" lon="0.36252"><ele>37</ele></trkpt>
<trkpt lat="47.28792" lon="0.36418"><ele>36</ele></trkpt>
<trkpt lat="47.28818" lon="0.36484"><ele>36</ele></trkpt>
<trkpt lat="47.28820" lon="0.36513"><ele>37</ele></trkpt>
<trkpt lat="47.28623" lon="0.36623"><ele>38</ele></trkpt>
<trkpt lat="47.28606" lon="0.36666"><ele>38</ele></trkpt>
<trkpt lat="47.28606" lon="0.36678"><ele>38</ele></trkpt>
<trkpt lat="47.28616" lon="0.36701"><ele>38</ele></trkpt>
<trkpt lat="47.28671" lon="0.36774"><ele>36</ele></trkpt>
<trkpt lat="47.28733" lon="0.36926"><ele>37</ele></trkpt>
<trkpt lat="47.28749" lon="0.37040"><ele>38</ele></trkpt>
<trkpt lat="47.28778" lon="0.37149"><ele>38</ele></trkpt>
<trkpt lat="47.28818" lon="0.37361"><ele>38</ele></trkpt>
<trkpt lat="47.29048" lon="0.37361"><ele>38</ele></trkpt>
<trkpt lat="47.29088" lon="0.37356"><ele>38</ele></trkpt>
<trkpt lat="47.29095" lon="0.37470"><ele>36</ele></trkpt>
<trkpt lat="47.29102" lon="0.37503"><ele>38</ele></trkpt>
<trkpt lat="47.29198" lon="0.37763"><ele>38</ele></trkpt>
<trkpt lat="47.29235" lon="0.37839"><ele>38</ele></trkpt>
<trkpt lat="47.29246" lon="0.37864"><ele>38</ele></trkpt>
<trkpt lat="47.29261" lon="0.37882"><ele>38</ele></trkpt>
<trkpt lat="47.29273" lon="0.37886"><ele>38</ele></trkpt>
<trkpt lat="47.29305" lon="0.37884"><ele>38</ele></trkpt>
<trkpt lat="47.29326" lon="0.37889"><ele>40</ele></trkpt>
<trkpt lat="47.29366" lon="0.37932"><ele>38</ele></trkpt>
<trkpt lat="47.29374" lon="0.37951"><ele>37</ele></trkpt>
<trkpt lat="47.29421" lon="0.38184"><ele>38</ele></trkpt>
<trkpt lat="47.29424" lon="0.38189"><ele>38</ele></trkpt>
<trkpt lat="47.29426" lon="0.38228"><ele>38</ele></trkpt>
<trkpt lat="47.29456" lon="0.38374"><ele>38</ele></trkpt>
<trkpt lat="47.29457" lon="0.38384"><ele>38</ele></trkpt>
<trkpt lat="47.29451" lon="0.38401"><ele>38</ele></trkpt>
<trkpt lat="47.29430" lon="0.38422"><ele>38</ele></trkpt>
<trkpt lat="47.29427" lon="0.38445"><ele>37</ele></trkpt>
<trkpt lat="47.29462" lon="0.38556"><ele>38</ele></trkpt>
<trkpt lat="47.29472" lon="0.38598"><ele>38</ele></trkpt>
<trkpt lat="47.29475" lon="0.38626"><ele>38</ele></trkpt>
<trkpt lat="47.29469" lon="0.38641"><ele>38</ele></trkpt>
<trkpt lat="47.29464" lon="0.38646"><ele>38</ele></trkpt>
<trkpt lat="47.29392" lon="0.38683"><ele>37</ele></trkpt>
<trkpt lat="47.29295" lon="0.38767"><ele>38</ele></trkpt>
<trkpt lat="47.29259" lon="0.38770"><ele>38</ele></trkpt>
<trkpt lat="47.29248" lon="0.38780"><ele>39</ele></trkpt>
<trkpt lat="47.29258" lon="0.38910"><ele>38</ele></trkpt>
<trkpt lat="47.29290" lon="0.39158"><ele>38</ele></trkpt>
<trkpt lat="47.29359" lon="0.39396"><ele>38</ele></trkpt>
<trkpt lat="47.29382" lon="0.39530"><ele>38</ele></trkpt>
<trkpt lat="47.29391" lon="0.39627"><ele>39</ele></trkpt>
<trkpt lat="47.29399" lon="0.39665"><ele>38</ele></trkpt>
<trkpt lat="47.29417" lon="0.39719"><ele>39</ele></trkpt>
<trkpt lat="47.29440" lon="0.39770"><ele>38</ele></trkpt>
<trkpt lat="47.29452" lon="0.39825"><ele>38</ele></trkpt>
<trkpt lat="47.29456" lon="0.39875"><ele>38</ele></trkpt>
<trkpt lat="47.29456" lon="0.39955"><ele>38</ele></trkpt>
<trkpt lat="47.29415" lon="0.40027"><ele>38</ele></trkpt>
<trkpt lat="47.29262" lon="0.40238"><ele>40</ele></trkpt>
<trkpt lat="47.29210" lon="0.40286"><ele>43</ele></trkpt>
<trkpt lat="47.29217" lon="0.40320"><ele>44</ele></trkpt>
<trkpt lat="47.29213" lon="0.40341"><ele>45</ele></trkpt>
<trkpt lat="47.29215" lon="0.40350"><ele>45</ele></trkpt>
<trkpt lat="47.29220" lon="0.40362"><ele>45</ele></trkpt>
<trkpt lat="47.29243" lon="0.40390"><ele>44</ele></trkpt>
<trkpt lat="47.29171" lon="0.40466"><ele>50</ele></trkpt>
<trkpt lat="47.29162" lon="0.40481"><ele>51</ele></trkpt>
<trkpt lat="47.29143" lon="0.40859"><ele>64</ele></trkpt>
<trkpt lat="47.29138" lon="0.40914"><ele>64</ele></trkpt>
<trkpt lat="47.29121" lon="0.40997"><ele>66</ele></trkpt>
<trkpt lat="47.29037" lon="0.41235"><ele>73</ele></trkpt>
<trkpt lat="47.28997" lon="0.41314"><ele>80</ele></trkpt>
<trkpt lat="47.28964" lon="0.41407"><ele>88</ele></trkpt>
<trkpt lat="47.28944" lon="0.41451"><ele>90</ele></trkpt>
<trkpt lat="47.28913" lon="0.41499"><ele>93</ele></trkpt>
<trkpt lat="47.28841" lon="0.41561"><ele>94</ele></trkpt>
<trkpt lat="47.28827" lon="0.41611"><ele>94</ele></trkpt>
<trkpt lat="47.28782" lon="0.41950"><ele>90</ele></trkpt>
<trkpt lat="47.28781" lon="0.41973"><ele>90</ele></trkpt>
<trkpt lat="47.28788" lon="0.42001"><ele>90</ele></trkpt>
<trkpt lat="47.28874" lon="0.42228"><ele>90</ele></trkpt>
<trkpt lat="47.28885" lon="0.42271"><ele>90</ele></trkpt>
<trkpt lat="47.28905" lon="0.42380"><ele>90</ele></trkpt>
<trkpt lat="47.28918" lon="0.42407"><ele>90</ele></trkpt>
<trkpt lat="47.28945" lon="0.42447"><ele>89</ele></trkpt>
<trkpt lat="47.29020" lon="0.42534"><ele>90</ele></trkpt>
<trkpt lat="47.29038" lon="0.42578"><ele>91</ele></trkpt>
<trkpt lat="47.29048" lon="0.42635"><ele>92</ele></trkpt>
<trkpt lat="47.29047" lon="0.42676"><ele>92</ele></trkpt>
<trkpt lat="47.29041" lon="0.42691"><ele>92</ele></trkpt>
<trkpt lat="47.29014" lon="0.42727"><ele>92</ele></trkpt>
<trkpt lat="47.29006" lon="0.42744"><ele>92</ele></trkpt>
<trkpt lat="47.29001" lon="0.42769"><ele>92</ele></trkpt>
<trkpt lat="47.29003" lon="0.42790"><ele>92</ele></trkpt>
<trkpt lat="47.29066" lon="0.42937"><ele>92</ele></trkpt>
<trkpt lat="47.29108" lon="0.43073"><ele>92</ele></trkpt>
<trkpt lat="47.29207" lon="0.43253"><ele>90</ele></trkpt>
<trkpt lat="47.29263" lon="0.43338"><ele>89</ele></trkpt>
<trkpt lat="47.29269" lon="0.43354"><ele>88</ele></trkpt>
<trkpt lat="47.29270" lon="0.43374"><ele>88</ele></trkpt>
<trkpt lat="47.29259" lon="0.43436"><ele>88</ele></trkpt>
<trkpt lat="47.29231" lon="0.43533"><ele>89</ele></trkpt>
<trkpt lat="47.29215" lon="0.43610"><ele>90</ele></trkpt>
<trkpt lat="47.29405" lon="0.43474"><ele>84</ele></trkpt>
<trkpt lat="47.29525" lon="0.43397"><ele>86</ele></trkpt>
<trkpt lat="47.29600" lon="0.43339"><ele>87</ele></trkpt>
<trkpt lat="47.29658" lon="0.43337"><ele>87</ele></trkpt>
<trkpt lat="47.29753" lon="0.43324"><ele>87</ele></trkpt>
<trkpt lat="47.29808" lon="0.43294"><ele>86</ele></trkpt>
<trkpt lat="47.29821" lon="0.43282"><ele>86</ele></trkpt>
<trkpt lat="47.29852" lon="0.43222"><ele>84</ele></trkpt>
<trkpt lat="47.29884" lon="0.43151"><ele>82</ele></trkpt>
<trkpt lat="47.29904" lon="0.43128"><ele>80</ele></trkpt>
<trkpt lat="47.29931" lon="0.43103"><ele>77</ele></trkpt>
<trkpt lat="47.29955" lon="0.43089"><ele>74</ele></trkpt>
<trkpt lat="47.29981" lon="0.43080"><ele>70</ele></trkpt>
<trkpt lat="47.30020" lon="0.43057"><ele>66</ele></trkpt>
<trkpt lat="47.30044" lon="0.43036"><ele>64</ele></trkpt>
<trkpt lat="47.30108" lon="0.42953"><ele>57</ele></trkpt>
<trkpt lat="47.30147" lon="0.42886"><ele>54</ele></trkpt>
<trkpt lat="47.30345" lon="0.42700"><ele>40</ele></trkpt>
<trkpt lat="47.30426" lon="0.42639"><ele>39</ele></trkpt>
<trkpt lat="47.30485" lon="0.42610"><ele>39</ele></trkpt>
<trkpt lat="47.30515" lon="0.42571"><ele>39</ele></trkpt>
<trkpt lat="47.30560" lon="0.42492"><ele>39</ele></trkpt>
<trkpt lat="47.30728" lon="0.42642"><ele>40</ele></trkpt>
<trkpt lat="47.30764" lon="0.42631"><ele>38</ele></trkpt>
<trkpt lat="47.30760" lon="0.42512"><ele>38</ele></trkpt>
<trkpt lat="47.30792" lon="0.42313"><ele>40</ele></trkpt>
<trkpt lat="47.30797" lon="0.42289"><ele>39</ele></trkpt>
<trkpt lat="47.30806" lon="0.42265"><ele>39</ele></trkpt>
<trkpt lat="47.30836" lon="0.42198"><ele>40</ele></trkpt>
<trkpt lat="47.30854" lon="0.42135"><ele>38</ele></trkpt>
<trkpt lat="47.30917" lon="0.42130"><ele>39</ele></trkpt>
<trkpt lat="47.31126" lon="0.42056"><ele>38</ele></trkpt>
<trkpt lat="47.31228" lon="0.42067"><ele>40</ele></trkpt>
<trkpt lat="47.31266" lon="0.42053"><ele>40</ele></trkpt>
<trkpt lat="47.31328" lon="0.42015"><ele>40</ele></trkpt>
<trkpt lat="47.31410" lon="0.41952"><ele>40</ele></trkpt>
<trkpt lat="47.31498" lon="0.41901"><ele>40</ele></trkpt>
<trkpt lat="47.31540" lon="0.41881"><ele>40</ele></trkpt>
<trkpt lat="47.31617" lon="0.41857"><ele>40</ele></trkpt>
<trkpt lat="47.31705" lon="0.41839"><ele>40</ele></trkpt>
<trkpt lat="47.31772" lon="0.41834"><ele>41</ele></trkpt>
<trkpt lat="47.31786" lon="0.41843"><ele>41</ele></trkpt>
<trkpt lat="47.31803" lon="0.41878"><ele>42</ele></trkpt>
<trkpt lat="47.31809" lon="0.41878"><ele>42</ele></trkpt>
<trkpt lat="47.31810" lon="0.41855"><ele>42</ele></trkpt>
<trkpt lat="47.31799" lon="0.41794"><ele>40</ele></trkpt>
<trkpt lat="47.31801" lon="0.41787"><ele>40</ele></trkpt>
<trkpt lat="47.31775" lon="0.41713"><ele>40</ele></trkpt>
<trkpt lat="47.31762" lon="0.41663"><ele>41</ele></trkpt>
<trkpt lat="47.31707" lon="0.41524"><ele>42</ele></trkpt>
<trkpt lat="47.31691" lon="0.41466"><ele>39</ele></trkpt>
<trkpt lat="47.31599" lon="0.41206"><ele>40</ele></trkpt>
<trkpt lat="47.31569" lon="0.41089"><ele>41</ele></trkpt>
<trkpt lat="47.31559" lon="0.41031"><ele>39</ele></trkpt>
<trkpt lat="47.31552" lon="0.40966"><ele>39</ele></trkpt>
<trkpt lat="47.31535" lon="0.40915"><ele>42</ele></trkpt>
<trkpt lat="47.31523" lon="0.40893"><ele>42</ele></trkpt>
<trkpt lat="47.31514" lon="0.40885"><ele>40</ele></trkpt>
<trkpt lat="47.31498" lon="0.40832"><ele>42</ele></trkpt>
<trkpt lat="47.31497" lon="0.40824"><ele>42</ele></trkpt>
<trkpt lat="47.31519" lon="0.40798"><ele>41</ele></trkpt>
<trkpt lat="47.32086" lon="0.40327"><ele>44</ele></trkpt>
<trkpt lat="47.32104" lon="0.40322"><ele>44</ele></trkpt>
<trkpt lat="47.32114" lon="0.40335"><ele>44</ele></trkpt>
<trkpt lat="47.32129" lon="0.40382"><ele>42</ele></trkpt>
<trkpt lat="47.32147" lon="0.40496"><ele>42</ele></trkpt>
<trkpt lat="47.32157" lon="0.40536"><ele>42</ele></trkpt>
<trkpt lat="47.32180" lon="0.40607"><ele>42</ele></trkpt>
<trkpt lat="47.32198" lon="0.40631"><ele>43</ele></trkpt>
<trkpt lat="47.32209" lon="0.40626"><ele>42</ele></trkpt>
<trkpt lat="47.32227" lon="0.40637"><ele>42</ele></trkpt>
<trkpt lat="47.32241" lon="0.40635"><ele>42</ele></trkpt>
<trkpt lat="47.32284" lon="0.40615"><ele>41</ele></trkpt>
<trkpt lat="47.32288" lon="0.40620"><ele>41</ele></trkpt>
<trkpt lat="47.32292" lon="0.40619"><ele>41</ele></trkpt>
<trkpt lat="47.32297" lon="0.40661"><ele>41</ele></trkpt>
<trkpt lat="47.32307" lon="0.40683"><ele>41</ele></trkpt>
<trkpt lat="47.32325" lon="0.40710"><ele>41</ele></trkpt>
<trkpt lat="47.32347" lon="0.40772"><ele>40</ele></trkpt>
<trkpt lat="47.32385" lon="0.40742"><ele>41</ele></trkpt>
<trkpt lat="47.32387" lon="0.40728"><ele>41</ele></trkpt>
<trkpt lat="47.32412" lon="0.40702"><ele>41</ele></trkpt>
<trkpt lat="47.32427" lon="0.40680"><ele>41</ele></trkpt>
<trkpt lat="47.32447" lon="0.40640"><ele>42</ele></trkpt>
<trkpt lat="47.32456" lon="0.40647"><ele>42</ele></trkpt>
<trkpt lat="47.32491" lon="0.40641"><ele>42</ele></trkpt>
<trkpt lat="47.32502" lon="0.40630"><ele>42</ele></trkpt>
<trkpt lat="47.32507" lon="0.40615"><ele>42</ele></trkpt>
<trkpt lat="47.32575" lon="0.40568"><ele>43</ele></trkpt>
<trkpt lat="47.32581" lon="0.40569"><ele>43</ele></trkpt>
<trkpt lat="47.32598" lon="0.40618"><ele>42</ele></trkpt>
<trkpt lat="47.32628" lon="0.40643"><ele>44</ele></trkpt>
<trkpt lat="47.32626" lon="0.40648"><ele>44</ele></trkpt>
<trkpt lat="47.32632" lon="0.40671"><ele>43</ele></trkpt>
    </trkseg>
  </trk>
</gpx>
