<?xml version="1.0" encoding="UTF-8"?>
<gpx version="1.1" creator="Gravel Kompass" xmlns="http://www.topografix.com/GPX/1/1">
  <metadata><name>Loiretal-Runde: Schlösser &amp; Weinberge – Etappe 5</name></metadata>
  <trk>
    <name>Etappe 5: Langeais – Blois</name>
    <trkseg>
<trkpt lat="47.32632" lon="0.40671"><ele>43</ele></trkpt>
<trkpt lat="47.32626" lon="0.40648"><ele>44</ele></trkpt>
<trkpt lat="47.32628" lon="0.40643"><ele>44</ele></trkpt>
<trkpt lat="47.32653" lon="0.40659"><ele>48</ele></trkpt>
<trkpt lat="47.32678" lon="0.40806"><ele>44</ele></trkpt>
<trkpt lat="47.32705" lon="0.40803"><ele>46</ele></trkpt>
<trkpt lat="47.32713" lon="0.40813"><ele>47</ele></trkpt>
<trkpt lat="47.32716" lon="0.40840"><ele>46</ele></trkpt>
<trkpt lat="47.32748" lon="0.40828"><ele>49</ele></trkpt>
<trkpt lat="47.32755" lon="0.40828"><ele>50</ele></trkpt>
<trkpt lat="47.32789" lon="0.40854"><ele>52</ele></trkpt>
<trkpt lat="47.32807" lon="0.40883"><ele>54</ele></trkpt>
<trkpt lat="47.32864" lon="0.41028"><ele>56</ele></trkpt>
<trkpt lat="47.32864" lon="0.41047"><ele>57</ele></trkpt>
<trkpt lat="47.32878" lon="0.41132"><ele>64</ele></trkpt>
<trkpt lat="47.32882" lon="0.41142"><ele>66</ele></trkpt>
<trkpt lat="47.32892" lon="0.41154"><ele>69</ele></trkpt>
<trkpt lat="47.32942" lon="0.41202"><ele>78</ele></trkpt>
<trkpt lat="47.33006" lon="0.41258"><ele>82</ele></trkpt>
<trkpt lat="47.33060" lon="0.41288"><ele>84</ele></trkpt>
<trkpt lat="47.33119" lon="0.41346"><ele>86</ele></trkpt>
<trkpt lat="47.33232" lon="0.41427"><ele>88</ele></trkpt>
<trkpt lat="47.33286" lon="0.41451"><ele>90</ele></trkpt>
<trkpt lat="47.33310" lon="0.41472"><ele>90</ele></trkpt>
<trkpt lat="47.33333" lon="0.41486"><ele>91</ele></trkpt>
<trkpt lat="47.33353" lon="0.41492"><ele>91</ele></trkpt>
<trkpt lat="47.33411" lon="0.41497"><ele>92</ele></trkpt>
<trkpt lat="47.33444" lon="0.41507"><ele>93</ele></trkpt>
<trkpt lat="47.33518" lon="0.41543"><ele>94</ele></trkpt>
<trkpt lat="47.33509" lon="0.41609"><ele>93</ele></trkpt>
<trkpt lat="47.33510" lon="0.41641"><ele>92</ele></trkpt>
<trkpt lat="47.33526" lon="0.41676"><ele>92</ele></trkpt>
<trkpt lat="47.33544" lon="0.41735"><ele>90</ele></trkpt>
<trkpt lat="47.33564" lon="0.41861"><ele>87</ele></trkpt>
<trkpt lat="47.33563" lon="0.41879"><ele>86</ele></trkpt>
<trkpt lat="47.33573" lon="0.41954"><ele>85</ele></trkpt>
<trkpt lat="47.33597" lon="0.42077"><ele>83</ele></trkpt>
<trkpt lat="47.33615" lon="0.42146"><ele>81</ele></trkpt>
<trkpt lat="47.33647" lon="0.42227"><ele>78</ele></trkpt>
<trkpt lat="47.33688" lon="0.42280"><ele>80</ele></trkpt>
<trkpt lat="47.33709" lon="0.42312"><ele>79</ele></trkpt>
<trkpt lat="47.33750" lon="0.42388"><ele>78</ele></trkpt>
<trkpt lat="47.33788" lon="0.42468"><ele>78</ele></trkpt>
<trkpt lat="47.33805" lon="0.42518"><ele>78</ele></trkpt>
<trkpt lat="47.33841" lon="0.42678"><ele>79</ele></trkpt>
<trkpt lat="47.33851" lon="0.42709"><ele>79</ele></trkpt>
<trkpt lat="47.33865" lon="0.42729"><ele>79</ele></trkpt>
<trkpt lat="47.33942" lon="0.42814"><ele>78</ele></trkpt>
<trkpt lat="47.33957" lon="0.42841"><ele>78</ele></trkpt>
<trkpt lat="47.33959" lon="0.42866"><ele>77</ele></trkpt>
<trkpt lat="47.33955" lon="0.42891"><ele>77</ele></trkpt>
<trkpt lat="47.33901" lon="0.43122"><ele>72</ele></trkpt>
<trkpt lat="47.33856" lon="0.43225"><ele>68</ele></trkpt>
<trkpt lat="47.33850" lon="0.43248"><ele>66</ele></trkpt>
<trkpt lat="47.33854" lon="0.43282"><ele>63</ele></trkpt>
<trkpt lat="47.33885" lon="0.43366"><ele>53</ele></trkpt>
<trkpt lat="47.33897" lon="0.43367"><ele>52</ele></trkpt>
<trkpt lat="47.33908" lon="0.43363"><ele>51</ele></trkpt>
<trkpt lat="47.33924" lon="0.43343"><ele>52</ele></trkpt>
<trkpt lat="47.33953" lon="0.43324"><ele>49</ele></trkpt>
<trkpt lat="47.33961" lon="0.43324"><ele>48</ele></trkpt>
<trkpt lat="47.33967" lon="0.43332"><ele>48</ele></trkpt>
<trkpt lat="47.34002" lon="0.43551"><ele>45</ele></trkpt>
<trkpt lat="47.34003" lon="0.43586"><ele>45</ele></trkpt>
<trkpt lat="47.33995" lon="0.43620"><ele>45</ele></trkpt>
<trkpt lat="47.34027" lon="0.43629"><ele>50</ele></trkpt>
<trkpt lat="47.34048" lon="0.43658"><ele>58</ele></trkpt>
<trkpt lat="47.34065" lon="0.43667"><ele>59</ele></trkpt>
<trkpt lat="47.34081" lon="0.43671"><ele>62</ele></trkpt>
<trkpt lat="47.34108" lon="0.43660"><ele>66</ele></trkpt>
<trkpt lat="47.34144" lon="0.43619"><ele>71</ele></trkpt>
<trkpt lat="47.34160" lon="0.43608"><ele>72</ele></trkpt>
<trkpt lat="47.34193" lon="0.43605"><ele>74</ele></trkpt>
<trkpt lat="47.34289" lon="0.43607"><ele>76</ele></trkpt>
<trkpt lat="47.34428" lon="0.43580"><ele>79</ele></trkpt>
<trkpt lat="47.34501" lon="0.43577"><ele>80</ele></trkpt>
<trkpt lat="47.34523" lon="0.43761"><ele>82</ele></trkpt>
<trkpt lat="47.34694" lon="0.44273"><ele>77</ele></trkpt>
<trkpt lat="47.34701" lon="0.44289"><ele>76</ele></trkpt>
<trkpt lat="47.34710" lon="0.44291"><ele>76</ele></trkpt>
<trkpt lat="47.34621" lon="0.44549"><ele>71</ele></trkpt>
<trkpt lat="47.34637" lon="0.44705"><ele>69</ele></trkpt>
<trkpt lat="47.34681" lon="0.44871"><ele>67</ele></trkpt>
<trkpt lat="47.34695" lon="0.44891"><ele>66</ele></trkpt>
<trkpt lat="47.34703" lon="0.44925"><ele>66</ele></trkpt>
<trkpt lat="47.34717" lon="0.45029"><ele>62</ele></trkpt>
<trkpt lat="47.34723" lon="0.45040"><ele>61</ele></trkpt>
<trkpt lat="47.34743" lon="0.45052"><ele>60</ele></trkpt>
<trkpt lat="47.34747" lon="0.45063"><ele>58</ele></trkpt>
<trkpt lat="47.34748" lon="0.45077"><ele>58</ele></trkpt>
<trkpt lat="47.34729" lon="0.45118"><ele>55</ele></trkpt>
<trkpt lat="47.34731" lon="0.45148"><ele>53</ele></trkpt>
<trkpt lat="47.34826" lon="0.45068"><ele>49</ele></trkpt>
<trkpt lat="47.34836" lon="0.45082"><ele>48</ele></trkpt>
<trkpt lat="47.34850" lon="0.45121"><ele>46</ele></trkpt>
<trkpt lat="47.34863" lon="0.45183"><ele>45</ele></trkpt>
<trkpt lat="47.34869" lon="0.45197"><ele>44</ele></trkpt>
<trkpt lat="47.34891" lon="0.45232"><ele>45</ele></trkpt>
<trkpt lat="47.34901" lon="0.45226"><ele>45</ele></trkpt>
<trkpt lat="47.34911" lon="0.45226"><ele>44</ele></trkpt>
<trkpt lat="47.34929" lon="0.45249"><ele>46</ele></trkpt>
<trkpt lat="47.34938" lon="0.45247"><ele>46</ele></trkpt>
<trkpt lat="47.34974" lon="0.45214"><ele>47</ele></trkpt>
<trkpt lat="47.35001" lon="0.45197"><ele>47</ele></trkpt>
<trkpt lat="47.35107" lon="0.45168"><ele>47</ele></trkpt>
<trkpt lat="47.35192" lon="0.45156"><ele>48</ele></trkpt>
<trkpt lat="47.35243" lon="0.45138"><ele>47</ele></trkpt>
<trkpt lat="47.35267" lon="0.45135"><ele>47</ele></trkpt>
<trkpt lat="47.35319" lon="0.45153"><ele>49</ele></trkpt>
<trkpt lat="47.35398" lon="0.45155"><ele>49</ele></trkpt>
<trkpt lat="47.35522" lon="0.45209"><ele>62</ele></trkpt>
<trkpt lat="47.35533" lon="0.45217"><ele>63</ele></trkpt>
<trkpt lat="47.35547" lon="0.45240"><ele>66</ele></trkpt>
<trkpt lat="47.35558" lon="0.45283"><ele>72</ele></trkpt>
<trkpt lat="47.35562" lon="0.45310"><ele>74</ele></trkpt>
<trkpt lat="47.35577" lon="0.45483"><ele>89</ele></trkpt>
<trkpt lat="47.35590" lon="0.45562"><ele>93</ele></trkpt>
<trkpt lat="47.35717" lon="0.46048"><ele>88</ele></trkpt>
<trkpt lat="47.35802" lon="0.46355"><ele>86</ele></trkpt>
<trkpt lat="47.35784" lon="0.46377"><ele>85</ele></trkpt>
<trkpt lat="47.35810" lon="0.46398"><ele>85</ele></trkpt>
<trkpt lat="47.35824" lon="0.46404"><ele>86</ele></trkpt>
<trkpt lat="47.35855" lon="0.46400"><ele>86</ele></trkpt>
<trkpt lat="47.35889" lon="0.46551"><ele>90</ele></trkpt>
<trkpt lat="47.35919" lon="0.46655"><ele>91</ele></trkpt>
<trkpt lat="47.35922" lon="0.46725"><ele>90</ele></trkpt>
<trkpt lat="47.35925" lon="0.46737"><ele>90</ele></trkpt>
<trkpt lat="47.35973" lon="0.46840"><ele>93</ele></trkpt>
<trkpt lat="47.35990" lon="0.46925"><ele>92</ele></trkpt>
<trkpt lat="47.36034" lon="0.47047"><ele>93</ele></trkpt>
<trkpt lat="47.36055" lon="0.47123"><ele>93</ele></trkpt>
<trkpt lat="47.36077" lon="0.47175"><ele>94</ele></trkpt>
<trkpt lat="47.36109" lon="0.47228"><ele>94</ele></trkpt>
<trkpt lat="47.36184" lon="0.47420"><ele>91</ele></trkpt>
<trkpt lat="47.36181" lon="0.47442"><ele>90</ele></trkpt>
<trkpt lat="47.36139" lon="0.47523"><ele>89</ele></trkpt>
<trkpt lat="47.36132" lon="0.47547"><ele>88</ele></trkpt>
<trkpt lat="47.36133" lon="0.47559"><ele>88</ele></trkpt>
<trkpt lat="47.36167" lon="0.47664"><ele>87</ele></trkpt>
<trkpt lat="47.36165" lon="0.47679"><ele>87</ele></trkpt>
<trkpt lat="47.36156" lon="0.47688"><ele>87</ele></trkpt>
<trkpt lat="47.36059" lon="0.47721"><ele>85</ele></trkpt>
<trkpt lat="47.36045" lon="0.47729"><ele>85</ele></trkpt>
<trkpt lat="47.36001" lon="0.47784"><ele>84</ele></trkpt>
<trkpt lat="47.35996" lon="0.47806"><ele>84</ele></trkpt>
<trkpt lat="47.36008" lon="0.47872"><ele>84</ele></trkpt>
<trkpt lat="47.36051" lon="0.47986"><ele>84</ele></trkpt>
<trkpt lat="47.36067" lon="0.48048"><ele>84</ele></trkpt>
<trkpt lat="47.36084" lon="0.48145"><ele>86</ele></trkpt>
<trkpt lat="47.36106" lon="0.48303"><ele>88</ele></trkpt>
<trkpt lat="47.36138" lon="0.48485"><ele>88</ele></trkpt>
<trkpt lat="47.36156" lon="0.48694"><ele>88</ele></trkpt>
<trkpt lat="47.36176" lon="0.48796"><ele>89</ele></trkpt>
<trkpt lat="47.36200" lon="0.48865"><ele>89</ele></trkpt>
<trkpt lat="47.36243" lon="0.48955"><ele>89</ele></trkpt>
<trkpt lat="47.36254" lon="0.48966"><ele>89</ele></trkpt>
<trkpt lat="47.36295" lon="0.48991"><ele>88</ele></trkpt>
<trkpt lat="47.36365" lon="0.49063"><ele>88</ele></trkpt>
<trkpt lat="47.36401" lon="0.49142"><ele>88</ele></trkpt>
<trkpt lat="47.36411" lon="0.49158"><ele>87</ele></trkpt>
<trkpt lat="47.36422" lon="0.49164"><ele>87</ele></trkpt>
<trkpt lat="47.36551" lon="0.49192"><ele>80</ele></trkpt>
<trkpt lat="47.36514" lon="0.49248"><ele>77</ele></trkpt>
<trkpt lat="47.36547" lon="0.49326"><ele>81</ele></trkpt>
<trkpt lat="47.36548" lon="0.49343"><ele>82</ele></trkpt>
<trkpt lat="47.36545" lon="0.49356"><ele>82</ele></trkpt>
<trkpt lat="47.36509" lon="0.49422"><ele>84</ele></trkpt>
<trkpt lat="47.36504" lon="0.49447"><ele>86</ele></trkpt>
<trkpt lat="47.36530" lon="0.49616"><ele>91</ele></trkpt>
<trkpt lat="47.36580" lon="0.49776"><ele>92</ele></trkpt>
<trkpt lat="47.36600" lon="0.49830"><ele>92</ele></trkpt>
<trkpt lat="47.36706" lon="0.50013"><ele>92</ele></trkpt>
<trkpt lat="47.36728" lon="0.50037"><ele>92</ele></trkpt>
<trkpt lat="47.36805" lon="0.50092"><ele>92</ele></trkpt>
<trkpt lat="47.36821" lon="0.50116"><ele>92</ele></trkpt>
<trkpt lat="47.36866" lon="0.50242"><ele>88</ele></trkpt>
<trkpt lat="47.36842" lon="0.50257"><ele>86</ele></trkpt>
<trkpt lat="47.36824" lon="0.50287"><ele>84</ele></trkpt>
<trkpt lat="47.36874" lon="0.50345"><ele>88</ele></trkpt>
<trkpt lat="47.36933" lon="0.50469"><ele>93</ele></trkpt>
<trkpt lat="47.36943" lon="0.50484"><ele>94</ele></trkpt>
<trkpt lat="47.36952" lon="0.50487"><ele>94</ele></trkpt>
<trkpt lat="47.36957" lon="0.50506"><ele>94</ele></trkpt>
<trkpt lat="47.37029" lon="0.50603"><ele>94</ele></trkpt>
<trkpt lat="47.37038" lon="0.50627"><ele>94</ele></trkpt>
<trkpt lat="47.37065" lon="0.50722"><ele>92</ele></trkpt>
<trkpt lat="47.37104" lon="0.50828"><ele>88</ele></trkpt>
<trkpt lat="47.37131" lon="0.50926"><ele>83</ele></trkpt>
<trkpt lat="47.37156" lon="0.51049"><ele>74</ele></trkpt>
<trkpt lat="47.37159" lon="0.51076"><ele>72</ele></trkpt>
<trkpt lat="47.37150" lon="0.51106"><ele>71</ele></trkpt>
<trkpt lat="47.37114" lon="0.51135"><ele>70</ele></trkpt>
<trkpt lat="47.37105" lon="0.51155"><ele>70</ele></trkpt>
<trkpt lat="47.37105" lon="0.51196"><ele>68</ele></trkpt>
<trkpt lat="47.37121" lon="0.51291"><ele>60</ele></trkpt>
<trkpt lat="47.37120" lon="0.51309"><ele>59</ele></trkpt>
<trkpt lat="47.37113" lon="0.51330"><ele>57</ele></trkpt>
<trkpt lat="47.37070" lon="0.51392"><ele>57</ele></trkpt>
<trkpt lat="47.37033" lon="0.51535"><ele>50</ele></trkpt>
<trkpt lat="47.37013" lon="0.51583"><ele>46</ele></trkpt>
<trkpt lat="47.37052" lon="0.51680"><ele>48</ele></trkpt>
<trkpt lat="47.37129" lon="0.51925"><ele>54</ele></trkpt>
<trkpt lat="47.37136" lon="0.51953"><ele>53</ele></trkpt>
<trkpt lat="47.37146" lon="0.52046"><ele>48</ele></trkpt>
<trkpt lat="47.37155" lon="0.52085"><ele>47</ele></trkpt>
<trkpt lat="47.37185" lon="0.52164"><ele>47</ele></trkpt>
<trkpt lat="47.37251" lon="0.52298"><ele>49</ele></trkpt>
<trkpt lat="47.37317" lon="0.52521"><ele>47</ele></trkpt>
<trkpt lat="47.37329" lon="0.52545"><ele>48</ele></trkpt>
<trkpt lat="47.37367" lon="0.52602"><ele>52</ele></trkpt>
<trkpt lat="47.37382" lon="0.52632"><ele>51</ele></trkpt>
<trkpt lat="47.37479" lon="0.52931"><ele>57</ele></trkpt>
<trkpt lat="47.37543" lon="0.53110"><ele>53</ele></trkpt>
<trkpt lat="47.37566" lon="0.53163"><ele>52</ele></trkpt>
<trkpt lat="47.37619" lon="0.53254"><ele>49</ele></trkpt>
<trkpt lat="47.37669" lon="0.53307"><ele>46</ele></trkpt>
<trkpt lat="47.37673" lon="0.53316"><ele>46</ele></trkpt>
<trkpt lat="47.37669" lon="0.53364"><ele>44</ele></trkpt>
<trkpt lat="47.37671" lon="0.53392"><ele>44</ele></trkpt>
<trkpt lat="47.37680" lon="0.53413"><ele>43</ele></trkpt>
<trkpt lat="47.37711" lon="0.53460"><ele>43</ele></trkpt>
<trkpt lat="47.37728" lon="0.53495"><ele>43</ele></trkpt>
<trkpt lat="47.37802" lon="0.53743"><ele>43</ele></trkpt>
<trkpt lat="47.37823" lon="0.53799"><ele>44</ele></trkpt>
<trkpt lat="47.37895" lon="0.53972"><ele>46</ele></trkpt>
<trkpt lat="47.37974" lon="0.54132"><ele>48</ele></trkpt>
<trkpt lat="47.37989" lon="0.54169"><ele>46</ele></trkpt>
<trkpt lat="47.38057" lon="0.54310"><ele>48</ele></trkpt>
<trkpt lat="47.38147" lon="0.54544"><ele>50</ele></trkpt>
<trkpt lat="47.38200" lon="0.54697"><ele>51</ele></trkpt>
<trkpt lat="47.38241" lon="0.54882"><ele>49</ele></trkpt>
<trkpt lat="47.38316" lon="0.55160"><ele>49</ele></trkpt>
<trkpt lat="47.38410" lon="0.55369"><ele>49</ele></trkpt>
<trkpt lat="47.38417" lon="0.55414"><ele>48</ele></trkpt>
<trkpt lat="47.38411" lon="0.55434"><ele>48</ele></trkpt>
<trkpt lat="47.38374" lon="0.55449"><ele>46</ele></trkpt>
<trkpt lat="47.38344" lon="0.55453"><ele>46</ele></trkpt>
<trkpt lat="47.38228" lon="0.55519"><ele>44</ele></trkpt>
<trkpt lat="47.38214" lon="0.55530"><ele>44</ele></trkpt>
<trkpt lat="47.38197" lon="0.55562"><ele>44</ele></trkpt>
<trkpt lat="47.38124" lon="0.55803"><ele>44</ele></trkpt>
<trkpt lat="47.38114" lon="0.55824"><ele>44</ele></trkpt>
<trkpt lat="47.38102" lon="0.55836"><ele>44</ele></trkpt>
<trkpt lat="47.37943" lon="0.55946"><ele>44</ele></trkpt>
<trkpt lat="47.37872" lon="0.56000"><ele>44</ele></trkpt>
<trkpt lat="47.37766" lon="0.56091"><ele>45</ele></trkpt>
<trkpt lat="47.37727" lon="0.56118"><ele>48</ele></trkpt>
<trkpt lat="47.37759" lon="0.56251"><ele>46</ele></trkpt>
<trkpt lat="47.37778" lon="0.56308"><ele>48</ele></trkpt>
<trkpt lat="47.37895" lon="0.56549"><ele>47</ele></trkpt>
<trkpt lat="47.37923" lon="0.56637"><ele>47</ele></trkpt>
<trkpt lat="47.37960" lon="0.56785"><ele>46</ele></trkpt>
<trkpt lat="47.38045" lon="0.57046"><ele>47</ele></trkpt>
<trkpt lat="47.38116" lon="0.57220"><ele>48</ele></trkpt>
<trkpt lat="47.38141" lon="0.57291"><ele>48</ele></trkpt>
<trkpt lat="47.38163" lon="0.57370"><ele>48</ele></trkpt>
<trkpt lat="47.38189" lon="0.57486"><ele>48</ele></trkpt>
<trkpt lat="47.38220" lon="0.57700"><ele>48</ele></trkpt>
<trkpt lat="47.38268" lon="0.57971"><ele>48</ele></trkpt>
<trkpt lat="47.38286" lon="0.58115"><ele>47</ele></trkpt>
<trkpt lat="47.38301" lon="0.58296"><ele>49</ele></trkpt>
<trkpt lat="47.38319" lon="0.58372"><ele>47</ele></trkpt>
<trkpt lat="47.38358" lon="0.58476"><ele>49</ele></trkpt>
<trkpt lat="47.38373" lon="0.58531"><ele>47</ele></trkpt>
<trkpt lat="47.38434" lon="0.58981"><ele>48</ele></trkpt>
<trkpt lat="47.38458" lon="0.59410"><ele>46</ele></trkpt>
<trkpt lat="47.38495" lon="0.59701"><ele>48</ele></trkpt>
<trkpt lat="47.38546" lon="0.60269"><ele>47</ele></trkpt>
<trkpt lat="47.38575" lon="0.60422"><ele>48</ele></trkpt>
<trkpt lat="47.38625" lon="0.60631"><ele>46</ele></trkpt>
<trkpt lat="47.38661" lon="0.60858"><ele>49</ele></trkpt>
<trkpt lat="47.38689" lon="0.60991"><ele>49</ele></trkpt>
<trkpt lat="47.38698" lon="0.61064"><ele>50</ele></trkpt>
<trkpt lat="47.38700" lon="0.61167"><ele>49</ele></trkpt>
<trkpt lat="47.38713" lon="0.61400"><ele>48</ele></trkpt>
<trkpt lat="47.38722" lon="0.61469"><ele>50</ele></trkpt>
<trkpt lat="47.38794" lon="0.61749"><ele>48</ele></trkpt>
<trkpt lat="47.38815" lon="0.61844"><ele>48</ele></trkpt>
<trkpt lat="47.38830" lon="0.61921"><ele>49</ele></trkpt>
<trkpt lat="47.38871" lon="0.62204"><ele>48</ele></trkpt>
<trkpt lat="47.38931" lon="0.62482"><ele>48</ele></trkpt>
<trkpt lat="47.38945" lon="0.62561"><ele>51</ele></trkpt>
<trkpt lat="47.38951" lon="0.62608"><ele>49</ele></trkpt>
<trkpt lat="47.38976" lon="0.62884"><ele>49</ele></trkpt>
<trkpt lat="47.38997" lon="0.63075"><ele>50</ele></trkpt>
<trkpt lat="47.39016" lon="0.63198"><ele>48</ele></trkpt>
<trkpt lat="47.39056" lon="0.63404"><ele>50</ele></trkpt>
<trkpt lat="47.39084" lon="0.63576"><ele>51</ele></trkpt>
<trkpt lat="47.39114" lon="0.63733"><ele>50</ele></trkpt>
<trkpt lat="47.39123" lon="0.63787"><ele>48</ele></trkpt>
<trkpt lat="47.39129" lon="0.63854"><ele>49</ele></trkpt>
<trkpt lat="47.39131" lon="0.63865"><ele>49</ele></trkpt>
<trkpt lat="47.39135" lon="0.63865"><ele>50</ele></trkpt>
<trkpt lat="47.39139" lon="0.63934"><ele>50</ele></trkpt>
<trkpt lat="47.39131" lon="0.63931"><ele>48</ele></trkpt>
<trkpt lat="47.39110" lon="0.63846"><ele>45</ele></trkpt>
<trkpt lat="47.39100" lon="0.63842"><ele>44</ele></trkpt>
<trkpt lat="47.39102" lon="0.63870"><ele>44</ele></trkpt>
<trkpt lat="47.39114" lon="0.63950"><ele>44</ele></trkpt>
<trkpt lat="47.39126" lon="0.63984"><ele>46</ele></trkpt>
<trkpt lat="47.39171" lon="0.64170"><ele>45</ele></trkpt>
<trkpt lat="47.39182" lon="0.64245"><ele>47</ele></trkpt>
<trkpt lat="47.39205" lon="0.64312"><ele>47</ele></trkpt>
<trkpt lat="47.39245" lon="0.64500"><ele>49</ele></trkpt>
<trkpt lat="47.39287" lon="0.64632"><ele>48</ele></trkpt>
<trkpt lat="47.39308" lon="0.64673"><ele>49</ele></trkpt>
<trkpt lat="47.39323" lon="0.64687"><ele>48</ele></trkpt>
<trkpt lat="47.39336" lon="0.64718"><ele>49</ele></trkpt>
<trkpt lat="47.39342" lon="0.64743"><ele>48</ele></trkpt>
<trkpt lat="47.39339" lon="0.64745"><ele>47</ele></trkpt>
<trkpt lat="47.39347" lon="0.64806"><ele>47</ele></trkpt>
<trkpt lat="47.39338" lon="0.64826"><ele>45</ele></trkpt>
<trkpt lat="47.39338" lon="0.64841"><ele>44</ele></trkpt>
<trkpt lat="47.39344" lon="0.64865"><ele>44</ele></trkpt>
<trkpt lat="47.39393" lon="0.64990"><ele>47</ele></trkpt>
<trkpt lat="47.39470" lon="0.65338"><ele>47</ele></trkpt>
<trkpt lat="47.39520" lon="0.65607"><ele>47</ele></trkpt>
<trkpt lat="47.39518" lon="0.65611"><ele>46</ele></trkpt>
<trkpt lat="47.39525" lon="0.65661"><ele>44</ele></trkpt>
<trkpt lat="47.39581" lon="0.65871"><ele>44</ele></trkpt>
<trkpt lat="47.39583" lon="0.65898"><ele>43</ele></trkpt>
<trkpt lat="47.39604" lon="0.66014"><ele>44</ele></trkpt>
<trkpt lat="47.39615" lon="0.66030"><ele>46</ele></trkpt>
<trkpt lat="47.39626" lon="0.66067"><ele>48</ele></trkpt>
<trkpt lat="47.39636" lon="0.66141"><ele>47</ele></trkpt>
<trkpt lat="47.39659" lon="0.66240"><ele>47</ele></trkpt>
<trkpt lat="47.39668" lon="0.66261"><ele>48</ele></trkpt>
<trkpt lat="47.39668" lon="0.66285"><ele>46</ele></trkpt>
<trkpt lat="47.39698" lon="0.66417"><ele>46</ele></trkpt>
<trkpt lat="47.39709" lon="0.66500"><ele>48</ele></trkpt>
<trkpt lat="47.39714" lon="0.66518"><ele>48</ele></trkpt>
<trkpt lat="47.39714" lon="0.66542"><ele>47</ele></trkpt>
<trkpt lat="47.39723" lon="0.66603"><ele>48</ele></trkpt>
<trkpt lat="47.39726" lon="0.66644"><ele>46</ele></trkpt>
<trkpt lat="47.39733" lon="0.66674"><ele>47</ele></trkpt>
<trkpt lat="47.39729" lon="0.66695"><ele>45</ele></trkpt>
<trkpt lat="47.39731" lon="0.66715"><ele>45</ele></trkpt>
<trkpt lat="47.39736" lon="0.66740"><ele>46</ele></trkpt>
<trkpt lat="47.39748" lon="0.66773"><ele>48</ele></trkpt>
<trkpt lat="47.39761" lon="0.66832"><ele>48</ele></trkpt>
<trkpt lat="47.39765" lon="0.66835"><ele>49</ele></trkpt>
<trkpt lat="47.39762" lon="0.66840"><ele>48</ele></trkpt>
<trkpt lat="47.39763" lon="0.66859"><ele>47</ele></trkpt>
<trkpt lat="47.39768" lon="0.66914"><ele>48</ele></trkpt>
<trkpt lat="47.39776" lon="0.66961"><ele>45</ele></trkpt>
<trkpt lat="47.39818" lon="0.67075"><ele>47</ele></trkpt>
<trkpt lat="47.39851" lon="0.67213"><ele>46</ele></trkpt>
<trkpt lat="47.39870" lon="0.67263"><ele>46</ele></trkpt>
<trkpt lat="47.39877" lon="0.67289"><ele>47</ele></trkpt>
<trkpt lat="47.39886" lon="0.67339"><ele>45</ele></trkpt>
<trkpt lat="47.39902" lon="0.67371"><ele>47</ele></trkpt>
<trkpt lat="47.39914" lon="0.67411"><ele>47</ele></trkpt>
<trkpt lat="47.39927" lon="0.67443"><ele>47</ele></trkpt>
<trkpt lat="47.39940" lon="0.67503"><ele>47</ele></trkpt>
<trkpt lat="47.39945" lon="0.67546"><ele>46</ele></trkpt>
<trkpt lat="47.39959" lon="0.67579"><ele>47</ele></trkpt>
<trkpt lat="47.39975" lon="0.67639"><ele>46</ele></trkpt>
<trkpt lat="47.39983" lon="0.67689"><ele>46</ele></trkpt>
<trkpt lat="47.39983" lon="0.67716"><ele>46</ele></trkpt>
<trkpt lat="47.40006" lon="0.67852"><ele>46</ele></trkpt>
<trkpt lat="47.40007" lon="0.67871"><ele>45</ele></trkpt>
<trkpt lat="47.40015" lon="0.67893"><ele>47</ele></trkpt>
<trkpt lat="47.40037" lon="0.68036"><ele>49</ele></trkpt>
<trkpt lat="47.40040" lon="0.68094"><ele>49</ele></trkpt>
<trkpt lat="47.40046" lon="0.68104"><ele>50</ele></trkpt>
<trkpt lat="47.40066" lon="0.68202"><ele>51</ele></trkpt>
<trkpt lat="47.40062" lon="0.68213"><ele>50</ele></trkpt>
<trkpt lat="47.40077" lon="0.68239"><ele>52</ele></trkpt>
<trkpt lat="47.40105" lon="0.68357"><ele>53</ele></trkpt>
<trkpt lat="47.40109" lon="0.68384"><ele>54</ele></trkpt>
<trkpt lat="47.40108" lon="0.68432"><ele>55</ele></trkpt>
<trkpt lat="47.40112" lon="0.68451"><ele>56</ele></trkpt>
<trkpt lat="47.40118" lon="0.68465"><ele>55</ele></trkpt>
<trkpt lat="47.40127" lon="0.68469"><ele>55</ele></trkpt>
<trkpt lat="47.40133" lon="0.68511"><ele>54</ele></trkpt>
<trkpt lat="47.40143" lon="0.68642"><ele>53</ele></trkpt>
<trkpt lat="47.40143" lon="0.68673"><ele>52</ele></trkpt>
<trkpt lat="47.40204" lon="0.69337"><ele>50</ele></trkpt>
<trkpt lat="47.39753" lon="0.69284"><ele>51</ele></trkpt>
<trkpt lat="47.39630" lon="0.69334"><ele>53</ele></trkpt>
<trkpt lat="47.39570" lon="0.68905"><ele>52</ele></trkpt>
<trkpt lat="47.39555" lon="0.68745"><ele>53</ele></trkpt>
<trkpt lat="47.39496" lon="0.68438"><ele>52</ele></trkpt>
<trkpt lat="47.39423" lon="0.68469"><ele>52</ele></trkpt>
<trkpt lat="47.39424" lon="0.68474"><ele>52</ele></trkpt>
<trkpt lat="47.39355" lon="0.68505"><ele>52</ele></trkpt>
<trkpt lat="47.39379" lon="0.68694"><ele>52</ele></trkpt>
<trkpt lat="47.39401" lon="0.68810"><ele>51</ele></trkpt>
<trkpt lat="47.39426" lon="0.68906"><ele>51</ele></trkpt>
<trkpt lat="47.39432" lon="0.68947"><ele>52</ele></trkpt>
<trkpt lat="47.39477" lon="0.69255"><ele>51</ele></trkpt>
<trkpt lat="47.39487" lon="0.69390"><ele>52</ele></trkpt>
<trkpt lat="47.39747" lon="0.69284"><ele>52</ele></trkpt>
<trkpt lat="47.39757" lon="0.69284"><ele>50</ele></trkpt>
<trkpt lat="47.39767" lon="0.69818"><ele>49</ele></trkpt>
<trkpt lat="47.39763" lon="0.69844"><ele>50</ele></trkpt>
<trkpt lat="47.39764" lon="0.69965"><ele>50</ele></trkpt>
<trkpt lat="47.39761" lon="0.70000"><ele>50</ele></trkpt>
<trkpt lat="47.39760" lon="0.70175"><ele>50</ele></trkpt>
<trkpt lat="47.39734" lon="0.70401"><ele>50</ele></trkpt>
<trkpt lat="47.39725" lon="0.70433"><ele>53</ele></trkpt>
<trkpt lat="47.39709" lon="0.70581"><ele>51</ele></trkpt>
<trkpt lat="47.39715" lon="0.70593"><ele>51</ele></trkpt>
<trkpt lat="47.39709" lon="0.70653"><ele>50</ele></trkpt>
<trkpt lat="47.39700" lon="0.70870"><ele>51</ele></trkpt>
<trkpt lat="47.39701" lon="0.71218"><ele>48</ele></trkpt>
<trkpt lat="47.39707" lon="0.71320"><ele>47</ele></trkpt>
<trkpt lat="47.39699" lon="0.71482"><ele>48</ele></trkpt>
<trkpt lat="47.39702" lon="0.71616"><ele>48</ele></trkpt>
<trkpt lat="47.39694" lon="0.72295"><ele>49</ele></trkpt>
<trkpt lat="47.39699" lon="0.72446"><ele>48</ele></trkpt>
<trkpt lat="47.39713" lon="0.72590"><ele>48</ele></trkpt>
<trkpt lat="47.39701" lon="0.72591"><ele>48</ele></trkpt>
<trkpt lat="47.39690" lon="0.72604"><ele>50</ele></trkpt>
<trkpt lat="47.39675" lon="0.72651"><ele>52</ele></trkpt>
<trkpt lat="47.39660" lon="0.72651"><ele>52</ele></trkpt>
<trkpt lat="47.39649" lon="0.72740"><ele>51</ele></trkpt>
<trkpt lat="47.39652" lon="0.72810"><ele>50</ele></trkpt>
<trkpt lat="47.39652" lon="0.72835"><ele>50</ele></trkpt>
<trkpt lat="47.39646" lon="0.72849"><ele>49</ele></trkpt>
<trkpt lat="47.39639" lon="0.73319"><ele>49</ele></trkpt>
<trkpt lat="47.39627" lon="0.73364"><ele>50</ele></trkpt>
<trkpt lat="47.39629" lon="0.73379"><ele>49</ele></trkpt>
<trkpt lat="47.39608" lon="0.73390"><ele>50</ele></trkpt>
<trkpt lat="47.39611" lon="0.73417"><ele>50</ele></trkpt>
<trkpt lat="47.39557" lon="0.73607"><ele>50</ele></trkpt>
<trkpt lat="47.39540" lon="0.73732"><ele>50</ele></trkpt>
<trkpt lat="47.39513" lon="0.73837"><ele>50</ele></trkpt>
<trkpt lat="47.39499" lon="0.73876"><ele>50</ele></trkpt>
<trkpt lat="47.39475" lon="0.73924"><ele>50</ele></trkpt>
<trkpt lat="47.39414" lon="0.74023"><ele>50</ele></trkpt>
<trkpt lat="47.39402" lon="0.74024"><ele>50</ele></trkpt>
<trkpt lat="47.39382" lon="0.74203"><ele>50</ele></trkpt>
<trkpt lat="47.39379" lon="0.74497"><ele>50</ele></trkpt>
<trkpt lat="47.39372" lon="0.74636"><ele>50</ele></trkpt>
<trkpt lat="47.39375" lon="0.74648"><ele>50</ele></trkpt>
<trkpt lat="47.39363" lon="0.74913"><ele>50</ele></trkpt>
<trkpt lat="47.39367" lon="0.74948"><ele>50</ele></trkpt>
<trkpt lat="47.39376" lon="0.74978"><ele>49</ele></trkpt>
<trkpt lat="47.39372" lon="0.74981"><ele>49</ele></trkpt>
<trkpt lat="47.39364" lon="0.74957"><ele>49</ele></trkpt>
<trkpt lat="47.39424" lon="0.75155"><ele>50</ele></trkpt>
<trkpt lat="47.39437" lon="0.75226"><ele>49</ele></trkpt>
<trkpt lat="47.39438" lon="0.75246"><ele>50</ele></trkpt>
<trkpt lat="47.39425" lon="0.75349"><ele>49</ele></trkpt>
<trkpt lat="47.39412" lon="0.75405"><ele>49</ele></trkpt>
<trkpt lat="47.39340" lon="0.75598"><ele>49</ele></trkpt>
<trkpt lat="47.39308" lon="0.75699"><ele>49</ele></trkpt>
<trkpt lat="47.39302" lon="0.75751"><ele>49</ele></trkpt>
<trkpt lat="47.39304" lon="0.75786"><ele>49</ele></trkpt>
<trkpt lat="47.39300" lon="0.75930"><ele>49</ele></trkpt>
<trkpt lat="47.39292" lon="0.76041"><ele>50</ele></trkpt>
<trkpt lat="47.39275" lon="0.76205"><ele>49</ele></trkpt>
<trkpt lat="47.39233" lon="0.76545"><ele>50</ele></trkpt>
<trkpt lat="47.39195" lon="0.76806"><ele>50</ele></trkpt>
<trkpt lat="47.39181" lon="0.76933"><ele>50</ele></trkpt>
<trkpt lat="47.39181" lon="0.76965"><ele>50</ele></trkpt>
<trkpt lat="47.39192" lon="0.76989"><ele>52</ele></trkpt>
<trkpt lat="47.39297" lon="0.77011"><ele>50</ele></trkpt>
<trkpt lat="47.39305" lon="0.77023"><ele>50</ele></trkpt>
<trkpt lat="47.39296" lon="0.77034"><ele>50</ele></trkpt>
<trkpt lat="47.39264" lon="0.77033"><ele>50</ele></trkpt>
<trkpt lat="47.39260" lon="0.77244"><ele>50</ele></trkpt>
<trkpt lat="47.39247" lon="0.77536"><ele>50</ele></trkpt>
<trkpt lat="47.39226" lon="0.77640"><ele>50</ele></trkpt>
<trkpt lat="47.39227" lon="0.77770"><ele>50</ele></trkpt>
<trkpt lat="47.39232" lon="0.77909"><ele>50</ele></trkpt>
<trkpt lat="47.39334" lon="0.77885"><ele>51</ele></trkpt>
<trkpt lat="47.39428" lon="0.77880"><ele>50</ele></trkpt>
<trkpt lat="47.39415" lon="0.77985"><ele>51</ele></trkpt>
<trkpt lat="47.39398" lon="0.78185"><ele>51</ele></trkpt>
<trkpt lat="47.39372" lon="0.78427"><ele>51</ele></trkpt>
<trkpt lat="47.39381" lon="0.78428"><ele>51</ele></trkpt>
<trkpt lat="47.39381" lon="0.78435"><ele>51</ele></trkpt>
<trkpt lat="47.39401" lon="0.78462"><ele>51</ele></trkpt>
<trkpt lat="47.39401" lon="0.78478"><ele>51</ele></trkpt>
<trkpt lat="47.39382" lon="0.78507"><ele>51</ele></trkpt>
<trkpt lat="47.39380" lon="0.78519"><ele>51</ele></trkpt>
<trkpt lat="47.39379" lon="0.78543"><ele>51</ele></trkpt>
<trkpt lat="47.39384" lon="0.78580"><ele>51</ele></trkpt>
<trkpt lat="47.39379" lon="0.78602"><ele>50</ele></trkpt>
<trkpt lat="47.39379" lon="0.78658"><ele>51</ele></trkpt>
<trkpt lat="47.39381" lon="0.78680"><ele>51</ele></trkpt>
<trkpt lat="47.39386" lon="0.78689"><ele>51</ele></trkpt>
<trkpt lat="47.39387" lon="0.78715"><ele>51</ele></trkpt>
<trkpt lat="47.39382" lon="0.78739"><ele>50</ele></trkpt>
<trkpt lat="47.39428" lon="0.78831"><ele>51</ele></trkpt>
<trkpt lat="47.39425" lon="0.78844"><ele>51</ele></trkpt>
<trkpt lat="47.39421" lon="0.78847"><ele>51</ele></trkpt>
<trkpt lat="47.39420" lon="0.78864"><ele>51</ele></trkpt>
<trkpt lat="47.39412" lon="0.78864"><ele>51</ele></trkpt>
<trkpt lat="47.39386" lon="0.78889"><ele>51</ele></trkpt>
<trkpt lat="47.39379" lon="0.78898"><ele>51</ele></trkpt>
<trkpt lat="47.39374" lon="0.78915"><ele>50</ele></trkpt>
<trkpt lat="47.39365" lon="0.79141"><ele>51</ele></trkpt>
<trkpt lat="47.39375" lon="0.79370"><ele>51</ele></trkpt>
<trkpt lat="47.39369" lon="0.79467"><ele>51</ele></trkpt>
<trkpt lat="47.39373" lon="0.79500"><ele>51</ele></trkpt>
<trkpt lat="47.39361" lon="0.79523"><ele>51</ele></trkpt>
<trkpt lat="47.39330" lon="0.79707"><ele>50</ele></trkpt>
<trkpt lat="47.39321" lon="0.79703"><ele>50</ele></trkpt>
<trkpt lat="47.39311" lon="0.79775"><ele>50</ele></trkpt>
<trkpt lat="47.39294" lon="0.80042"><ele>50</ele></trkpt>
<trkpt lat="47.39283" lon="0.80385"><ele>51</ele></trkpt>
<trkpt lat="47.39274" lon="0.80506"><ele>51</ele></trkpt>
<trkpt lat="47.39180" lon="0.80491"><ele>51</ele></trkpt>
<trkpt lat="47.39165" lon="0.80863"><ele>51</ele></trkpt>
<trkpt lat="47.39169" lon="0.80985"><ele>51</ele></trkpt>
<trkpt lat="47.39176" lon="0.81008"><ele>51</ele></trkpt>
<trkpt lat="47.39150" lon="0.81021"><ele>51</ele></trkpt>
<trkpt lat="47.39097" lon="0.81060"><ele>51</ele></trkpt>
<trkpt lat="47.39065" lon="0.81093"><ele>51</ele></trkpt>
<trkpt lat="47.38979" lon="0.81221"><ele>51</ele></trkpt>
<trkpt lat="47.38958" lon="0.81245"><ele>51</ele></trkpt>
<trkpt lat="47.38932" lon="0.81264"><ele>51</ele></trkpt>
<trkpt lat="47.38835" lon="0.81313"><ele>51</ele></trkpt>
<trkpt lat="47.38789" lon="0.81358"><ele>52</ele></trkpt>
<trkpt lat="47.38776" lon="0.81366"><ele>52</ele></trkpt>
<trkpt lat="47.38698" lon="0.81383"><ele>54</ele></trkpt>
<trkpt lat="47.38596" lon="0.81380"><ele>58</ele></trkpt>
<trkpt lat="47.38478" lon="0.81410"><ele>64</ele></trkpt>
<trkpt lat="47.38211" lon="0.81448"><ele>73</ele></trkpt>
<trkpt lat="47.38141" lon="0.81488"><ele>75</ele></trkpt>
<trkpt lat="47.38107" lon="0.81503"><ele>76</ele></trkpt>
<trkpt lat="47.38074" lon="0.81511"><ele>76</ele></trkpt>
<trkpt lat="47.38004" lon="0.81517"><ele>75</ele></trkpt>
<trkpt lat="47.37931" lon="0.81540"><ele>74</ele></trkpt>
<trkpt lat="47.37872" lon="0.81573"><ele>74</ele></trkpt>
<trkpt lat="47.37831" lon="0.81606"><ele>73</ele></trkpt>
<trkpt lat="47.37783" lon="0.81629"><ele>72</ele></trkpt>
<trkpt lat="47.37732" lon="0.81646"><ele>72</ele></trkpt>
<trkpt lat="47.37679" lon="0.81670"><ele>70</ele></trkpt>
<trkpt lat="47.37652" lon="0.81689"><ele>70</ele></trkpt>
<trkpt lat="47.37617" lon="0.81724"><ele>70</ele></trkpt>
<trkpt lat="47.37604" lon="0.81728"><ele>70</ele></trkpt>
<trkpt lat="47.37538" lon="0.81731"><ele>72</ele></trkpt>
<trkpt lat="47.37475" lon="0.81729"><ele>72</ele></trkpt>
<trkpt lat="47.37376" lon="0.81707"><ele>70</ele></trkpt>
<trkpt lat="47.37363" lon="0.81708"><ele>69</ele></trkpt>
<trkpt lat="47.37350" lon="0.81718"><ele>68</ele></trkpt>
<trkpt lat="47.37337" lon="0.81736"><ele>68</ele></trkpt>
<trkpt lat="47.37276" lon="0.81888"><ele>68</ele></trkpt>
<trkpt lat="47.37230" lon="0.81979"><ele>62</ele></trkpt>
<trkpt lat="47.37215" lon="0.82006"><ele>60</ele></trkpt>
<trkpt lat="47.37207" lon="0.82009"><ele>59</ele></trkpt>
<trkpt lat="47.37196" lon="0.82023"><ele>59</ele></trkpt>
<trkpt lat="47.37180" lon="0.82081"><ele>58</ele></trkpt>
<trkpt lat="47.37170" lon="0.82089"><ele>56</ele></trkpt>
<trkpt lat="47.37162" lon="0.82089"><ele>55</ele></trkpt>
<trkpt lat="47.37140" lon="0.82080"><ele>54</ele></trkpt>
<trkpt lat="47.37124" lon="0.82056"><ele>53</ele></trkpt>
<trkpt lat="47.37115" lon="0.81977"><ele>52</ele></trkpt>
<trkpt lat="47.37107" lon="0.81967"><ele>52</ele></trkpt>
<trkpt lat="47.37019" lon="0.81918"><ele>50</ele></trkpt>
<trkpt lat="47.37018" lon="0.81912"><ele>50</ele></trkpt>
<trkpt lat="47.37008" lon="0.81912"><ele>50</ele></trkpt>
<trkpt lat="47.36991" lon="0.81882"><ele>50</ele></trkpt>
<trkpt lat="47.36984" lon="0.81866"><ele>50</ele></trkpt>
<trkpt lat="47.36977" lon="0.81821"><ele>50</ele></trkpt>
<trkpt lat="47.36926" lon="0.81756"><ele>49</ele></trkpt>
<trkpt lat="47.36901" lon="0.81717"><ele>49</ele></trkpt>
<trkpt lat="47.36857" lon="0.81624"><ele>49</ele></trkpt>
<trkpt lat="47.36786" lon="0.81408"><ele>49</ele></trkpt>
<trkpt lat="47.36761" lon="0.81344"><ele>49</ele></trkpt>
<trkpt lat="47.36712" lon="0.81258"><ele>49</ele></trkpt>
<trkpt lat="47.36658" lon="0.81191"><ele>50</ele></trkpt>
<trkpt lat="47.36349" lon="0.80971"><ele>50</ele></trkpt>
<trkpt lat="47.36319" lon="0.80948"><ele>50</ele></trkpt>
<trkpt lat="47.36296" lon="0.80925"><ele>50</ele></trkpt>
<trkpt lat="47.36288" lon="0.80923"><ele>50</ele></trkpt>
<trkpt lat="47.36288" lon="0.80917"><ele>50</ele></trkpt>
<trkpt lat="47.36072" lon="0.80766"><ele>50</ele></trkpt>
<trkpt lat="47.36042" lon="0.80773"><ele>49</ele></trkpt>
<trkpt lat="47.35997" lon="0.80875"><ele>50</ele></trkpt>
<trkpt lat="47.35931" lon="0.81047"><ele>49</ele></trkpt>
<trkpt lat="47.35923" lon="0.81086"><ele>49</ele></trkpt>
<trkpt lat="47.35921" lon="0.81114"><ele>49</ele></trkpt>
<trkpt lat="47.35925" lon="0.81199"><ele>49</ele></trkpt>
<trkpt lat="47.35949" lon="0.81535"><ele>50</ele></trkpt>
<trkpt lat="47.35957" lon="0.81603"><ele>49</ele></trkpt>
<trkpt lat="47.35977" lon="0.81662"><ele>50</ele></trkpt>
<trkpt lat="47.35988" lon="0.81725"><ele>49</ele></trkpt>
<trkpt lat="47.36005" lon="0.81924"><ele>50</ele></trkpt>
<trkpt lat="47.36007" lon="0.81987"><ele>50</ele></trkpt>
<trkpt lat="47.36004" lon="0.82285"><ele>51</ele></trkpt>
<trkpt lat="47.35997" lon="0.82349"><ele>51</ele></trkpt>
<trkpt lat="47.35961" lon="0.82470"><ele>50</ele></trkpt>
<trkpt lat="47.35957" lon="0.82489"><ele>50</ele></trkpt>
<trkpt lat="47.35957" lon="0.82502"><ele>51</ele></trkpt>
<trkpt lat="47.35950" lon="0.82508"><ele>51</ele></trkpt>
<trkpt lat="47.35941" lon="0.82529"><ele>51</ele></trkpt>
<trkpt lat="47.35917" lon="0.82605"><ele>51</ele></trkpt>
<trkpt lat="47.35910" lon="0.82650"><ele>50</ele></trkpt>
<trkpt lat="47.35893" lon="0.82840"><ele>51</ele></trkpt>
<trkpt lat="47.35862" lon="0.83019"><ele>51</ele></trkpt>
<trkpt lat="47.35833" lon="0.83129"><ele>51</ele></trkpt>
<trkpt lat="47.35776" lon="0.83264"><ele>51</ele></trkpt>
<trkpt lat="47.35726" lon="0.83404"><ele>50</ele></trkpt>
<trkpt lat="47.35689" lon="0.83474"><ele>50</ele></trkpt>
<trkpt lat="47.35679" lon="0.83499"><ele>49</ele></trkpt>
<trkpt lat="47.35675" lon="0.83542"><ele>50</ele></trkpt>
<trkpt lat="47.35679" lon="0.83624"><ele>50</ele></trkpt>
<trkpt lat="47.35670" lon="0.83679"><ele>50</ele></trkpt>
<trkpt lat="47.35661" lon="0.83715"><ele>50</ele></trkpt>
<trkpt lat="47.35605" lon="0.83812"><ele>50</ele></trkpt>
<trkpt lat="47.35588" lon="0.83828"><ele>50</ele></trkpt>
<trkpt lat="47.35538" lon="0.83902"><ele>50</ele></trkpt>
<trkpt lat="47.35526" lon="0.83925"><ele>51</ele></trkpt>
<trkpt lat="47.35488" lon="0.84013"><ele>50</ele></trkpt>
<trkpt lat="47.35468" lon="0.84071"><ele>51</ele></trkpt>
<trkpt lat="47.35431" lon="0.84202"><ele>50</ele></trkpt>
<trkpt lat="47.35422" lon="0.84244"><ele>50</ele></trkpt>
<trkpt lat="47.35394" lon="0.84520"><ele>51</ele></trkpt>
<trkpt lat="47.35371" lon="0.84705"><ele>52</ele></trkpt>
<trkpt lat="47.35331" lon="0.84891"><ele>52</ele></trkpt>
<trkpt lat="47.35319" lon="0.85026"><ele>52</ele></trkpt>
<trkpt lat="47.35308" lon="0.85070"><ele>52</ele></trkpt>
<trkpt lat="47.35277" lon="0.85132"><ele>52</ele></trkpt>
<trkpt lat="47.35252" lon="0.85220"><ele>52</ele></trkpt>
<trkpt lat="47.35203" lon="0.85331"><ele>50</ele></trkpt>
<trkpt lat="47.35190" lon="0.85415"><ele>51</ele></trkpt>
<trkpt lat="47.35176" lon="0.85594"><ele>50</ele></trkpt>
<trkpt lat="47.35178" lon="0.85654"><ele>52</ele></trkpt>
<trkpt lat="47.35211" lon="0.85993"><ele>51</ele></trkpt>
<trkpt lat="47.35246" lon="0.86211"><ele>50</ele></trkpt>
<trkpt lat="47.35258" lon="0.86489"><ele>52</ele></trkpt>
<trkpt lat="47.35292" lon="0.86948"><ele>52</ele></trkpt>
<trkpt lat="47.35300" lon="0.87021"><ele>52</ele></trkpt>
<trkpt lat="47.35299" lon="0.87088"><ele>52</ele></trkpt>
<trkpt lat="47.35284" lon="0.87291"><ele>52</ele></trkpt>
<trkpt lat="47.35256" lon="0.87434"><ele>52</ele></trkpt>
<trkpt lat="47.35216" lon="0.87569"><ele>52</ele></trkpt>
<trkpt lat="47.35055" lon="0.88082"><ele>52</ele></trkpt>
<trkpt lat="47.34992" lon="0.88310"><ele>52</ele></trkpt>
<trkpt lat="47.34987" lon="0.88336"><ele>52</ele></trkpt>
<trkpt lat="47.34978" lon="0.88280"><ele>52</ele></trkpt>
<trkpt lat="47.34942" lon="0.88163"><ele>53</ele></trkpt>
<trkpt lat="47.34931" lon="0.88146"><ele>52</ele></trkpt>
<trkpt lat="47.34887" lon="0.88106"><ele>52</ele></trkpt>
<trkpt lat="47.34883" lon="0.88120"><ele>52</ele></trkpt>
<trkpt lat="47.34872" lon="0.88278"><ele>51</ele></trkpt>
<trkpt lat="47.34859" lon="0.88580"><ele>52</ele></trkpt>
<trkpt lat="47.34849" lon="0.88718"><ele>50</ele></trkpt>
<trkpt lat="47.34829" lon="0.88851"><ele>52</ele></trkpt>
<trkpt lat="47.34803" lon="0.88988"><ele>52</ele></trkpt>
<trkpt lat="47.34770" lon="0.89085"><ele>52</ele></trkpt>
<trkpt lat="47.34728" lon="0.89349"><ele>52</ele></trkpt>
<trkpt lat="47.34701" lon="0.89482"><ele>52</ele></trkpt>
<trkpt lat="47.34685" lon="0.89538"><ele>52</ele></trkpt>
<trkpt lat="47.34627" lon="0.89666"><ele>53</ele></trkpt>
<trkpt lat="47.34591" lon="0.89772"><ele>52</ele></trkpt>
<trkpt lat="47.34569" lon="0.89824"><ele>52</ele></trkpt>
<trkpt lat="47.34558" lon="0.89917"><ele>52</ele></trkpt>
<trkpt lat="47.34534" lon="0.90079"><ele>52</ele></trkpt>
<trkpt lat="47.34514" lon="0.90161"><ele>52</ele></trkpt>
<trkpt lat="47.34497" lon="0.90274"><ele>53</ele></trkpt>
<trkpt lat="47.34487" lon="0.90324"><ele>52</ele></trkpt>
<trkpt lat="47.34471" lon="0.90386"><ele>53</ele></trkpt>
<trkpt lat="47.34459" lon="0.90464"><ele>53</ele></trkpt>
<trkpt lat="47.34444" lon="0.90540"><ele>53</ele></trkpt>
<trkpt lat="47.34441" lon="0.90587"><ele>53</ele></trkpt>
<trkpt lat="47.34460" lon="0.90687"><ele>52</ele></trkpt>
<trkpt lat="47.34465" lon="0.90731"><ele>53</ele></trkpt>
<trkpt lat="47.34463" lon="0.90762"><ele>53</ele></trkpt>
<trkpt lat="47.34454" lon="0.90793"><ele>52</ele></trkpt>
<trkpt lat="47.34397" lon="0.90947"><ele>54</ele></trkpt>
<trkpt lat="47.34206" lon="0.90855"><ele>54</ele></trkpt>
<trkpt lat="47.34173" lon="0.90856"><ele>54</ele></trkpt>
<trkpt lat="47.34172" lon="0.90887"><ele>54</ele></trkpt>
<trkpt lat="47.34161" lon="0.90960"><ele>53</ele></trkpt>
<trkpt lat="47.34148" lon="0.91013"><ele>54</ele></trkpt>
<trkpt lat="47.34138" lon="0.91030"><ele>54</ele></trkpt>
<trkpt lat="47.34131" lon="0.91035"><ele>54</ele></trkpt>
<trkpt lat="47.34126" lon="0.91051"><ele>54</ele></trkpt>
<trkpt lat="47.34112" lon="0.91114"><ele>54</ele></trkpt>
<trkpt lat="47.34011" lon="0.91597"><ele>54</ele></trkpt>
<trkpt lat="47.33987" lon="0.91758"><ele>55</ele></trkpt>
<trkpt lat="47.33958" lon="0.91807"><ele>55</ele></trkpt>
<trkpt lat="47.33954" lon="0.91820"><ele>55</ele></trkpt>
<trkpt lat="47.33913" lon="0.92011"><ele>55</ele></trkpt>
<trkpt lat="47.33873" lon="0.92216"><ele>56</ele></trkpt>
<trkpt lat="47.33833" lon="0.92352"><ele>57</ele></trkpt>
<trkpt lat="47.33798" lon="0.92406"><ele>58</ele></trkpt>
<trkpt lat="47.33782" lon="0.92417"><ele>58</ele></trkpt>
<trkpt lat="47.33755" lon="0.92485"><ele>58</ele></trkpt>
<trkpt lat="47.33754" lon="0.92516"><ele>58</ele></trkpt>
<trkpt lat="47.33762" lon="0.92565"><ele>60</ele></trkpt>
<trkpt lat="47.33761" lon="0.92592"><ele>59</ele></trkpt>
<trkpt lat="47.33754" lon="0.92636"><ele>58</ele></trkpt>
<trkpt lat="47.33730" lon="0.92722"><ele>58</ele></trkpt>
<trkpt lat="47.33705" lon="0.92781"><ele>62</ele></trkpt>
<trkpt lat="47.33664" lon="0.92949"><ele>60</ele></trkpt>
<trkpt lat="47.33643" lon="0.93017"><ele>62</ele></trkpt>
<trkpt lat="47.33622" lon="0.93050"><ele>62</ele></trkpt>
<trkpt lat="47.33613" lon="0.93073"><ele>62</ele></trkpt>
<trkpt lat="47.33619" lon="0.93092"><ele>60</ele></trkpt>
<trkpt lat="47.33628" lon="0.93170"><ele>57</ele></trkpt>
<trkpt lat="47.33625" lon="0.93222"><ele>56</ele></trkpt>
<trkpt lat="47.33600" lon="0.93367"><ele>56</ele></trkpt>
<trkpt lat="47.33583" lon="0.93440"><ele>54</ele></trkpt>
<trkpt lat="47.33563" lon="0.93500"><ele>56</ele></trkpt>
<trkpt lat="47.33544" lon="0.93548"><ele>56</ele></trkpt>
<trkpt lat="47.33491" lon="0.93648"><ele>56</ele></trkpt>
<trkpt lat="47.33475" lon="0.93735"><ele>56</ele></trkpt>
<trkpt lat="47.33445" lon="0.93860"><ele>55</ele></trkpt>
<trkpt lat="47.33409" lon="0.93993"><ele>58</ele></trkpt>
<trkpt lat="47.33396" lon="0.94064"><ele>58</ele></trkpt>
<trkpt lat="47.33398" lon="0.94080"><ele>56</ele></trkpt>
<trkpt lat="47.33405" lon="0.94094"><ele>56</ele></trkpt>
<trkpt lat="47.33448" lon="0.94133"><ele>54</ele></trkpt>
<trkpt lat="47.33457" lon="0.94146"><ele>54</ele></trkpt>
<trkpt lat="47.33462" lon="0.94160"><ele>54</ele></trkpt>
<trkpt lat="47.33462" lon="0.94183"><ele>53</ele></trkpt>
<trkpt lat="47.33421" lon="0.94338"><ele>54</ele></trkpt>
<trkpt lat="47.33412" lon="0.94363"><ele>54</ele></trkpt>
<trkpt lat="47.33384" lon="0.94416"><ele>55</ele></trkpt>
<trkpt lat="47.33377" lon="0.94441"><ele>55</ele></trkpt>
<trkpt lat="47.33350" lon="0.94608"><ele>54</ele></trkpt>
<trkpt lat="47.33340" lon="0.94641"><ele>54</ele></trkpt>
<trkpt lat="47.33312" lon="0.94808"><ele>53</ele></trkpt>
<trkpt lat="47.33273" lon="0.95072"><ele>53</ele></trkpt>
<trkpt lat="47.33264" lon="0.95180"><ele>52</ele></trkpt>
<trkpt lat="47.33249" lon="0.95306"><ele>53</ele></trkpt>
<trkpt lat="47.33214" lon="0.95455"><ele>53</ele></trkpt>
<trkpt lat="47.33126" lon="0.95950"><ele>54</ele></trkpt>
<trkpt lat="47.33086" lon="0.96137"><ele>54</ele></trkpt>
<trkpt lat="47.33072" lon="0.96293"><ele>52</ele></trkpt>
<trkpt lat="47.33058" lon="0.96378"><ele>54</ele></trkpt>
<trkpt lat="47.33048" lon="0.96468"><ele>53</ele></trkpt>
<trkpt lat="47.33045" lon="0.96563"><ele>53</ele></trkpt>
<trkpt lat="47.33035" lon="0.96684"><ele>54</ele></trkpt>
<trkpt lat="47.33028" lon="0.96717"><ele>55</ele></trkpt>
<trkpt lat="47.33022" lon="0.96777"><ele>54</ele></trkpt>
<trkpt lat="47.33021" lon="0.96888"><ele>53</ele></trkpt>
<trkpt lat="47.33033" lon="0.97305"><ele>54</ele></trkpt>
<trkpt lat="47.33047" lon="0.97471"><ele>53</ele></trkpt>
<trkpt lat="47.33049" lon="0.97569"><ele>52</ele></trkpt>
<trkpt lat="47.33046" lon="0.97694"><ele>53</ele></trkpt>
<trkpt lat="47.33030" lon="0.97857"><ele>54</ele></trkpt>
<trkpt lat="47.33029" lon="0.97986"><ele>55</ele></trkpt>
<trkpt lat="47.33039" lon="0.98321"><ele>54</ele></trkpt>
<trkpt lat="47.33061" lon="0.98562"><ele>55</ele></trkpt>
<trkpt lat="47.33066" lon="0.98651"><ele>54</ele></trkpt>
<trkpt lat="47.33065" lon="0.98812"><ele>54</ele></trkpt>
<trkpt lat="47.33060" lon="0.98832"><ele>55</ele></trkpt>
<trkpt lat="47.33054" lon="0.98839"><ele>56</ele></trkpt>
<trkpt lat="47.33055" lon="0.98855"><ele>56</ele></trkpt>
<trkpt lat="47.33038" lon="0.98974"><ele>55</ele></trkpt>
<trkpt lat="47.33031" lon="0.99008"><ele>56</ele></trkpt>
<trkpt lat="47.33024" lon="0.99017"><ele>57</ele></trkpt>
<trkpt lat="47.33027" lon="0.99041"><ele>57</ele></trkpt>
<trkpt lat="47.33015" lon="0.99046"><ele>57</ele></trkpt>
<trkpt lat="47.33003" lon="0.99115"><ele>56</ele></trkpt>
<trkpt lat="47.32865" lon="0.99103"><ele>57</ele></trkpt>
<trkpt lat="47.32819" lon="0.99085"><ele>57</ele></trkpt>
<trkpt lat="47.32847" lon="0.99098"><ele>57</ele></trkpt>
<trkpt lat="47.32873" lon="0.99103"><ele>57</ele></trkpt>
<trkpt lat="47.32864" lon="0.99407"><ele>56</ele></trkpt>
<trkpt lat="47.32955" lon="0.99453"><ele>55</ele></trkpt>
<trkpt lat="47.32938" lon="0.99518"><ele>56</ele></trkpt>
<trkpt lat="47.32942" lon="0.99533"><ele>56</ele></trkpt>
<trkpt lat="47.32940" lon="0.99553"><ele>55</ele></trkpt>
<trkpt lat="47.32925" lon="0.99604"><ele>54</ele></trkpt>
<trkpt lat="47.32924" lon="0.99640"><ele>54</ele></trkpt>
<trkpt lat="47.32901" lon="0.99681"><ele>54</ele></trkpt>
<trkpt lat="47.32895" lon="0.99703"><ele>54</ele></trkpt>
<trkpt lat="47.32878" lon="0.99741"><ele>54</ele></trkpt>
<trkpt lat="47.32867" lon="0.99801"><ele>54</ele></trkpt>
<trkpt lat="47.32866" lon="0.99841"><ele>54</ele></trkpt>
<trkpt lat="47.32842" lon="1.00046"><ele>54</ele></trkpt>
<trkpt lat="47.32834" lon="1.00070"><ele>55</ele></trkpt>
<trkpt lat="47.32821" lon="1.00202"><ele>54</ele></trkpt>
<trkpt lat="47.32814" lon="1.00235"><ele>54</ele></trkpt>
<trkpt lat="47.32810" lon="1.00476"><ele>55</ele></trkpt>
<trkpt lat="47.32778" lon="1.00728"><ele>55</ele></trkpt>
<trkpt lat="47.32770" lon="1.00822"><ele>55</ele></trkpt>
<trkpt lat="47.32758" lon="1.01140"><ele>55</ele></trkpt>
<trkpt lat="47.32753" lon="1.01539"><ele>56</ele></trkpt>
<trkpt lat="47.32754" lon="1.01588"><ele>56</ele></trkpt>
<trkpt lat="47.32776" lon="1.01906"><ele>54</ele></trkpt>
<trkpt lat="47.32769" lon="1.02003"><ele>54</ele></trkpt>
<trkpt lat="47.32761" lon="1.02405"><ele>54</ele></trkpt>
<trkpt lat="47.32767" lon="1.02695"><ele>54</ele></trkpt>
<trkpt lat="47.32761" lon="1.02839"><ele>55</ele></trkpt>
<trkpt lat="47.32752" lon="1.02940"><ele>56</ele></trkpt>
<trkpt lat="47.32738" lon="1.03043"><ele>54</ele></trkpt>
<trkpt lat="47.32693" lon="1.03229"><ele>56</ele></trkpt>
<trkpt lat="47.32641" lon="1.03411"><ele>55</ele></trkpt>
<trkpt lat="47.32575" lon="1.03614"><ele>54</ele></trkpt>
<trkpt lat="47.32516" lon="1.03818"><ele>55</ele></trkpt>
<trkpt lat="47.32508" lon="1.03919"><ele>55</ele></trkpt>
<trkpt lat="47.32514" lon="1.03953"><ele>56</ele></trkpt>
<trkpt lat="47.32507" lon="1.03966"><ele>56</ele></trkpt>
<trkpt lat="47.32502" lon="1.04043"><ele>56</ele></trkpt>
<trkpt lat="47.32509" lon="1.04101"><ele>55</ele></trkpt>
<trkpt lat="47.32506" lon="1.04182"><ele>55</ele></trkpt>
<trkpt lat="47.32513" lon="1.04258"><ele>56</ele></trkpt>
<trkpt lat="47.32514" lon="1.04312"><ele>55</ele></trkpt>
<trkpt lat="47.32513" lon="1.04329"><ele>55</ele></trkpt>
<trkpt lat="47.32507" lon="1.04345"><ele>56</ele></trkpt>
<trkpt lat="47.32475" lon="1.04391"><ele>57</ele></trkpt>
<trkpt lat="47.32468" lon="1.04518"><ele>56</ele></trkpt>
<trkpt lat="47.32472" lon="1.04566"><ele>56</ele></trkpt>
<trkpt lat="47.32489" lon="1.04591"><ele>55</ele></trkpt>
<trkpt lat="47.32493" lon="1.04602"><ele>55</ele></trkpt>
<trkpt lat="47.32490" lon="1.04637"><ele>55</ele></trkpt>
<trkpt lat="47.32475" lon="1.04730"><ele>56</ele></trkpt>
<trkpt lat="47.32417" lon="1.05015"><ele>56</ele></trkpt>
<trkpt lat="47.32351" lon="1.05430"><ele>55</ele></trkpt>
<trkpt lat="47.32342" lon="1.05475"><ele>55</ele></trkpt>
<trkpt lat="47.32341" lon="1.05498"><ele>56</ele></trkpt>
<trkpt lat="47.32327" lon="1.05569"><ele>55</ele></trkpt>
<trkpt lat="47.32275" lon="1.05775"><ele>55</ele></trkpt>
<trkpt lat="47.32253" lon="1.05904"><ele>56</ele></trkpt>
<trkpt lat="47.32243" lon="1.05993"><ele>56</ele></trkpt>
<trkpt lat="47.32247" lon="1.06028"><ele>56</ele></trkpt>
<trkpt lat="47.32243" lon="1.06147"><ele>56</ele></trkpt>
<trkpt lat="47.32258" lon="1.06260"><ele>56</ele></trkpt>
<trkpt lat="47.32267" lon="1.06366"><ele>56</ele></trkpt>
<trkpt lat="47.32292" lon="1.06564"><ele>56</ele></trkpt>
<trkpt lat="47.32301" lon="1.06612"><ele>56</ele></trkpt>
<trkpt lat="47.32353" lon="1.06812"><ele>55</ele></trkpt>
<trkpt lat="47.32357" lon="1.06834"><ele>54</ele></trkpt>
<trkpt lat="47.32357" lon="1.06871"><ele>56</ele></trkpt>
<trkpt lat="47.32370" lon="1.06883"><ele>56</ele></trkpt>
<trkpt lat="47.32418" lon="1.07080"><ele>56</ele></trkpt>
<trkpt lat="47.32491" lon="1.07299"><ele>56</ele></trkpt>
<trkpt lat="47.32541" lon="1.07391"><ele>56</ele></trkpt>
<trkpt lat="47.32564" lon="1.07459"><ele>56</ele></trkpt>
<trkpt lat="47.32562" lon="1.07507"><ele>56</ele></trkpt>
<trkpt lat="47.32569" lon="1.07536"><ele>56</ele></trkpt>
<trkpt lat="47.32583" lon="1.07679"><ele>57</ele></trkpt>
<trkpt lat="47.32593" lon="1.07897"><ele>57</ele></trkpt>
<trkpt lat="47.32601" lon="1.08002"><ele>56</ele></trkpt>
<trkpt lat="47.32619" lon="1.08140"><ele>57</ele></trkpt>
<trkpt lat="47.32619" lon="1.08176"><ele>57</ele></trkpt>
<trkpt lat="47.32629" lon="1.08206"><ele>56</ele></trkpt>
<trkpt lat="47.32650" lon="1.08300"><ele>57</ele></trkpt>
<trkpt lat="47.32650" lon="1.08305"><ele>57</ele></trkpt>
<trkpt lat="47.32645" lon="1.08311"><ele>58</ele></trkpt>
<trkpt lat="47.32571" lon="1.08343"><ele>58</ele></trkpt>
<trkpt lat="47.32568" lon="1.08355"><ele>58</ele></trkpt>
<trkpt lat="47.32568" lon="1.08363"><ele>58</ele></trkpt>
<trkpt lat="47.32647" lon="1.08335"><ele>60</ele></trkpt>
<trkpt lat="47.32849" lon="1.08219"><ele>59</ele></trkpt>
<trkpt lat="47.32847" lon="1.08228"><ele>59</ele></trkpt>
<trkpt lat="47.32840" lon="1.08236"><ele>58</ele></trkpt>
<trkpt lat="47.32784" lon="1.08273"><ele>58</ele></trkpt>
<trkpt lat="47.32777" lon="1.08281"><ele>58</ele></trkpt>
<trkpt lat="47.32771" lon="1.08299"><ele>56</ele></trkpt>
<trkpt lat="47.32777" lon="1.08323"><ele>57</ele></trkpt>
<trkpt lat="47.32846" lon="1.08496"><ele>56</ele></trkpt>
<trkpt lat="47.32862" lon="1.08547"><ele>57</ele></trkpt>
<trkpt lat="47.32894" lon="1.08724"><ele>57</ele></trkpt>
<trkpt lat="47.32906" lon="1.08874"><ele>56</ele></trkpt>
<trkpt lat="47.32903" lon="1.08908"><ele>56</ele></trkpt>
<trkpt lat="47.32913" lon="1.09003"><ele>58</ele></trkpt>
<trkpt lat="47.32929" lon="1.09099"><ele>56</ele></trkpt>
<trkpt lat="47.32945" lon="1.09162"><ele>57</ele></trkpt>
<trkpt lat="47.33002" lon="1.09306"><ele>57</ele></trkpt>
<trkpt lat="47.33013" lon="1.09338"><ele>57</ele></trkpt>
<trkpt lat="47.33023" lon="1.09378"><ele>57</ele></trkpt>
<trkpt lat="47.33035" lon="1.09546"><ele>58</ele></trkpt>
<trkpt lat="47.33029" lon="1.09708"><ele>58</ele></trkpt>
<trkpt lat="47.33030" lon="1.09774"><ele>57</ele></trkpt>
<trkpt lat="47.33051" lon="1.09920"><ele>57</ele></trkpt>
<trkpt lat="47.33065" lon="1.10002"><ele>56</ele></trkpt>
<trkpt lat="47.33073" lon="1.10031"><ele>57</ele></trkpt>
<trkpt lat="47.33084" lon="1.10100"><ele>57</ele></trkpt>
<trkpt lat="47.33112" lon="1.10296"><ele>57</ele></trkpt>
<trkpt lat="47.33123" lon="1.10411"><ele>56</ele></trkpt>
<trkpt lat="47.33165" lon="1.10598"><ele>57</ele></trkpt>
<trkpt lat="47.33273" lon="1.10901"><ele>59</ele></trkpt>
<trkpt lat="47.33287" lon="1.10956"><ele>58</ele></trkpt>
<trkpt lat="47.33303" lon="1.11051"><ele>60</ele></trkpt>
<trkpt lat="47.33315" lon="1.11139"><ele>58</ele></trkpt>
<trkpt lat="47.33325" lon="1.11279"><ele>58</ele></trkpt>
<trkpt lat="47.33332" lon="1.11329"><ele>59</ele></trkpt>
<trkpt lat="47.33331" lon="1.11533"><ele>58</ele></trkpt>
<trkpt lat="47.33323" lon="1.11615"><ele>57</ele></trkpt>
<trkpt lat="47.33321" lon="1.11683"><ele>57</ele></trkpt>
<trkpt lat="47.33341" lon="1.11796"><ele>56</ele></trkpt>
<trkpt lat="47.33343" lon="1.11844"><ele>56</ele></trkpt>
<trkpt lat="47.33338" lon="1.12007"><ele>57</ele></trkpt>
<trkpt lat="47.33340" lon="1.12075"><ele>57</ele></trkpt>
<trkpt lat="47.33338" lon="1.12161"><ele>57</ele></trkpt>
<trkpt lat="47.33328" lon="1.12315"><ele>58</ele></trkpt>
<trkpt lat="47.33263" lon="1.12635"><ele>57</ele></trkpt>
<trkpt lat="47.33250" lon="1.12749"><ele>58</ele></trkpt>
<trkpt lat="47.33249" lon="1.12801"><ele>59</ele></trkpt>
<trkpt lat="47.33251" lon="1.12838"><ele>59</ele></trkpt>
<trkpt lat="47.33272" lon="1.12966"><ele>59</ele></trkpt>
<trkpt lat="47.33298" lon="1.13079"><ele>60</ele></trkpt>
<trkpt lat="47.33300" lon="1.13127"><ele>60</ele></trkpt>
<trkpt lat="47.33294" lon="1.13197"><ele>60</ele></trkpt>
<trkpt lat="47.33297" lon="1.13253"><ele>60</ele></trkpt>
<trkpt lat="47.33300" lon="1.13276"><ele>60</ele></trkpt>
<trkpt lat="47.33314" lon="1.13315"><ele>60</ele></trkpt>
<trkpt lat="47.33313" lon="1.13332"><ele>60</ele></trkpt>
<trkpt lat="47.33351" lon="1.13365"><ele>60</ele></trkpt>
<trkpt lat="47.33355" lon="1.13404"><ele>60</ele></trkpt>
<trkpt lat="47.33351" lon="1.13457"><ele>60</ele></trkpt>
<trkpt lat="47.33334" lon="1.13541"><ele>60</ele></trkpt>
<trkpt lat="47.33323" lon="1.13662"><ele>60</ele></trkpt>
<trkpt lat="47.33322" lon="1.13714"><ele>60</ele></trkpt>
<trkpt lat="47.33324" lon="1.13758"><ele>60</ele></trkpt>
<trkpt lat="47.33338" lon="1.13827"><ele>60</ele></trkpt>
<trkpt lat="47.33346" lon="1.13906"><ele>60</ele></trkpt>
<trkpt lat="47.33346" lon="1.14050"><ele>59</ele></trkpt>
<trkpt lat="47.33405" lon="1.14600"><ele>61</ele></trkpt>
<trkpt lat="47.33445" lon="1.15005"><ele>61</ele></trkpt>
<trkpt lat="47.33463" lon="1.15325"><ele>60</ele></trkpt>
<trkpt lat="47.33470" lon="1.15397"><ele>62</ele></trkpt>
<trkpt lat="47.33525" lon="1.15663"><ele>61</ele></trkpt>
<trkpt lat="47.33546" lon="1.15772"><ele>60</ele></trkpt>
<trkpt lat="47.33663" lon="1.16496"><ele>61</ele></trkpt>
<trkpt lat="47.33672" lon="1.16534"><ele>61</ele></trkpt>
<trkpt lat="47.33693" lon="1.16593"><ele>61</ele></trkpt>
<trkpt lat="47.33773" lon="1.16782"><ele>62</ele></trkpt>
<trkpt lat="47.33811" lon="1.16882"><ele>62</ele></trkpt>
<trkpt lat="47.33852" lon="1.17041"><ele>61</ele></trkpt>
<trkpt lat="47.33861" lon="1.17097"><ele>61</ele></trkpt>
<trkpt lat="47.33866" lon="1.17181"><ele>61</ele></trkpt>
<trkpt lat="47.33882" lon="1.17247"><ele>61</ele></trkpt>
<trkpt lat="47.33943" lon="1.17426"><ele>61</ele></trkpt>
<trkpt lat="47.33930" lon="1.17445"><ele>59</ele></trkpt>
<trkpt lat="47.33938" lon="1.17456"><ele>60</ele></trkpt>
<trkpt lat="47.34003" lon="1.17641"><ele>60</ele></trkpt>
<trkpt lat="47.34068" lon="1.17812"><ele>60</ele></trkpt>
<trkpt lat="47.34074" lon="1.17818"><ele>60</ele></trkpt>
<trkpt lat="47.34166" lon="1.18135"><ele>61</ele></trkpt>
<trkpt lat="47.34179" lon="1.18192"><ele>61</ele></trkpt>
<trkpt lat="47.34193" lon="1.18263"><ele>61</ele></trkpt>
<trkpt lat="47.34223" lon="1.18678"><ele>63</ele></trkpt>
<trkpt lat="47.34226" lon="1.18757"><ele>60</ele></trkpt>
<trkpt lat="47.34235" lon="1.18832"><ele>60</ele></trkpt>
<trkpt lat="47.34242" lon="1.18851"><ele>61</ele></trkpt>
<trkpt lat="47.34246" lon="1.18984"><ele>60</ele></trkpt>
<trkpt lat="47.34249" lon="1.19029"><ele>61</ele></trkpt>
<trkpt lat="47.34262" lon="1.19124"><ele>59</ele></trkpt>
<trkpt lat="47.34296" lon="1.19256"><ele>60</ele></trkpt>
<trkpt lat="47.34401" lon="1.19210"><ele>64</ele></trkpt>
<trkpt lat="47.34398" lon="1.19194"><ele>64</ele></trkpt>
<trkpt lat="47.34432" lon="1.19186"><ele>66</ele></trkpt>
<trkpt lat="47.34459" lon="1.19200"><ele>68</ele></trkpt>
<trkpt lat="47.34468" lon="1.19189"><ele>68</ele></trkpt>
<trkpt lat="47.34501" lon="1.19189"><ele>70</ele></trkpt>
<trkpt lat="47.34527" lon="1.19202"><ele>72</ele></trkpt>
<trkpt lat="47.34544" lon="1.19216"><ele>73</ele></trkpt>
<trkpt lat="47.34740" lon="1.19493"><ele>82</ele></trkpt>
<trkpt lat="47.34775" lon="1.19583"><ele>86</ele></trkpt>
<trkpt lat="47.34788" lon="1.19608"><ele>88</ele></trkpt>
<trkpt lat="47.34818" lon="1.19648"><ele>89</ele></trkpt>
<trkpt lat="47.34879" lon="1.19772"><ele>93</ele></trkpt>
<trkpt lat="47.34920" lon="1.19902"><ele>98</ele></trkpt>
<trkpt lat="47.34945" lon="1.19877"><ele>96</ele></trkpt>
<trkpt lat="47.34957" lon="1.19871"><ele>96</ele></trkpt>
<trkpt lat="47.34985" lon="1.19867"><ele>100</ele></trkpt>
<trkpt lat="47.35029" lon="1.19843"><ele>108</ele></trkpt>
<trkpt lat="47.35086" lon="1.19776"><ele>117</ele></trkpt>
<trkpt lat="47.35140" lon="1.19703"><ele>124</ele></trkpt>
<trkpt lat="47.35175" lon="1.19641"><ele>127</ele></trkpt>
<trkpt lat="47.35187" lon="1.19612"><ele>128</ele></trkpt>
<trkpt lat="47.35244" lon="1.19437"><ele>126</ele></trkpt>
<trkpt lat="47.35341" lon="1.19500"><ele>129</ele></trkpt>
<trkpt lat="47.35604" lon="1.19635"><ele>130</ele></trkpt>
<trkpt lat="47.35640" lon="1.19316"><ele>129</ele></trkpt>
<trkpt lat="47.36794" lon="1.18898"><ele>125</ele></trkpt>
<trkpt lat="47.37936" lon="1.18469"><ele>114</ele></trkpt>
<trkpt lat="47.38041" lon="1.18536"><ele>114</ele></trkpt>
<trkpt lat="47.38105" lon="1.18563"><ele>113</ele></trkpt>
<trkpt lat="47.38118" lon="1.18576"><ele>112</ele></trkpt>
<trkpt lat="47.38148" lon="1.18623"><ele>112</ele></trkpt>
<trkpt lat="47.38361" lon="1.18796"><ele>110</ele></trkpt>
<trkpt lat="47.38557" lon="1.19035"><ele>108</ele></trkpt>
<trkpt lat="47.38566" lon="1.19054"><ele>108</ele></trkpt>
<trkpt lat="47.38574" lon="1.19084"><ele>107</ele></trkpt>
<trkpt lat="47.38581" lon="1.19159"><ele>108</ele></trkpt>
<trkpt lat="47.38581" lon="1.19302"><ele>110</ele></trkpt>
<trkpt lat="47.38578" lon="1.19321"><ele>110</ele></trkpt>
<trkpt lat="47.38527" lon="1.19517"><ele>110</ele></trkpt>
<trkpt lat="47.38524" lon="1.19542"><ele>110</ele></trkpt>
<trkpt lat="47.38524" lon="1.19566"><ele>109</ele></trkpt>
<trkpt lat="47.38557" lon="1.19744"><ele>107</ele></trkpt>
<trkpt lat="47.38572" lon="1.19859"><ele>106</ele></trkpt>
<trkpt lat="47.38620" lon="1.20073"><ele>105</ele></trkpt>
<trkpt lat="47.38634" lon="1.20111"><ele>105</ele></trkpt>
<trkpt lat="47.38641" lon="1.20123"><ele>105</ele></trkpt>
<trkpt lat="47.38674" lon="1.20154"><ele>105</ele></trkpt>
<trkpt lat="47.38685" lon="1.20184"><ele>105</ele></trkpt>
<trkpt lat="47.38684" lon="1.20234"><ele>105</ele></trkpt>
<trkpt lat="47.38669" lon="1.20358"><ele>105</ele></trkpt>
<trkpt lat="47.38669" lon="1.20396"><ele>105</ele></trkpt>
<trkpt lat="47.38766" lon="1.20924"><ele>106</ele></trkpt>
<trkpt lat="47.38777" lon="1.21006"><ele>106</ele></trkpt>
<trkpt lat="47.38819" lon="1.21512"><ele>104</ele></trkpt>
<trkpt lat="47.38823" lon="1.21536"><ele>104</ele></trkpt>
<trkpt lat="47.38861" lon="1.21635"><ele>103</ele></trkpt>
<trkpt lat="47.38869" lon="1.21680"><ele>104</ele></trkpt>
<trkpt lat="47.38873" lon="1.21759"><ele>104</ele></trkpt>
<trkpt lat="47.38882" lon="1.21807"><ele>104</ele></trkpt>
<trkpt lat="47.38939" lon="1.21939"><ele>104</ele></trkpt>
<trkpt lat="47.38953" lon="1.21984"><ele>103</ele></trkpt>
<trkpt lat="47.38961" lon="1.22031"><ele>103</ele></trkpt>
<trkpt lat="47.38962" lon="1.22083"><ele>103</ele></trkpt>
<trkpt lat="47.38940" lon="1.22409"><ele>102</ele></trkpt>
<trkpt lat="47.38923" lon="1.22498"><ele>102</ele></trkpt>
<trkpt lat="47.38889" lon="1.22554"><ele>102</ele></trkpt>
<trkpt lat="47.38873" lon="1.22595"><ele>103</ele></trkpt>
<trkpt lat="47.38865" lon="1.22638"><ele>103</ele></trkpt>
<trkpt lat="47.38868" lon="1.22686"><ele>103</ele></trkpt>
<trkpt lat="47.38898" lon="1.22871"><ele>102</ele></trkpt>
<trkpt lat="47.38908" lon="1.22919"><ele>102</ele></trkpt>
<trkpt lat="47.38961" lon="1.23078"><ele>101</ele></trkpt>
<trkpt lat="47.38983" lon="1.23156"><ele>101</ele></trkpt>
<trkpt lat="47.39001" lon="1.23248"><ele>102</ele></trkpt>
<trkpt lat="47.39060" lon="1.23638"><ele>99</ele></trkpt>
<trkpt lat="47.39069" lon="1.23720"><ele>99</ele></trkpt>
<trkpt lat="47.39073" lon="1.23810"><ele>99</ele></trkpt>
<trkpt lat="47.39047" lon="1.24662"><ele>97</ele></trkpt>
<trkpt lat="47.39041" lon="1.24706"><ele>97</ele></trkpt>
<trkpt lat="47.39035" lon="1.24723"><ele>97</ele></trkpt>
<trkpt lat="47.39009" lon="1.24766"><ele>97</ele></trkpt>
<trkpt lat="47.38998" lon="1.24797"><ele>97</ele></trkpt>
<trkpt lat="47.38977" lon="1.24947"><ele>97</ele></trkpt>
<trkpt lat="47.38975" lon="1.25044"><ele>97</ele></trkpt>
<trkpt lat="47.39086" lon="1.25101"><ele>98</ele></trkpt>
<trkpt lat="47.39084" lon="1.25180"><ele>98</ele></trkpt>
<trkpt lat="47.39078" lon="1.25222"><ele>98</ele></trkpt>
<trkpt lat="47.39068" lon="1.25259"><ele>98</ele></trkpt>
<trkpt lat="47.39070" lon="1.25283"><ele>98</ele></trkpt>
<trkpt lat="47.39138" lon="1.25355"><ele>98</ele></trkpt>
<trkpt lat="47.39184" lon="1.25388"><ele>97</ele></trkpt>
<trkpt lat="47.39208" lon="1.25395"><ele>97</ele></trkpt>
<trkpt lat="47.39247" lon="1.25389"><ele>97</ele></trkpt>
<trkpt lat="47.39319" lon="1.25328"><ele>98</ele></trkpt>
<trkpt lat="47.39410" lon="1.25264"><ele>98</ele></trkpt>
<trkpt lat="47.39494" lon="1.25164"><ele>100</ele></trkpt>
<trkpt lat="47.39571" lon="1.25082"><ele>100</ele></trkpt>
<trkpt lat="47.39634" lon="1.25022"><ele>99</ele></trkpt>
<trkpt lat="47.39775" lon="1.24940"><ele>99</ele></trkpt>
<trkpt lat="47.39850" lon="1.24914"><ele>99</ele></trkpt>
<trkpt lat="47.39883" lon="1.24910"><ele>99</ele></trkpt>
<trkpt lat="47.39977" lon="1.24921"><ele>101</ele></trkpt>
<trkpt lat="47.40056" lon="1.24934"><ele>102</ele></trkpt>
<trkpt lat="47.40116" lon="1.24950"><ele>103</ele></trkpt>
<trkpt lat="47.40135" lon="1.24951"><ele>103</ele></trkpt>
<trkpt lat="47.40199" lon="1.24935"><ele>103</ele></trkpt>
<trkpt lat="47.40264" lon="1.24908"><ele>104</ele></trkpt>
<trkpt lat="47.40323" lon="1.24903"><ele>104</ele></trkpt>
<trkpt lat="47.40381" lon="1.24889"><ele>104</ele></trkpt>
<trkpt lat="47.40407" lon="1.24878"><ele>104</ele></trkpt>
<trkpt lat="47.40450" lon="1.24849"><ele>104</ele></trkpt>
<trkpt lat="47.40482" lon="1.24836"><ele>105</ele></trkpt>
<trkpt lat="47.40597" lon="1.24832"><ele>106</ele></trkpt>
<trkpt lat="47.40633" lon="1.24838"><ele>106</ele></trkpt>
<trkpt lat="47.40779" lon="1.24905"><ele>108</ele></trkpt>
<trkpt lat="47.40812" lon="1.24918"><ele>108</ele></trkpt>
<trkpt lat="47.40850" lon="1.24924"><ele>108</ele></trkpt>
<trkpt lat="47.40887" lon="1.24912"><ele>108</ele></trkpt>
<trkpt lat="47.40901" lon="1.24899"><ele>108</ele></trkpt>
<trkpt lat="47.40959" lon="1.24822"><ele>107</ele></trkpt>
<trkpt lat="47.40982" lon="1.24806"><ele>107</ele></trkpt>
<trkpt lat="47.41055" lon="1.24800"><ele>108</ele></trkpt>
<trkpt lat="47.41147" lon="1.24781"><ele>108</ele></trkpt>
<trkpt lat="47.41217" lon="1.24773"><ele>108</ele></trkpt>
<trkpt lat="47.41304" lon="1.24782"><ele>108</ele></trkpt>
<trkpt lat="47.41405" lon="1.24765"><ele>106</ele></trkpt>
<trkpt lat="47.41437" lon="1.24754"><ele>106</ele></trkpt>
<trkpt lat="47.41495" lon="1.24722"><ele>106</ele></trkpt>
<trkpt lat="47.41565" lon="1.24700"><ele>107</ele></trkpt>
<trkpt lat="47.41781" lon="1.24645"><ele>108</ele></trkpt>
<trkpt lat="47.41810" lon="1.24646"><ele>108</ele></trkpt>
<trkpt lat="47.41884" lon="1.24663"><ele>107</ele></trkpt>
<trkpt lat="47.41943" lon="1.24664"><ele>107</ele></trkpt>
<trkpt lat="47.42078" lon="1.24622"><ele>105</ele></trkpt>
<trkpt lat="47.42134" lon="1.24617"><ele>104</ele></trkpt>
<trkpt lat="47.42195" lon="1.24618"><ele>103</ele></trkpt>
<trkpt lat="47.42265" lon="1.24627"><ele>103</ele></trkpt>
<trkpt lat="47.42371" lon="1.24652"><ele>104</ele></trkpt>
<trkpt lat="47.42855" lon="1.24751"><ele>106</ele></trkpt>
<trkpt lat="47.43094" lon="1.24728"><ele>110</ele></trkpt>
<trkpt lat="47.43343" lon="1.24729"><ele>109</ele></trkpt>
<trkpt lat="47.43520" lon="1.24815"><ele>108</ele></trkpt>
<trkpt lat="47.43546" lon="1.24824"><ele>109</ele></trkpt>
<trkpt lat="47.43564" lon="1.24826"><ele>109</ele></trkpt>
<trkpt lat="47.43873" lon="1.24794"><ele>108</ele></trkpt>
<trkpt lat="47.43898" lon="1.24783"><ele>108</ele></trkpt>
<trkpt lat="47.43921" lon="1.24758"><ele>108</ele></trkpt>
<trkpt lat="47.43941" lon="1.24727"><ele>107</ele></trkpt>
<trkpt lat="47.43960" lon="1.24671"><ele>106</ele></trkpt>
<trkpt lat="47.43995" lon="1.24539"><ele>106</ele></trkpt>
<trkpt lat="47.44000" lon="1.24524"><ele>106</ele></trkpt>
<trkpt lat="47.44016" lon="1.24502"><ele>106</ele></trkpt>
<trkpt lat="47.44029" lon="1.24496"><ele>106</ele></trkpt>
<trkpt lat="47.44071" lon="1.24505"><ele>106</ele></trkpt>
<trkpt lat="47.44093" lon="1.24505"><ele>106</ele></trkpt>
<trkpt lat="47.44141" lon="1.24482"><ele>108</ele></trkpt>
<trkpt lat="47.44214" lon="1.24436"><ele>109</ele></trkpt>
<trkpt lat="47.44302" lon="1.24403"><ele>109</ele></trkpt>
<trkpt lat="47.44335" lon="1.24404"><ele>109</ele></trkpt>
<trkpt lat="47.44361" lon="1.24412"><ele>109</ele></trkpt>
<trkpt lat="47.44434" lon="1.24461"><ele>109</ele></trkpt>
<trkpt lat="47.44442" lon="1.24479"><ele>109</ele></trkpt>
<trkpt lat="47.44447" lon="1.24500"><ele>109</ele></trkpt>
<trkpt lat="47.44451" lon="1.24603"><ele>109</ele></trkpt>
<trkpt lat="47.44464" lon="1.24662"><ele>109</ele></trkpt>
<trkpt lat="47.44468" lon="1.24740"><ele>110</ele></trkpt>
<trkpt lat="47.44477" lon="1.24797"><ele>110</ele></trkpt>
<trkpt lat="47.44498" lon="1.24879"><ele>110</ele></trkpt>
<trkpt lat="47.44515" lon="1.24930"><ele>109</ele></trkpt>
<trkpt lat="47.44532" lon="1.24963"><ele>109</ele></trkpt>
<trkpt lat="47.44548" lon="1.24982"><ele>109</ele></trkpt>
<trkpt lat="47.44564" lon="1.24988"><ele>108</ele></trkpt>
<trkpt lat="47.44578" lon="1.24987"><ele>108</ele></trkpt>
<trkpt lat="47.45004" lon="1.24832"><ele>108</ele></trkpt>
<trkpt lat="47.45037" lon="1.24825"><ele>106</ele></trkpt>
<trkpt lat="47.45059" lon="1.24826"><ele>106</ele></trkpt>
<trkpt lat="47.45084" lon="1.24837"><ele>105</ele></trkpt>
<trkpt lat="47.45116" lon="1.24858"><ele>104</ele></trkpt>
<trkpt lat="47.45311" lon="1.24998"><ele>102</ele></trkpt>
<trkpt lat="47.45347" lon="1.25032"><ele>102</ele></trkpt>
<trkpt lat="47.45372" lon="1.25059"><ele>102</ele></trkpt>
<trkpt lat="47.45542" lon="1.25299"><ele>101</ele></trkpt>
<trkpt lat="47.45571" lon="1.25333"><ele>101</ele></trkpt>
<trkpt lat="47.45690" lon="1.25430"><ele>100</ele></trkpt>
<trkpt lat="47.45715" lon="1.25446"><ele>100</ele></trkpt>
<trkpt lat="47.45745" lon="1.25457"><ele>100</ele></trkpt>
<trkpt lat="47.46040" lon="1.25546"><ele>102</ele></trkpt>
<trkpt lat="47.46052" lon="1.25563"><ele>102</ele></trkpt>
<trkpt lat="47.46160" lon="1.25812"><ele>99</ele></trkpt>
<trkpt lat="47.46183" lon="1.25856"><ele>99</ele></trkpt>
<trkpt lat="47.46220" lon="1.25909"><ele>99</ele></trkpt>
<trkpt lat="47.46262" lon="1.25953"><ele>98</ele></trkpt>
<trkpt lat="47.46451" lon="1.26083"><ele>92</ele></trkpt>
<trkpt lat="47.46464" lon="1.26101"><ele>92</ele></trkpt>
<trkpt lat="47.46476" lon="1.26134"><ele>91</ele></trkpt>
<trkpt lat="47.46486" lon="1.26142"><ele>90</ele></trkpt>
<trkpt lat="47.46502" lon="1.26138"><ele>90</ele></trkpt>
<trkpt lat="47.46528" lon="1.26105"><ele>89</ele></trkpt>
<trkpt lat="47.46541" lon="1.26105"><ele>89</ele></trkpt>
<trkpt lat="47.46552" lon="1.26117"><ele>89</ele></trkpt>
<trkpt lat="47.46571" lon="1.26168"><ele>87</ele></trkpt>
<trkpt lat="47.46586" lon="1.26224"><ele>86</ele></trkpt>
<trkpt lat="47.46629" lon="1.26302"><ele>86</ele></trkpt>
<trkpt lat="47.46615" lon="1.26320"><ele>86</ele></trkpt>
<trkpt lat="47.46611" lon="1.26333"><ele>87</ele></trkpt>
<trkpt lat="47.46612" lon="1.26347"><ele>88</ele></trkpt>
<trkpt lat="47.46698" lon="1.26571"><ele>93</ele></trkpt>
<trkpt lat="47.46769" lon="1.26822"><ele>96</ele></trkpt>
<trkpt lat="47.46771" lon="1.26852"><ele>98</ele></trkpt>
<trkpt lat="47.46765" lon="1.26885"><ele>98</ele></trkpt>
<trkpt lat="47.46757" lon="1.26904"><ele>98</ele></trkpt>
<trkpt lat="47.46719" lon="1.26944"><ele>99</ele></trkpt>
<trkpt lat="47.46715" lon="1.26957"><ele>99</ele></trkpt>
<trkpt lat="47.46716" lon="1.26971"><ele>99</ele></trkpt>
<trkpt lat="47.46726" lon="1.27008"><ele>99</ele></trkpt>
<trkpt lat="47.46737" lon="1.27043"><ele>99</ele></trkpt>
<trkpt lat="47.46797" lon="1.27196"><ele>96</ele></trkpt>
<trkpt lat="47.46843" lon="1.27334"><ele>91</ele></trkpt>
<trkpt lat="47.46850" lon="1.27345"><ele>91</ele></trkpt>
<trkpt lat="47.46855" lon="1.27371"><ele>90</ele></trkpt>
<trkpt lat="47.46931" lon="1.27601"><ele>88</ele></trkpt>
<trkpt lat="47.46945" lon="1.27655"><ele>88</ele></trkpt>
<trkpt lat="47.46954" lon="1.27710"><ele>90</ele></trkpt>
<trkpt lat="47.46962" lon="1.27718"><ele>90</ele></trkpt>
<trkpt lat="47.46977" lon="1.27753"><ele>91</ele></trkpt>
<trkpt lat="47.47041" lon="1.27924"><ele>96</ele></trkpt>
<trkpt lat="47.47041" lon="1.27936"><ele>97</ele></trkpt>
<trkpt lat="47.47240" lon="1.27962"><ele>98</ele></trkpt>
<trkpt lat="47.47335" lon="1.27979"><ele>99</ele></trkpt>
<trkpt lat="47.47453" lon="1.28008"><ele>99</ele></trkpt>
<trkpt lat="47.47565" lon="1.28055"><ele>99</ele></trkpt>
<trkpt lat="47.47599" lon="1.28080"><ele>99</ele></trkpt>
<trkpt lat="47.47672" lon="1.28124"><ele>99</ele></trkpt>
<trkpt lat="47.47718" lon="1.28159"><ele>98</ele></trkpt>
<trkpt lat="47.47855" lon="1.28251"><ele>95</ele></trkpt>
<trkpt lat="47.47887" lon="1.28286"><ele>95</ele></trkpt>
<trkpt lat="47.47918" lon="1.28325"><ele>94</ele></trkpt>
<trkpt lat="47.48150" lon="1.28579"><ele>93</ele></trkpt>
<trkpt lat="47.48245" lon="1.28710"><ele>93</ele></trkpt>
<trkpt lat="47.48386" lon="1.28865"><ele>93</ele></trkpt>
<trkpt lat="47.48593" lon="1.29061"><ele>88</ele></trkpt>
<trkpt lat="47.48719" lon="1.29160"><ele>84</ele></trkpt>
<trkpt lat="47.48778" lon="1.29249"><ele>79</ele></trkpt>
<trkpt lat="47.48790" lon="1.29262"><ele>79</ele></trkpt>
<trkpt lat="47.48837" lon="1.29291"><ele>77</ele></trkpt>
<trkpt lat="47.48861" lon="1.29313"><ele>75</ele></trkpt>
<trkpt lat="47.48874" lon="1.29333"><ele>75</ele></trkpt>
<trkpt lat="47.48898" lon="1.29388"><ele>74</ele></trkpt>
<trkpt lat="47.48965" lon="1.29500"><ele>71</ele></trkpt>
<trkpt lat="47.48968" lon="1.29509"><ele>71</ele></trkpt>
<trkpt lat="47.48969" lon="1.29527"><ele>71</ele></trkpt>
<trkpt lat="47.48985" lon="1.29531"><ele>71</ele></trkpt>
<trkpt lat="47.48988" lon="1.29540"><ele>71</ele></trkpt>
<trkpt lat="47.48987" lon="1.29628"><ele>71</ele></trkpt>
<trkpt lat="47.48993" lon="1.29642"><ele>71</ele></trkpt>
<trkpt lat="47.48966" lon="1.29669"><ele>70</ele></trkpt>
<trkpt lat="47.48955" lon="1.29687"><ele>70</ele></trkpt>
<trkpt lat="47.48946" lon="1.29713"><ele>69</ele></trkpt>
<trkpt lat="47.48942" lon="1.29744"><ele>69</ele></trkpt>
<trkpt lat="47.48942" lon="1.29794"><ele>68</ele></trkpt>
<trkpt lat="47.48931" lon="1.29845"><ele>67</ele></trkpt>
<trkpt lat="47.48912" lon="1.29891"><ele>68</ele></trkpt>
<trkpt lat="47.48984" lon="1.29968"><ele>68</ele></trkpt>
<trkpt lat="47.49050" lon="1.30021"><ele>67</ele></trkpt>
<trkpt lat="47.49059" lon="1.30112"><ele>69</ele></trkpt>
<trkpt lat="47.49083" lon="1.30147"><ele>68</ele></trkpt>
<trkpt lat="47.48995" lon="1.31030"><ele>70</ele></trkpt>
<trkpt lat="47.48985" lon="1.31296"><ele>70</ele></trkpt>
<trkpt lat="47.48992" lon="1.31476"><ele>72</ele></trkpt>
<trkpt lat="47.48997" lon="1.31534"><ele>70</ele></trkpt>
<trkpt lat="47.49037" lon="1.31980"><ele>69</ele></trkpt>
<trkpt lat="47.49054" lon="1.32074"><ele>71</ele></trkpt>
<trkpt lat="47.49071" lon="1.32137"><ele>72</ele></trkpt>
<trkpt lat="47.49095" lon="1.32203"><ele>72</ele></trkpt>
<trkpt lat="47.49145" lon="1.32303"><ele>71</ele></trkpt>
<trkpt lat="47.49956" lon="1.33662"><ele>69</ele></trkpt>
<trkpt lat="47.49961" lon="1.33685"><ele>69</ele></trkpt>
<trkpt lat="47.50022" lon="1.33693"><ele>68</ele></trkpt>
<trkpt lat="47.50031" lon="1.33702"><ele>68</ele></trkpt>
<trkpt lat="47.50075" lon="1.33662"><ele>67</ele></trkpt>
<trkpt lat="47.50130" lon="1.33622"><ele>68</ele></trkpt>
<trkpt lat="47.50143" lon="1.33621"><ele>69</ele></trkpt>
<trkpt lat="47.50154" lon="1.33626"><ele>68</ele></trkpt>
<trkpt lat="47.50185" lon="1.33651"><ele>69</ele></trkpt>
<trkpt lat="47.50205" lon="1.33659"><ele>69</ele></trkpt>
<trkpt lat="47.50215" lon="1.33660"><ele>69</ele></trkpt>
<trkpt lat="47.50232" lon="1.33654"><ele>70</ele></trkpt>
<trkpt lat="47.50304" lon="1.33596"><ele>74</ele></trkpt>
<trkpt lat="47.50422" lon="1.33513"><ele>82</ele></trkpt>
<trkpt lat="47.50442" lon="1.33492"><ele>83</ele></trkpt>
<trkpt lat="47.50472" lon="1.33435"><ele>84</ele></trkpt>
<trkpt lat="47.50501" lon="1.33403"><ele>84</ele></trkpt>
<trkpt lat="47.50566" lon="1.33362"><ele>82</ele></trkpt>
<trkpt lat="47.50619" lon="1.33337"><ele>81</ele></trkpt>
<trkpt lat="47.50651" lon="1.33332"><ele>81</ele></trkpt>
<trkpt lat="47.50720" lon="1.33325"><ele>82</ele></trkpt>
<trkpt lat="47.50960" lon="1.33325"><ele>83</ele></trkpt>
<trkpt lat="47.51120" lon="1.33365"><ele>84</ele></trkpt>
<trkpt lat="47.51192" lon="1.33391"><ele>83</ele></trkpt>
<trkpt lat="47.51216" lon="1.33397"><ele>83</ele></trkpt>
<trkpt lat="47.51505" lon="1.33430"><ele>84</ele></trkpt>
<trkpt lat="47.51576" lon="1.33426"><ele>85</ele></trkpt>
<trkpt lat="47.51806" lon="1.33386"><ele>86</ele></trkpt>
<trkpt lat="47.51891" lon="1.33373"><ele>87</ele></trkpt>
<trkpt lat="47.51914" lon="1.33374"><ele>87</ele></trkpt>
<trkpt lat="47.51954" lon="1.33388"><ele>87</ele></trkpt>
<trkpt lat="47.52016" lon="1.33421"><ele>87</ele></trkpt>
<trkpt lat="47.52140" lon="1.33508"><ele>88</ele></trkpt>
<trkpt lat="47.52250" lon="1.33595"><ele>90</ele></trkpt>
<trkpt lat="47.52295" lon="1.33617"><ele>91</ele></trkpt>
<trkpt lat="47.52442" lon="1.33673"><ele>94</ele></trkpt>
<trkpt lat="47.52488" lon="1.33700"><ele>93</ele></trkpt>
<trkpt lat="47.53061" lon="1.34272"><ele>102</ele></trkpt>
<trkpt lat="47.53083" lon="1.34299"><ele>102</ele></trkpt>
<trkpt lat="47.53345" lon="1.34692"><ele>101</ele></trkpt>
<trkpt lat="47.53420" lon="1.34675"><ele>101</ele></trkpt>
<trkpt lat="47.53862" lon="1.34600"><ele>101</ele></trkpt>
<trkpt lat="47.53925" lon="1.34594"><ele>101</ele></trkpt>
<trkpt lat="47.54666" lon="1.34468"><ele>104</ele></trkpt>
<trkpt lat="47.54670" lon="1.34478"><ele>104</ele></trkpt>
<trkpt lat="47.54677" lon="1.34479"><ele>104</ele></trkpt>
<trkpt lat="47.54682" lon="1.34472"><ele>104</ele></trkpt>
<trkpt lat="47.55037" lon="1.34674"><ele>105</ele></trkpt>
<trkpt lat="47.55801" lon="1.35122"><ele>100</ele></trkpt>
<trkpt lat="47.56378" lon="1.35275"><ele>98</ele></trkpt>
<trkpt lat="47.56378" lon="1.35280"><ele>98</ele></trkpt>
<trkpt lat="47.56383" lon="1.35285"><ele>98</ele></trkpt>
<trkpt lat="47.56387" lon="1.35284"><ele>98</ele></trkpt>
<trkpt lat="47.56389" lon="1.35275"><ele>99</ele></trkpt>
<trkpt lat="47.56440" lon="1.35237"><ele>99</ele></trkpt>
<trkpt lat="47.56499" lon="1.35169"><ele>99</ele></trkpt>
<trkpt lat="47.56547" lon="1.35089"><ele>99</ele></trkpt>
<trkpt lat="47.56596" lon="1.35017"><ele>95</ele></trkpt>
<trkpt lat="47.56684" lon="1.34944"><ele>84</ele></trkpt>
<trkpt lat="47.56693" lon="1.34919"><ele>82</ele></trkpt>
<trkpt lat="47.56675" lon="1.34788"><ele>73</ele></trkpt>
<trkpt lat="47.56675" lon="1.34747"><ele>72</ele></trkpt>
<trkpt lat="47.56679" lon="1.34740"><ele>71</ele></trkpt>
<trkpt lat="47.56678" lon="1.34719"><ele>71</ele></trkpt>
<trkpt lat="47.56690" lon="1.34672"><ele>70</ele></trkpt>
<trkpt lat="47.56711" lon="1.34596"><ele>69</ele></trkpt>
<trkpt lat="47.56734" lon="1.34541"><ele>68</ele></trkpt>
<trkpt lat="47.56755" lon="1.34473"><ele>67</ele></trkpt>
<trkpt lat="47.56819" lon="1.34222"><ele>68</ele></trkpt>
<trkpt lat="47.56876" lon="1.34112"><ele>68</ele></trkpt>
<trkpt lat="47.56878" lon="1.34099"><ele>68</ele></trkpt>
<trkpt lat="47.56874" lon="1.34076"><ele>68</ele></trkpt>
<trkpt lat="47.56913" lon="1.34045"><ele>69</ele></trkpt>
<trkpt lat="47.56968" lon="1.34062"><ele>70</ele></trkpt>
<trkpt lat="47.56950" lon="1.33975"><ele>70</ele></trkpt>
<trkpt lat="47.57021" lon="1.33927"><ele>69</ele></trkpt>
<trkpt lat="47.57058" lon="1.33913"><ele>69</ele></trkpt>
<trkpt lat="47.57079" lon="1.33915"><ele>69</ele></trkpt>
<trkpt lat="47.57196" lon="1.33952"><ele>69</ele></trkpt>
<trkpt lat="47.57205" lon="1.33949"><ele>69</ele></trkpt>
<trkpt lat="47.57205" lon="1.33932"><ele>69</ele></trkpt>
<trkpt lat="47.57209" lon="1.33913"><ele>69</ele></trkpt>
<trkpt lat="47.57232" lon="1.33869"><ele>69</ele></trkpt>
<trkpt lat="47.57272" lon="1.33807"><ele>69</ele></trkpt>
<trkpt lat="47.57292" lon="1.33790"><ele>69</ele></trkpt>
<trkpt lat="47.57643" lon="1.33692"><ele>69</ele></trkpt>
<trkpt lat="47.57716" lon="1.33601"><ele>69</ele></trkpt>
<trkpt lat="47.57731" lon="1.33588"><ele>69</ele></trkpt>
<trkpt lat="47.57756" lon="1.33576"><ele>69</ele></trkpt>
<trkpt lat="47.57774" lon="1.33576"><ele>69</ele></trkpt>
<trkpt lat="47.57791" lon="1.33588"><ele>69</ele></trkpt>
<trkpt lat="47.57805" lon="1.33581"><ele>69</ele></trkpt>
<trkpt lat="47.57869" lon="1.33474"><ele>69</ele></trkpt>
<trkpt lat="47.57901" lon="1.33431"><ele>70</ele></trkpt>
<trkpt lat="47.57915" lon="1.33422"><ele>70</ele></trkpt>
<trkpt lat="47.57965" lon="1.33472"><ele>70</ele></trkpt>
<trkpt lat="47.57971" lon="1.33473"><ele>70</ele></trkpt>
<trkpt lat="47.58041" lon="1.33353"><ele>71</ele></trkpt>
<trkpt lat="47.58093" lon="1.33422"><ele>70</ele></trkpt>
<trkpt lat="47.58097" lon="1.33416"><ele>70</ele></trkpt>
<trkpt lat="47.58045" lon="1.33313"><ele>67</ele></trkpt>
<trkpt lat="47.58031" lon="1.33306"><ele>67</ele></trkpt>
<trkpt lat="47.57912" lon="1.33150"><ele>68</ele></trkpt>
<trkpt lat="47.57891" lon="1.33117"><ele>67</ele></trkpt>
<trkpt lat="47.57837" lon="1.33019"><ele>67</ele></trkpt>
<trkpt lat="47.57794" lon="1.32970"><ele>69</ele></trkpt>
<trkpt lat="47.57762" lon="1.32928"><ele>69</ele></trkpt>
<trkpt lat="47.57682" lon="1.32784"><ele>68</ele></trkpt>
<trkpt lat="47.57654" lon="1.32719"><ele>68</ele></trkpt>
<trkpt lat="47.57626" lon="1.32665"><ele>67</ele></trkpt>
<trkpt lat="47.57589" lon="1.32617"><ele>69</ele></trkpt>
<trkpt lat="47.57537" lon="1.32517"><ele>69</ele></trkpt>
<trkpt lat="47.57506" lon="1.32432"><ele>68</ele></trkpt>
<trkpt lat="47.57456" lon="1.32326"><ele>68</ele></trkpt>
<trkpt lat="47.57436" lon="1.32295"><ele>68</ele></trkpt>
<trkpt lat="47.57420" lon="1.32283"><ele>68</ele></trkpt>
<trkpt lat="47.57423" lon="1.32306"><ele>69</ele></trkpt>
<trkpt lat="47.57458" lon="1.32380"><ele>71</ele></trkpt>
<trkpt lat="47.57464" lon="1.32402"><ele>72</ele></trkpt>
<trkpt lat="47.57476" lon="1.32410"><ele>72</ele></trkpt>
<trkpt lat="47.57480" lon="1.32408"><ele>70</ele></trkpt>
<trkpt lat="47.57791" lon="1.32110"><ele>71</ele></trkpt>
<trkpt lat="47.57882" lon="1.32273"><ele>71</ele></trkpt>
<trkpt lat="47.57887" lon="1.32266"><ele>72</ele></trkpt>
<trkpt lat="47.57894" lon="1.32273"><ele>72</ele></trkpt>
<trkpt lat="47.57897" lon="1.32269"><ele>72</ele></trkpt>
<trkpt lat="47.57913" lon="1.32306"><ele>72</ele></trkpt>
<trkpt lat="47.57928" lon="1.32317"><ele>71</ele></trkpt>
<trkpt lat="47.57996" lon="1.32434"><ele>70</ele></trkpt>
<trkpt lat="47.58178" lon="1.32830"><ele>72</ele></trkpt>
<trkpt lat="47.58211" lon="1.32880"><ele>72</ele></trkpt>
<trkpt lat="47.58274" lon="1.32959"><ele>72</ele></trkpt>
<trkpt lat="47.58343" lon="1.33071"><ele>72</ele></trkpt>
<trkpt lat="47.58374" lon="1.33047"><ele>73</ele></trkpt>
<trkpt lat="47.58384" lon="1.33067"><ele>73</ele></trkpt>
<trkpt lat="47.58407" lon="1.33076"><ele>74</ele></trkpt>
<trkpt lat="47.58431" lon="1.33111"><ele>75</ele></trkpt>
<trkpt lat="47.58447" lon="1.33143"><ele>74</ele></trkpt>
<trkpt lat="47.58452" lon="1.33182"><ele>74</ele></trkpt>
<trkpt lat="47.58467" lon="1.33215"><ele>76</ele></trkpt>
<trkpt lat="47.58457" lon="1.33230"><ele>75</ele></trkpt>
<trkpt lat="47.58477" lon="1.33268"><ele>75</ele></trkpt>
<trkpt lat="47.58519" lon="1.33300"><ele>75</ele></trkpt>
<trkpt lat="47.58549" lon="1.33346"><ele>76</ele></trkpt>
<trkpt lat="47.58576" lon="1.33403"><ele>75</ele></trkpt>
<trkpt lat="47.58595" lon="1.33406"><ele>76</ele></trkpt>
<trkpt lat="47.58667" lon="1.33517"><ele>74</ele></trkpt>
<trkpt lat="47.58619" lon="1.33589"><ele>73</ele></trkpt>
<trkpt lat="47.58616" lon="1.33580"><ele>73</ele></trkpt>
<trkpt lat="47.58609" lon="1.33589"><ele>73</ele></trkpt>
    </trkseg>
  </trk>
</gpx>
