<?xml version="1.0" encoding="UTF-8"?>
<gpx version="1.1" creator="Gravel Kompass" xmlns="http://www.topografix.com/GPX/1/1">
  <metadata><name>Loiretal-Runde: Schlösser &amp; Weinberge – Etappe 3</name></metadata>
  <trk>
    <name>Etappe 3: Chinon – Saumur</name>
    <trkseg>
      <trkpt lat="47.166539" lon="0.240651"><ele>35.5</ele></trkpt>
      <trkpt lat="47.166550" lon="0.240460"><ele>35.8</ele></trkpt>
      <trkpt lat="47.166558" lon="0.240376"><ele>36.2</ele></trkpt>
      <trkpt lat="47.166562" lon="0.240344"><ele>36.2</ele></trkpt>
      <trkpt lat="47.166794" lon="0.240372"><ele>36.8</ele></trkpt>
      <trkpt lat="47.166924" lon="0.240372"><ele>36.8</ele></trkpt>
      <trkpt lat="47.167038" lon="0.240331"><ele>37.2</ele></trkpt>
      <trkpt lat="47.167036" lon="0.240091"><ele>37.2</ele></trkpt>
      <trkpt lat="47.167035" lon="0.240001"><ele>37.2</ele></trkpt>
      <trkpt lat="47.167033" lon="0.239934"><ele>37.0</ele></trkpt>
      <trkpt lat="47.167025" lon="0.239904"><ele>37.0</ele></trkpt>
      <trkpt lat="47.167000" lon="0.239885"><ele>37.0</ele></trkpt>
      <trkpt lat="47.166249" lon="0.239686"><ele>35.0</ele></trkpt>
      <trkpt lat="47.166218" lon="0.239682"><ele>35.0</ele></trkpt>
      <trkpt lat="47.166185" lon="0.239694"><ele>35.0</ele></trkpt>
      <trkpt lat="47.166181" lon="0.239718"><ele>35.0</ele></trkpt>
      <trkpt lat="47.166169" lon="0.239798"><ele>35.0</ele></trkpt>
      <trkpt lat="47.166122" lon="0.239786"><ele>35.0</ele></trkpt>
      <trkpt lat="47.165931" lon="0.239738"><ele>35.0</ele></trkpt>
      <trkpt lat="47.165856" lon="0.239719"><ele>35.0</ele></trkpt>
      <trkpt lat="47.165781" lon="0.239700"><ele>34.0</ele></trkpt>
      <trkpt lat="47.165797" lon="0.239583"><ele>34.2</ele></trkpt>
      <trkpt lat="47.165819" lon="0.239437"><ele>34.5</ele></trkpt>
      <trkpt lat="47.165999" lon="0.238531"><ele>32.2</ele></trkpt>
      <trkpt lat="47.166019" lon="0.238434"><ele>32.5</ele></trkpt>
      <trkpt lat="47.166053" lon="0.238247"><ele>33.5</ele></trkpt>
      <trkpt lat="47.166065" lon="0.238092"><ele>33.8</ele></trkpt>
      <trkpt lat="47.165981" lon="0.238063"><ele>33.5</ele></trkpt>
      <trkpt lat="47.165881" lon="0.238066"><ele>33.2</ele></trkpt>
      <trkpt lat="47.164915" lon="0.238191"><ele>33.5</ele></trkpt>
      <trkpt lat="47.164095" lon="0.238300"><ele>33.5</ele></trkpt>
      <trkpt lat="47.164017" lon="0.238308"><ele>33.8</ele></trkpt>
      <trkpt lat="47.163938" lon="0.238317"><ele>33.8</ele></trkpt>
      <trkpt lat="47.163944" lon="0.238208"><ele>33.8</ele></trkpt>
      <trkpt lat="47.163934" lon="0.238078"><ele>34.0</ele></trkpt>
      <trkpt lat="47.163926" lon="0.237969"><ele>34.0</ele></trkpt>
      <trkpt lat="47.163882" lon="0.237352"><ele>35.8</ele></trkpt>
      <trkpt lat="47.163813" lon="0.236439"><ele>34.5</ele></trkpt>
      <trkpt lat="47.163808" lon="0.236390"><ele>34.5</ele></trkpt>
      <trkpt lat="47.163772" lon="0.235991"><ele>34.5</ele></trkpt>
      <trkpt lat="47.163757" lon="0.235828"><ele>34.2</ele></trkpt>
      <trkpt lat="47.163750" lon="0.235697"><ele>34.5</ele></trkpt>
      <trkpt lat="47.163716" lon="0.235311"><ele>34.8</ele></trkpt>
      <trkpt lat="47.163672" lon="0.234866"><ele>34.5</ele></trkpt>
      <trkpt lat="47.163644" lon="0.234571"><ele>34.8</ele></trkpt>
      <trkpt lat="47.163629" lon="0.234397"><ele>34.8</ele></trkpt>
      <trkpt lat="47.163640" lon="0.234252"><ele>34.8</ele></trkpt>
      <trkpt lat="47.163759" lon="0.233648"><ele>34.2</ele></trkpt>
      <trkpt lat="47.163792" lon="0.233543"><ele>33.8</ele></trkpt>
      <trkpt lat="47.163966" lon="0.232969"><ele>33.8</ele></trkpt>
      <trkpt lat="47.164865" lon="0.230254"><ele>32.2</ele></trkpt>
      <trkpt lat="47.165472" lon="0.228393"><ele>32.2</ele></trkpt>
      <trkpt lat="47.165824" lon="0.227243"><ele>32.0</ele></trkpt>
      <trkpt lat="47.166124" lon="0.226124"><ele>32.0</ele></trkpt>
      <trkpt lat="47.166322" lon="0.225286"><ele>32.0</ele></trkpt>
      <trkpt lat="47.166480" lon="0.224474"><ele>31.5</ele></trkpt>
      <trkpt lat="47.166703" lon="0.222814"><ele>32.8</ele></trkpt>
      <trkpt lat="47.166796" lon="0.221767"><ele>32.2</ele></trkpt>
      <trkpt lat="47.166825" lon="0.220865"><ele>32.2</ele></trkpt>
      <trkpt lat="47.166814" lon="0.220111"><ele>32.2</ele></trkpt>
      <trkpt lat="47.166727" lon="0.219346"><ele>32.8</ele></trkpt>
      <trkpt lat="47.166610" lon="0.218667"><ele>32.2</ele></trkpt>
      <trkpt lat="47.166526" lon="0.218135"><ele>32.0</ele></trkpt>
      <trkpt lat="47.166496" lon="0.217615"><ele>32.0</ele></trkpt>
      <trkpt lat="47.166502" lon="0.216967"><ele>32.0</ele></trkpt>
      <trkpt lat="47.166543" lon="0.215678"><ele>32.0</ele></trkpt>
      <trkpt lat="47.166560" lon="0.214470"><ele>32.2</ele></trkpt>
      <trkpt lat="47.166584" lon="0.213839"><ele>32.2</ele></trkpt>
      <trkpt lat="47.166736" lon="0.212328"><ele>32.2</ele></trkpt>
      <trkpt lat="47.166985" lon="0.210501"><ele>31.5</ele></trkpt>
      <trkpt lat="47.167079" lon="0.209569"><ele>31.8</ele></trkpt>
      <trkpt lat="47.167190" lon="0.209116"><ele>31.2</ele></trkpt>
      <trkpt lat="47.167367" lon="0.208533"><ele>31.8</ele></trkpt>
      <trkpt lat="47.167409" lon="0.208179"><ele>31.0</ele></trkpt>
      <trkpt lat="47.167465" lon="0.207924"><ele>31.5</ele></trkpt>
      <trkpt lat="47.167848" lon="0.206504"><ele>31.2</ele></trkpt>
      <trkpt lat="47.168002" lon="0.206067"><ele>32.0</ele></trkpt>
      <trkpt lat="47.168236" lon="0.205514"><ele>31.2</ele></trkpt>
      <trkpt lat="47.168587" lon="0.204862"><ele>32.0</ele></trkpt>
      <trkpt lat="47.168848" lon="0.204274"><ele>31.5</ele></trkpt>
      <trkpt lat="47.168995" lon="0.203902"><ele>31.0</ele></trkpt>
      <trkpt lat="47.169558" lon="0.202063"><ele>31.2</ele></trkpt>
      <trkpt lat="47.169673" lon="0.201635"><ele>32.0</ele></trkpt>
      <trkpt lat="47.170025" lon="0.200091"><ele>31.5</ele></trkpt>
      <trkpt lat="47.170078" lon="0.199858"><ele>31.5</ele></trkpt>
      <trkpt lat="47.170195" lon="0.199283"><ele>33.5</ele></trkpt>
      <trkpt lat="47.170227" lon="0.199069"><ele>32.8</ele></trkpt>
      <trkpt lat="47.170473" lon="0.198049"><ele>32.0</ele></trkpt>
      <trkpt lat="47.170763" lon="0.196662"><ele>32.0</ele></trkpt>
      <trkpt lat="47.171154" lon="0.194523"><ele>31.2</ele></trkpt>
      <trkpt lat="47.171267" lon="0.193746"><ele>31.5</ele></trkpt>
      <trkpt lat="47.171282" lon="0.193642"><ele>31.5</ele></trkpt>
      <trkpt lat="47.171721" lon="0.191401"><ele>31.5</ele></trkpt>
      <trkpt lat="47.172002" lon="0.190001"><ele>32.0</ele></trkpt>
      <trkpt lat="47.172030" lon="0.188917"><ele>30.0</ele></trkpt>
      <trkpt lat="47.172031" lon="0.188831"><ele>30.2</ele></trkpt>
      <trkpt lat="47.172101" lon="0.188405"><ele>31.8</ele></trkpt>
      <trkpt lat="47.172119" lon="0.188136"><ele>31.5</ele></trkpt>
      <trkpt lat="47.172181" lon="0.186510"><ele>32.0</ele></trkpt>
      <trkpt lat="47.172233" lon="0.185306"><ele>31.8</ele></trkpt>
      <trkpt lat="47.172407" lon="0.180802"><ele>32.0</ele></trkpt>
      <trkpt lat="47.172435" lon="0.179624"><ele>32.0</ele></trkpt>
      <trkpt lat="47.172439" lon="0.179430"><ele>32.0</ele></trkpt>
      <trkpt lat="47.172469" lon="0.178882"><ele>32.0</ele></trkpt>
      <trkpt lat="47.172598" lon="0.176964"><ele>32.0</ele></trkpt>
      <trkpt lat="47.172698" lon="0.176111"><ele>32.0</ele></trkpt>
      <trkpt lat="47.173043" lon="0.173717"><ele>32.0</ele></trkpt>
      <trkpt lat="47.173219" lon="0.172789"><ele>30.8</ele></trkpt>
      <trkpt lat="47.173285" lon="0.172517"><ele>31.8</ele></trkpt>
      <trkpt lat="47.173401" lon="0.171891"><ele>31.0</ele></trkpt>
      <trkpt lat="47.173578" lon="0.171022"><ele>32.0</ele></trkpt>
      <trkpt lat="47.173685" lon="0.170360"><ele>31.2</ele></trkpt>
      <trkpt lat="47.173857" lon="0.169562"><ele>32.0</ele></trkpt>
      <trkpt lat="47.174058" lon="0.168901"><ele>31.8</ele></trkpt>
      <trkpt lat="47.174186" lon="0.168627"><ele>31.8</ele></trkpt>
      <trkpt lat="47.174532" lon="0.168252"><ele>31.0</ele></trkpt>
      <trkpt lat="47.174902" lon="0.167552"><ele>30.5</ele></trkpt>
      <trkpt lat="47.175352" lon="0.166603"><ele>30.8</ele></trkpt>
      <trkpt lat="47.175790" lon="0.165170"><ele>31.2</ele></trkpt>
      <trkpt lat="47.176325" lon="0.162888"><ele>31.5</ele></trkpt>
      <trkpt lat="47.176887" lon="0.161386"><ele>31.0</ele></trkpt>
      <trkpt lat="47.177289" lon="0.160466"><ele>31.0</ele></trkpt>
      <trkpt lat="47.177764" lon="0.159017"><ele>32.0</ele></trkpt>
      <trkpt lat="47.178098" lon="0.157709"><ele>31.8</ele></trkpt>
      <trkpt lat="47.178209" lon="0.157242"><ele>31.2</ele></trkpt>
      <trkpt lat="47.178324" lon="0.156754"><ele>31.5</ele></trkpt>
      <trkpt lat="47.178587" lon="0.155423"><ele>31.5</ele></trkpt>
      <trkpt lat="47.178806" lon="0.154050"><ele>31.2</ele></trkpt>
      <trkpt lat="47.178930" lon="0.152998"><ele>31.5</ele></trkpt>
      <trkpt lat="47.179046" lon="0.151754"><ele>31.0</ele></trkpt>
      <trkpt lat="47.179149" lon="0.150917"><ele>32.0</ele></trkpt>
      <trkpt lat="47.179294" lon="0.150016"><ele>31.5</ele></trkpt>
      <trkpt lat="47.179514" lon="0.149168"><ele>31.5</ele></trkpt>
      <trkpt lat="47.179550" lon="0.148353"><ele>31.5</ele></trkpt>
      <trkpt lat="47.179689" lon="0.147183"><ele>31.0</ele></trkpt>
      <trkpt lat="47.179718" lon="0.146388"><ele>31.0</ele></trkpt>
      <trkpt lat="47.179783" lon="0.145510"><ele>31.2</ele></trkpt>
      <trkpt lat="47.179892" lon="0.144630"><ele>30.5</ele></trkpt>
      <trkpt lat="47.180031" lon="0.142881"><ele>30.8</ele></trkpt>
      <trkpt lat="47.180060" lon="0.142270"><ele>31.2</ele></trkpt>
      <trkpt lat="47.180202" lon="0.140933"><ele>31.0</ele></trkpt>
      <trkpt lat="47.180259" lon="0.140199"><ele>31.0</ele></trkpt>
      <trkpt lat="47.180235" lon="0.139663"><ele>31.0</ele></trkpt>
      <trkpt lat="47.180190" lon="0.139493"><ele>30.8</ele></trkpt>
      <trkpt lat="47.180153" lon="0.139352"><ele>30.2</ele></trkpt>
      <trkpt lat="47.180136" lon="0.139276"><ele>30.0</ele></trkpt>
      <trkpt lat="47.180122" lon="0.139209"><ele>30.0</ele></trkpt>
      <trkpt lat="47.180111" lon="0.139117"><ele>30.2</ele></trkpt>
      <trkpt lat="47.180100" lon="0.138819"><ele>31.0</ele></trkpt>
      <trkpt lat="47.180112" lon="0.138494"><ele>31.2</ele></trkpt>
      <trkpt lat="47.180152" lon="0.137840"><ele>31.0</ele></trkpt>
      <trkpt lat="47.180204" lon="0.137257"><ele>31.0</ele></trkpt>
      <trkpt lat="47.180320" lon="0.136338"><ele>31.0</ele></trkpt>
      <trkpt lat="47.180396" lon="0.135837"><ele>31.0</ele></trkpt>
      <trkpt lat="47.180484" lon="0.135342"><ele>30.8</ele></trkpt>
      <trkpt lat="47.180532" lon="0.134959"><ele>31.0</ele></trkpt>
      <trkpt lat="47.180525" lon="0.134502"><ele>31.0</ele></trkpt>
      <trkpt lat="47.180507" lon="0.134210"><ele>31.0</ele></trkpt>
      <trkpt lat="47.180488" lon="0.133649"><ele>30.0</ele></trkpt>
      <trkpt lat="47.180488" lon="0.132831"><ele>30.8</ele></trkpt>
      <trkpt lat="47.180498" lon="0.132500"><ele>31.0</ele></trkpt>
      <trkpt lat="47.180531" lon="0.132076"><ele>31.0</ele></trkpt>
      <trkpt lat="47.180592" lon="0.131502"><ele>30.8</ele></trkpt>
      <trkpt lat="47.180672" lon="0.130964"><ele>30.0</ele></trkpt>
      <trkpt lat="47.180792" lon="0.130434"><ele>30.5</ele></trkpt>
      <trkpt lat="47.180974" lon="0.129720"><ele>29.8</ele></trkpt>
      <trkpt lat="47.181103" lon="0.129028"><ele>30.5</ele></trkpt>
      <trkpt lat="47.181170" lon="0.128601"><ele>30.5</ele></trkpt>
      <trkpt lat="47.181188" lon="0.128278"><ele>30.2</ele></trkpt>
      <trkpt lat="47.181192" lon="0.128088"><ele>30.0</ele></trkpt>
      <trkpt lat="47.181189" lon="0.127853"><ele>30.5</ele></trkpt>
      <trkpt lat="47.181163" lon="0.127378"><ele>31.0</ele></trkpt>
      <trkpt lat="47.181141" lon="0.126791"><ele>31.0</ele></trkpt>
      <trkpt lat="47.181165" lon="0.126147"><ele>31.0</ele></trkpt>
      <trkpt lat="47.181265" lon="0.125090"><ele>31.0</ele></trkpt>
      <trkpt lat="47.181276" lon="0.124707"><ele>31.0</ele></trkpt>
      <trkpt lat="47.181217" lon="0.124497"><ele>31.0</ele></trkpt>
      <trkpt lat="47.180842" lon="0.123826"><ele>31.0</ele></trkpt>
      <trkpt lat="47.180476" lon="0.123090"><ele>31.0</ele></trkpt>
      <trkpt lat="47.180346" lon="0.122847"><ele>31.0</ele></trkpt>
      <trkpt lat="47.180271" lon="0.122707"><ele>31.5</ele></trkpt>
      <trkpt lat="47.180132" lon="0.122483"><ele>33.5</ele></trkpt>
      <trkpt lat="47.180107" lon="0.122436"><ele>34.0</ele></trkpt>
      <trkpt lat="47.180244" lon="0.122262"><ele>33.2</ele></trkpt>
      <trkpt lat="47.180399" lon="0.122020"><ele>33.2</ele></trkpt>
      <trkpt lat="47.180776" lon="0.121285"><ele>34.0</ele></trkpt>
      <trkpt lat="47.180781" lon="0.121170"><ele>34.8</ele></trkpt>
      <trkpt lat="47.180836" lon="0.121019"><ele>34.8</ele></trkpt>
      <trkpt lat="47.180818" lon="0.120992"><ele>35.5</ele></trkpt>
      <trkpt lat="47.180843" lon="0.120822"><ele>37.0</ele></trkpt>
      <trkpt lat="47.180873" lon="0.120458"><ele>39.8</ele></trkpt>
      <trkpt lat="47.181114" lon="0.119761"><ele>46.0</ele></trkpt>
      <trkpt lat="47.181182" lon="0.119623"><ele>44.5</ele></trkpt>
      <trkpt lat="47.181314" lon="0.119334"><ele>43.8</ele></trkpt>
      <trkpt lat="47.181469" lon="0.118870"><ele>47.0</ele></trkpt>
      <trkpt lat="47.181659" lon="0.118440"><ele>48.2</ele></trkpt>
      <trkpt lat="47.181776" lon="0.118186"><ele>47.8</ele></trkpt>
      <trkpt lat="47.181891" lon="0.117974"><ele>48.2</ele></trkpt>
      <trkpt lat="47.182013" lon="0.117853"><ele>45.5</ele></trkpt>
      <trkpt lat="47.182093" lon="0.117732"><ele>44.8</ele></trkpt>
      <trkpt lat="47.182192" lon="0.117534"><ele>45.8</ele></trkpt>
      <trkpt lat="47.182346" lon="0.117321"><ele>42.8</ele></trkpt>
      <trkpt lat="47.182612" lon="0.117076"><ele>40.0</ele></trkpt>
      <trkpt lat="47.182811" lon="0.116924"><ele>36.8</ele></trkpt>
      <trkpt lat="47.182843" lon="0.116923"><ele>36.2</ele></trkpt>
      <trkpt lat="47.182880" lon="0.116816"><ele>36.8</ele></trkpt>
      <trkpt lat="47.183103" lon="0.116316"><ele>35.0</ele></trkpt>
      <trkpt lat="47.183381" lon="0.115572"><ele>34.2</ele></trkpt>
      <trkpt lat="47.183575" lon="0.115161"><ele>33.2</ele></trkpt>
      <trkpt lat="47.183392" lon="0.114660"><ele>34.0</ele></trkpt>
      <trkpt lat="47.183337" lon="0.114547"><ele>34.0</ele></trkpt>
      <trkpt lat="47.183373" lon="0.114463"><ele>34.0</ele></trkpt>
      <trkpt lat="47.183474" lon="0.113779"><ele>37.5</ele></trkpt>
      <trkpt lat="47.183585" lon="0.113258"><ele>41.5</ele></trkpt>
      <trkpt lat="47.183599" lon="0.113052"><ele>42.0</ele></trkpt>
      <trkpt lat="47.183594" lon="0.112942"><ele>43.8</ele></trkpt>
      <trkpt lat="47.183569" lon="0.112766"><ele>46.2</ele></trkpt>
      <trkpt lat="47.183522" lon="0.112584"><ele>46.5</ele></trkpt>
      <trkpt lat="47.183392" lon="0.112297"><ele>47.0</ele></trkpt>
      <trkpt lat="47.183259" lon="0.112010"><ele>48.0</ele></trkpt>
      <trkpt lat="47.183165" lon="0.111744"><ele>49.8</ele></trkpt>
      <trkpt lat="47.183085" lon="0.111441"><ele>51.8</ele></trkpt>
      <trkpt lat="47.182930" lon="0.110930"><ele>55.2</ele></trkpt>
      <trkpt lat="47.182936" lon="0.110730"><ele>57.2</ele></trkpt>
      <trkpt lat="47.183226" lon="0.110275"><ele>63.0</ele></trkpt>
      <trkpt lat="47.183261" lon="0.110129"><ele>63.5</ele></trkpt>
      <trkpt lat="47.182016" lon="0.107105"><ele>71.2</ele></trkpt>
      <trkpt lat="47.181481" lon="0.105788"><ele>72.2</ele></trkpt>
      <trkpt lat="47.181592" lon="0.105590"><ele>72.8</ele></trkpt>
      <trkpt lat="47.181943" lon="0.104415"><ele>73.8</ele></trkpt>
      <trkpt lat="47.182297" lon="0.103298"><ele>74.5</ele></trkpt>
      <trkpt lat="47.182554" lon="0.102387"><ele>74.8</ele></trkpt>
      <trkpt lat="47.182692" lon="0.101767"><ele>75.0</ele></trkpt>
      <trkpt lat="47.182817" lon="0.101411"><ele>74.8</ele></trkpt>
      <trkpt lat="47.183549" lon="0.100296"><ele>73.0</ele></trkpt>
      <trkpt lat="47.183415" lon="0.100044"><ele>73.2</ele></trkpt>
      <trkpt lat="47.183214" lon="0.099583"><ele>73.0</ele></trkpt>
      <trkpt lat="47.183076" lon="0.099325"><ele>73.2</ele></trkpt>
      <trkpt lat="47.182383" lon="0.098370"><ele>74.2</ele></trkpt>
      <trkpt lat="47.181771" lon="0.097546"><ele>75.0</ele></trkpt>
      <trkpt lat="47.181637" lon="0.097385"><ele>75.0</ele></trkpt>
      <trkpt lat="47.181284" lon="0.097039"><ele>75.0</ele></trkpt>
      <trkpt lat="47.180516" lon="0.096300"><ele>74.0</ele></trkpt>
      <trkpt lat="47.178642" lon="0.095066"><ele>76.8</ele></trkpt>
      <trkpt lat="47.178415" lon="0.094845"><ele>77.2</ele></trkpt>
      <trkpt lat="47.178277" lon="0.094681"><ele>78.0</ele></trkpt>
      <trkpt lat="47.177367" lon="0.093507"><ele>80.0</ele></trkpt>
      <trkpt lat="47.175721" lon="0.091345"><ele>90.0</ele></trkpt>
      <trkpt lat="47.175807" lon="0.090979"><ele>90.0</ele></trkpt>
      <trkpt lat="47.175861" lon="0.090682"><ele>89.2</ele></trkpt>
      <trkpt lat="47.175865" lon="0.090311"><ele>89.0</ele></trkpt>
      <trkpt lat="47.175815" lon="0.089975"><ele>90.0</ele></trkpt>
      <trkpt lat="47.175853" lon="0.089567"><ele>90.0</ele></trkpt>
      <trkpt lat="47.175944" lon="0.088992"><ele>92.0</ele></trkpt>
      <trkpt lat="47.176009" lon="0.088468"><ele>93.2</ele></trkpt>
      <trkpt lat="47.175995" lon="0.087937"><ele>93.0</ele></trkpt>
      <trkpt lat="47.176060" lon="0.087486"><ele>91.8</ele></trkpt>
      <trkpt lat="47.176133" lon="0.087239"><ele>92.0</ele></trkpt>
      <trkpt lat="47.176152" lon="0.087062"><ele>90.8</ele></trkpt>
      <trkpt lat="47.176181" lon="0.086623"><ele>88.5</ele></trkpt>
      <trkpt lat="47.176353" lon="0.085283"><ele>81.0</ele></trkpt>
      <trkpt lat="47.176301" lon="0.084859"><ele>79.2</ele></trkpt>
      <trkpt lat="47.176301" lon="0.083898"><ele>78.8</ele></trkpt>
      <trkpt lat="47.176317" lon="0.083689"><ele>79.5</ele></trkpt>
      <trkpt lat="47.175958" lon="0.082083"><ele>83.5</ele></trkpt>
      <trkpt lat="47.175897" lon="0.081858"><ele>84.0</ele></trkpt>
      <trkpt lat="47.175852" lon="0.081727"><ele>84.0</ele></trkpt>
      <trkpt lat="47.175710" lon="0.081314"><ele>85.8</ele></trkpt>
      <trkpt lat="47.175642" lon="0.080904"><ele>87.0</ele></trkpt>
      <trkpt lat="47.175695" lon="0.079601"><ele>92.2</ele></trkpt>
      <trkpt lat="47.175731" lon="0.079108"><ele>94.0</ele></trkpt>
      <trkpt lat="47.175821" lon="0.078263"><ele>98.0</ele></trkpt>
      <trkpt lat="47.175837" lon="0.077994"><ele>99.0</ele></trkpt>
      <trkpt lat="47.175711" lon="0.076872"><ele>104.0</ele></trkpt>
      <trkpt lat="47.175761" lon="0.076116"><ele>106.0</ele></trkpt>
      <trkpt lat="47.175825" lon="0.074616"><ele>109.0</ele></trkpt>
      <trkpt lat="47.175907" lon="0.073074"><ele>107.0</ele></trkpt>
      <trkpt lat="47.175945" lon="0.072224"><ele>106.0</ele></trkpt>
      <trkpt lat="47.175940" lon="0.071478"><ele>104.5</ele></trkpt>
      <trkpt lat="47.175883" lon="0.071119"><ele>103.8</ele></trkpt>
      <trkpt lat="47.175840" lon="0.070958"><ele>102.8</ele></trkpt>
      <trkpt lat="47.175661" lon="0.070518"><ele>101.2</ele></trkpt>
      <trkpt lat="47.175480" lon="0.070011"><ele>99.2</ele></trkpt>
      <trkpt lat="47.175329" lon="0.069469"><ele>98.5</ele></trkpt>
      <trkpt lat="47.175285" lon="0.068997"><ele>98.2</ele></trkpt>
      <trkpt lat="47.175336" lon="0.068595"><ele>96.8</ele></trkpt>
      <trkpt lat="47.175358" lon="0.068091"><ele>94.0</ele></trkpt>
      <trkpt lat="47.175398" lon="0.067527"><ele>89.8</ele></trkpt>
      <trkpt lat="47.175599" lon="0.066197"><ele>87.2</ele></trkpt>
      <trkpt lat="47.175734" lon="0.064985"><ele>83.8</ele></trkpt>
      <trkpt lat="47.175872" lon="0.063992"><ele>84.0</ele></trkpt>
      <trkpt lat="47.175992" lon="0.063294"><ele>80.2</ele></trkpt>
      <trkpt lat="47.176093" lon="0.062830"><ele>79.0</ele></trkpt>
      <trkpt lat="47.176057" lon="0.062573"><ele>79.0</ele></trkpt>
      <trkpt lat="47.176113" lon="0.062061"><ele>78.8</ele></trkpt>
      <trkpt lat="47.176213" lon="0.061732"><ele>78.5</ele></trkpt>
      <trkpt lat="47.176236" lon="0.061656"><ele>78.5</ele></trkpt>
      <trkpt lat="47.176502" lon="0.061151"><ele>80.2</ele></trkpt>
      <trkpt lat="47.177292" lon="0.058767"><ele>84.2</ele></trkpt>
      <trkpt lat="47.177529" lon="0.058089"><ele>84.8</ele></trkpt>
      <trkpt lat="47.177673" lon="0.057553"><ele>85.2</ele></trkpt>
      <trkpt lat="47.177854" lon="0.056343"><ele>84.5</ele></trkpt>
      <trkpt lat="47.177903" lon="0.055520"><ele>81.8</ele></trkpt>
      <trkpt lat="47.177911" lon="0.055276"><ele>80.8</ele></trkpt>
      <trkpt lat="47.177901" lon="0.055253"><ele>80.8</ele></trkpt>
      <trkpt lat="47.178000" lon="0.054789"><ele>79.5</ele></trkpt>
      <trkpt lat="47.178058" lon="0.054616"><ele>78.8</ele></trkpt>
      <trkpt lat="47.178407" lon="0.053597"><ele>76.5</ele></trkpt>
      <trkpt lat="47.178542" lon="0.053265"><ele>74.5</ele></trkpt>
      <trkpt lat="47.178973" lon="0.052337"><ele>66.5</ele></trkpt>
      <trkpt lat="47.179049" lon="0.052091"><ele>65.2</ele></trkpt>
      <trkpt lat="47.179089" lon="0.051898"><ele>65.5</ele></trkpt>
      <trkpt lat="47.179103" lon="0.051792"><ele>65.2</ele></trkpt>
      <trkpt lat="47.179093" lon="0.051750"><ele>65.0</ele></trkpt>
      <trkpt lat="47.179222" lon="0.051618"><ele>65.2</ele></trkpt>
      <trkpt lat="47.179285" lon="0.051570"><ele>65.2</ele></trkpt>
      <trkpt lat="47.179643" lon="0.051361"><ele>65.5</ele></trkpt>
      <trkpt lat="47.179725" lon="0.051309"><ele>65.5</ele></trkpt>
      <trkpt lat="47.179781" lon="0.051262"><ele>66.0</ele></trkpt>
      <trkpt lat="47.179852" lon="0.051183"><ele>66.5</ele></trkpt>
      <trkpt lat="47.180135" lon="0.050812"><ele>70.0</ele></trkpt>
      <trkpt lat="47.180218" lon="0.050718"><ele>71.2</ele></trkpt>
      <trkpt lat="47.180328" lon="0.050606"><ele>72.0</ele></trkpt>
      <trkpt lat="47.180513" lon="0.050442"><ele>74.5</ele></trkpt>
      <trkpt lat="47.180597" lon="0.050379"><ele>75.5</ele></trkpt>
      <trkpt lat="47.180694" lon="0.050322"><ele>75.8</ele></trkpt>
      <trkpt lat="47.180844" lon="0.050247"><ele>75.5</ele></trkpt>
      <trkpt lat="47.181267" lon="0.050059"><ele>78.5</ele></trkpt>
      <trkpt lat="47.181306" lon="0.050040"><ele>78.5</ele></trkpt>
      <trkpt lat="47.181640" lon="0.049922"><ele>79.2</ele></trkpt>
      <trkpt lat="47.181716" lon="0.049946"><ele>79.0</ele></trkpt>
      <trkpt lat="47.181837" lon="0.050040"><ele>78.8</ele></trkpt>
      <trkpt lat="47.181863" lon="0.050072"><ele>78.8</ele></trkpt>
      <trkpt lat="47.182070" lon="0.050345"><ele>77.5</ele></trkpt>
      <trkpt lat="47.182047" lon="0.050686"><ele>77.0</ele></trkpt>
      <trkpt lat="47.182039" lon="0.051046"><ele>76.0</ele></trkpt>
      <trkpt lat="47.182036" lon="0.051762"><ele>69.8</ele></trkpt>
      <trkpt lat="47.182019" lon="0.051834"><ele>69.0</ele></trkpt>
      <trkpt lat="47.181946" lon="0.051972"><ele>68.5</ele></trkpt>
      <trkpt lat="47.181925" lon="0.052029"><ele>68.0</ele></trkpt>
      <trkpt lat="47.181795" lon="0.052566"><ele>65.0</ele></trkpt>
      <trkpt lat="47.181789" lon="0.052609"><ele>64.8</ele></trkpt>
      <trkpt lat="47.181792" lon="0.052633"><ele>64.5</ele></trkpt>
      <trkpt lat="47.181777" lon="0.052715"><ele>64.0</ele></trkpt>
      <trkpt lat="47.181650" lon="0.053230"><ele>63.0</ele></trkpt>
      <trkpt lat="47.181633" lon="0.053270"><ele>63.0</ele></trkpt>
      <trkpt lat="47.181552" lon="0.053360"><ele>62.8</ele></trkpt>
      <trkpt lat="47.181460" lon="0.053443"><ele>62.5</ele></trkpt>
      <trkpt lat="47.181405" lon="0.053403"><ele>62.5</ele></trkpt>
      <trkpt lat="47.181377" lon="0.053387"><ele>64.2</ele></trkpt>
      <trkpt lat="47.181405" lon="0.053403"><ele>62.5</ele></trkpt>
      <trkpt lat="47.181460" lon="0.053443"><ele>62.5</ele></trkpt>
      <trkpt lat="47.181552" lon="0.053360"><ele>62.8</ele></trkpt>
      <trkpt lat="47.181633" lon="0.053270"><ele>63.0</ele></trkpt>
      <trkpt lat="47.181650" lon="0.053230"><ele>63.0</ele></trkpt>
      <trkpt lat="47.181777" lon="0.052715"><ele>64.0</ele></trkpt>
      <trkpt lat="47.181792" lon="0.052633"><ele>64.5</ele></trkpt>
      <trkpt lat="47.181789" lon="0.052609"><ele>64.8</ele></trkpt>
      <trkpt lat="47.181795" lon="0.052566"><ele>65.0</ele></trkpt>
      <trkpt lat="47.181925" lon="0.052029"><ele>68.0</ele></trkpt>
      <trkpt lat="47.181946" lon="0.051972"><ele>68.5</ele></trkpt>
      <trkpt lat="47.182019" lon="0.051834"><ele>69.0</ele></trkpt>
      <trkpt lat="47.182036" lon="0.051762"><ele>69.8</ele></trkpt>
      <trkpt lat="47.182039" lon="0.051046"><ele>76.0</ele></trkpt>
      <trkpt lat="47.182047" lon="0.050686"><ele>77.0</ele></trkpt>
      <trkpt lat="47.182070" lon="0.050345"><ele>77.5</ele></trkpt>
      <trkpt lat="47.181863" lon="0.050072"><ele>78.8</ele></trkpt>
      <trkpt lat="47.181837" lon="0.050040"><ele>78.8</ele></trkpt>
      <trkpt lat="47.181858" lon="0.049856"><ele>79.5</ele></trkpt>
      <trkpt lat="47.181849" lon="0.049789"><ele>79.8</ele></trkpt>
      <trkpt lat="47.181870" lon="0.049619"><ele>80.0</ele></trkpt>
      <trkpt lat="47.181875" lon="0.049443"><ele>80.2</ele></trkpt>
      <trkpt lat="47.181869" lon="0.049342"><ele>80.5</ele></trkpt>
      <trkpt lat="47.181786" lon="0.048480"><ele>81.5</ele></trkpt>
      <trkpt lat="47.181777" lon="0.048396"><ele>81.8</ele></trkpt>
      <trkpt lat="47.181764" lon="0.048251"><ele>81.8</ele></trkpt>
      <trkpt lat="47.181720" lon="0.047798"><ele>82.0</ele></trkpt>
      <trkpt lat="47.181689" lon="0.047425"><ele>82.2</ele></trkpt>
      <trkpt lat="47.181678" lon="0.046862"><ele>82.8</ele></trkpt>
      <trkpt lat="47.181751" lon="0.046784"><ele>82.8</ele></trkpt>
      <trkpt lat="47.181804" lon="0.046631"><ele>82.5</ele></trkpt>
      <trkpt lat="47.181812" lon="0.046581"><ele>82.5</ele></trkpt>
      <trkpt lat="47.181849" lon="0.046571"><ele>82.2</ele></trkpt>
      <trkpt lat="47.181918" lon="0.046563"><ele>82.0</ele></trkpt>
      <trkpt lat="47.182199" lon="0.046614"><ele>81.2</ele></trkpt>
      <trkpt lat="47.182536" lon="0.046649"><ele>78.5</ele></trkpt>
      <trkpt lat="47.183147" lon="0.046653"><ele>73.2</ele></trkpt>
      <trkpt lat="47.183404" lon="0.046683"><ele>71.5</ele></trkpt>
      <trkpt lat="47.184015" lon="0.046737"><ele>70.0</ele></trkpt>
      <trkpt lat="47.184666" lon="0.046763"><ele>66.0</ele></trkpt>
      <trkpt lat="47.184819" lon="0.046770"><ele>65.0</ele></trkpt>
      <trkpt lat="47.185270" lon="0.046762"><ele>62.2</ele></trkpt>
      <trkpt lat="47.185371" lon="0.046771"><ele>62.0</ele></trkpt>
      <trkpt lat="47.185405" lon="0.046657"><ele>62.0</ele></trkpt>
      <trkpt lat="47.185494" lon="0.046365"><ele>63.0</ele></trkpt>
      <trkpt lat="47.185577" lon="0.046136"><ele>62.8</ele></trkpt>
      <trkpt lat="47.185638" lon="0.046006"><ele>62.5</ele></trkpt>
      <trkpt lat="47.185717" lon="0.045861"><ele>62.5</ele></trkpt>
      <trkpt lat="47.185837" lon="0.045683"><ele>63.5</ele></trkpt>
      <trkpt lat="47.186012" lon="0.045545"><ele>65.5</ele></trkpt>
      <trkpt lat="47.186349" lon="0.045322"><ele>66.0</ele></trkpt>
      <trkpt lat="47.186476" lon="0.045276"><ele>66.0</ele></trkpt>
      <trkpt lat="47.186519" lon="0.045246"><ele>66.0</ele></trkpt>
      <trkpt lat="47.186554" lon="0.045200"><ele>66.0</ele></trkpt>
      <trkpt lat="47.186631" lon="0.045101"><ele>66.0</ele></trkpt>
      <trkpt lat="47.186708" lon="0.045108"><ele>65.8</ele></trkpt>
      <trkpt lat="47.186819" lon="0.045082"><ele>66.0</ele></trkpt>
      <trkpt lat="47.187281" lon="0.044825"><ele>68.0</ele></trkpt>
      <trkpt lat="47.187674" lon="0.044691"><ele>67.2</ele></trkpt>
      <trkpt lat="47.188261" lon="0.044401"><ele>65.5</ele></trkpt>
      <trkpt lat="47.188568" lon="0.044280"><ele>63.2</ele></trkpt>
      <trkpt lat="47.188703" lon="0.044233"><ele>61.5</ele></trkpt>
      <trkpt lat="47.188820" lon="0.044313"><ele>60.0</ele></trkpt>
      <trkpt lat="47.188874" lon="0.044285"><ele>59.0</ele></trkpt>
      <trkpt lat="47.188899" lon="0.044215"><ele>58.2</ele></trkpt>
      <trkpt lat="47.188955" lon="0.044102"><ele>57.5</ele></trkpt>
      <trkpt lat="47.189151" lon="0.043831"><ele>56.2</ele></trkpt>
      <trkpt lat="47.189491" lon="0.044347"><ele>56.0</ele></trkpt>
      <trkpt lat="47.189669" lon="0.044696"><ele>55.2</ele></trkpt>
      <trkpt lat="47.189833" lon="0.044942"><ele>54.5</ele></trkpt>
      <trkpt lat="47.189926" lon="0.045053"><ele>54.0</ele></trkpt>
      <trkpt lat="47.190186" lon="0.045484"><ele>52.5</ele></trkpt>
      <trkpt lat="47.190442" lon="0.045182"><ele>54.0</ele></trkpt>
      <trkpt lat="47.190982" lon="0.046098"><ele>52.5</ele></trkpt>
      <trkpt lat="47.191054" lon="0.046194"><ele>52.5</ele></trkpt>
      <trkpt lat="47.191046" lon="0.045902"><ele>55.8</ele></trkpt>
      <trkpt lat="47.191068" lon="0.045850"><ele>56.8</ele></trkpt>
      <trkpt lat="47.191487" lon="0.045576"><ele>62.8</ele></trkpt>
      <trkpt lat="47.191539" lon="0.045478"><ele>63.2</ele></trkpt>
      <trkpt lat="47.191622" lon="0.045537"><ele>63.0</ele></trkpt>
      <trkpt lat="47.191841" lon="0.045609"><ele>63.8</ele></trkpt>
      <trkpt lat="47.192278" lon="0.045655"><ele>65.5</ele></trkpt>
      <trkpt lat="47.192321" lon="0.045540"><ele>66.8</ele></trkpt>
      <trkpt lat="47.192798" lon="0.044627"><ele>74.5</ele></trkpt>
      <trkpt lat="47.193102" lon="0.043956"><ele>78.8</ele></trkpt>
      <trkpt lat="47.193359" lon="0.043436"><ele>80.5</ele></trkpt>
      <trkpt lat="47.193478" lon="0.043097"><ele>80.8</ele></trkpt>
      <trkpt lat="47.194383" lon="0.040782"><ele>67.8</ele></trkpt>
      <trkpt lat="47.194406" lon="0.040697"><ele>67.0</ele></trkpt>
      <trkpt lat="47.194411" lon="0.040612"><ele>66.5</ele></trkpt>
      <trkpt lat="47.194400" lon="0.040526"><ele>65.8</ele></trkpt>
      <trkpt lat="47.193945" lon="0.039557"><ele>64.8</ele></trkpt>
      <trkpt lat="47.193953" lon="0.039421"><ele>64.0</ele></trkpt>
      <trkpt lat="47.194056" lon="0.039180"><ele>62.0</ele></trkpt>
      <trkpt lat="47.194076" lon="0.039081"><ele>61.8</ele></trkpt>
      <trkpt lat="47.194637" lon="0.039307"><ele>57.2</ele></trkpt>
      <trkpt lat="47.194708" lon="0.039298"><ele>57.0</ele></trkpt>
      <trkpt lat="47.194815" lon="0.039288"><ele>58.0</ele></trkpt>
      <trkpt lat="47.194855" lon="0.039267"><ele>58.2</ele></trkpt>
      <trkpt lat="47.194891" lon="0.039205"><ele>58.8</ele></trkpt>
      <trkpt lat="47.195000" lon="0.038874"><ele>60.8</ele></trkpt>
      <trkpt lat="47.195098" lon="0.038439"><ele>62.5</ele></trkpt>
      <trkpt lat="47.195168" lon="0.038081"><ele>65.0</ele></trkpt>
      <trkpt lat="47.195196" lon="0.037987"><ele>65.5</ele></trkpt>
      <trkpt lat="47.195242" lon="0.037882"><ele>66.5</ele></trkpt>
      <trkpt lat="47.195301" lon="0.037835"><ele>67.5</ele></trkpt>
      <trkpt lat="47.195400" lon="0.037804"><ele>68.8</ele></trkpt>
      <trkpt lat="47.196178" lon="0.037823"><ele>75.0</ele></trkpt>
      <trkpt lat="47.196848" lon="0.037908"><ele>77.0</ele></trkpt>
      <trkpt lat="47.197145" lon="0.038007"><ele>77.8</ele></trkpt>
      <trkpt lat="47.197187" lon="0.038092"><ele>77.8</ele></trkpt>
      <trkpt lat="47.197019" lon="0.038334"><ele>77.5</ele></trkpt>
      <trkpt lat="47.196847" lon="0.038648"><ele>75.5</ele></trkpt>
      <trkpt lat="47.196773" lon="0.038879"><ele>74.8</ele></trkpt>
      <trkpt lat="47.196715" lon="0.039271"><ele>73.2</ele></trkpt>
      <trkpt lat="47.196712" lon="0.039650"><ele>72.5</ele></trkpt>
      <trkpt lat="47.196773" lon="0.040113"><ele>72.2</ele></trkpt>
      <trkpt lat="47.196892" lon="0.040637"><ele>72.0</ele></trkpt>
      <trkpt lat="47.197069" lon="0.041165"><ele>71.0</ele></trkpt>
      <trkpt lat="47.197256" lon="0.041524"><ele>70.2</ele></trkpt>
      <trkpt lat="47.197588" lon="0.042000"><ele>70.0</ele></trkpt>
      <trkpt lat="47.198727" lon="0.043123"><ele>66.8</ele></trkpt>
      <trkpt lat="47.198802" lon="0.043206"><ele>66.5</ele></trkpt>
      <trkpt lat="47.199666" lon="0.044094"><ele>66.8</ele></trkpt>
      <trkpt lat="47.200896" lon="0.045878"><ele>59.2</ele></trkpt>
      <trkpt lat="47.201097" lon="0.046083"><ele>58.0</ele></trkpt>
      <trkpt lat="47.201484" lon="0.046567"><ele>54.5</ele></trkpt>
      <trkpt lat="47.203251" lon="0.042705"><ele>69.8</ele></trkpt>
      <trkpt lat="47.203521" lon="0.042193"><ele>67.8</ele></trkpt>
      <trkpt lat="47.203701" lon="0.041891"><ele>65.2</ele></trkpt>
      <trkpt lat="47.203782" lon="0.041790"><ele>64.2</ele></trkpt>
      <trkpt lat="47.203831" lon="0.041877"><ele>64.0</ele></trkpt>
      <trkpt lat="47.203902" lon="0.041966"><ele>64.0</ele></trkpt>
      <trkpt lat="47.204107" lon="0.042162"><ele>64.5</ele></trkpt>
      <trkpt lat="47.204488" lon="0.042414"><ele>64.8</ele></trkpt>
      <trkpt lat="47.205200" lon="0.042905"><ele>65.5</ele></trkpt>
      <trkpt lat="47.206236" lon="0.043692"><ele>64.5</ele></trkpt>
      <trkpt lat="47.206980" lon="0.044172"><ele>63.5</ele></trkpt>
      <trkpt lat="47.207566" lon="0.044635"><ele>61.8</ele></trkpt>
      <trkpt lat="47.207716" lon="0.044800"><ele>61.5</ele></trkpt>
      <trkpt lat="47.207818" lon="0.044931"><ele>61.2</ele></trkpt>
      <trkpt lat="47.207897" lon="0.045049"><ele>61.0</ele></trkpt>
      <trkpt lat="47.208176" lon="0.045643"><ele>61.2</ele></trkpt>
      <trkpt lat="47.208326" lon="0.045942"><ele>61.2</ele></trkpt>
      <trkpt lat="47.208512" lon="0.046205"><ele>60.8</ele></trkpt>
      <trkpt lat="47.208691" lon="0.046402"><ele>61.0</ele></trkpt>
      <trkpt lat="47.209027" lon="0.046719"><ele>60.2</ele></trkpt>
      <trkpt lat="47.209699" lon="0.047334"><ele>58.0</ele></trkpt>
      <trkpt lat="47.209884" lon="0.047534"><ele>57.2</ele></trkpt>
      <trkpt lat="47.210133" lon="0.047837"><ele>56.2</ele></trkpt>
      <trkpt lat="47.210322" lon="0.048014"><ele>54.8</ele></trkpt>
      <trkpt lat="47.210652" lon="0.048273"><ele>52.0</ele></trkpt>
      <trkpt lat="47.210883" lon="0.048433"><ele>49.8</ele></trkpt>
      <trkpt lat="47.211176" lon="0.048615"><ele>46.0</ele></trkpt>
      <trkpt lat="47.211355" lon="0.048752"><ele>44.2</ele></trkpt>
      <trkpt lat="47.211512" lon="0.048893"><ele>43.0</ele></trkpt>
      <trkpt lat="47.211725" lon="0.049196"><ele>41.5</ele></trkpt>
      <trkpt lat="47.212171" lon="0.049854"><ele>37.5</ele></trkpt>
      <trkpt lat="47.212369" lon="0.050018"><ele>36.8</ele></trkpt>
      <trkpt lat="47.212700" lon="0.050275"><ele>35.5</ele></trkpt>
      <trkpt lat="47.212806" lon="0.050383"><ele>35.2</ele></trkpt>
      <trkpt lat="47.212917" lon="0.050572"><ele>35.2</ele></trkpt>
      <trkpt lat="47.213038" lon="0.050813"><ele>35.0</ele></trkpt>
      <trkpt lat="47.213262" lon="0.051162"><ele>34.0</ele></trkpt>
      <trkpt lat="47.213471" lon="0.051372"><ele>34.5</ele></trkpt>
      <trkpt lat="47.213550" lon="0.051426"><ele>34.8</ele></trkpt>
      <trkpt lat="47.214053" lon="0.051929"><ele>35.2</ele></trkpt>
      <trkpt lat="47.214349" lon="0.052171"><ele>34.5</ele></trkpt>
      <trkpt lat="47.214625" lon="0.052410"><ele>35.0</ele></trkpt>
      <trkpt lat="47.214326" lon="0.052887"><ele>32.8</ele></trkpt>
      <trkpt lat="47.214052" lon="0.053304"><ele>31.5</ele></trkpt>
      <trkpt lat="47.213774" lon="0.053733"><ele>34.8</ele></trkpt>
      <trkpt lat="47.213754" lon="0.053763"><ele>35.0</ele></trkpt>
      <trkpt lat="47.213706" lon="0.053869"><ele>36.0</ele></trkpt>
      <trkpt lat="47.213689" lon="0.053858"><ele>36.0</ele></trkpt>
      <trkpt lat="47.213652" lon="0.053859"><ele>36.2</ele></trkpt>
      <trkpt lat="47.213635" lon="0.053872"><ele>36.5</ele></trkpt>
      <trkpt lat="47.213613" lon="0.053915"><ele>37.2</ele></trkpt>
      <trkpt lat="47.213479" lon="0.053849"><ele>37.8</ele></trkpt>
      <trkpt lat="47.213186" lon="0.053613"><ele>37.5</ele></trkpt>
      <trkpt lat="47.213074" lon="0.053526"><ele>37.5</ele></trkpt>
      <trkpt lat="47.212405" lon="0.053003"><ele>39.5</ele></trkpt>
      <trkpt lat="47.212393" lon="0.053049"><ele>40.2</ele></trkpt>
      <trkpt lat="47.212339" lon="0.053324"><ele>43.2</ele></trkpt>
      <trkpt lat="47.212306" lon="0.053589"><ele>45.5</ele></trkpt>
      <trkpt lat="47.212290" lon="0.054092"><ele>49.0</ele></trkpt>
      <trkpt lat="47.212220" lon="0.054887"><ele>56.0</ele></trkpt>
      <trkpt lat="47.212229" lon="0.055073"><ele>57.8</ele></trkpt>
      <trkpt lat="47.212253" lon="0.055146"><ele>58.5</ele></trkpt>
      <trkpt lat="47.212288" lon="0.055201"><ele>59.0</ele></trkpt>
      <trkpt lat="47.212331" lon="0.055247"><ele>59.5</ele></trkpt>
      <trkpt lat="47.212389" lon="0.055281"><ele>60.0</ele></trkpt>
      <trkpt lat="47.212753" lon="0.055381"><ele>60.8</ele></trkpt>
      <trkpt lat="47.212873" lon="0.055430"><ele>60.0</ele></trkpt>
      <trkpt lat="47.212969" lon="0.055494"><ele>59.8</ele></trkpt>
      <trkpt lat="47.213075" lon="0.055598"><ele>60.0</ele></trkpt>
      <trkpt lat="47.213154" lon="0.055703"><ele>60.0</ele></trkpt>
      <trkpt lat="47.213307" lon="0.055945"><ele>60.5</ele></trkpt>
      <trkpt lat="47.213336" lon="0.055919"><ele>60.2</ele></trkpt>
      <trkpt lat="47.213466" lon="0.055859"><ele>58.5</ele></trkpt>
      <trkpt lat="47.213495" lon="0.055867"><ele>58.5</ele></trkpt>
      <trkpt lat="47.213840" lon="0.056110"><ele>57.5</ele></trkpt>
      <trkpt lat="47.213986" lon="0.056224"><ele>56.5</ele></trkpt>
      <trkpt lat="47.214137" lon="0.056397"><ele>57.2</ele></trkpt>
      <trkpt lat="47.214323" lon="0.056650"><ele>57.0</ele></trkpt>
      <trkpt lat="47.214372" lon="0.056733"><ele>56.8</ele></trkpt>
      <trkpt lat="47.214323" lon="0.056650"><ele>57.0</ele></trkpt>
      <trkpt lat="47.214137" lon="0.056397"><ele>57.2</ele></trkpt>
      <trkpt lat="47.213986" lon="0.056224"><ele>56.5</ele></trkpt>
      <trkpt lat="47.213840" lon="0.056110"><ele>57.5</ele></trkpt>
      <trkpt lat="47.213495" lon="0.055867"><ele>58.5</ele></trkpt>
      <trkpt lat="47.213466" lon="0.055859"><ele>58.5</ele></trkpt>
      <trkpt lat="47.213336" lon="0.055919"><ele>60.2</ele></trkpt>
      <trkpt lat="47.213307" lon="0.055945"><ele>60.5</ele></trkpt>
      <trkpt lat="47.213154" lon="0.055703"><ele>60.0</ele></trkpt>
      <trkpt lat="47.213075" lon="0.055598"><ele>60.0</ele></trkpt>
      <trkpt lat="47.212969" lon="0.055494"><ele>59.8</ele></trkpt>
      <trkpt lat="47.212873" lon="0.055430"><ele>60.0</ele></trkpt>
      <trkpt lat="47.212753" lon="0.055381"><ele>60.8</ele></trkpt>
      <trkpt lat="47.212389" lon="0.055281"><ele>60.0</ele></trkpt>
      <trkpt lat="47.212331" lon="0.055247"><ele>59.5</ele></trkpt>
      <trkpt lat="47.212288" lon="0.055201"><ele>59.0</ele></trkpt>
      <trkpt lat="47.212253" lon="0.055146"><ele>58.5</ele></trkpt>
      <trkpt lat="47.212229" lon="0.055073"><ele>57.8</ele></trkpt>
      <trkpt lat="47.212220" lon="0.054887"><ele>56.0</ele></trkpt>
      <trkpt lat="47.212290" lon="0.054092"><ele>49.0</ele></trkpt>
      <trkpt lat="47.212306" lon="0.053589"><ele>45.5</ele></trkpt>
      <trkpt lat="47.212339" lon="0.053324"><ele>43.2</ele></trkpt>
      <trkpt lat="47.212393" lon="0.053049"><ele>40.2</ele></trkpt>
      <trkpt lat="47.212405" lon="0.053003"><ele>39.5</ele></trkpt>
      <trkpt lat="47.213074" lon="0.053526"><ele>37.5</ele></trkpt>
      <trkpt lat="47.213186" lon="0.053613"><ele>37.5</ele></trkpt>
      <trkpt lat="47.213479" lon="0.053849"><ele>37.8</ele></trkpt>
      <trkpt lat="47.213613" lon="0.053915"><ele>37.2</ele></trkpt>
      <trkpt lat="47.213611" lon="0.053972"><ele>38.0</ele></trkpt>
      <trkpt lat="47.213619" lon="0.053999"><ele>38.2</ele></trkpt>
      <trkpt lat="47.213632" lon="0.054021"><ele>38.5</ele></trkpt>
      <trkpt lat="47.213668" lon="0.054042"><ele>38.2</ele></trkpt>
      <trkpt lat="47.213688" lon="0.054039"><ele>38.0</ele></trkpt>
      <trkpt lat="47.213721" lon="0.054008"><ele>37.2</ele></trkpt>
      <trkpt lat="47.213732" lon="0.053980"><ele>37.0</ele></trkpt>
      <trkpt lat="47.213736" lon="0.053949"><ele>36.5</ele></trkpt>
      <trkpt lat="47.213722" lon="0.053890"><ele>36.0</ele></trkpt>
      <trkpt lat="47.213706" lon="0.053869"><ele>36.0</ele></trkpt>
      <trkpt lat="47.213754" lon="0.053763"><ele>35.0</ele></trkpt>
      <trkpt lat="47.213774" lon="0.053733"><ele>34.8</ele></trkpt>
      <trkpt lat="47.214052" lon="0.053304"><ele>31.5</ele></trkpt>
      <trkpt lat="47.214326" lon="0.052887"><ele>32.8</ele></trkpt>
      <trkpt lat="47.214625" lon="0.052410"><ele>35.0</ele></trkpt>
      <trkpt lat="47.214819" lon="0.052589"><ele>35.5</ele></trkpt>
      <trkpt lat="47.215327" lon="0.053083"><ele>35.2</ele></trkpt>
      <trkpt lat="47.215485" lon="0.053211"><ele>35.2</ele></trkpt>
      <trkpt lat="47.215697" lon="0.053384"><ele>34.8</ele></trkpt>
      <trkpt lat="47.215886" lon="0.053610"><ele>33.0</ele></trkpt>
      <trkpt lat="47.216071" lon="0.053866"><ele>33.5</ele></trkpt>
      <trkpt lat="47.216349" lon="0.054235"><ele>32.8</ele></trkpt>
      <trkpt lat="47.216503" lon="0.054209"><ele>33.0</ele></trkpt>
      <trkpt lat="47.216639" lon="0.054186"><ele>33.0</ele></trkpt>
      <trkpt lat="47.216870" lon="0.054075"><ele>33.2</ele></trkpt>
      <trkpt lat="47.217062" lon="0.053776"><ele>34.0</ele></trkpt>
      <trkpt lat="47.217388" lon="0.053169"><ele>36.0</ele></trkpt>
      <trkpt lat="47.217747" lon="0.052523"><ele>34.2</ele></trkpt>
      <trkpt lat="47.218068" lon="0.051787"><ele>33.5</ele></trkpt>
      <trkpt lat="47.218458" lon="0.050875"><ele>38.2</ele></trkpt>
      <trkpt lat="47.218499" lon="0.050832"><ele>37.2</ele></trkpt>
      <trkpt lat="47.218565" lon="0.050795"><ele>35.2</ele></trkpt>
      <trkpt lat="47.218598" lon="0.050818"><ele>33.5</ele></trkpt>
      <trkpt lat="47.218632" lon="0.050840"><ele>32.8</ele></trkpt>
      <trkpt lat="47.218743" lon="0.050477"><ele>32.8</ele></trkpt>
      <trkpt lat="47.218781" lon="0.050505"><ele>32.5</ele></trkpt>
      <trkpt lat="47.218850" lon="0.050598"><ele>32.2</ele></trkpt>
      <trkpt lat="47.218931" lon="0.050759"><ele>31.5</ele></trkpt>
      <trkpt lat="47.219086" lon="0.051157"><ele>30.8</ele></trkpt>
      <trkpt lat="47.219221" lon="0.051300"><ele>30.0</ele></trkpt>
      <trkpt lat="47.219370" lon="0.051406"><ele>29.8</ele></trkpt>
      <trkpt lat="47.219415" lon="0.051399"><ele>29.8</ele></trkpt>
      <trkpt lat="47.219633" lon="0.050933"><ele>29.8</ele></trkpt>
      <trkpt lat="47.219774" lon="0.050666"><ele>29.8</ele></trkpt>
      <trkpt lat="47.219842" lon="0.050478"><ele>29.5</ele></trkpt>
      <trkpt lat="47.220056" lon="0.049969"><ele>29.8</ele></trkpt>
      <trkpt lat="47.220308" lon="0.049584"><ele>30.2</ele></trkpt>
      <trkpt lat="47.220617" lon="0.049342"><ele>30.0</ele></trkpt>
      <trkpt lat="47.221021" lon="0.048918"><ele>30.0</ele></trkpt>
      <trkpt lat="47.221255" lon="0.048699"><ele>29.5</ele></trkpt>
      <trkpt lat="47.221379" lon="0.048513"><ele>29.8</ele></trkpt>
      <trkpt lat="47.221570" lon="0.048272"><ele>29.8</ele></trkpt>
      <trkpt lat="47.221788" lon="0.048082"><ele>29.2</ele></trkpt>
      <trkpt lat="47.221863" lon="0.047982"><ele>29.5</ele></trkpt>
      <trkpt lat="47.222023" lon="0.047733"><ele>29.5</ele></trkpt>
      <trkpt lat="47.222202" lon="0.047475"><ele>29.0</ele></trkpt>
      <trkpt lat="47.222446" lon="0.047084"><ele>29.2</ele></trkpt>
      <trkpt lat="47.222617" lon="0.046762"><ele>29.5</ele></trkpt>
      <trkpt lat="47.222901" lon="0.046271"><ele>28.8</ele></trkpt>
      <trkpt lat="47.223083" lon="0.046043"><ele>29.0</ele></trkpt>
      <trkpt lat="47.223343" lon="0.045762"><ele>29.0</ele></trkpt>
      <trkpt lat="47.223444" lon="0.045622"><ele>29.0</ele></trkpt>
      <trkpt lat="47.223491" lon="0.045504"><ele>28.8</ele></trkpt>
      <trkpt lat="47.223557" lon="0.045273"><ele>29.0</ele></trkpt>
      <trkpt lat="47.223691" lon="0.044910"><ele>29.2</ele></trkpt>
      <trkpt lat="47.223870" lon="0.044474"><ele>28.8</ele></trkpt>
      <trkpt lat="47.223929" lon="0.044163"><ele>28.8</ele></trkpt>
      <trkpt lat="47.223954" lon="0.043720"><ele>29.0</ele></trkpt>
      <trkpt lat="47.223987" lon="0.043541"><ele>29.2</ele></trkpt>
      <trkpt lat="47.224188" lon="0.042763"><ele>30.5</ele></trkpt>
      <trkpt lat="47.224282" lon="0.042594"><ele>29.2</ele></trkpt>
      <trkpt lat="47.224510" lon="0.042310"><ele>29.8</ele></trkpt>
      <trkpt lat="47.224705" lon="0.042016"><ele>30.0</ele></trkpt>
      <trkpt lat="47.224934" lon="0.041569"><ele>29.8</ele></trkpt>
      <trkpt lat="47.225078" lon="0.041261"><ele>30.2</ele></trkpt>
      <trkpt lat="47.225294" lon="0.040866"><ele>30.5</ele></trkpt>
      <trkpt lat="47.225555" lon="0.040440"><ele>29.2</ele></trkpt>
      <trkpt lat="47.225669" lon="0.040079"><ele>29.0</ele></trkpt>
      <trkpt lat="47.225720" lon="0.039917"><ele>29.2</ele></trkpt>
      <trkpt lat="47.225864" lon="0.039625"><ele>30.0</ele></trkpt>
      <trkpt lat="47.226046" lon="0.039150"><ele>29.5</ele></trkpt>
      <trkpt lat="47.226178" lon="0.038570"><ele>30.2</ele></trkpt>
      <trkpt lat="47.226329" lon="0.038080"><ele>30.0</ele></trkpt>
      <trkpt lat="47.226533" lon="0.037219"><ele>28.8</ele></trkpt>
      <trkpt lat="47.226755" lon="0.036132"><ele>28.5</ele></trkpt>
      <trkpt lat="47.227388" lon="0.034306"><ele>28.2</ele></trkpt>
      <trkpt lat="47.227684" lon="0.033649"><ele>28.0</ele></trkpt>
      <trkpt lat="47.228063" lon="0.032895"><ele>28.5</ele></trkpt>
      <trkpt lat="47.228340" lon="0.032501"><ele>29.8</ele></trkpt>
      <trkpt lat="47.228646" lon="0.032328"><ele>29.5</ele></trkpt>
      <trkpt lat="47.228865" lon="0.032164"><ele>30.0</ele></trkpt>
      <trkpt lat="47.228953" lon="0.031983"><ele>29.5</ele></trkpt>
      <trkpt lat="47.228976" lon="0.031846"><ele>29.2</ele></trkpt>
      <trkpt lat="47.229040" lon="0.031666"><ele>29.2</ele></trkpt>
      <trkpt lat="47.229113" lon="0.031551"><ele>29.5</ele></trkpt>
      <trkpt lat="47.229208" lon="0.031279"><ele>29.5</ele></trkpt>
      <trkpt lat="47.228723" lon="0.030910"><ele>29.8</ele></trkpt>
      <trkpt lat="47.228141" lon="0.030592"><ele>30.5</ele></trkpt>
      <trkpt lat="47.227634" lon="0.030471"><ele>30.8</ele></trkpt>
      <trkpt lat="47.226588" lon="0.030207"><ele>30.8</ele></trkpt>
      <trkpt lat="47.225799" lon="0.029998"><ele>30.8</ele></trkpt>
      <trkpt lat="47.225476" lon="0.029872"><ele>31.0</ele></trkpt>
      <trkpt lat="47.225470" lon="0.029808"><ele>31.2</ele></trkpt>
      <trkpt lat="47.225485" lon="0.029736"><ele>31.2</ele></trkpt>
      <trkpt lat="47.225521" lon="0.029479"><ele>32.0</ele></trkpt>
      <trkpt lat="47.225511" lon="0.029457"><ele>32.0</ele></trkpt>
      <trkpt lat="47.225466" lon="0.029425"><ele>32.2</ele></trkpt>
      <trkpt lat="47.225402" lon="0.029378"><ele>32.5</ele></trkpt>
      <trkpt lat="47.225345" lon="0.029330"><ele>32.8</ele></trkpt>
      <trkpt lat="47.225323" lon="0.029308"><ele>32.8</ele></trkpt>
      <trkpt lat="47.225316" lon="0.029119"><ele>32.5</ele></trkpt>
      <trkpt lat="47.225284" lon="0.029053"><ele>32.5</ele></trkpt>
      <trkpt lat="47.225237" lon="0.029025"><ele>32.0</ele></trkpt>
      <trkpt lat="47.225197" lon="0.029034"><ele>31.8</ele></trkpt>
      <trkpt lat="47.225187" lon="0.029056"><ele>31.8</ele></trkpt>
      <trkpt lat="47.225134" lon="0.029060"><ele>31.5</ele></trkpt>
      <trkpt lat="47.225109" lon="0.029117"><ele>31.5</ele></trkpt>
      <trkpt lat="47.224961" lon="0.029162"><ele>30.8</ele></trkpt>
      <trkpt lat="47.224848" lon="0.029030"><ele>30.0</ele></trkpt>
      <trkpt lat="47.225065" lon="0.028570"><ele>30.0</ele></trkpt>
      <trkpt lat="47.225145" lon="0.028245"><ele>30.2</ele></trkpt>
      <trkpt lat="47.225281" lon="0.028217"><ele>30.5</ele></trkpt>
      <trkpt lat="47.225511" lon="0.028219"><ele>30.5</ele></trkpt>
      <trkpt lat="47.225612" lon="0.027955"><ele>30.2</ele></trkpt>
      <trkpt lat="47.225666" lon="0.027486"><ele>29.8</ele></trkpt>
      <trkpt lat="47.225776" lon="0.027181"><ele>30.2</ele></trkpt>
      <trkpt lat="47.225876" lon="0.026910"><ele>30.2</ele></trkpt>
      <trkpt lat="47.225929" lon="0.026719"><ele>30.8</ele></trkpt>
      <trkpt lat="47.226034" lon="0.026681"><ele>31.2</ele></trkpt>
      <trkpt lat="47.226153" lon="0.026529"><ele>31.8</ele></trkpt>
      <trkpt lat="47.226848" lon="0.024358"><ele>32.2</ele></trkpt>
      <trkpt lat="47.225464" lon="0.023368"><ele>32.0</ele></trkpt>
      <trkpt lat="47.225351" lon="0.023300"><ele>32.8</ele></trkpt>
      <trkpt lat="47.225370" lon="0.023211"><ele>33.0</ele></trkpt>
      <trkpt lat="47.225547" lon="0.022807"><ele>33.0</ele></trkpt>
      <trkpt lat="47.225675" lon="0.022548"><ele>33.8</ele></trkpt>
      <trkpt lat="47.225736" lon="0.022385"><ele>34.2</ele></trkpt>
      <trkpt lat="47.225749" lon="0.022335"><ele>34.5</ele></trkpt>
      <trkpt lat="47.225821" lon="0.022138"><ele>34.5</ele></trkpt>
      <trkpt lat="47.225903" lon="0.021949"><ele>35.8</ele></trkpt>
      <trkpt lat="47.226196" lon="0.021422"><ele>33.2</ele></trkpt>
      <trkpt lat="47.226442" lon="0.020916"><ele>31.8</ele></trkpt>
      <trkpt lat="47.227230" lon="0.018981"><ele>31.2</ele></trkpt>
      <trkpt lat="47.227346" lon="0.018517"><ele>33.2</ele></trkpt>
      <trkpt lat="47.227505" lon="0.017786"><ele>30.8</ele></trkpt>
      <trkpt lat="47.227715" lon="0.017287"><ele>30.8</ele></trkpt>
      <trkpt lat="47.227836" lon="0.017059"><ele>32.0</ele></trkpt>
      <trkpt lat="47.227866" lon="0.017023"><ele>32.0</ele></trkpt>
      <trkpt lat="47.227889" lon="0.016989"><ele>32.0</ele></trkpt>
      <trkpt lat="47.228151" lon="0.016615"><ele>31.8</ele></trkpt>
      <trkpt lat="47.228959" lon="0.015233"><ele>34.8</ele></trkpt>
      <trkpt lat="47.230114" lon="0.013160"><ele>36.2</ele></trkpt>
      <trkpt lat="47.230492" lon="0.012367"><ele>35.8</ele></trkpt>
      <trkpt lat="47.230743" lon="0.011851"><ele>36.8</ele></trkpt>
      <trkpt lat="47.230768" lon="0.011815"><ele>36.0</ele></trkpt>
      <trkpt lat="47.230696" lon="0.011705"><ele>40.5</ele></trkpt>
      <trkpt lat="47.230692" lon="0.011630"><ele>42.2</ele></trkpt>
      <trkpt lat="47.230827" lon="0.011314"><ele>41.5</ele></trkpt>
      <trkpt lat="47.230942" lon="0.010761"><ele>47.8</ele></trkpt>
      <trkpt lat="47.231041" lon="0.010220"><ele>55.0</ele></trkpt>
      <trkpt lat="47.231117" lon="0.010030"><ele>57.5</ele></trkpt>
      <trkpt lat="47.231162" lon="0.009763"><ele>58.2</ele></trkpt>
      <trkpt lat="47.231162" lon="0.009510"><ele>60.8</ele></trkpt>
      <trkpt lat="47.231132" lon="0.009318"><ele>63.0</ele></trkpt>
      <trkpt lat="47.231108" lon="0.009287"><ele>64.0</ele></trkpt>
      <trkpt lat="47.231114" lon="0.009071"><ele>63.8</ele></trkpt>
      <trkpt lat="47.231178" lon="0.008463"><ele>63.5</ele></trkpt>
      <trkpt lat="47.231176" lon="0.008334"><ele>63.0</ele></trkpt>
      <trkpt lat="47.231123" lon="0.008094"><ele>63.0</ele></trkpt>
      <trkpt lat="47.231172" lon="0.007981"><ele>62.8</ele></trkpt>
      <trkpt lat="47.231207" lon="0.007946"><ele>62.5</ele></trkpt>
      <trkpt lat="47.231250" lon="0.007919"><ele>62.8</ele></trkpt>
      <trkpt lat="47.231287" lon="0.007907"><ele>62.8</ele></trkpt>
      <trkpt lat="47.231386" lon="0.007947"><ele>62.8</ele></trkpt>
      <trkpt lat="47.231481" lon="0.008034"><ele>61.2</ele></trkpt>
      <trkpt lat="47.231537" lon="0.008042"><ele>60.2</ele></trkpt>
      <trkpt lat="47.231563" lon="0.008027"><ele>60.0</ele></trkpt>
      <trkpt lat="47.231598" lon="0.007991"><ele>59.8</ele></trkpt>
      <trkpt lat="47.231640" lon="0.007898"><ele>60.5</ele></trkpt>
      <trkpt lat="47.231821" lon="0.007188"><ele>59.2</ele></trkpt>
      <trkpt lat="47.231916" lon="0.006827"><ele>60.2</ele></trkpt>
      <trkpt lat="47.231935" lon="0.006728"><ele>59.5</ele></trkpt>
      <trkpt lat="47.231948" lon="0.006509"><ele>60.5</ele></trkpt>
      <trkpt lat="47.231972" lon="0.006383"><ele>61.0</ele></trkpt>
      <trkpt lat="47.232090" lon="0.005840"><ele>57.8</ele></trkpt>
      <trkpt lat="47.232108" lon="0.005692"><ele>59.2</ele></trkpt>
      <trkpt lat="47.232097" lon="0.005592"><ele>61.0</ele></trkpt>
      <trkpt lat="47.232067" lon="0.005542"><ele>61.2</ele></trkpt>
      <trkpt lat="47.232035" lon="0.005519"><ele>61.2</ele></trkpt>
      <trkpt lat="47.231911" lon="0.005431"><ele>60.8</ele></trkpt>
      <trkpt lat="47.231891" lon="0.005408"><ele>60.5</ele></trkpt>
      <trkpt lat="47.231857" lon="0.005306"><ele>60.2</ele></trkpt>
      <trkpt lat="47.231854" lon="0.005230"><ele>60.0</ele></trkpt>
      <trkpt lat="47.231858" lon="0.005159"><ele>59.8</ele></trkpt>
      <trkpt lat="47.231952" lon="0.004365"><ele>56.2</ele></trkpt>
      <trkpt lat="47.231971" lon="0.003874"><ele>54.0</ele></trkpt>
      <trkpt lat="47.231976" lon="0.003561"><ele>52.0</ele></trkpt>
      <trkpt lat="47.231983" lon="0.003195"><ele>50.0</ele></trkpt>
      <trkpt lat="47.231962" lon="0.002274"><ele>44.8</ele></trkpt>
      <trkpt lat="47.231952" lon="0.002203"><ele>44.0</ele></trkpt>
      <trkpt lat="47.231918" lon="0.002111"><ele>43.5</ele></trkpt>
      <trkpt lat="47.231900" lon="0.002043"><ele>43.5</ele></trkpt>
      <trkpt lat="47.231892" lon="0.002009"><ele>43.5</ele></trkpt>
      <trkpt lat="47.231870" lon="0.002017"><ele>43.5</ele></trkpt>
      <trkpt lat="47.231834" lon="0.002010"><ele>43.8</ele></trkpt>
      <trkpt lat="47.231615" lon="0.001701"><ele>44.2</ele></trkpt>
      <trkpt lat="47.231533" lon="0.001611"><ele>44.8</ele></trkpt>
      <trkpt lat="47.231477" lon="0.001575"><ele>45.5</ele></trkpt>
      <trkpt lat="47.231335" lon="0.001516"><ele>47.2</ele></trkpt>
      <trkpt lat="47.231175" lon="0.001491"><ele>48.2</ele></trkpt>
      <trkpt lat="47.230598" lon="0.001201"><ele>53.2</ele></trkpt>
      <trkpt lat="47.230371" lon="0.001122"><ele>54.0</ele></trkpt>
      <trkpt lat="47.229906" lon="0.000886"><ele>56.8</ele></trkpt>
      <trkpt lat="47.229441" lon="0.000650"><ele>58.0</ele></trkpt>
      <trkpt lat="47.228823" lon="0.000329"><ele>59.0</ele></trkpt>
      <trkpt lat="47.228281" lon="-0.000068"><ele>60.0</ele></trkpt>
      <trkpt lat="47.228245" lon="-0.000095"><ele>60.0</ele></trkpt>
      <trkpt lat="47.228617" lon="-0.001073"><ele>59.8</ele></trkpt>
      <trkpt lat="47.228916" lon="-0.001808"><ele>59.8</ele></trkpt>
      <trkpt lat="47.229076" lon="-0.002229"><ele>59.2</ele></trkpt>
      <trkpt lat="47.229209" lon="-0.002634"><ele>59.2</ele></trkpt>
      <trkpt lat="47.229563" lon="-0.003797"><ele>58.5</ele></trkpt>
      <trkpt lat="47.229754" lon="-0.004522"><ele>57.8</ele></trkpt>
      <trkpt lat="47.229864" lon="-0.004845"><ele>57.5</ele></trkpt>
      <trkpt lat="47.229976" lon="-0.005118"><ele>58.0</ele></trkpt>
      <trkpt lat="47.230049" lon="-0.005279"><ele>57.8</ele></trkpt>
      <trkpt lat="47.230206" lon="-0.005571"><ele>57.2</ele></trkpt>
      <trkpt lat="47.230431" lon="-0.005944"><ele>57.2</ele></trkpt>
      <trkpt lat="47.230564" lon="-0.006232"><ele>57.2</ele></trkpt>
      <trkpt lat="47.230671" lon="-0.006521"><ele>57.0</ele></trkpt>
      <trkpt lat="47.230906" lon="-0.007256"><ele>56.5</ele></trkpt>
      <trkpt lat="47.231102" lon="-0.007789"><ele>56.0</ele></trkpt>
      <trkpt lat="47.231184" lon="-0.007960"><ele>56.2</ele></trkpt>
      <trkpt lat="47.231262" lon="-0.008088"><ele>55.8</ele></trkpt>
      <trkpt lat="47.231372" lon="-0.008245"><ele>55.0</ele></trkpt>
      <trkpt lat="47.231416" lon="-0.008343"><ele>55.0</ele></trkpt>
      <trkpt lat="47.231453" lon="-0.008462"><ele>55.2</ele></trkpt>
      <trkpt lat="47.231455" lon="-0.008493"><ele>55.2</ele></trkpt>
      <trkpt lat="47.231461" lon="-0.008587"><ele>55.5</ele></trkpt>
      <trkpt lat="47.231456" lon="-0.008712"><ele>55.8</ele></trkpt>
      <trkpt lat="47.231438" lon="-0.008834"><ele>55.8</ele></trkpt>
      <trkpt lat="47.231375" lon="-0.008961"><ele>55.8</ele></trkpt>
      <trkpt lat="47.231230" lon="-0.009124"><ele>55.5</ele></trkpt>
      <trkpt lat="47.231067" lon="-0.009318"><ele>55.5</ele></trkpt>
      <trkpt lat="47.230999" lon="-0.009412"><ele>55.2</ele></trkpt>
      <trkpt lat="47.230954" lon="-0.009522"><ele>55.2</ele></trkpt>
      <trkpt lat="47.230940" lon="-0.009628"><ele>55.0</ele></trkpt>
      <trkpt lat="47.230937" lon="-0.009753"><ele>55.0</ele></trkpt>
      <trkpt lat="47.230963" lon="-0.009979"><ele>55.0</ele></trkpt>
      <trkpt lat="47.230990" lon="-0.010117"><ele>54.8</ele></trkpt>
      <trkpt lat="47.231007" lon="-0.010206"><ele>54.5</ele></trkpt>
      <trkpt lat="47.231162" lon="-0.010697"><ele>52.2</ele></trkpt>
      <trkpt lat="47.231345" lon="-0.011230"><ele>49.0</ele></trkpt>
      <trkpt lat="47.231657" lon="-0.011889"><ele>45.8</ele></trkpt>
      <trkpt lat="47.232060" lon="-0.012551"><ele>43.0</ele></trkpt>
      <trkpt lat="47.232119" lon="-0.012660"><ele>42.5</ele></trkpt>
      <trkpt lat="47.232188" lon="-0.012796"><ele>41.8</ele></trkpt>
      <trkpt lat="47.232205" lon="-0.012843"><ele>41.8</ele></trkpt>
      <trkpt lat="47.232221" lon="-0.012891"><ele>41.5</ele></trkpt>
      <trkpt lat="47.232569" lon="-0.013926"><ele>40.5</ele></trkpt>
      <trkpt lat="47.232815" lon="-0.014732"><ele>40.5</ele></trkpt>
      <trkpt lat="47.232961" lon="-0.015243"><ele>39.8</ele></trkpt>
      <trkpt lat="47.233081" lon="-0.015698"><ele>41.0</ele></trkpt>
      <trkpt lat="47.233277" lon="-0.016432"><ele>41.8</ele></trkpt>
      <trkpt lat="47.233436" lon="-0.016952"><ele>42.2</ele></trkpt>
      <trkpt lat="47.233569" lon="-0.017331"><ele>43.5</ele></trkpt>
      <trkpt lat="47.233617" lon="-0.017448"><ele>44.0</ele></trkpt>
      <trkpt lat="47.233770" lon="-0.017767"><ele>44.0</ele></trkpt>
      <trkpt lat="47.233954" lon="-0.018132"><ele>44.8</ele></trkpt>
      <trkpt lat="47.234011" lon="-0.018275"><ele>44.8</ele></trkpt>
      <trkpt lat="47.234270" lon="-0.019014"><ele>47.0</ele></trkpt>
      <trkpt lat="47.234475" lon="-0.019665"><ele>50.0</ele></trkpt>
      <trkpt lat="47.234553" lon="-0.019924"><ele>51.0</ele></trkpt>
      <trkpt lat="47.235095" lon="-0.021932"><ele>54.2</ele></trkpt>
      <trkpt lat="47.235157" lon="-0.022213"><ele>54.5</ele></trkpt>
      <trkpt lat="47.235218" lon="-0.022608"><ele>55.0</ele></trkpt>
      <trkpt lat="47.235236" lon="-0.022790"><ele>55.0</ele></trkpt>
      <trkpt lat="47.235245" lon="-0.023083"><ele>56.0</ele></trkpt>
      <trkpt lat="47.235238" lon="-0.023216"><ele>56.0</ele></trkpt>
      <trkpt lat="47.235221" lon="-0.023318"><ele>56.0</ele></trkpt>
      <trkpt lat="47.235105" lon="-0.024041"><ele>57.0</ele></trkpt>
      <trkpt lat="47.235034" lon="-0.024841"><ele>58.0</ele></trkpt>
      <trkpt lat="47.235012" lon="-0.025023"><ele>58.8</ele></trkpt>
      <trkpt lat="47.234997" lon="-0.025103"><ele>58.8</ele></trkpt>
      <trkpt lat="47.234955" lon="-0.025287"><ele>59.0</ele></trkpt>
      <trkpt lat="47.234917" lon="-0.025404"><ele>59.2</ele></trkpt>
      <trkpt lat="47.234757" lon="-0.025776"><ele>60.5</ele></trkpt>
      <trkpt lat="47.234688" lon="-0.025980"><ele>61.2</ele></trkpt>
      <trkpt lat="47.234648" lon="-0.026119"><ele>61.8</ele></trkpt>
      <trkpt lat="47.234602" lon="-0.026326"><ele>62.5</ele></trkpt>
      <trkpt lat="47.234523" lon="-0.026864"><ele>65.0</ele></trkpt>
      <trkpt lat="47.234508" lon="-0.027011"><ele>66.0</ele></trkpt>
      <trkpt lat="47.234487" lon="-0.027239"><ele>67.2</ele></trkpt>
      <trkpt lat="47.234475" lon="-0.027540"><ele>69.0</ele></trkpt>
      <trkpt lat="47.234477" lon="-0.027776"><ele>69.8</ele></trkpt>
      <trkpt lat="47.234490" lon="-0.028058"><ele>71.8</ele></trkpt>
      <trkpt lat="47.234568" lon="-0.029096"><ele>76.8</ele></trkpt>
      <trkpt lat="47.234657" lon="-0.030352"><ele>82.5</ele></trkpt>
      <trkpt lat="47.234680" lon="-0.030539"><ele>83.0</ele></trkpt>
      <trkpt lat="47.234693" lon="-0.030643"><ele>83.2</ele></trkpt>
      <trkpt lat="47.234749" lon="-0.030867"><ele>84.0</ele></trkpt>
      <trkpt lat="47.234845" lon="-0.031096"><ele>84.8</ele></trkpt>
      <trkpt lat="47.235169" lon="-0.031792"><ele>86.5</ele></trkpt>
      <trkpt lat="47.235382" lon="-0.032223"><ele>86.5</ele></trkpt>
      <trkpt lat="47.235485" lon="-0.032491"><ele>86.2</ele></trkpt>
      <trkpt lat="47.235547" lon="-0.032695"><ele>86.5</ele></trkpt>
      <trkpt lat="47.235747" lon="-0.033512"><ele>87.0</ele></trkpt>
      <trkpt lat="47.235847" lon="-0.033776"><ele>87.8</ele></trkpt>
      <trkpt lat="47.235929" lon="-0.033931"><ele>88.0</ele></trkpt>
      <trkpt lat="47.236132" lon="-0.034260"><ele>88.8</ele></trkpt>
      <trkpt lat="47.236211" lon="-0.034437"><ele>88.5</ele></trkpt>
      <trkpt lat="47.236287" lon="-0.034653"><ele>88.2</ele></trkpt>
      <trkpt lat="47.236313" lon="-0.034812"><ele>88.5</ele></trkpt>
      <trkpt lat="47.236332" lon="-0.035005"><ele>88.8</ele></trkpt>
      <trkpt lat="47.236356" lon="-0.035319"><ele>86.8</ele></trkpt>
      <trkpt lat="47.236361" lon="-0.035535"><ele>86.0</ele></trkpt>
      <trkpt lat="47.236373" lon="-0.035638"><ele>86.0</ele></trkpt>
      <trkpt lat="47.236429" lon="-0.035899"><ele>85.2</ele></trkpt>
      <trkpt lat="47.236539" lon="-0.036229"><ele>84.5</ele></trkpt>
      <trkpt lat="47.236585" lon="-0.036328"><ele>84.8</ele></trkpt>
      <trkpt lat="47.236671" lon="-0.036472"><ele>84.8</ele></trkpt>
      <trkpt lat="47.236838" lon="-0.036677"><ele>84.2</ele></trkpt>
      <trkpt lat="47.236978" lon="-0.036889"><ele>84.8</ele></trkpt>
      <trkpt lat="47.236992" lon="-0.036913"><ele>85.0</ele></trkpt>
      <trkpt lat="47.237014" lon="-0.036935"><ele>85.0</ele></trkpt>
      <trkpt lat="47.237153" lon="-0.037038"><ele>85.8</ele></trkpt>
      <trkpt lat="47.237297" lon="-0.037124"><ele>86.2</ele></trkpt>
      <trkpt lat="47.237380" lon="-0.037156"><ele>86.5</ele></trkpt>
      <trkpt lat="47.237480" lon="-0.037181"><ele>86.8</ele></trkpt>
      <trkpt lat="47.237913" lon="-0.037256"><ele>87.8</ele></trkpt>
      <trkpt lat="47.238454" lon="-0.037440"><ele>88.5</ele></trkpt>
      <trkpt lat="47.238635" lon="-0.037489"><ele>89.0</ele></trkpt>
      <trkpt lat="47.238758" lon="-0.037506"><ele>89.5</ele></trkpt>
      <trkpt lat="47.239528" lon="-0.037549"><ele>88.2</ele></trkpt>
      <trkpt lat="47.239726" lon="-0.037599"><ele>87.0</ele></trkpt>
      <trkpt lat="47.240039" lon="-0.037713"><ele>87.0</ele></trkpt>
      <trkpt lat="47.240239" lon="-0.037805"><ele>88.0</ele></trkpt>
      <trkpt lat="47.240377" lon="-0.037886"><ele>88.5</ele></trkpt>
      <trkpt lat="47.240466" lon="-0.037951"><ele>88.8</ele></trkpt>
      <trkpt lat="47.240550" lon="-0.038025"><ele>88.8</ele></trkpt>
      <trkpt lat="47.240639" lon="-0.038123"><ele>89.0</ele></trkpt>
      <trkpt lat="47.240679" lon="-0.038181"><ele>89.2</ele></trkpt>
      <trkpt lat="47.240915" lon="-0.038532"><ele>89.5</ele></trkpt>
      <trkpt lat="47.241062" lon="-0.038766"><ele>89.0</ele></trkpt>
      <trkpt lat="47.241185" lon="-0.038951"><ele>88.8</ele></trkpt>
      <trkpt lat="47.241316" lon="-0.039108"><ele>88.0</ele></trkpt>
      <trkpt lat="47.241446" lon="-0.039224"><ele>87.8</ele></trkpt>
      <trkpt lat="47.241800" lon="-0.039495"><ele>86.8</ele></trkpt>
      <trkpt lat="47.241889" lon="-0.039579"><ele>86.5</ele></trkpt>
      <trkpt lat="47.241940" lon="-0.039517"><ele>86.5</ele></trkpt>
      <trkpt lat="47.241965" lon="-0.039510"><ele>86.8</ele></trkpt>
      <trkpt lat="47.242045" lon="-0.039662"><ele>86.5</ele></trkpt>
      <trkpt lat="47.242089" lon="-0.039724"><ele>86.5</ele></trkpt>
      <trkpt lat="47.242151" lon="-0.039783"><ele>86.5</ele></trkpt>
      <trkpt lat="47.242281" lon="-0.039870"><ele>86.2</ele></trkpt>
      <trkpt lat="47.242506" lon="-0.040001"><ele>85.8</ele></trkpt>
      <trkpt lat="47.242596" lon="-0.040075"><ele>85.8</ele></trkpt>
      <trkpt lat="47.242745" lon="-0.040233"><ele>85.8</ele></trkpt>
      <trkpt lat="47.242814" lon="-0.040318"><ele>85.5</ele></trkpt>
      <trkpt lat="47.242935" lon="-0.040502"><ele>85.0</ele></trkpt>
      <trkpt lat="47.243056" lon="-0.040663"><ele>85.0</ele></trkpt>
      <trkpt lat="47.243120" lon="-0.040740"><ele>85.0</ele></trkpt>
      <trkpt lat="47.243228" lon="-0.040846"><ele>84.8</ele></trkpt>
      <trkpt lat="47.243391" lon="-0.041024"><ele>85.0</ele></trkpt>
      <trkpt lat="47.243494" lon="-0.041155"><ele>85.0</ele></trkpt>
      <trkpt lat="47.243632" lon="-0.041358"><ele>85.8</ele></trkpt>
      <trkpt lat="47.243673" lon="-0.041449"><ele>85.8</ele></trkpt>
      <trkpt lat="47.243704" lon="-0.041542"><ele>86.0</ele></trkpt>
      <trkpt lat="47.243722" lon="-0.041632"><ele>86.2</ele></trkpt>
      <trkpt lat="47.243746" lon="-0.041900"><ele>86.5</ele></trkpt>
      <trkpt lat="47.243759" lon="-0.042064"><ele>86.0</ele></trkpt>
      <trkpt lat="47.243934" lon="-0.043339"><ele>81.0</ele></trkpt>
      <trkpt lat="47.243975" lon="-0.043677"><ele>80.0</ele></trkpt>
      <trkpt lat="47.243976" lon="-0.043687"><ele>80.0</ele></trkpt>
      <trkpt lat="47.244158" lon="-0.045177"><ele>80.5</ele></trkpt>
      <trkpt lat="47.244193" lon="-0.045373"><ele>80.8</ele></trkpt>
      <trkpt lat="47.244228" lon="-0.045520"><ele>80.8</ele></trkpt>
      <trkpt lat="47.244267" lon="-0.045663"><ele>80.5</ele></trkpt>
      <trkpt lat="47.244325" lon="-0.045828"><ele>80.5</ele></trkpt>
      <trkpt lat="47.244380" lon="-0.045961"><ele>80.8</ele></trkpt>
      <trkpt lat="47.244794" lon="-0.046835"><ele>85.0</ele></trkpt>
      <trkpt lat="47.244894" lon="-0.047059"><ele>86.0</ele></trkpt>
      <trkpt lat="47.244948" lon="-0.047193"><ele>86.0</ele></trkpt>
      <trkpt lat="47.245000" lon="-0.047352"><ele>86.8</ele></trkpt>
      <trkpt lat="47.245051" lon="-0.047541"><ele>87.8</ele></trkpt>
      <trkpt lat="47.245084" lon="-0.047690"><ele>87.8</ele></trkpt>
      <trkpt lat="47.245307" lon="-0.048912"><ele>90.0</ele></trkpt>
      <trkpt lat="47.245458" lon="-0.049462"><ele>90.0</ele></trkpt>
      <trkpt lat="47.245525" lon="-0.049710"><ele>90.8</ele></trkpt>
      <trkpt lat="47.245708" lon="-0.050504"><ele>90.5</ele></trkpt>
      <trkpt lat="47.245937" lon="-0.051403"><ele>90.5</ele></trkpt>
      <trkpt lat="47.245981" lon="-0.051614"><ele>91.0</ele></trkpt>
      <trkpt lat="47.245988" lon="-0.051675"><ele>91.0</ele></trkpt>
      <trkpt lat="47.245981" lon="-0.051769"><ele>91.0</ele></trkpt>
      <trkpt lat="47.245965" lon="-0.051805"><ele>90.8</ele></trkpt>
      <trkpt lat="47.246109" lon="-0.052017"><ele>91.8</ele></trkpt>
      <trkpt lat="47.246211" lon="-0.052205"><ele>92.2</ele></trkpt>
      <trkpt lat="47.246514" lon="-0.052900"><ele>93.0</ele></trkpt>
      <trkpt lat="47.246553" lon="-0.052989"><ele>93.0</ele></trkpt>
      <trkpt lat="47.246725" lon="-0.053386"><ele>93.0</ele></trkpt>
      <trkpt lat="47.247014" lon="-0.054066"><ele>92.8</ele></trkpt>
      <trkpt lat="47.247407" lon="-0.054996"><ele>89.2</ele></trkpt>
      <trkpt lat="47.247528" lon="-0.055275"><ele>88.8</ele></trkpt>
      <trkpt lat="47.247605" lon="-0.055428"><ele>89.0</ele></trkpt>
      <trkpt lat="47.247672" lon="-0.055555"><ele>89.0</ele></trkpt>
      <trkpt lat="47.247783" lon="-0.055838"><ele>88.8</ele></trkpt>
      <trkpt lat="47.247890" lon="-0.056081"><ele>89.0</ele></trkpt>
      <trkpt lat="47.247997" lon="-0.056347"><ele>88.5</ele></trkpt>
      <trkpt lat="47.248328" lon="-0.057220"><ele>87.0</ele></trkpt>
      <trkpt lat="47.248376" lon="-0.057395"><ele>87.5</ele></trkpt>
      <trkpt lat="47.248396" lon="-0.057482"><ele>87.5</ele></trkpt>
      <trkpt lat="47.248427" lon="-0.057675"><ele>87.0</ele></trkpt>
      <trkpt lat="47.248575" lon="-0.058320"><ele>86.0</ele></trkpt>
      <trkpt lat="47.248679" lon="-0.058843"><ele>85.0</ele></trkpt>
      <trkpt lat="47.248711" lon="-0.058841"><ele>85.2</ele></trkpt>
      <trkpt lat="47.248745" lon="-0.058866"><ele>85.2</ele></trkpt>
      <trkpt lat="47.248776" lon="-0.058902"><ele>85.5</ele></trkpt>
      <trkpt lat="47.249159" lon="-0.059409"><ele>86.0</ele></trkpt>
      <trkpt lat="47.249559" lon="-0.059876"><ele>88.0</ele></trkpt>
      <trkpt lat="47.249739" lon="-0.060097"><ele>89.0</ele></trkpt>
      <trkpt lat="47.249876" lon="-0.060297"><ele>88.2</ele></trkpt>
      <trkpt lat="47.249992" lon="-0.060574"><ele>89.0</ele></trkpt>
      <trkpt lat="47.250172" lon="-0.061051"><ele>90.5</ele></trkpt>
      <trkpt lat="47.250466" lon="-0.061738"><ele>91.8</ele></trkpt>
      <trkpt lat="47.250616" lon="-0.062105"><ele>92.2</ele></trkpt>
      <trkpt lat="47.250832" lon="-0.062630"><ele>92.2</ele></trkpt>
      <trkpt lat="47.250929" lon="-0.062757"><ele>92.5</ele></trkpt>
      <trkpt lat="47.251028" lon="-0.062839"><ele>92.0</ele></trkpt>
      <trkpt lat="47.251500" lon="-0.063179"><ele>91.5</ele></trkpt>
      <trkpt lat="47.251619" lon="-0.063284"><ele>91.0</ele></trkpt>
      <trkpt lat="47.251713" lon="-0.063389"><ele>90.0</ele></trkpt>
      <trkpt lat="47.252454" lon="-0.064474"><ele>90.0</ele></trkpt>
      <trkpt lat="47.252650" lon="-0.064729"><ele>88.8</ele></trkpt>
      <trkpt lat="47.252787" lon="-0.064925"><ele>86.8</ele></trkpt>
      <trkpt lat="47.252900" lon="-0.065161"><ele>85.0</ele></trkpt>
      <trkpt lat="47.252959" lon="-0.065323"><ele>85.8</ele></trkpt>
      <trkpt lat="47.253068" lon="-0.065683"><ele>86.0</ele></trkpt>
      <trkpt lat="47.253142" lon="-0.065858"><ele>84.8</ele></trkpt>
      <trkpt lat="47.253273" lon="-0.066099"><ele>84.5</ele></trkpt>
      <trkpt lat="47.253394" lon="-0.066295"><ele>82.8</ele></trkpt>
      <trkpt lat="47.253780" lon="-0.066756"><ele>84.0</ele></trkpt>
      <trkpt lat="47.254030" lon="-0.067119"><ele>83.8</ele></trkpt>
      <trkpt lat="47.254527" lon="-0.067880"><ele>85.0</ele></trkpt>
      <trkpt lat="47.254773" lon="-0.068235"><ele>83.5</ele></trkpt>
      <trkpt lat="47.254984" lon="-0.068559"><ele>83.2</ele></trkpt>
      <trkpt lat="47.255077" lon="-0.068652"><ele>82.2</ele></trkpt>
      <trkpt lat="47.255181" lon="-0.068771"><ele>81.8</ele></trkpt>
      <trkpt lat="47.255506" lon="-0.069209"><ele>82.2</ele></trkpt>
      <trkpt lat="47.255590" lon="-0.069346"><ele>81.5</ele></trkpt>
      <trkpt lat="47.255625" lon="-0.069422"><ele>81.0</ele></trkpt>
      <trkpt lat="47.255677" lon="-0.069582"><ele>80.5</ele></trkpt>
      <trkpt lat="47.255729" lon="-0.069719"><ele>80.2</ele></trkpt>
      <trkpt lat="47.255904" lon="-0.070091"><ele>77.5</ele></trkpt>
      <trkpt lat="47.255940" lon="-0.070195"><ele>76.8</ele></trkpt>
      <trkpt lat="47.255956" lon="-0.070285"><ele>76.8</ele></trkpt>
      <trkpt lat="47.255963" lon="-0.070372"><ele>76.8</ele></trkpt>
      <trkpt lat="47.255957" lon="-0.070475"><ele>77.0</ele></trkpt>
      <trkpt lat="47.255952" lon="-0.070531"><ele>77.2</ele></trkpt>
      <trkpt lat="47.255909" lon="-0.070668"><ele>77.0</ele></trkpt>
      <trkpt lat="47.255960" lon="-0.070679"><ele>76.2</ele></trkpt>
      <trkpt lat="47.256008" lon="-0.070641"><ele>75.8</ele></trkpt>
      <trkpt lat="47.256108" lon="-0.070544"><ele>74.8</ele></trkpt>
      <trkpt lat="47.256286" lon="-0.070412"><ele>70.0</ele></trkpt>
      <trkpt lat="47.256414" lon="-0.070483"><ele>66.2</ele></trkpt>
      <trkpt lat="47.256527" lon="-0.070508"><ele>58.8</ele></trkpt>
      <trkpt lat="47.256574" lon="-0.070688"><ele>57.8</ele></trkpt>
      <trkpt lat="47.256598" lon="-0.070866"><ele>57.5</ele></trkpt>
      <trkpt lat="47.256598" lon="-0.070941"><ele>57.5</ele></trkpt>
      <trkpt lat="47.256579" lon="-0.071161"><ele>58.8</ele></trkpt>
      <trkpt lat="47.256627" lon="-0.071187"><ele>56.8</ele></trkpt>
      <trkpt lat="47.256685" lon="-0.071225"><ele>55.2</ele></trkpt>
      <trkpt lat="47.256717" lon="-0.071285"><ele>55.5</ele></trkpt>
      <trkpt lat="47.256766" lon="-0.071356"><ele>55.8</ele></trkpt>
      <trkpt lat="47.256837" lon="-0.071431"><ele>55.0</ele></trkpt>
      <trkpt lat="47.256918" lon="-0.071489"><ele>54.2</ele></trkpt>
      <trkpt lat="47.257212" lon="-0.071641"><ele>46.2</ele></trkpt>
      <trkpt lat="47.257296" lon="-0.071718"><ele>44.8</ele></trkpt>
      <trkpt lat="47.257621" lon="-0.072141"><ele>39.8</ele></trkpt>
      <trkpt lat="47.257684" lon="-0.072204"><ele>38.2</ele></trkpt>
      <trkpt lat="47.257731" lon="-0.072200"><ele>36.0</ele></trkpt>
      <trkpt lat="47.257770" lon="-0.072156"><ele>33.8</ele></trkpt>
      <trkpt lat="47.257793" lon="-0.072204"><ele>33.8</ele></trkpt>
      <trkpt lat="47.257859" lon="-0.072356"><ele>34.2</ele></trkpt>
      <trkpt lat="47.258131" lon="-0.072930"><ele>33.8</ele></trkpt>
      <trkpt lat="47.258233" lon="-0.073175"><ele>33.5</ele></trkpt>
      <trkpt lat="47.258261" lon="-0.073301"><ele>33.2</ele></trkpt>
      <trkpt lat="47.258319" lon="-0.073566"><ele>33.2</ele></trkpt>
      <trkpt lat="47.258377" lon="-0.073785"><ele>32.5</ele></trkpt>
      <trkpt lat="47.258353" lon="-0.073797"><ele>32.8</ele></trkpt>
      <trkpt lat="47.258247" lon="-0.073853"><ele>34.2</ele></trkpt>
      <trkpt lat="47.258232" lon="-0.073861"><ele>34.5</ele></trkpt>
      <trkpt lat="47.258195" lon="-0.073937"><ele>34.8</ele></trkpt>
      <trkpt lat="47.258182" lon="-0.074021"><ele>35.0</ele></trkpt>
      <trkpt lat="47.258187" lon="-0.074105"><ele>35.0</ele></trkpt>
      <trkpt lat="47.258236" lon="-0.074392"><ele>35.5</ele></trkpt>
      <trkpt lat="47.258246" lon="-0.074499"><ele>35.8</ele></trkpt>
      <trkpt lat="47.258234" lon="-0.074660"><ele>36.8</ele></trkpt>
      <trkpt lat="47.258219" lon="-0.074752"><ele>37.2</ele></trkpt>
      <trkpt lat="47.258224" lon="-0.074922"><ele>37.2</ele></trkpt>
      <trkpt lat="47.258251" lon="-0.075028"><ele>36.5</ele></trkpt>
      <trkpt lat="47.258284" lon="-0.075138"><ele>35.0</ele></trkpt>
      <trkpt lat="47.258297" lon="-0.075256"><ele>34.2</ele></trkpt>
      <trkpt lat="47.258347" lon="-0.075442"><ele>32.8</ele></trkpt>
      <trkpt lat="47.258385" lon="-0.075520"><ele>32.8</ele></trkpt>
      <trkpt lat="47.258505" lon="-0.075586"><ele>32.2</ele></trkpt>
      <trkpt lat="47.258571" lon="-0.075620"><ele>32.0</ele></trkpt>
      <trkpt lat="47.258699" lon="-0.075977"><ele>31.0</ele></trkpt>
      <trkpt lat="47.258784" lon="-0.076247"><ele>30.0</ele></trkpt>
      <trkpt lat="47.259039" lon="-0.077099"><ele>28.5</ele></trkpt>
      <trkpt lat="47.259084" lon="-0.077250"><ele>28.5</ele></trkpt>
      <trkpt lat="47.259364" lon="-0.077184"><ele>29.0</ele></trkpt>
      <trkpt lat="47.259857" lon="-0.077033"><ele>29.5</ele></trkpt>
      <trkpt lat="47.259909" lon="-0.077072"><ele>29.2</ele></trkpt>
      <trkpt lat="47.259992" lon="-0.076986"><ele>29.0</ele></trkpt>
    </trkseg>
  </trk>
</gpx>
