<?xml version="1.0" encoding="UTF-8"?>
<gpx version="1.1" creator="Gravel Kompass" xmlns="http://www.topografix.com/GPX/1/1">
  <metadata><name>Loiretal-Runde: Schlösser &amp; Weinberge – Etappe 2</name></metadata>
  <trk>
    <name>Etappe 2: Amboise – Chinon</name>
    <trkseg>
<trkpt lat="47.41317" lon="0.98292"><ele>58</ele></trkpt>
<trkpt lat="47.41336" lon="0.98345"><ele>60</ele></trkpt>
<trkpt lat="47.41341" lon="0.98341"><ele>58</ele></trkpt>
<trkpt lat="47.41268" lon="0.98088"><ele>58</ele></trkpt>
<trkpt lat="47.41261" lon="0.98023"><ele>58</ele></trkpt>
<trkpt lat="47.41253" lon="0.97998"><ele>60</ele></trkpt>
<trkpt lat="47.41239" lon="0.97913"><ele>59</ele></trkpt>
<trkpt lat="47.41254" lon="0.97900"><ele>58</ele></trkpt>
<trkpt lat="47.41253" lon="0.97889"><ele>58</ele></trkpt>
<trkpt lat="47.41232" lon="0.97793"><ele>57</ele></trkpt>
<trkpt lat="47.41234" lon="0.97775"><ele>57</ele></trkpt>
<trkpt lat="47.41221" lon="0.97726"><ele>56</ele></trkpt>
<trkpt lat="47.41224" lon="0.97709"><ele>55</ele></trkpt>
<trkpt lat="47.41203" lon="0.97671"><ele>57</ele></trkpt>
<trkpt lat="47.41162" lon="0.97564"><ele>58</ele></trkpt>
<trkpt lat="47.41091" lon="0.97344"><ele>58</ele></trkpt>
<trkpt lat="47.40989" lon="0.97200"><ele>54</ele></trkpt>
<trkpt lat="47.40959" lon="0.97149"><ele>55</ele></trkpt>
<trkpt lat="47.40906" lon="0.97030"><ele>55</ele></trkpt>
<trkpt lat="47.40886" lon="0.97001"><ele>57</ele></trkpt>
<trkpt lat="47.40871" lon="0.96967"><ele>56</ele></trkpt>
<trkpt lat="47.40855" lon="0.96882"><ele>54</ele></trkpt>
<trkpt lat="47.40801" lon="0.96676"><ele>55</ele></trkpt>
<trkpt lat="47.40791" lon="0.96631"><ele>55</ele></trkpt>
<trkpt lat="47.40782" lon="0.96567"><ele>56</ele></trkpt>
<trkpt lat="47.40768" lon="0.96506"><ele>56</ele></trkpt>
<trkpt lat="47.40774" lon="0.96477"><ele>56</ele></trkpt>
<trkpt lat="47.40774" lon="0.96452"><ele>57</ele></trkpt>
<trkpt lat="47.40782" lon="0.96430"><ele>56</ele></trkpt>
<trkpt lat="47.40782" lon="0.96418"><ele>56</ele></trkpt>
<trkpt lat="47.40769" lon="0.96370"><ele>55</ele></trkpt>
<trkpt lat="47.40763" lon="0.96327"><ele>54</ele></trkpt>
<trkpt lat="47.40762" lon="0.96293"><ele>54</ele></trkpt>
<trkpt lat="47.40741" lon="0.96179"><ele>54</ele></trkpt>
<trkpt lat="47.40733" lon="0.96147"><ele>54</ele></trkpt>
<trkpt lat="47.40722" lon="0.96124"><ele>55</ele></trkpt>
<trkpt lat="47.40712" lon="0.96088"><ele>54</ele></trkpt>
<trkpt lat="47.40687" lon="0.95952"><ele>54</ele></trkpt>
<trkpt lat="47.40661" lon="0.95904"><ele>57</ele></trkpt>
<trkpt lat="47.40644" lon="0.95864"><ele>57</ele></trkpt>
<trkpt lat="47.40557" lon="0.95604"><ele>56</ele></trkpt>
<trkpt lat="47.40513" lon="0.95513"><ele>56</ele></trkpt>
<trkpt lat="47.40465" lon="0.95430"><ele>56</ele></trkpt>
<trkpt lat="47.40444" lon="0.95353"><ele>56</ele></trkpt>
<trkpt lat="47.40402" lon="0.95227"><ele>56</ele></trkpt>
<trkpt lat="47.40380" lon="0.95134"><ele>56</ele></trkpt>
<trkpt lat="47.40361" lon="0.95042"><ele>56</ele></trkpt>
<trkpt lat="47.40521" lon="0.94976"><ele>57</ele></trkpt>
<trkpt lat="47.40536" lon="0.94964"><ele>56</ele></trkpt>
<trkpt lat="47.40504" lon="0.94800"><ele>56</ele></trkpt>
<trkpt lat="47.40508" lon="0.94787"><ele>54</ele></trkpt>
<trkpt lat="47.40508" lon="0.94781"><ele>54</ele></trkpt>
<trkpt lat="47.40480" lon="0.94659"><ele>54</ele></trkpt>
<trkpt lat="47.40447" lon="0.94500"><ele>54</ele></trkpt>
<trkpt lat="47.40441" lon="0.94459"><ele>54</ele></trkpt>
<trkpt lat="47.40384" lon="0.94225"><ele>54</ele></trkpt>
<trkpt lat="47.40354" lon="0.94087"><ele>54</ele></trkpt>
<trkpt lat="47.40350" lon="0.94030"><ele>52</ele></trkpt>
<trkpt lat="47.40346" lon="0.94023"><ele>53</ele></trkpt>
<trkpt lat="47.40340" lon="0.94021"><ele>54</ele></trkpt>
<trkpt lat="47.40335" lon="0.94011"><ele>54</ele></trkpt>
<trkpt lat="47.40329" lon="0.93904"><ele>55</ele></trkpt>
<trkpt lat="47.40328" lon="0.93899"><ele>55</ele></trkpt>
<trkpt lat="47.40324" lon="0.93899"><ele>55</ele></trkpt>
<trkpt lat="47.40317" lon="0.93919"><ele>55</ele></trkpt>
<trkpt lat="47.40312" lon="0.93917"><ele>55</ele></trkpt>
<trkpt lat="47.40289" lon="0.93883"><ele>53</ele></trkpt>
<trkpt lat="47.40281" lon="0.93844"><ele>54</ele></trkpt>
<trkpt lat="47.40251" lon="0.93792"><ele>54</ele></trkpt>
<trkpt lat="47.40223" lon="0.93755"><ele>54</ele></trkpt>
<trkpt lat="47.40194" lon="0.93736"><ele>54</ele></trkpt>
<trkpt lat="47.40175" lon="0.93738"><ele>55</ele></trkpt>
<trkpt lat="47.40016" lon="0.93792"><ele>55</ele></trkpt>
<trkpt lat="47.40002" lon="0.93787"><ele>55</ele></trkpt>
<trkpt lat="47.39986" lon="0.93753"><ele>58</ele></trkpt>
<trkpt lat="47.39948" lon="0.93382"><ele>56</ele></trkpt>
<trkpt lat="47.39926" lon="0.93242"><ele>55</ele></trkpt>
<trkpt lat="47.39919" lon="0.93149"><ele>56</ele></trkpt>
<trkpt lat="47.39910" lon="0.93088"><ele>57</ele></trkpt>
<trkpt lat="47.39894" lon="0.92997"><ele>58</ele></trkpt>
<trkpt lat="47.39884" lon="0.92922"><ele>60</ele></trkpt>
<trkpt lat="47.39886" lon="0.92737"><ele>61</ele></trkpt>
<trkpt lat="47.39880" lon="0.92681"><ele>60</ele></trkpt>
<trkpt lat="47.39853" lon="0.92521"><ele>56</ele></trkpt>
<trkpt lat="47.39847" lon="0.92523"><ele>57</ele></trkpt>
<trkpt lat="47.39846" lon="0.92535"><ele>58</ele></trkpt>
<trkpt lat="47.39839" lon="0.92538"><ele>58</ele></trkpt>
<trkpt lat="47.39800" lon="0.92550"><ele>60</ele></trkpt>
<trkpt lat="47.39733" lon="0.92562"><ele>64</ele></trkpt>
<trkpt lat="47.39691" lon="0.92580"><ele>65</ele></trkpt>
<trkpt lat="47.39667" lon="0.92590"><ele>66</ele></trkpt>
<trkpt lat="47.39587" lon="0.92643"><ele>69</ele></trkpt>
<trkpt lat="47.39566" lon="0.92648"><ele>71</ele></trkpt>
<trkpt lat="47.39536" lon="0.92649"><ele>72</ele></trkpt>
<trkpt lat="47.39387" lon="0.92640"><ele>76</ele></trkpt>
<trkpt lat="47.39381" lon="0.92644"><ele>77</ele></trkpt>
<trkpt lat="47.39327" lon="0.92605"><ele>77</ele></trkpt>
<trkpt lat="47.39282" lon="0.92538"><ele>78</ele></trkpt>
<trkpt lat="47.39223" lon="0.92461"><ele>84</ele></trkpt>
<trkpt lat="47.39199" lon="0.92395"><ele>86</ele></trkpt>
<trkpt lat="47.39150" lon="0.92320"><ele>87</ele></trkpt>
<trkpt lat="47.39121" lon="0.92254"><ele>87</ele></trkpt>
<trkpt lat="47.39064" lon="0.92146"><ele>84</ele></trkpt>
<trkpt lat="47.39019" lon="0.92026"><ele>86</ele></trkpt>
<trkpt lat="47.39009" lon="0.91987"><ele>86</ele></trkpt>
<trkpt lat="47.38980" lon="0.91861"><ele>86</ele></trkpt>
<trkpt lat="47.38970" lon="0.91782"><ele>85</ele></trkpt>
<trkpt lat="47.38967" lon="0.91779"><ele>85</ele></trkpt>
<trkpt lat="47.38945" lon="0.91233"><ele>81</ele></trkpt>
<trkpt lat="47.38948" lon="0.90949"><ele>84</ele></trkpt>
<trkpt lat="47.38946" lon="0.90930"><ele>84</ele></trkpt>
<trkpt lat="47.38952" lon="0.90920"><ele>84</ele></trkpt>
<trkpt lat="47.38954" lon="0.90881"><ele>84</ele></trkpt>
<trkpt lat="47.38947" lon="0.90794"><ele>84</ele></trkpt>
<trkpt lat="47.38928" lon="0.90682"><ele>85</ele></trkpt>
<trkpt lat="47.38925" lon="0.90639"><ele>84</ele></trkpt>
<trkpt lat="47.38931" lon="0.90576"><ele>85</ele></trkpt>
<trkpt lat="47.38940" lon="0.90230"><ele>90</ele></trkpt>
<trkpt lat="47.38917" lon="0.89921"><ele>93</ele></trkpt>
<trkpt lat="47.38891" lon="0.89778"><ele>93</ele></trkpt>
<trkpt lat="47.38869" lon="0.89429"><ele>92</ele></trkpt>
<trkpt lat="47.38869" lon="0.89363"><ele>91</ele></trkpt>
<trkpt lat="47.38885" lon="0.89147"><ele>91</ele></trkpt>
<trkpt lat="47.38886" lon="0.89077"><ele>90</ele></trkpt>
<trkpt lat="47.38881" lon="0.88904"><ele>90</ele></trkpt>
<trkpt lat="47.38887" lon="0.88812"><ele>90</ele></trkpt>
<trkpt lat="47.38883" lon="0.88805"><ele>90</ele></trkpt>
<trkpt lat="47.38896" lon="0.88766"><ele>90</ele></trkpt>
<trkpt lat="47.38921" lon="0.88616"><ele>88</ele></trkpt>
<trkpt lat="47.38911" lon="0.88515"><ele>87</ele></trkpt>
<trkpt lat="47.38906" lon="0.88376"><ele>86</ele></trkpt>
<trkpt lat="47.38840" lon="0.88380"><ele>85</ele></trkpt>
<trkpt lat="47.38801" lon="0.88396"><ele>84</ele></trkpt>
<trkpt lat="47.38777" lon="0.88197"><ele>84</ele></trkpt>
<trkpt lat="47.38770" lon="0.88046"><ele>82</ele></trkpt>
<trkpt lat="47.38761" lon="0.88021"><ele>82</ele></trkpt>
<trkpt lat="47.38735" lon="0.87988"><ele>81</ele></trkpt>
<trkpt lat="47.38689" lon="0.87902"><ele>79</ele></trkpt>
<trkpt lat="47.38635" lon="0.87722"><ele>77</ele></trkpt>
<trkpt lat="47.38600" lon="0.87521"><ele>76</ele></trkpt>
<trkpt lat="47.38569" lon="0.87407"><ele>74</ele></trkpt>
<trkpt lat="47.38555" lon="0.87337"><ele>72</ele></trkpt>
<trkpt lat="47.38553" lon="0.87309"><ele>72</ele></trkpt>
<trkpt lat="47.38564" lon="0.87205"><ele>74</ele></trkpt>
<trkpt lat="47.38555" lon="0.86997"><ele>69</ele></trkpt>
<trkpt lat="47.38555" lon="0.86749"><ele>62</ele></trkpt>
<trkpt lat="47.38550" lon="0.86491"><ele>65</ele></trkpt>
<trkpt lat="47.38524" lon="0.86487"><ele>65</ele></trkpt>
<trkpt lat="47.38522" lon="0.86464"><ele>66</ele></trkpt>
<trkpt lat="47.38535" lon="0.86454"><ele>66</ele></trkpt>
<trkpt lat="47.38546" lon="0.86426"><ele>67</ele></trkpt>
<trkpt lat="47.38567" lon="0.86283"><ele>69</ele></trkpt>
<trkpt lat="47.38567" lon="0.86238"><ele>70</ele></trkpt>
<trkpt lat="47.38535" lon="0.86058"><ele>75</ele></trkpt>
<trkpt lat="47.38389" lon="0.85711"><ele>72</ele></trkpt>
<trkpt lat="47.38372" lon="0.85602"><ele>69</ele></trkpt>
<trkpt lat="47.38448" lon="0.85515"><ele>70</ele></trkpt>
<trkpt lat="47.38520" lon="0.85418"><ele>76</ele></trkpt>
<trkpt lat="47.38584" lon="0.85273"><ele>85</ele></trkpt>
<trkpt lat="47.38608" lon="0.85229"><ele>86</ele></trkpt>
<trkpt lat="47.38650" lon="0.85158"><ele>88</ele></trkpt>
<trkpt lat="47.38696" lon="0.85108"><ele>88</ele></trkpt>
<trkpt lat="47.38722" lon="0.85085"><ele>88</ele></trkpt>
<trkpt lat="47.38775" lon="0.85050"><ele>88</ele></trkpt>
<trkpt lat="47.38782" lon="0.85042"><ele>88</ele></trkpt>
<trkpt lat="47.38830" lon="0.85045"><ele>87</ele></trkpt>
<trkpt lat="47.38955" lon="0.85041"><ele>86</ele></trkpt>
<trkpt lat="47.38996" lon="0.85026"><ele>85</ele></trkpt>
<trkpt lat="47.39005" lon="0.85021"><ele>85</ele></trkpt>
<trkpt lat="47.39023" lon="0.84996"><ele>85</ele></trkpt>
<trkpt lat="47.39034" lon="0.84970"><ele>83</ele></trkpt>
<trkpt lat="47.39036" lon="0.84957"><ele>83</ele></trkpt>
<trkpt lat="47.39022" lon="0.84751"><ele>84</ele></trkpt>
<trkpt lat="47.39018" lon="0.84588"><ele>83</ele></trkpt>
<trkpt lat="47.39001" lon="0.84506"><ele>84</ele></trkpt>
<trkpt lat="47.38977" lon="0.84411"><ele>84</ele></trkpt>
<trkpt lat="47.38970" lon="0.84361"><ele>83</ele></trkpt>
<trkpt lat="47.38965" lon="0.84267"><ele>82</ele></trkpt>
<trkpt lat="47.38958" lon="0.84242"><ele>81</ele></trkpt>
<trkpt lat="47.38963" lon="0.84210"><ele>80</ele></trkpt>
<trkpt lat="47.38982" lon="0.84172"><ele>79</ele></trkpt>
<trkpt lat="47.38991" lon="0.84089"><ele>79</ele></trkpt>
<trkpt lat="47.38992" lon="0.84060"><ele>77</ele></trkpt>
<trkpt lat="47.38988" lon="0.84034"><ele>77</ele></trkpt>
<trkpt lat="47.38990" lon="0.84018"><ele>77</ele></trkpt>
<trkpt lat="47.39015" lon="0.83933"><ele>80</ele></trkpt>
<trkpt lat="47.39024" lon="0.83893"><ele>81</ele></trkpt>
<trkpt lat="47.39021" lon="0.83890"><ele>81</ele></trkpt>
<trkpt lat="47.38996" lon="0.83886"><ele>81</ele></trkpt>
<trkpt lat="47.38908" lon="0.83879"><ele>82</ele></trkpt>
<trkpt lat="47.38899" lon="0.83721"><ele>83</ele></trkpt>
<trkpt lat="47.38901" lon="0.83671"><ele>83</ele></trkpt>
<trkpt lat="47.38923" lon="0.83516"><ele>82</ele></trkpt>
<trkpt lat="47.38927" lon="0.83447"><ele>81</ele></trkpt>
<trkpt lat="47.38923" lon="0.83075"><ele>79</ele></trkpt>
<trkpt lat="47.38927" lon="0.82824"><ele>74</ele></trkpt>
<trkpt lat="47.38919" lon="0.82775"><ele>73</ele></trkpt>
<trkpt lat="47.38913" lon="0.82753"><ele>73</ele></trkpt>
<trkpt lat="47.38893" lon="0.82729"><ele>73</ele></trkpt>
<trkpt lat="47.38910" lon="0.82614"><ele>66</ele></trkpt>
<trkpt lat="47.38923" lon="0.82496"><ele>59</ele></trkpt>
<trkpt lat="47.38930" lon="0.82466"><ele>57</ele></trkpt>
<trkpt lat="47.38953" lon="0.82410"><ele>54</ele></trkpt>
<trkpt lat="47.38965" lon="0.82360"><ele>53</ele></trkpt>
<trkpt lat="47.38974" lon="0.82308"><ele>52</ele></trkpt>
<trkpt lat="47.38984" lon="0.82203"><ele>52</ele></trkpt>
<trkpt lat="47.38961" lon="0.82132"><ele>52</ele></trkpt>
<trkpt lat="47.38900" lon="0.81983"><ele>52</ele></trkpt>
<trkpt lat="47.38842" lon="0.81799"><ele>52</ele></trkpt>
<trkpt lat="47.38781" lon="0.81505"><ele>52</ele></trkpt>
<trkpt lat="47.38723" lon="0.81531"><ele>55</ele></trkpt>
<trkpt lat="47.38698" lon="0.81383"><ele>54</ele></trkpt>
<trkpt lat="47.38776" lon="0.81366"><ele>52</ele></trkpt>
<trkpt lat="47.38789" lon="0.81358"><ele>52</ele></trkpt>
<trkpt lat="47.38835" lon="0.81313"><ele>51</ele></trkpt>
<trkpt lat="47.38932" lon="0.81264"><ele>51</ele></trkpt>
<trkpt lat="47.38949" lon="0.81252"><ele>51</ele></trkpt>
<trkpt lat="47.38979" lon="0.81221"><ele>51</ele></trkpt>
<trkpt lat="47.39065" lon="0.81093"><ele>51</ele></trkpt>
<trkpt lat="47.39097" lon="0.81060"><ele>51</ele></trkpt>
<trkpt lat="47.39150" lon="0.81021"><ele>51</ele></trkpt>
<trkpt lat="47.39176" lon="0.81008"><ele>51</ele></trkpt>
<trkpt lat="47.39169" lon="0.80985"><ele>51</ele></trkpt>
<trkpt lat="47.39165" lon="0.80863"><ele>51</ele></trkpt>
<trkpt lat="47.39180" lon="0.80491"><ele>51</ele></trkpt>
<trkpt lat="47.39274" lon="0.80506"><ele>51</ele></trkpt>
<trkpt lat="47.39283" lon="0.80385"><ele>51</ele></trkpt>
<trkpt lat="47.39294" lon="0.80042"><ele>50</ele></trkpt>
<trkpt lat="47.39311" lon="0.79775"><ele>50</ele></trkpt>
<trkpt lat="47.39321" lon="0.79703"><ele>50</ele></trkpt>
<trkpt lat="47.39330" lon="0.79707"><ele>50</ele></trkpt>
<trkpt lat="47.39361" lon="0.79523"><ele>51</ele></trkpt>
<trkpt lat="47.39373" lon="0.79500"><ele>51</ele></trkpt>
<trkpt lat="47.39369" lon="0.79467"><ele>51</ele></trkpt>
<trkpt lat="47.39375" lon="0.79370"><ele>51</ele></trkpt>
<trkpt lat="47.39365" lon="0.79141"><ele>51</ele></trkpt>
<trkpt lat="47.39374" lon="0.78915"><ele>50</ele></trkpt>
<trkpt lat="47.39379" lon="0.78898"><ele>51</ele></trkpt>
<trkpt lat="47.39386" lon="0.78889"><ele>51</ele></trkpt>
<trkpt lat="47.39412" lon="0.78864"><ele>51</ele></trkpt>
<trkpt lat="47.39420" lon="0.78864"><ele>51</ele></trkpt>
<trkpt lat="47.39421" lon="0.78847"><ele>51</ele></trkpt>
<trkpt lat="47.39425" lon="0.78844"><ele>51</ele></trkpt>
<trkpt lat="47.39428" lon="0.78831"><ele>51</ele></trkpt>
<trkpt lat="47.39382" lon="0.78739"><ele>50</ele></trkpt>
<trkpt lat="47.39387" lon="0.78715"><ele>51</ele></trkpt>
<trkpt lat="47.39386" lon="0.78689"><ele>51</ele></trkpt>
<trkpt lat="47.39381" lon="0.78680"><ele>51</ele></trkpt>
<trkpt lat="47.39379" lon="0.78658"><ele>51</ele></trkpt>
<trkpt lat="47.39379" lon="0.78602"><ele>50</ele></trkpt>
<trkpt lat="47.39384" lon="0.78580"><ele>51</ele></trkpt>
<trkpt lat="47.39379" lon="0.78543"><ele>51</ele></trkpt>
<trkpt lat="47.39381" lon="0.78510"><ele>51</ele></trkpt>
<trkpt lat="47.39401" lon="0.78478"><ele>51</ele></trkpt>
<trkpt lat="47.39401" lon="0.78462"><ele>51</ele></trkpt>
<trkpt lat="47.39381" lon="0.78435"><ele>51</ele></trkpt>
<trkpt lat="47.39381" lon="0.78428"><ele>51</ele></trkpt>
<trkpt lat="47.39422" lon="0.77986"><ele>51</ele></trkpt>
<trkpt lat="47.39435" lon="0.77880"><ele>50</ele></trkpt>
<trkpt lat="47.39334" lon="0.77885"><ele>51</ele></trkpt>
<trkpt lat="47.39232" lon="0.77909"><ele>50</ele></trkpt>
<trkpt lat="47.39227" lon="0.77770"><ele>50</ele></trkpt>
<trkpt lat="47.39226" lon="0.77640"><ele>50</ele></trkpt>
<trkpt lat="47.39247" lon="0.77536"><ele>50</ele></trkpt>
<trkpt lat="47.39260" lon="0.77244"><ele>50</ele></trkpt>
<trkpt lat="47.39264" lon="0.77033"><ele>50</ele></trkpt>
<trkpt lat="47.39296" lon="0.77034"><ele>50</ele></trkpt>
<trkpt lat="47.39305" lon="0.77023"><ele>50</ele></trkpt>
<trkpt lat="47.39297" lon="0.77011"><ele>50</ele></trkpt>
<trkpt lat="47.39192" lon="0.76989"><ele>52</ele></trkpt>
<trkpt lat="47.39181" lon="0.76965"><ele>50</ele></trkpt>
<trkpt lat="47.39181" lon="0.76933"><ele>50</ele></trkpt>
<trkpt lat="47.39195" lon="0.76806"><ele>50</ele></trkpt>
<trkpt lat="47.39233" lon="0.76545"><ele>50</ele></trkpt>
<trkpt lat="47.39275" lon="0.76205"><ele>49</ele></trkpt>
<trkpt lat="47.39292" lon="0.76041"><ele>50</ele></trkpt>
<trkpt lat="47.39300" lon="0.75930"><ele>49</ele></trkpt>
<trkpt lat="47.39304" lon="0.75786"><ele>49</ele></trkpt>
<trkpt lat="47.39302" lon="0.75751"><ele>49</ele></trkpt>
<trkpt lat="47.39317" lon="0.75726"><ele>49</ele></trkpt>
<trkpt lat="47.39313" lon="0.75718"><ele>49</ele></trkpt>
<trkpt lat="47.39310" lon="0.75694"><ele>49</ele></trkpt>
<trkpt lat="47.39340" lon="0.75598"><ele>49</ele></trkpt>
<trkpt lat="47.39412" lon="0.75405"><ele>49</ele></trkpt>
<trkpt lat="47.39425" lon="0.75349"><ele>49</ele></trkpt>
<trkpt lat="47.39438" lon="0.75246"><ele>50</ele></trkpt>
<trkpt lat="47.39437" lon="0.75226"><ele>49</ele></trkpt>
<trkpt lat="47.39426" lon="0.75162"><ele>50</ele></trkpt>
<trkpt lat="47.39385" lon="0.75019"><ele>50</ele></trkpt>
<trkpt lat="47.39388" lon="0.75013"><ele>49</ele></trkpt>
<trkpt lat="47.39367" lon="0.74948"><ele>50</ele></trkpt>
<trkpt lat="47.39363" lon="0.74913"><ele>50</ele></trkpt>
<trkpt lat="47.39375" lon="0.74648"><ele>50</ele></trkpt>
<trkpt lat="47.39372" lon="0.74636"><ele>50</ele></trkpt>
<trkpt lat="47.39379" lon="0.74497"><ele>50</ele></trkpt>
<trkpt lat="47.39382" lon="0.74203"><ele>50</ele></trkpt>
<trkpt lat="47.39402" lon="0.74024"><ele>50</ele></trkpt>
<trkpt lat="47.39414" lon="0.74023"><ele>50</ele></trkpt>
<trkpt lat="47.39475" lon="0.73924"><ele>50</ele></trkpt>
<trkpt lat="47.39499" lon="0.73876"><ele>50</ele></trkpt>
<trkpt lat="47.39513" lon="0.73837"><ele>50</ele></trkpt>
<trkpt lat="47.39540" lon="0.73732"><ele>50</ele></trkpt>
<trkpt lat="47.39557" lon="0.73607"><ele>50</ele></trkpt>
<trkpt lat="47.39611" lon="0.73417"><ele>50</ele></trkpt>
<trkpt lat="47.39608" lon="0.73390"><ele>50</ele></trkpt>
<trkpt lat="47.39629" lon="0.73379"><ele>49</ele></trkpt>
<trkpt lat="47.39627" lon="0.73364"><ele>50</ele></trkpt>
<trkpt lat="47.39632" lon="0.73337"><ele>49</ele></trkpt>
<trkpt lat="47.39644" lon="0.73305"><ele>49</ele></trkpt>
<trkpt lat="47.39652" lon="0.72810"><ele>50</ele></trkpt>
<trkpt lat="47.39650" lon="0.72762"><ele>50</ele></trkpt>
<trkpt lat="47.39662" lon="0.72673"><ele>52</ele></trkpt>
<trkpt lat="47.39672" lon="0.72668"><ele>52</ele></trkpt>
<trkpt lat="47.39671" lon="0.72652"><ele>52</ele></trkpt>
<trkpt lat="47.39676" lon="0.72649"><ele>52</ele></trkpt>
<trkpt lat="47.39690" lon="0.72604"><ele>50</ele></trkpt>
<trkpt lat="47.39701" lon="0.72591"><ele>48</ele></trkpt>
<trkpt lat="47.39713" lon="0.72590"><ele>48</ele></trkpt>
<trkpt lat="47.39699" lon="0.72446"><ele>48</ele></trkpt>
<trkpt lat="47.39694" lon="0.72295"><ele>49</ele></trkpt>
<trkpt lat="47.39702" lon="0.71616"><ele>48</ele></trkpt>
<trkpt lat="47.39699" lon="0.71482"><ele>48</ele></trkpt>
<trkpt lat="47.39707" lon="0.71320"><ele>47</ele></trkpt>
<trkpt lat="47.39701" lon="0.71218"><ele>48</ele></trkpt>
<trkpt lat="47.39700" lon="0.70870"><ele>51</ele></trkpt>
<trkpt lat="47.39709" lon="0.70653"><ele>50</ele></trkpt>
<trkpt lat="47.39715" lon="0.70593"><ele>51</ele></trkpt>
<trkpt lat="47.39709" lon="0.70581"><ele>51</ele></trkpt>
<trkpt lat="47.39725" lon="0.70433"><ele>53</ele></trkpt>
<trkpt lat="47.39734" lon="0.70401"><ele>50</ele></trkpt>
<trkpt lat="47.39760" lon="0.70175"><ele>50</ele></trkpt>
<trkpt lat="47.39761" lon="0.70000"><ele>50</ele></trkpt>
<trkpt lat="47.39764" lon="0.69965"><ele>50</ele></trkpt>
<trkpt lat="47.39763" lon="0.69844"><ele>50</ele></trkpt>
<trkpt lat="47.39767" lon="0.69818"><ele>49</ele></trkpt>
<trkpt lat="47.39757" lon="0.69284"><ele>50</ele></trkpt>
<trkpt lat="47.39747" lon="0.69284"><ele>52</ele></trkpt>
<trkpt lat="47.39630" lon="0.69334"><ele>53</ele></trkpt>
<trkpt lat="47.39570" lon="0.68905"><ele>52</ele></trkpt>
<trkpt lat="47.39555" lon="0.68745"><ele>53</ele></trkpt>
<trkpt lat="47.39496" lon="0.68438"><ele>52</ele></trkpt>
<trkpt lat="47.39423" lon="0.68469"><ele>52</ele></trkpt>
<trkpt lat="47.39424" lon="0.68474"><ele>52</ele></trkpt>
<trkpt lat="47.39410" lon="0.68480"><ele>53</ele></trkpt>
<trkpt lat="47.39424" lon="0.68474"><ele>52</ele></trkpt>
<trkpt lat="47.39423" lon="0.68469"><ele>52</ele></trkpt>
<trkpt lat="47.39618" lon="0.68387"><ele>52</ele></trkpt>
<trkpt lat="47.39622" lon="0.68372"><ele>52</ele></trkpt>
<trkpt lat="47.39626" lon="0.68370"><ele>52</ele></trkpt>
<trkpt lat="47.39639" lon="0.68368"><ele>52</ele></trkpt>
<trkpt lat="47.39645" lon="0.68372"><ele>52</ele></trkpt>
<trkpt lat="47.39649" lon="0.68383"><ele>52</ele></trkpt>
<trkpt lat="47.39656" lon="0.68378"><ele>52</ele></trkpt>
<trkpt lat="47.39664" lon="0.68382"><ele>51</ele></trkpt>
<trkpt lat="47.39673" lon="0.68422"><ele>51</ele></trkpt>
<trkpt lat="47.39681" lon="0.68424"><ele>50</ele></trkpt>
<trkpt lat="47.39677" lon="0.68394"><ele>49</ele></trkpt>
<trkpt lat="47.39687" lon="0.68388"><ele>47</ele></trkpt>
<trkpt lat="47.39683" lon="0.68357"><ele>48</ele></trkpt>
<trkpt lat="47.39684" lon="0.68268"><ele>46</ele></trkpt>
<trkpt lat="47.39668" lon="0.67954"><ele>46</ele></trkpt>
<trkpt lat="47.39676" lon="0.67944"><ele>45</ele></trkpt>
<trkpt lat="47.39671" lon="0.67878"><ele>45</ele></trkpt>
<trkpt lat="47.39574" lon="0.67414"><ele>44</ele></trkpt>
<trkpt lat="47.39572" lon="0.67410"><ele>44</ele></trkpt>
<trkpt lat="47.39565" lon="0.67410"><ele>45</ele></trkpt>
<trkpt lat="47.39556" lon="0.67386"><ele>46</ele></trkpt>
<trkpt lat="47.39547" lon="0.67337"><ele>46</ele></trkpt>
<trkpt lat="47.39508" lon="0.67099"><ele>46</ele></trkpt>
<trkpt lat="47.39494" lon="0.67029"><ele>46</ele></trkpt>
<trkpt lat="47.39469" lon="0.66852"><ele>45</ele></trkpt>
<trkpt lat="47.39461" lon="0.66825"><ele>46</ele></trkpt>
<trkpt lat="47.39406" lon="0.66501"><ele>46</ele></trkpt>
<trkpt lat="47.39375" lon="0.66234"><ele>46</ele></trkpt>
<trkpt lat="47.39346" lon="0.66090"><ele>46</ele></trkpt>
<trkpt lat="47.39297" lon="0.65936"><ele>46</ele></trkpt>
<trkpt lat="47.39269" lon="0.65885"><ele>46</ele></trkpt>
<trkpt lat="47.39214" lon="0.65728"><ele>45</ele></trkpt>
<trkpt lat="47.39204" lon="0.65723"><ele>46</ele></trkpt>
<trkpt lat="47.39194" lon="0.65687"><ele>46</ele></trkpt>
<trkpt lat="47.39174" lon="0.65598"><ele>47</ele></trkpt>
<trkpt lat="47.39164" lon="0.65537"><ele>45</ele></trkpt>
<trkpt lat="47.39150" lon="0.65419"><ele>46</ele></trkpt>
<trkpt lat="47.39134" lon="0.65329"><ele>45</ele></trkpt>
<trkpt lat="47.39100" lon="0.65206"><ele>46</ele></trkpt>
<trkpt lat="47.39025" lon="0.64975"><ele>44</ele></trkpt>
<trkpt lat="47.38979" lon="0.64706"><ele>47</ele></trkpt>
<trkpt lat="47.38963" lon="0.64670"><ele>49</ele></trkpt>
<trkpt lat="47.38954" lon="0.64663"><ele>50</ele></trkpt>
<trkpt lat="47.38951" lon="0.64655"><ele>50</ele></trkpt>
<trkpt lat="47.38944" lon="0.64619"><ele>49</ele></trkpt>
<trkpt lat="47.38944" lon="0.64555"><ele>49</ele></trkpt>
<trkpt lat="47.38925" lon="0.64434"><ele>46</ele></trkpt>
<trkpt lat="47.38898" lon="0.64367"><ele>46</ele></trkpt>
<trkpt lat="47.38855" lon="0.64285"><ele>47</ele></trkpt>
<trkpt lat="47.38847" lon="0.64291"><ele>46</ele></trkpt>
<trkpt lat="47.38812" lon="0.64201"><ele>47</ele></trkpt>
<trkpt lat="47.38747" lon="0.63936"><ele>47</ele></trkpt>
<trkpt lat="47.38643" lon="0.63406"><ele>46</ele></trkpt>
<trkpt lat="47.38605" lon="0.63320"><ele>46</ele></trkpt>
<trkpt lat="47.38569" lon="0.63178"><ele>45</ele></trkpt>
<trkpt lat="47.38558" lon="0.63110"><ele>46</ele></trkpt>
<trkpt lat="47.38545" lon="0.62950"><ele>44</ele></trkpt>
<trkpt lat="47.38528" lon="0.62840"><ele>46</ele></trkpt>
<trkpt lat="47.38518" lon="0.62722"><ele>47</ele></trkpt>
<trkpt lat="47.38518" lon="0.62697"><ele>47</ele></trkpt>
<trkpt lat="47.38526" lon="0.62659"><ele>47</ele></trkpt>
<trkpt lat="47.38527" lon="0.62639"><ele>47</ele></trkpt>
<trkpt lat="47.38538" lon="0.62601"><ele>47</ele></trkpt>
<trkpt lat="47.38531" lon="0.62573"><ele>47</ele></trkpt>
<trkpt lat="47.38517" lon="0.62522"><ele>47</ele></trkpt>
<trkpt lat="47.38499" lon="0.62487"><ele>47</ele></trkpt>
<trkpt lat="47.38461" lon="0.62463"><ele>46</ele></trkpt>
<trkpt lat="47.38436" lon="0.62452"><ele>46</ele></trkpt>
<trkpt lat="47.38419" lon="0.62452"><ele>46</ele></trkpt>
<trkpt lat="47.38412" lon="0.62447"><ele>46</ele></trkpt>
<trkpt lat="47.38400" lon="0.62429"><ele>46</ele></trkpt>
<trkpt lat="47.38387" lon="0.62387"><ele>46</ele></trkpt>
<trkpt lat="47.38375" lon="0.62368"><ele>46</ele></trkpt>
<trkpt lat="47.38370" lon="0.62366"><ele>46</ele></trkpt>
<trkpt lat="47.38219" lon="0.62392"><ele>46</ele></trkpt>
<trkpt lat="47.38185" lon="0.62288"><ele>47</ele></trkpt>
<trkpt lat="47.38178" lon="0.62277"><ele>48</ele></trkpt>
<trkpt lat="47.38170" lon="0.62274"><ele>48</ele></trkpt>
<trkpt lat="47.38145" lon="0.62177"><ele>48</ele></trkpt>
<trkpt lat="47.38134" lon="0.62122"><ele>49</ele></trkpt>
<trkpt lat="47.38120" lon="0.62003"><ele>48</ele></trkpt>
<trkpt lat="47.38110" lon="0.62008"><ele>48</ele></trkpt>
<trkpt lat="47.38010" lon="0.62021"><ele>46</ele></trkpt>
<trkpt lat="47.38007" lon="0.61987"><ele>46</ele></trkpt>
<trkpt lat="47.37986" lon="0.61873"><ele>45</ele></trkpt>
<trkpt lat="47.37967" lon="0.61792"><ele>45</ele></trkpt>
<trkpt lat="47.37937" lon="0.61695"><ele>46</ele></trkpt>
<trkpt lat="47.37932" lon="0.61666"><ele>46</ele></trkpt>
<trkpt lat="47.37904" lon="0.61391"><ele>45</ele></trkpt>
<trkpt lat="47.37897" lon="0.61351"><ele>45</ele></trkpt>
<trkpt lat="47.37821" lon="0.61081"><ele>45</ele></trkpt>
<trkpt lat="47.37770" lon="0.60926"><ele>45</ele></trkpt>
<trkpt lat="47.37712" lon="0.60769"><ele>45</ele></trkpt>
<trkpt lat="47.37689" lon="0.60718"><ele>45</ele></trkpt>
<trkpt lat="47.37683" lon="0.60721"><ele>45</ele></trkpt>
<trkpt lat="47.37678" lon="0.60699"><ele>45</ele></trkpt>
<trkpt lat="47.37671" lon="0.60654"><ele>45</ele></trkpt>
<trkpt lat="47.37669" lon="0.60527"><ele>45</ele></trkpt>
<trkpt lat="47.37677" lon="0.60471"><ele>45</ele></trkpt>
<trkpt lat="47.37677" lon="0.60279"><ele>45</ele></trkpt>
<trkpt lat="47.37673" lon="0.60242"><ele>45</ele></trkpt>
<trkpt lat="47.37651" lon="0.60129"><ele>45</ele></trkpt>
<trkpt lat="47.37644" lon="0.60069"><ele>45</ele></trkpt>
<trkpt lat="47.37640" lon="0.59929"><ele>45</ele></trkpt>
<trkpt lat="47.37630" lon="0.59830"><ele>46</ele></trkpt>
<trkpt lat="47.37631" lon="0.59815"><ele>45</ele></trkpt>
<trkpt lat="47.37637" lon="0.59815"><ele>45</ele></trkpt>
<trkpt lat="47.37637" lon="0.59802"><ele>45</ele></trkpt>
<trkpt lat="47.37635" lon="0.59726"><ele>45</ele></trkpt>
<trkpt lat="47.37629" lon="0.59671"><ele>45</ele></trkpt>
<trkpt lat="47.37618" lon="0.59595"><ele>45</ele></trkpt>
<trkpt lat="47.37609" lon="0.59570"><ele>45</ele></trkpt>
<trkpt lat="47.37555" lon="0.59521"><ele>45</ele></trkpt>
<trkpt lat="47.37557" lon="0.59511"><ele>45</ele></trkpt>
<trkpt lat="47.37549" lon="0.59444"><ele>45</ele></trkpt>
<trkpt lat="47.37529" lon="0.59330"><ele>45</ele></trkpt>
<trkpt lat="47.37484" lon="0.59173"><ele>44</ele></trkpt>
<trkpt lat="47.37460" lon="0.59080"><ele>44</ele></trkpt>
<trkpt lat="47.37459" lon="0.59062"><ele>44</ele></trkpt>
<trkpt lat="47.37463" lon="0.59045"><ele>44</ele></trkpt>
<trkpt lat="47.37497" lon="0.58994"><ele>44</ele></trkpt>
<trkpt lat="47.37436" lon="0.58775"><ele>44</ele></trkpt>
<trkpt lat="47.37410" lon="0.58613"><ele>44</ele></trkpt>
<trkpt lat="47.37399" lon="0.58562"><ele>44</ele></trkpt>
<trkpt lat="47.37390" lon="0.58538"><ele>44</ele></trkpt>
<trkpt lat="47.37376" lon="0.58513"><ele>44</ele></trkpt>
<trkpt lat="47.37315" lon="0.58430"><ele>44</ele></trkpt>
<trkpt lat="47.37301" lon="0.58418"><ele>44</ele></trkpt>
<trkpt lat="47.37262" lon="0.58407"><ele>44</ele></trkpt>
<trkpt lat="47.37236" lon="0.58391"><ele>44</ele></trkpt>
<trkpt lat="47.37225" lon="0.58374"><ele>44</ele></trkpt>
<trkpt lat="47.37191" lon="0.58298"><ele>45</ele></trkpt>
<trkpt lat="47.37139" lon="0.58226"><ele>45</ele></trkpt>
<trkpt lat="47.37109" lon="0.58197"><ele>45</ele></trkpt>
<trkpt lat="47.37066" lon="0.58181"><ele>44</ele></trkpt>
<trkpt lat="47.37051" lon="0.58164"><ele>44</ele></trkpt>
<trkpt lat="47.37027" lon="0.58118"><ele>44</ele></trkpt>
<trkpt lat="47.36984" lon="0.58018"><ele>44</ele></trkpt>
<trkpt lat="47.36884" lon="0.57823"><ele>44</ele></trkpt>
<trkpt lat="47.36839" lon="0.57710"><ele>44</ele></trkpt>
<trkpt lat="47.36818" lon="0.57632"><ele>44</ele></trkpt>
<trkpt lat="47.36773" lon="0.57420"><ele>44</ele></trkpt>
<trkpt lat="47.36739" lon="0.57317"><ele>44</ele></trkpt>
<trkpt lat="47.36727" lon="0.57271"><ele>44</ele></trkpt>
<trkpt lat="47.36722" lon="0.57232"><ele>44</ele></trkpt>
<trkpt lat="47.36716" lon="0.57116"><ele>44</ele></trkpt>
<trkpt lat="47.36710" lon="0.57048"><ele>43</ele></trkpt>
<trkpt lat="47.36693" lon="0.56957"><ele>44</ele></trkpt>
<trkpt lat="47.36661" lon="0.56865"><ele>44</ele></trkpt>
<trkpt lat="47.36657" lon="0.56844"><ele>44</ele></trkpt>
<trkpt lat="47.36671" lon="0.56738"><ele>44</ele></trkpt>
<trkpt lat="47.36685" lon="0.56694"><ele>44</ele></trkpt>
<trkpt lat="47.36711" lon="0.56659"><ele>44</ele></trkpt>
<trkpt lat="47.36748" lon="0.56637"><ele>44</ele></trkpt>
<trkpt lat="47.36755" lon="0.56628"><ele>44</ele></trkpt>
<trkpt lat="47.36756" lon="0.56613"><ele>44</ele></trkpt>
<trkpt lat="47.36738" lon="0.56551"><ele>43</ele></trkpt>
<trkpt lat="47.36715" lon="0.56558"><ele>43</ele></trkpt>
<trkpt lat="47.36670" lon="0.56584"><ele>43</ele></trkpt>
<trkpt lat="47.36609" lon="0.56607"><ele>43</ele></trkpt>
<trkpt lat="47.36559" lon="0.56615"><ele>43</ele></trkpt>
<trkpt lat="47.36517" lon="0.56613"><ele>44</ele></trkpt>
<trkpt lat="47.36475" lon="0.56628"><ele>44</ele></trkpt>
<trkpt lat="47.36454" lon="0.56628"><ele>46</ele></trkpt>
<trkpt lat="47.36445" lon="0.56614"><ele>47</ele></trkpt>
<trkpt lat="47.36445" lon="0.56495"><ele>47</ele></trkpt>
<trkpt lat="47.36434" lon="0.56366"><ele>44</ele></trkpt>
<trkpt lat="47.36413" lon="0.56239"><ele>45</ele></trkpt>
<trkpt lat="47.36403" lon="0.56202"><ele>43</ele></trkpt>
<trkpt lat="47.36373" lon="0.56131"><ele>43</ele></trkpt>
<trkpt lat="47.36315" lon="0.56024"><ele>42</ele></trkpt>
<trkpt lat="47.36294" lon="0.55978"><ele>43</ele></trkpt>
<trkpt lat="47.36246" lon="0.55866"><ele>45</ele></trkpt>
<trkpt lat="47.36205" lon="0.55764"><ele>44</ele></trkpt>
<trkpt lat="47.36166" lon="0.55633"><ele>46</ele></trkpt>
<trkpt lat="47.36159" lon="0.55594"><ele>46</ele></trkpt>
<trkpt lat="47.36170" lon="0.55495"><ele>46</ele></trkpt>
<trkpt lat="47.36173" lon="0.55434"><ele>44</ele></trkpt>
<trkpt lat="47.36171" lon="0.55358"><ele>46</ele></trkpt>
<trkpt lat="47.36147" lon="0.55249"><ele>44</ele></trkpt>
<trkpt lat="47.36117" lon="0.55147"><ele>46</ele></trkpt>
<trkpt lat="47.36105" lon="0.55073"><ele>45</ele></trkpt>
<trkpt lat="47.36106" lon="0.55046"><ele>45</ele></trkpt>
<trkpt lat="47.36130" lon="0.54967"><ele>44</ele></trkpt>
<trkpt lat="47.36132" lon="0.54946"><ele>44</ele></trkpt>
<trkpt lat="47.36128" lon="0.54915"><ele>44</ele></trkpt>
<trkpt lat="47.36114" lon="0.54876"><ele>45</ele></trkpt>
<trkpt lat="47.36083" lon="0.54836"><ele>46</ele></trkpt>
<trkpt lat="47.36006" lon="0.54699"><ele>45</ele></trkpt>
<trkpt lat="47.35977" lon="0.54658"><ele>44</ele></trkpt>
<trkpt lat="47.35897" lon="0.54570"><ele>44</ele></trkpt>
<trkpt lat="47.35883" lon="0.54545"><ele>45</ele></trkpt>
<trkpt lat="47.35880" lon="0.54522"><ele>45</ele></trkpt>
<trkpt lat="47.35881" lon="0.54511"><ele>45</ele></trkpt>
<trkpt lat="47.35932" lon="0.54512"><ele>43</ele></trkpt>
<trkpt lat="47.36026" lon="0.54492"><ele>44</ele></trkpt>
<trkpt lat="47.35971" lon="0.54217"><ele>43</ele></trkpt>
<trkpt lat="47.35953" lon="0.54166"><ele>43</ele></trkpt>
<trkpt lat="47.35797" lon="0.54258"><ele>44</ele></trkpt>
<trkpt lat="47.35749" lon="0.54316"><ele>42</ele></trkpt>
<trkpt lat="47.35668" lon="0.54385"><ele>42</ele></trkpt>
<trkpt lat="47.35624" lon="0.54429"><ele>43</ele></trkpt>
<trkpt lat="47.35599" lon="0.54433"><ele>43</ele></trkpt>
<trkpt lat="47.35526" lon="0.54423"><ele>43</ele></trkpt>
<trkpt lat="47.35495" lon="0.54429"><ele>43</ele></trkpt>
<trkpt lat="47.35482" lon="0.54436"><ele>43</ele></trkpt>
<trkpt lat="47.35455" lon="0.54471"><ele>44</ele></trkpt>
<trkpt lat="47.35440" lon="0.54484"><ele>44</ele></trkpt>
<trkpt lat="47.35435" lon="0.54484"><ele>44</ele></trkpt>
<trkpt lat="47.35422" lon="0.54476"><ele>43</ele></trkpt>
<trkpt lat="47.35403" lon="0.54449"><ele>43</ele></trkpt>
<trkpt lat="47.35390" lon="0.54445"><ele>43</ele></trkpt>
<trkpt lat="47.35328" lon="0.54466"><ele>43</ele></trkpt>
<trkpt lat="47.35276" lon="0.54490"><ele>43</ele></trkpt>
<trkpt lat="47.35272" lon="0.54486"><ele>43</ele></trkpt>
<trkpt lat="47.35241" lon="0.54423"><ele>43</ele></trkpt>
<trkpt lat="47.35222" lon="0.54377"><ele>43</ele></trkpt>
<trkpt lat="47.35209" lon="0.54326"><ele>43</ele></trkpt>
<trkpt lat="47.35199" lon="0.54258"><ele>43</ele></trkpt>
<trkpt lat="47.35192" lon="0.54232"><ele>43</ele></trkpt>
<trkpt lat="47.35186" lon="0.54227"><ele>43</ele></trkpt>
<trkpt lat="47.35160" lon="0.54226"><ele>43</ele></trkpt>
<trkpt lat="47.34987" lon="0.54289"><ele>43</ele></trkpt>
<trkpt lat="47.34952" lon="0.54310"><ele>43</ele></trkpt>
<trkpt lat="47.34936" lon="0.54336"><ele>44</ele></trkpt>
<trkpt lat="47.34909" lon="0.54354"><ele>44</ele></trkpt>
<trkpt lat="47.34886" lon="0.54278"><ele>46</ele></trkpt>
<trkpt lat="47.34880" lon="0.54270"><ele>44</ele></trkpt>
<trkpt lat="47.34770" lon="0.54309"><ele>45</ele></trkpt>
<trkpt lat="47.34765" lon="0.54233"><ele>42</ele></trkpt>
<trkpt lat="47.34749" lon="0.54138"><ele>42</ele></trkpt>
<trkpt lat="47.34721" lon="0.53837"><ele>41</ele></trkpt>
<trkpt lat="47.34699" lon="0.53667"><ele>43</ele></trkpt>
<trkpt lat="47.34694" lon="0.53649"><ele>44</ele></trkpt>
<trkpt lat="47.34685" lon="0.53651"><ele>45</ele></trkpt>
<trkpt lat="47.34664" lon="0.53560"><ele>45</ele></trkpt>
<trkpt lat="47.34659" lon="0.53560"><ele>46</ele></trkpt>
<trkpt lat="47.34652" lon="0.53555"><ele>47</ele></trkpt>
<trkpt lat="47.34633" lon="0.53517"><ele>51</ele></trkpt>
<trkpt lat="47.34601" lon="0.53438"><ele>58</ele></trkpt>
<trkpt lat="47.34578" lon="0.53394"><ele>64</ele></trkpt>
<trkpt lat="47.34559" lon="0.53337"><ele>69</ele></trkpt>
<trkpt lat="47.34538" lon="0.53288"><ele>73</ele></trkpt>
<trkpt lat="47.34511" lon="0.53236"><ele>78</ele></trkpt>
<trkpt lat="47.34492" lon="0.53212"><ele>80</ele></trkpt>
<trkpt lat="47.34473" lon="0.53200"><ele>83</ele></trkpt>
<trkpt lat="47.34450" lon="0.53197"><ele>85</ele></trkpt>
<trkpt lat="47.34412" lon="0.53209"><ele>88</ele></trkpt>
<trkpt lat="47.34381" lon="0.53256"><ele>90</ele></trkpt>
<trkpt lat="47.34354" lon="0.53275"><ele>90</ele></trkpt>
<trkpt lat="47.34298" lon="0.53300"><ele>91</ele></trkpt>
<trkpt lat="47.34276" lon="0.53300"><ele>92</ele></trkpt>
<trkpt lat="47.34264" lon="0.53294"><ele>92</ele></trkpt>
<trkpt lat="47.34230" lon="0.53262"><ele>92</ele></trkpt>
<trkpt lat="47.34168" lon="0.53225"><ele>91</ele></trkpt>
<trkpt lat="47.34153" lon="0.53192"><ele>90</ele></trkpt>
<trkpt lat="47.34144" lon="0.53185"><ele>90</ele></trkpt>
<trkpt lat="47.34102" lon="0.53183"><ele>90</ele></trkpt>
<trkpt lat="47.34064" lon="0.53164"><ele>88</ele></trkpt>
<trkpt lat="47.34035" lon="0.53161"><ele>86</ele></trkpt>
<trkpt lat="47.34023" lon="0.53156"><ele>84</ele></trkpt>
<trkpt lat="47.34014" lon="0.53145"><ele>84</ele></trkpt>
<trkpt lat="47.33997" lon="0.53111"><ele>84</ele></trkpt>
<trkpt lat="47.33944" lon="0.53055"><ele>83</ele></trkpt>
<trkpt lat="47.33923" lon="0.53011"><ele>83</ele></trkpt>
<trkpt lat="47.33866" lon="0.52747"><ele>83</ele></trkpt>
<trkpt lat="47.33853" lon="0.52719"><ele>84</ele></trkpt>
<trkpt lat="47.33779" lon="0.52611"><ele>86</ele></trkpt>
<trkpt lat="47.33746" lon="0.52543"><ele>86</ele></trkpt>
<trkpt lat="47.33716" lon="0.52462"><ele>85</ele></trkpt>
<trkpt lat="47.33675" lon="0.52311"><ele>80</ele></trkpt>
<trkpt lat="47.33655" lon="0.52259"><ele>82</ele></trkpt>
<trkpt lat="47.33597" lon="0.52153"><ele>85</ele></trkpt>
<trkpt lat="47.33542" lon="0.52085"><ele>86</ele></trkpt>
<trkpt lat="47.33505" lon="0.52050"><ele>87</ele></trkpt>
<trkpt lat="47.33396" lon="0.51982"><ele>88</ele></trkpt>
<trkpt lat="47.33377" lon="0.51964"><ele>89</ele></trkpt>
<trkpt lat="47.33361" lon="0.51941"><ele>89</ele></trkpt>
<trkpt lat="47.33332" lon="0.51843"><ele>90</ele></trkpt>
<trkpt lat="47.33311" lon="0.51748"><ele>91</ele></trkpt>
<trkpt lat="47.33303" lon="0.51674"><ele>92</ele></trkpt>
<trkpt lat="47.33287" lon="0.51445"><ele>92</ele></trkpt>
<trkpt lat="47.33281" lon="0.51397"><ele>91</ele></trkpt>
<trkpt lat="47.33275" lon="0.51374"><ele>91</ele></trkpt>
<trkpt lat="47.33262" lon="0.51341"><ele>90</ele></trkpt>
<trkpt lat="47.33232" lon="0.51298"><ele>90</ele></trkpt>
<trkpt lat="47.33157" lon="0.51202"><ele>89</ele></trkpt>
<trkpt lat="47.33136" lon="0.51185"><ele>89</ele></trkpt>
<trkpt lat="47.32968" lon="0.51078"><ele>92</ele></trkpt>
<trkpt lat="47.32931" lon="0.51049"><ele>92</ele></trkpt>
<trkpt lat="47.32872" lon="0.50992"><ele>90</ele></trkpt>
<trkpt lat="47.32809" lon="0.50920"><ele>90</ele></trkpt>
<trkpt lat="47.32711" lon="0.50837"><ele>90</ele></trkpt>
<trkpt lat="47.32693" lon="0.50814"><ele>90</ele></trkpt>
<trkpt lat="47.32671" lon="0.50819"><ele>90</ele></trkpt>
<trkpt lat="47.32563" lon="0.50871"><ele>91</ele></trkpt>
<trkpt lat="47.32478" lon="0.50898"><ele>92</ele></trkpt>
<trkpt lat="47.32223" lon="0.50943"><ele>91</ele></trkpt>
<trkpt lat="47.32102" lon="0.50969"><ele>91</ele></trkpt>
<trkpt lat="47.32032" lon="0.50970"><ele>90</ele></trkpt>
<trkpt lat="47.31895" lon="0.50947"><ele>87</ele></trkpt>
<trkpt lat="47.31879" lon="0.50849"><ele>88</ele></trkpt>
<trkpt lat="47.31855" lon="0.50755"><ele>88</ele></trkpt>
<trkpt lat="47.31841" lon="0.50714"><ele>88</ele></trkpt>
<trkpt lat="47.31822" lon="0.50678"><ele>88</ele></trkpt>
<trkpt lat="47.31798" lon="0.50660"><ele>88</ele></trkpt>
<trkpt lat="47.31781" lon="0.50654"><ele>87</ele></trkpt>
<trkpt lat="47.31736" lon="0.50654"><ele>85</ele></trkpt>
<trkpt lat="47.31730" lon="0.50645"><ele>84</ele></trkpt>
<trkpt lat="47.31704" lon="0.50575"><ele>81</ele></trkpt>
<trkpt lat="47.31668" lon="0.50555"><ele>80</ele></trkpt>
<trkpt lat="47.31636" lon="0.50527"><ele>81</ele></trkpt>
<trkpt lat="47.31623" lon="0.50522"><ele>82</ele></trkpt>
<trkpt lat="47.31610" lon="0.50523"><ele>84</ele></trkpt>
<trkpt lat="47.31580" lon="0.50535"><ele>86</ele></trkpt>
<trkpt lat="47.31539" lon="0.50338"><ele>85</ele></trkpt>
<trkpt lat="47.31533" lon="0.50294"><ele>84</ele></trkpt>
<trkpt lat="47.31524" lon="0.50161"><ele>83</ele></trkpt>
<trkpt lat="47.31502" lon="0.49972"><ele>80</ele></trkpt>
<trkpt lat="47.31476" lon="0.49867"><ele>80</ele></trkpt>
<trkpt lat="47.31427" lon="0.49751"><ele>81</ele></trkpt>
<trkpt lat="47.31389" lon="0.49628"><ele>82</ele></trkpt>
<trkpt lat="47.31384" lon="0.49599"><ele>83</ele></trkpt>
<trkpt lat="47.31382" lon="0.49529"><ele>83</ele></trkpt>
<trkpt lat="47.31375" lon="0.49433"><ele>83</ele></trkpt>
<trkpt lat="47.31367" lon="0.49375"><ele>83</ele></trkpt>
<trkpt lat="47.31344" lon="0.49307"><ele>82</ele></trkpt>
<trkpt lat="47.31289" lon="0.49180"><ele>83</ele></trkpt>
<trkpt lat="47.31270" lon="0.49115"><ele>82</ele></trkpt>
<trkpt lat="47.31254" lon="0.49075"><ele>82</ele></trkpt>
<trkpt lat="47.31247" lon="0.49080"><ele>82</ele></trkpt>
<trkpt lat="47.31168" lon="0.49093"><ele>81</ele></trkpt>
<trkpt lat="47.31130" lon="0.49124"><ele>80</ele></trkpt>
<trkpt lat="47.31105" lon="0.49135"><ele>80</ele></trkpt>
<trkpt lat="47.31065" lon="0.49134"><ele>78</ele></trkpt>
<trkpt lat="47.30955" lon="0.49119"><ele>74</ele></trkpt>
<trkpt lat="47.30937" lon="0.49122"><ele>74</ele></trkpt>
<trkpt lat="47.30900" lon="0.49137"><ele>76</ele></trkpt>
<trkpt lat="47.30859" lon="0.49144"><ele>76</ele></trkpt>
<trkpt lat="47.30853" lon="0.49154"><ele>77</ele></trkpt>
<trkpt lat="47.30844" lon="0.49011"><ele>65</ele></trkpt>
<trkpt lat="47.30833" lon="0.48969"><ele>63</ele></trkpt>
<trkpt lat="47.30783" lon="0.48888"><ele>64</ele></trkpt>
<trkpt lat="47.30744" lon="0.48793"><ele>72</ele></trkpt>
<trkpt lat="47.30683" lon="0.48670"><ele>72</ele></trkpt>
<trkpt lat="47.30654" lon="0.48627"><ele>71</ele></trkpt>
<trkpt lat="47.30606" lon="0.48570"><ele>69</ele></trkpt>
<trkpt lat="47.30579" lon="0.48520"><ele>68</ele></trkpt>
<trkpt lat="47.30553" lon="0.48494"><ele>68</ele></trkpt>
<trkpt lat="47.30448" lon="0.48407"><ele>69</ele></trkpt>
<trkpt lat="47.30414" lon="0.48372"><ele>69</ele></trkpt>
<trkpt lat="47.30337" lon="0.48245"><ele>72</ele></trkpt>
<trkpt lat="47.30324" lon="0.48211"><ele>73</ele></trkpt>
<trkpt lat="47.30316" lon="0.48173"><ele>74</ele></trkpt>
<trkpt lat="47.30311" lon="0.48113"><ele>77</ele></trkpt>
<trkpt lat="47.30295" lon="0.48002"><ele>80</ele></trkpt>
<trkpt lat="47.30260" lon="0.48034"><ele>76</ele></trkpt>
<trkpt lat="47.30237" lon="0.48045"><ele>75</ele></trkpt>
<trkpt lat="47.30136" lon="0.48074"><ele>78</ele></trkpt>
<trkpt lat="47.30040" lon="0.48116"><ele>82</ele></trkpt>
<trkpt lat="47.30027" lon="0.48117"><ele>82</ele></trkpt>
<trkpt lat="47.29877" lon="0.48084"><ele>81</ele></trkpt>
<trkpt lat="47.29741" lon="0.48073"><ele>82</ele></trkpt>
<trkpt lat="47.29690" lon="0.48061"><ele>81</ele></trkpt>
<trkpt lat="47.29616" lon="0.48035"><ele>81</ele></trkpt>
<trkpt lat="47.29503" lon="0.48015"><ele>81</ele></trkpt>
<trkpt lat="47.29370" lon="0.47957"><ele>82</ele></trkpt>
<trkpt lat="47.29253" lon="0.47926"><ele>83</ele></trkpt>
<trkpt lat="47.29223" lon="0.47925"><ele>84</ele></trkpt>
<trkpt lat="47.29031" lon="0.47961"><ele>85</ele></trkpt>
<trkpt lat="47.28759" lon="0.47963"><ele>90</ele></trkpt>
<trkpt lat="47.28702" lon="0.47968"><ele>90</ele></trkpt>
<trkpt lat="47.28411" lon="0.48022"><ele>93</ele></trkpt>
<trkpt lat="47.28264" lon="0.48022"><ele>92</ele></trkpt>
<trkpt lat="47.28241" lon="0.48018"><ele>92</ele></trkpt>
<trkpt lat="47.28077" lon="0.47968"><ele>95</ele></trkpt>
<trkpt lat="47.28004" lon="0.47952"><ele>96</ele></trkpt>
<trkpt lat="47.27983" lon="0.48068"><ele>95</ele></trkpt>
<trkpt lat="47.28003" lon="0.48275"><ele>95</ele></trkpt>
<trkpt lat="47.27983" lon="0.48365"><ele>95</ele></trkpt>
<trkpt lat="47.27882" lon="0.48719"><ele>90</ele></trkpt>
<trkpt lat="47.27628" lon="0.48581"><ele>94</ele></trkpt>
<trkpt lat="47.27613" lon="0.48569"><ele>93</ele></trkpt>
<trkpt lat="47.27553" lon="0.48498"><ele>92</ele></trkpt>
<trkpt lat="47.27529" lon="0.48478"><ele>91</ele></trkpt>
<trkpt lat="47.27447" lon="0.48427"><ele>91</ele></trkpt>
<trkpt lat="47.27381" lon="0.48393"><ele>92</ele></trkpt>
<trkpt lat="47.27222" lon="0.48272"><ele>93</ele></trkpt>
<trkpt lat="47.27209" lon="0.48253"><ele>93</ele></trkpt>
<trkpt lat="47.27203" lon="0.48237"><ele>94</ele></trkpt>
<trkpt lat="47.27187" lon="0.48249"><ele>94</ele></trkpt>
<trkpt lat="47.27183" lon="0.48241"><ele>94</ele></trkpt>
<trkpt lat="47.27122" lon="0.48195"><ele>94</ele></trkpt>
<trkpt lat="47.27109" lon="0.48181"><ele>94</ele></trkpt>
<trkpt lat="47.26965" lon="0.47839"><ele>96</ele></trkpt>
<trkpt lat="47.26961" lon="0.47825"><ele>96</ele></trkpt>
<trkpt lat="47.26886" lon="0.47645"><ele>98</ele></trkpt>
<trkpt lat="47.26867" lon="0.47607"><ele>98</ele></trkpt>
<trkpt lat="47.26804" lon="0.47456"><ele>97</ele></trkpt>
<trkpt lat="47.26805" lon="0.47452"><ele>97</ele></trkpt>
<trkpt lat="47.26738" lon="0.47290"><ele>94</ele></trkpt>
<trkpt lat="47.26720" lon="0.47239"><ele>92</ele></trkpt>
<trkpt lat="47.26705" lon="0.47247"><ele>93</ele></trkpt>
<trkpt lat="47.26689" lon="0.47245"><ele>93</ele></trkpt>
<trkpt lat="47.26682" lon="0.47251"><ele>93</ele></trkpt>
<trkpt lat="47.26678" lon="0.47269"><ele>94</ele></trkpt>
<trkpt lat="47.26674" lon="0.47268"><ele>94</ele></trkpt>
<trkpt lat="47.26646" lon="0.47350"><ele>95</ele></trkpt>
<trkpt lat="47.26598" lon="0.47445"><ele>94</ele></trkpt>
<trkpt lat="47.26589" lon="0.47455"><ele>93</ele></trkpt>
<trkpt lat="47.26564" lon="0.47462"><ele>92</ele></trkpt>
<trkpt lat="47.26459" lon="0.47421"><ele>88</ele></trkpt>
<trkpt lat="47.26459" lon="0.47408"><ele>88</ele></trkpt>
<trkpt lat="47.26448" lon="0.47396"><ele>88</ele></trkpt>
<trkpt lat="47.26440" lon="0.47398"><ele>88</ele></trkpt>
<trkpt lat="47.26434" lon="0.47407"><ele>88</ele></trkpt>
<trkpt lat="47.26376" lon="0.47346"><ele>84</ele></trkpt>
<trkpt lat="47.26281" lon="0.47237"><ele>76</ele></trkpt>
<trkpt lat="47.26171" lon="0.47087"><ele>65</ele></trkpt>
<trkpt lat="47.26163" lon="0.47080"><ele>64</ele></trkpt>
<trkpt lat="47.26091" lon="0.47047"><ele>53</ele></trkpt>
<trkpt lat="47.26087" lon="0.47041"><ele>52</ele></trkpt>
<trkpt lat="47.26087" lon="0.47032"><ele>52</ele></trkpt>
<trkpt lat="47.26082" lon="0.47027"><ele>51</ele></trkpt>
<trkpt lat="47.26083" lon="0.47015"><ele>51</ele></trkpt>
<trkpt lat="47.26098" lon="0.46908"><ele>51</ele></trkpt>
<trkpt lat="47.26101" lon="0.46809"><ele>48</ele></trkpt>
<trkpt lat="47.26108" lon="0.46756"><ele>48</ele></trkpt>
<trkpt lat="47.26116" lon="0.46739"><ele>48</ele></trkpt>
<trkpt lat="47.26128" lon="0.46732"><ele>48</ele></trkpt>
<trkpt lat="47.26160" lon="0.46759"><ele>52</ele></trkpt>
<trkpt lat="47.26170" lon="0.46759"><ele>53</ele></trkpt>
<trkpt lat="47.26202" lon="0.46667"><ele>50</ele></trkpt>
<trkpt lat="47.26212" lon="0.46667"><ele>50</ele></trkpt>
<trkpt lat="47.26229" lon="0.46608"><ele>51</ele></trkpt>
<trkpt lat="47.26142" lon="0.46557"><ele>47</ele></trkpt>
<trkpt lat="47.26107" lon="0.46506"><ele>45</ele></trkpt>
<trkpt lat="47.25996" lon="0.46444"><ele>42</ele></trkpt>
<trkpt lat="47.25963" lon="0.46436"><ele>43</ele></trkpt>
<trkpt lat="47.25883" lon="0.46451"><ele>42</ele></trkpt>
<trkpt lat="47.25848" lon="0.46450"><ele>43</ele></trkpt>
<trkpt lat="47.25721" lon="0.46419"><ele>44</ele></trkpt>
<trkpt lat="47.25579" lon="0.46365"><ele>44</ele></trkpt>
<trkpt lat="47.25562" lon="0.46352"><ele>44</ele></trkpt>
<trkpt lat="47.25544" lon="0.46332"><ele>44</ele></trkpt>
<trkpt lat="47.25500" lon="0.46270"><ele>46</ele></trkpt>
<trkpt lat="47.25505" lon="0.46260"><ele>46</ele></trkpt>
<trkpt lat="47.25500" lon="0.46192"><ele>47</ele></trkpt>
<trkpt lat="47.25492" lon="0.46178"><ele>49</ele></trkpt>
<trkpt lat="47.25458" lon="0.46148"><ele>53</ele></trkpt>
<trkpt lat="47.25455" lon="0.46136"><ele>54</ele></trkpt>
<trkpt lat="47.25461" lon="0.46108"><ele>55</ele></trkpt>
<trkpt lat="47.25458" lon="0.46098"><ele>55</ele></trkpt>
<trkpt lat="47.25460" lon="0.46083"><ele>54</ele></trkpt>
<trkpt lat="47.25464" lon="0.45961"><ele>54</ele></trkpt>
<trkpt lat="47.25469" lon="0.45911"><ele>53</ele></trkpt>
<trkpt lat="47.25560" lon="0.45689"><ele>56</ele></trkpt>
<trkpt lat="47.25692" lon="0.45225"><ele>49</ele></trkpt>
<trkpt lat="47.25702" lon="0.45168"><ele>47</ele></trkpt>
<trkpt lat="47.25710" lon="0.45004"><ele>44</ele></trkpt>
<trkpt lat="47.25720" lon="0.44964"><ele>45</ele></trkpt>
<trkpt lat="47.25747" lon="0.44906"><ele>48</ele></trkpt>
<trkpt lat="47.25715" lon="0.44855"><ele>52</ele></trkpt>
<trkpt lat="47.25672" lon="0.44809"><ele>56</ele></trkpt>
<trkpt lat="47.25665" lon="0.44792"><ele>57</ele></trkpt>
<trkpt lat="47.25661" lon="0.44776"><ele>58</ele></trkpt>
<trkpt lat="47.25658" lon="0.44706"><ele>61</ele></trkpt>
<trkpt lat="47.25644" lon="0.44667"><ele>63</ele></trkpt>
<trkpt lat="47.25561" lon="0.44499"><ele>68</ele></trkpt>
<trkpt lat="47.25552" lon="0.44447"><ele>69</ele></trkpt>
<trkpt lat="47.25549" lon="0.44361"><ele>70</ele></trkpt>
<trkpt lat="47.25540" lon="0.44313"><ele>71</ele></trkpt>
<trkpt lat="47.25515" lon="0.44251"><ele>72</ele></trkpt>
<trkpt lat="47.25467" lon="0.44171"><ele>75</ele></trkpt>
<trkpt lat="47.25423" lon="0.44008"><ele>78</ele></trkpt>
<trkpt lat="47.25285" lon="0.43749"><ele>85</ele></trkpt>
<trkpt lat="47.25158" lon="0.43549"><ele>89</ele></trkpt>
<trkpt lat="47.25251" lon="0.43267"><ele>79</ele></trkpt>
<trkpt lat="47.25306" lon="0.43166"><ele>85</ele></trkpt>
<trkpt lat="47.25366" lon="0.43021"><ele>92</ele></trkpt>
<trkpt lat="47.25393" lon="0.42857"><ele>96</ele></trkpt>
<trkpt lat="47.25398" lon="0.42776"><ele>98</ele></trkpt>
<trkpt lat="47.25399" lon="0.42541"><ele>97</ele></trkpt>
<trkpt lat="47.25396" lon="0.42419"><ele>93</ele></trkpt>
<trkpt lat="47.25389" lon="0.42357"><ele>90</ele></trkpt>
<trkpt lat="47.25387" lon="0.42265"><ele>84</ele></trkpt>
<trkpt lat="47.25377" lon="0.42218"><ele>82</ele></trkpt>
<trkpt lat="47.25361" lon="0.42162"><ele>78</ele></trkpt>
<trkpt lat="47.25302" lon="0.42012"><ele>71</ele></trkpt>
<trkpt lat="47.25298" lon="0.41998"><ele>70</ele></trkpt>
<trkpt lat="47.25300" lon="0.41981"><ele>70</ele></trkpt>
<trkpt lat="47.25310" lon="0.41964"><ele>72</ele></trkpt>
<trkpt lat="47.25330" lon="0.41957"><ele>76</ele></trkpt>
<trkpt lat="47.25387" lon="0.41993"><ele>78</ele></trkpt>
<trkpt lat="47.25409" lon="0.41994"><ele>80</ele></trkpt>
<trkpt lat="47.25419" lon="0.41985"><ele>82</ele></trkpt>
<trkpt lat="47.25424" lon="0.41970"><ele>84</ele></trkpt>
<trkpt lat="47.25423" lon="0.41955"><ele>85</ele></trkpt>
<trkpt lat="47.25396" lon="0.41878"><ele>90</ele></trkpt>
<trkpt lat="47.25395" lon="0.41861"><ele>90</ele></trkpt>
<trkpt lat="47.25400" lon="0.41844"><ele>91</ele></trkpt>
<trkpt lat="47.25410" lon="0.41829"><ele>92</ele></trkpt>
<trkpt lat="47.25459" lon="0.41796"><ele>92</ele></trkpt>
<trkpt lat="47.25474" lon="0.41778"><ele>93</ele></trkpt>
<trkpt lat="47.25505" lon="0.41731"><ele>93</ele></trkpt>
<trkpt lat="47.25536" lon="0.41668"><ele>94</ele></trkpt>
<trkpt lat="47.25689" lon="0.41294"><ele>95</ele></trkpt>
<trkpt lat="47.25731" lon="0.41160"><ele>92</ele></trkpt>
<trkpt lat="47.25791" lon="0.41026"><ele>86</ele></trkpt>
<trkpt lat="47.25674" lon="0.40915"><ele>88</ele></trkpt>
<trkpt lat="47.25567" lon="0.40831"><ele>90</ele></trkpt>
<trkpt lat="47.25530" lon="0.40809"><ele>90</ele></trkpt>
<trkpt lat="47.25483" lon="0.40793"><ele>90</ele></trkpt>
<trkpt lat="47.25374" lon="0.40796"><ele>90</ele></trkpt>
<trkpt lat="47.25298" lon="0.40787"><ele>91</ele></trkpt>
<trkpt lat="47.25185" lon="0.40763"><ele>92</ele></trkpt>
<trkpt lat="47.25079" lon="0.40736"><ele>94</ele></trkpt>
<trkpt lat="47.25024" lon="0.40709"><ele>93</ele></trkpt>
<trkpt lat="47.24990" lon="0.40687"><ele>93</ele></trkpt>
<trkpt lat="47.24899" lon="0.40612"><ele>95</ele></trkpt>
<trkpt lat="47.24734" lon="0.40505"><ele>98</ele></trkpt>
<trkpt lat="47.24703" lon="0.40497"><ele>98</ele></trkpt>
<trkpt lat="47.24664" lon="0.40506"><ele>99</ele></trkpt>
<trkpt lat="47.24656" lon="0.40469"><ele>97</ele></trkpt>
<trkpt lat="47.23869" lon="0.38465"><ele>98</ele></trkpt>
<trkpt lat="47.23657" lon="0.37932"><ele>110</ele></trkpt>
<trkpt lat="47.23445" lon="0.37392"><ele>116</ele></trkpt>
<trkpt lat="47.23233" lon="0.36864"><ele>119</ele></trkpt>
<trkpt lat="47.23243" lon="0.36833"><ele>119</ele></trkpt>
<trkpt lat="47.23288" lon="0.36186"><ele>119</ele></trkpt>
<trkpt lat="47.23360" lon="0.35235"><ele>111</ele></trkpt>
<trkpt lat="47.23423" lon="0.34328"><ele>103</ele></trkpt>
<trkpt lat="47.23414" lon="0.34296"><ele>103</ele></trkpt>
<trkpt lat="47.23408" lon="0.34286"><ele>103</ele></trkpt>
<trkpt lat="47.23108" lon="0.33879"><ele>112</ele></trkpt>
<trkpt lat="47.23031" lon="0.33770"><ele>114</ele></trkpt>
<trkpt lat="47.22839" lon="0.33518"><ele>114</ele></trkpt>
<trkpt lat="47.22973" lon="0.33083"><ele>115</ele></trkpt>
<trkpt lat="47.22972" lon="0.33059"><ele>115</ele></trkpt>
<trkpt lat="47.22821" lon="0.32203"><ele>112</ele></trkpt>
<trkpt lat="47.22610" lon="0.30958"><ele>87</ele></trkpt>
<trkpt lat="47.22624" lon="0.30915"><ele>90</ele></trkpt>
<trkpt lat="47.22669" lon="0.30851"><ele>94</ele></trkpt>
<trkpt lat="47.22660" lon="0.30826"><ele>95</ele></trkpt>
<trkpt lat="47.22568" lon="0.30652"><ele>93</ele></trkpt>
<trkpt lat="47.22557" lon="0.30618"><ele>91</ele></trkpt>
<trkpt lat="47.22483" lon="0.30202"><ele>88</ele></trkpt>
<trkpt lat="47.22376" lon="0.29554"><ele>80</ele></trkpt>
<trkpt lat="47.21440" lon="0.29272"><ele>62</ele></trkpt>
<trkpt lat="47.20744" lon="0.29289"><ele>84</ele></trkpt>
<trkpt lat="47.20325" lon="0.29307"><ele>114</ele></trkpt>
<trkpt lat="47.19729" lon="0.29314"><ele>109</ele></trkpt>
<trkpt lat="47.19641" lon="0.29310"><ele>106</ele></trkpt>
<trkpt lat="47.19458" lon="0.29318"><ele>94</ele></trkpt>
<trkpt lat="47.19068" lon="0.29326"><ele>93</ele></trkpt>
<trkpt lat="47.19024" lon="0.29329"><ele>95</ele></trkpt>
<trkpt lat="47.19010" lon="0.29338"><ele>96</ele></trkpt>
<trkpt lat="47.19020" lon="0.29370"><ele>96</ele></trkpt>
<trkpt lat="47.19014" lon="0.29378"><ele>96</ele></trkpt>
<trkpt lat="47.18909" lon="0.29113"><ele>93</ele></trkpt>
<trkpt lat="47.18627" lon="0.28368"><ele>103</ele></trkpt>
<trkpt lat="47.18361" lon="0.27686"><ele>80</ele></trkpt>
<trkpt lat="47.18312" lon="0.27553"><ele>76</ele></trkpt>
<trkpt lat="47.18240" lon="0.27383"><ele>73</ele></trkpt>
<trkpt lat="47.18257" lon="0.27363"><ele>73</ele></trkpt>
<trkpt lat="47.18261" lon="0.27342"><ele>73</ele></trkpt>
<trkpt lat="47.18258" lon="0.27311"><ele>73</ele></trkpt>
<trkpt lat="47.18247" lon="0.27308"><ele>73</ele></trkpt>
<trkpt lat="47.18240" lon="0.27297"><ele>73</ele></trkpt>
<trkpt lat="47.18229" lon="0.27297"><ele>73</ele></trkpt>
<trkpt lat="47.18226" lon="0.27292"><ele>73</ele></trkpt>
<trkpt lat="47.18188" lon="0.27194"><ele>72</ele></trkpt>
<trkpt lat="47.18185" lon="0.27180"><ele>72</ele></trkpt>
<trkpt lat="47.18174" lon="0.27160"><ele>72</ele></trkpt>
<trkpt lat="47.17904" lon="0.26471"><ele>76</ele></trkpt>
<trkpt lat="47.17863" lon="0.26381"><ele>76</ele></trkpt>
<trkpt lat="47.17834" lon="0.26337"><ele>77</ele></trkpt>
<trkpt lat="47.17829" lon="0.26316"><ele>77</ele></trkpt>
<trkpt lat="47.17833" lon="0.26294"><ele>77</ele></trkpt>
<trkpt lat="47.17831" lon="0.26285"><ele>77</ele></trkpt>
<trkpt lat="47.17842" lon="0.26266"><ele>77</ele></trkpt>
<trkpt lat="47.17845" lon="0.26252"><ele>76</ele></trkpt>
<trkpt lat="47.17844" lon="0.26227"><ele>76</ele></trkpt>
<trkpt lat="47.17839" lon="0.26213"><ele>76</ele></trkpt>
<trkpt lat="47.17822" lon="0.26194"><ele>77</ele></trkpt>
<trkpt lat="47.17805" lon="0.26192"><ele>76</ele></trkpt>
<trkpt lat="47.17790" lon="0.26182"><ele>76</ele></trkpt>
<trkpt lat="47.17773" lon="0.26156"><ele>76</ele></trkpt>
<trkpt lat="47.17753" lon="0.26102"><ele>77</ele></trkpt>
<trkpt lat="47.17746" lon="0.26106"><ele>77</ele></trkpt>
<trkpt lat="47.17734" lon="0.26100"><ele>78</ele></trkpt>
<trkpt lat="47.17656" lon="0.26045"><ele>83</ele></trkpt>
<trkpt lat="47.17607" lon="0.25993"><ele>85</ele></trkpt>
<trkpt lat="47.17576" lon="0.25948"><ele>88</ele></trkpt>
<trkpt lat="47.17460" lon="0.25888"><ele>94</ele></trkpt>
<trkpt lat="47.17292" lon="0.25854"><ele>96</ele></trkpt>
<trkpt lat="47.17290" lon="0.25759"><ele>97</ele></trkpt>
<trkpt lat="47.17271" lon="0.25629"><ele>96</ele></trkpt>
<trkpt lat="47.17245" lon="0.25537"><ele>95</ele></trkpt>
<trkpt lat="47.17229" lon="0.25493"><ele>94</ele></trkpt>
<trkpt lat="47.17188" lon="0.25407"><ele>92</ele></trkpt>
<trkpt lat="47.17174" lon="0.25368"><ele>91</ele></trkpt>
<trkpt lat="47.17059" lon="0.25416"><ele>93</ele></trkpt>
<trkpt lat="47.17047" lon="0.25325"><ele>94</ele></trkpt>
<trkpt lat="47.17042" lon="0.25213"><ele>95</ele></trkpt>
<trkpt lat="47.17010" lon="0.25050"><ele>97</ele></trkpt>
<trkpt lat="47.17003" lon="0.25003"><ele>97</ele></trkpt>
<trkpt lat="47.17002" lon="0.24951"><ele>98</ele></trkpt>
<trkpt lat="47.17004" lon="0.24872"><ele>98</ele></trkpt>
<trkpt lat="47.17011" lon="0.24794"><ele>99</ele></trkpt>
<trkpt lat="47.17051" lon="0.24621"><ele>98</ele></trkpt>
<trkpt lat="47.17060" lon="0.24597"><ele>97</ele></trkpt>
<trkpt lat="47.17072" lon="0.24580"><ele>96</ele></trkpt>
<trkpt lat="47.17073" lon="0.24571"><ele>97</ele></trkpt>
<trkpt lat="47.17039" lon="0.24463"><ele>96</ele></trkpt>
<trkpt lat="47.17031" lon="0.24430"><ele>96</ele></trkpt>
<trkpt lat="47.17030" lon="0.24411"><ele>96</ele></trkpt>
<trkpt lat="47.17024" lon="0.24408"><ele>96</ele></trkpt>
<trkpt lat="47.16974" lon="0.24339"><ele>95</ele></trkpt>
<trkpt lat="47.16947" lon="0.24295"><ele>94</ele></trkpt>
<trkpt lat="47.16923" lon="0.24224"><ele>92</ele></trkpt>
<trkpt lat="47.16884" lon="0.24058"><ele>82</ele></trkpt>
<trkpt lat="47.16858" lon="0.24058"><ele>79</ele></trkpt>
<trkpt lat="47.16841" lon="0.24068"><ele>74</ele></trkpt>
<trkpt lat="47.16832" lon="0.24038"><ele>72</ele></trkpt>
<trkpt lat="47.16815" lon="0.24007"><ele>66</ele></trkpt>
<trkpt lat="47.16806" lon="0.23977"><ele>66</ele></trkpt>
<trkpt lat="47.16800" lon="0.23970"><ele>64</ele></trkpt>
<trkpt lat="47.16802" lon="0.24019"><ele>60</ele></trkpt>
<trkpt lat="47.16793" lon="0.24148"><ele>51</ele></trkpt>
<trkpt lat="47.16793" lon="0.24185"><ele>50</ele></trkpt>
<trkpt lat="47.16787" lon="0.24213"><ele>47</ele></trkpt>
<trkpt lat="47.16766" lon="0.24250"><ele>43</ele></trkpt>
<trkpt lat="47.16763" lon="0.24176"><ele>42</ele></trkpt>
<trkpt lat="47.16721" lon="0.24187"><ele>38</ele></trkpt>
<trkpt lat="47.16709" lon="0.24116"><ele>36</ele></trkpt>
<trkpt lat="47.16703" lon="0.24102"><ele>36</ele></trkpt>
<trkpt lat="47.16703" lon="0.23990"><ele>37</ele></trkpt>
<trkpt lat="47.16618" lon="0.23969"><ele>35</ele></trkpt>
<trkpt lat="47.16616" lon="0.23989"><ele>35</ele></trkpt>
<trkpt lat="47.16650" lon="0.23999"><ele>36</ele></trkpt>
<trkpt lat="47.16649" lon="0.24028"><ele>36</ele></trkpt>
<trkpt lat="47.16656" lon="0.24034"><ele>36</ele></trkpt>
<trkpt lat="47.16654" lon="0.24065"><ele>36</ele></trkpt>
    </trkseg>
  </trk>
</gpx>
