<?xml version="1.0" encoding="UTF-8"?>
<gpx version="1.1" creator="Gravel Kompass" xmlns="http://www.topografix.com/GPX/1/1">
  <metadata><name>München – Haltern am See: Von der Isar ins Münsterland – Etappe 2</name></metadata>
  <trk>
    <name>Etappe 2: Ingolstadt – Eichstätt</name>
    <trkseg>
<trkpt lat="48.76650" lon="11.42579"><ele>373</ele></trkpt>
<trkpt lat="48.76698" lon="11.42584"><ele>373</ele></trkpt>
<trkpt lat="48.76807" lon="11.42610"><ele>373</ele></trkpt>
<trkpt lat="48.76874" lon="11.42617"><ele>374</ele></trkpt>
<trkpt lat="48.76886" lon="11.42623"><ele>374</ele></trkpt>
<trkpt lat="48.76970" lon="11.42637"><ele>374</ele></trkpt>
<trkpt lat="48.77066" lon="11.42671"><ele>372</ele></trkpt>
<trkpt lat="48.77143" lon="11.42593"><ele>374</ele></trkpt>
<trkpt lat="48.77178" lon="11.42542"><ele>375</ele></trkpt>
<trkpt lat="48.77205" lon="11.42555"><ele>375</ele></trkpt>
<trkpt lat="48.77259" lon="11.42595"><ele>374</ele></trkpt>
<trkpt lat="48.77326" lon="11.42614"><ele>373</ele></trkpt>
<trkpt lat="48.77379" lon="11.42622"><ele>373</ele></trkpt>
<trkpt lat="48.77409" lon="11.42615"><ele>373</ele></trkpt>
<trkpt lat="48.77468" lon="11.42552"><ele>373</ele></trkpt>
<trkpt lat="48.77506" lon="11.42527"><ele>373</ele></trkpt>
<trkpt lat="48.77511" lon="11.42543"><ele>373</ele></trkpt>
<trkpt lat="48.77535" lon="11.42526"><ele>372</ele></trkpt>
<trkpt lat="48.77547" lon="11.42532"><ele>372</ele></trkpt>
<trkpt lat="48.77553" lon="11.42520"><ele>373</ele></trkpt>
<trkpt lat="48.77658" lon="11.42502"><ele>373</ele></trkpt>
<trkpt lat="48.77748" lon="11.42499"><ele>373</ele></trkpt>
<trkpt lat="48.77841" lon="11.42504"><ele>373</ele></trkpt>
<trkpt lat="48.78048" lon="11.42486"><ele>373</ele></trkpt>
<trkpt lat="48.78044" lon="11.42496"><ele>372</ele></trkpt>
<trkpt lat="48.78014" lon="11.42504"><ele>373</ele></trkpt>
<trkpt lat="48.78012" lon="11.42513"><ele>373</ele></trkpt>
<trkpt lat="48.78014" lon="11.42520"><ele>373</ele></trkpt>
<trkpt lat="48.78018" lon="11.42522"><ele>373</ele></trkpt>
<trkpt lat="48.78042" lon="11.42504"><ele>372</ele></trkpt>
<trkpt lat="48.78059" lon="11.42542"><ele>373</ele></trkpt>
<trkpt lat="48.78063" lon="11.42648"><ele>373</ele></trkpt>
<trkpt lat="48.78070" lon="11.42648"><ele>373</ele></trkpt>
<trkpt lat="48.78070" lon="11.42629"><ele>373</ele></trkpt>
<trkpt lat="48.78189" lon="11.42613"><ele>373</ele></trkpt>
<trkpt lat="48.78192" lon="11.42638"><ele>373</ele></trkpt>
<trkpt lat="48.78200" lon="11.42671"><ele>372</ele></trkpt>
<trkpt lat="48.78214" lon="11.42708"><ele>372</ele></trkpt>
<trkpt lat="48.78278" lon="11.42836"><ele>372</ele></trkpt>
<trkpt lat="48.78284" lon="11.42840"><ele>372</ele></trkpt>
<trkpt lat="48.78309" lon="11.42900"><ele>372</ele></trkpt>
<trkpt lat="48.78329" lon="11.42963"><ele>372</ele></trkpt>
<trkpt lat="48.78334" lon="11.42969"><ele>372</ele></trkpt>
<trkpt lat="48.78353" lon="11.42979"><ele>371</ele></trkpt>
<trkpt lat="48.78483" lon="11.43073"><ele>371</ele></trkpt>
<trkpt lat="48.78510" lon="11.43097"><ele>371</ele></trkpt>
<trkpt lat="48.78536" lon="11.43043"><ele>372</ele></trkpt>
<trkpt lat="48.78549" lon="11.43061"><ele>372</ele></trkpt>
<trkpt lat="48.78545" lon="11.43086"><ele>372</ele></trkpt>
<trkpt lat="48.78560" lon="11.43342"><ele>371</ele></trkpt>
<trkpt lat="48.78568" lon="11.43412"><ele>371</ele></trkpt>
<trkpt lat="48.78566" lon="11.43472"><ele>371</ele></trkpt>
<trkpt lat="48.78563" lon="11.43511"><ele>371</ele></trkpt>
<trkpt lat="48.78556" lon="11.43543"><ele>371</ele></trkpt>
<trkpt lat="48.78566" lon="11.43550"><ele>371</ele></trkpt>
<trkpt lat="48.78561" lon="11.43573"><ele>372</ele></trkpt>
<trkpt lat="48.78560" lon="11.43616"><ele>372</ele></trkpt>
<trkpt lat="48.78933" lon="11.43816"><ele>372</ele></trkpt>
<trkpt lat="48.78957" lon="11.43831"><ele>372</ele></trkpt>
<trkpt lat="48.79008" lon="11.43870"><ele>371</ele></trkpt>
<trkpt lat="48.79049" lon="11.43912"><ele>371</ele></trkpt>
<trkpt lat="48.79209" lon="11.44097"><ele>370</ele></trkpt>
<trkpt lat="48.79317" lon="11.44226"><ele>371</ele></trkpt>
<trkpt lat="48.79315" lon="11.44231"><ele>371</ele></trkpt>
<trkpt lat="48.79354" lon="11.44277"><ele>372</ele></trkpt>
<trkpt lat="48.79508" lon="11.44444"><ele>372</ele></trkpt>
<trkpt lat="48.79516" lon="11.44499"><ele>372</ele></trkpt>
<trkpt lat="48.79540" lon="11.44580"><ele>372</ele></trkpt>
<trkpt lat="48.79555" lon="11.44655"><ele>372</ele></trkpt>
<trkpt lat="48.79599" lon="11.44994"><ele>372</ele></trkpt>
<trkpt lat="48.79596" lon="11.45008"><ele>372</ele></trkpt>
<trkpt lat="48.79586" lon="11.45016"><ele>372</ele></trkpt>
<trkpt lat="48.79589" lon="11.45038"><ele>372</ele></trkpt>
<trkpt lat="48.79605" lon="11.45048"><ele>373</ele></trkpt>
<trkpt lat="48.79620" lon="11.45154"><ele>372</ele></trkpt>
<trkpt lat="48.79637" lon="11.45242"><ele>373</ele></trkpt>
<trkpt lat="48.79653" lon="11.45285"><ele>373</ele></trkpt>
<trkpt lat="48.79667" lon="11.45306"><ele>373</ele></trkpt>
<trkpt lat="48.79786" lon="11.45389"><ele>373</ele></trkpt>
<trkpt lat="48.79694" lon="11.45867"><ele>377</ele></trkpt>
<trkpt lat="48.79909" lon="11.45959"><ele>381</ele></trkpt>
<trkpt lat="48.79993" lon="11.45992"><ele>381</ele></trkpt>
<trkpt lat="48.80134" lon="11.46023"><ele>383</ele></trkpt>
<trkpt lat="48.80224" lon="11.46049"><ele>385</ele></trkpt>
<trkpt lat="48.80239" lon="11.46088"><ele>384</ele></trkpt>
<trkpt lat="48.80251" lon="11.46085"><ele>384</ele></trkpt>
<trkpt lat="48.80277" lon="11.46087"><ele>383</ele></trkpt>
<trkpt lat="48.80316" lon="11.46101"><ele>380</ele></trkpt>
<trkpt lat="48.80345" lon="11.46105"><ele>379</ele></trkpt>
<trkpt lat="48.80374" lon="11.46095"><ele>378</ele></trkpt>
<trkpt lat="48.80400" lon="11.46075"><ele>378</ele></trkpt>
<trkpt lat="48.80481" lon="11.45968"><ele>377</ele></trkpt>
<trkpt lat="48.80492" lon="11.45961"><ele>377</ele></trkpt>
<trkpt lat="48.80554" lon="11.45966"><ele>377</ele></trkpt>
<trkpt lat="48.80606" lon="11.45981"><ele>377</ele></trkpt>
<trkpt lat="48.80622" lon="11.45980"><ele>378</ele></trkpt>
<trkpt lat="48.80633" lon="11.45974"><ele>378</ele></trkpt>
<trkpt lat="48.80650" lon="11.45948"><ele>380</ele></trkpt>
<trkpt lat="48.80669" lon="11.45888"><ele>382</ele></trkpt>
<trkpt lat="48.80676" lon="11.45878"><ele>382</ele></trkpt>
<trkpt lat="48.80682" lon="11.45876"><ele>383</ele></trkpt>
<trkpt lat="48.80696" lon="11.45882"><ele>385</ele></trkpt>
<trkpt lat="48.80711" lon="11.45907"><ele>388</ele></trkpt>
<trkpt lat="48.80714" lon="11.45932"><ele>389</ele></trkpt>
<trkpt lat="48.80715" lon="11.45988"><ele>390</ele></trkpt>
<trkpt lat="48.80720" lon="11.46019"><ele>392</ele></trkpt>
<trkpt lat="48.80727" lon="11.46038"><ele>392</ele></trkpt>
<trkpt lat="48.80755" lon="11.46065"><ele>396</ele></trkpt>
<trkpt lat="48.80778" lon="11.46074"><ele>398</ele></trkpt>
<trkpt lat="48.80796" lon="11.46070"><ele>399</ele></trkpt>
<trkpt lat="48.80824" lon="11.46050"><ele>401</ele></trkpt>
<trkpt lat="48.80837" lon="11.46036"><ele>402</ele></trkpt>
<trkpt lat="48.80893" lon="11.45958"><ele>403</ele></trkpt>
<trkpt lat="48.80928" lon="11.45952"><ele>402</ele></trkpt>
<trkpt lat="48.81177" lon="11.45954"><ele>402</ele></trkpt>
<trkpt lat="48.81194" lon="11.45942"><ele>402</ele></trkpt>
<trkpt lat="48.81210" lon="11.45941"><ele>402</ele></trkpt>
<trkpt lat="48.81305" lon="11.45940"><ele>402</ele></trkpt>
<trkpt lat="48.81351" lon="11.45946"><ele>403</ele></trkpt>
<trkpt lat="48.81359" lon="11.45942"><ele>403</ele></trkpt>
<trkpt lat="48.81361" lon="11.45934"><ele>403</ele></trkpt>
<trkpt lat="48.81373" lon="11.45938"><ele>403</ele></trkpt>
<trkpt lat="48.81374" lon="11.45950"><ele>403</ele></trkpt>
<trkpt lat="48.81395" lon="11.45965"><ele>403</ele></trkpt>
<trkpt lat="48.81541" lon="11.46025"><ele>404</ele></trkpt>
<trkpt lat="48.81651" lon="11.46066"><ele>406</ele></trkpt>
<trkpt lat="48.81679" lon="11.46082"><ele>407</ele></trkpt>
<trkpt lat="48.81718" lon="11.46097"><ele>408</ele></trkpt>
<trkpt lat="48.81736" lon="11.46097"><ele>408</ele></trkpt>
<trkpt lat="48.81761" lon="11.46105"><ele>408</ele></trkpt>
<trkpt lat="48.81808" lon="11.46087"><ele>410</ele></trkpt>
<trkpt lat="48.81845" lon="11.46086"><ele>412</ele></trkpt>
<trkpt lat="48.81948" lon="11.46121"><ele>418</ele></trkpt>
<trkpt lat="48.81966" lon="11.46122"><ele>419</ele></trkpt>
<trkpt lat="48.82053" lon="11.46105"><ele>423</ele></trkpt>
<trkpt lat="48.82076" lon="11.46087"><ele>424</ele></trkpt>
<trkpt lat="48.82120" lon="11.46028"><ele>428</ele></trkpt>
<trkpt lat="48.82135" lon="11.46015"><ele>429</ele></trkpt>
<trkpt lat="48.82150" lon="11.46004"><ele>430</ele></trkpt>
<trkpt lat="48.82181" lon="11.45991"><ele>432</ele></trkpt>
<trkpt lat="48.82177" lon="11.45854"><ele>434</ele></trkpt>
<trkpt lat="48.82235" lon="11.45846"><ele>434</ele></trkpt>
<trkpt lat="48.82300" lon="11.45858"><ele>434</ele></trkpt>
<trkpt lat="48.82298" lon="11.45891"><ele>434</ele></trkpt>
<trkpt lat="48.82320" lon="11.45881"><ele>434</ele></trkpt>
<trkpt lat="48.82374" lon="11.45879"><ele>430</ele></trkpt>
<trkpt lat="48.82432" lon="11.45822"><ele>426</ele></trkpt>
<trkpt lat="48.82461" lon="11.45808"><ele>426</ele></trkpt>
<trkpt lat="48.82683" lon="11.45743"><ele>428</ele></trkpt>
<trkpt lat="48.82722" lon="11.45736"><ele>430</ele></trkpt>
<trkpt lat="48.82762" lon="11.45737"><ele>430</ele></trkpt>
<trkpt lat="48.82897" lon="11.45763"><ele>433</ele></trkpt>
<trkpt lat="48.82860" lon="11.45870"><ele>438</ele></trkpt>
<trkpt lat="48.82843" lon="11.45951"><ele>441</ele></trkpt>
<trkpt lat="48.82841" lon="11.45980"><ele>442</ele></trkpt>
<trkpt lat="48.82845" lon="11.46035"><ele>442</ele></trkpt>
<trkpt lat="48.82868" lon="11.46032"><ele>445</ele></trkpt>
<trkpt lat="48.82889" lon="11.46036"><ele>446</ele></trkpt>
<trkpt lat="48.82920" lon="11.46049"><ele>449</ele></trkpt>
<trkpt lat="48.82983" lon="11.46087"><ele>452</ele></trkpt>
<trkpt lat="48.83058" lon="11.46115"><ele>456</ele></trkpt>
<trkpt lat="48.83112" lon="11.46113"><ele>457</ele></trkpt>
<trkpt lat="48.83302" lon="11.46084"><ele>458</ele></trkpt>
<trkpt lat="48.83571" lon="11.46064"><ele>452</ele></trkpt>
<trkpt lat="48.84107" lon="11.45954"><ele>449</ele></trkpt>
<trkpt lat="48.84199" lon="11.45939"><ele>446</ele></trkpt>
<trkpt lat="48.84247" lon="11.45939"><ele>445</ele></trkpt>
<trkpt lat="48.84243" lon="11.45990"><ele>444</ele></trkpt>
<trkpt lat="48.84271" lon="11.45995"><ele>443</ele></trkpt>
<trkpt lat="48.84282" lon="11.46006"><ele>442</ele></trkpt>
<trkpt lat="48.84283" lon="11.46027"><ele>442</ele></trkpt>
<trkpt lat="48.84276" lon="11.46120"><ele>442</ele></trkpt>
<trkpt lat="48.84277" lon="11.46130"><ele>442</ele></trkpt>
<trkpt lat="48.84284" lon="11.46142"><ele>442</ele></trkpt>
<trkpt lat="48.84344" lon="11.46149"><ele>443</ele></trkpt>
<trkpt lat="48.84413" lon="11.46139"><ele>443</ele></trkpt>
<trkpt lat="48.84423" lon="11.46141"><ele>443</ele></trkpt>
<trkpt lat="48.84714" lon="11.46328"><ele>448</ele></trkpt>
<trkpt lat="48.84784" lon="11.46377"><ele>452</ele></trkpt>
<trkpt lat="48.84876" lon="11.46425"><ele>456</ele></trkpt>
<trkpt lat="48.84902" lon="11.46434"><ele>456</ele></trkpt>
<trkpt lat="48.84957" lon="11.46422"><ele>455</ele></trkpt>
<trkpt lat="48.84989" lon="11.46432"><ele>456</ele></trkpt>
<trkpt lat="48.85001" lon="11.46597"><ele>454</ele></trkpt>
<trkpt lat="48.84992" lon="11.46651"><ele>455</ele></trkpt>
<trkpt lat="48.84998" lon="11.46662"><ele>456</ele></trkpt>
<trkpt lat="48.85022" lon="11.46682"><ele>457</ele></trkpt>
<trkpt lat="48.85397" lon="11.46899"><ele>472</ele></trkpt>
<trkpt lat="48.85526" lon="11.46822"><ele>470</ele></trkpt>
<trkpt lat="48.85857" lon="11.46773"><ele>475</ele></trkpt>
<trkpt lat="48.85869" lon="11.46769"><ele>475</ele></trkpt>
<trkpt lat="48.85894" lon="11.46748"><ele>475</ele></trkpt>
<trkpt lat="48.85919" lon="11.46797"><ele>476</ele></trkpt>
<trkpt lat="48.85954" lon="11.46836"><ele>477</ele></trkpt>
<trkpt lat="48.86138" lon="11.46799"><ele>480</ele></trkpt>
<trkpt lat="48.86175" lon="11.46784"><ele>478</ele></trkpt>
<trkpt lat="48.86246" lon="11.46798"><ele>475</ele></trkpt>
<trkpt lat="48.86325" lon="11.46799"><ele>472</ele></trkpt>
<trkpt lat="48.86348" lon="11.46790"><ele>472</ele></trkpt>
<trkpt lat="48.86359" lon="11.46789"><ele>473</ele></trkpt>
<trkpt lat="48.86439" lon="11.46810"><ele>475</ele></trkpt>
<trkpt lat="48.86545" lon="11.46854"><ele>479</ele></trkpt>
<trkpt lat="48.86612" lon="11.46869"><ele>482</ele></trkpt>
<trkpt lat="48.86718" lon="11.46874"><ele>481</ele></trkpt>
<trkpt lat="48.86726" lon="11.46871"><ele>481</ele></trkpt>
<trkpt lat="48.86743" lon="11.46853"><ele>480</ele></trkpt>
<trkpt lat="48.86761" lon="11.46849"><ele>479</ele></trkpt>
<trkpt lat="48.86886" lon="11.46859"><ele>478</ele></trkpt>
<trkpt lat="48.86969" lon="11.46884"><ele>474</ele></trkpt>
<trkpt lat="48.87023" lon="11.46890"><ele>476</ele></trkpt>
<trkpt lat="48.87085" lon="11.46891"><ele>481</ele></trkpt>
<trkpt lat="48.87137" lon="11.46906"><ele>485</ele></trkpt>
<trkpt lat="48.87184" lon="11.46911"><ele>487</ele></trkpt>
<trkpt lat="48.87264" lon="11.46927"><ele>488</ele></trkpt>
<trkpt lat="48.87275" lon="11.46933"><ele>488</ele></trkpt>
<trkpt lat="48.87275" lon="11.46950"><ele>488</ele></trkpt>
<trkpt lat="48.87304" lon="11.47157"><ele>486</ele></trkpt>
<trkpt lat="48.87322" lon="11.47229"><ele>485</ele></trkpt>
<trkpt lat="48.87351" lon="11.47308"><ele>482</ele></trkpt>
<trkpt lat="48.87367" lon="11.47378"><ele>482</ele></trkpt>
<trkpt lat="48.87370" lon="11.47407"><ele>481</ele></trkpt>
<trkpt lat="48.87376" lon="11.47820"><ele>470</ele></trkpt>
<trkpt lat="48.87365" lon="11.47917"><ele>469</ele></trkpt>
<trkpt lat="48.87350" lon="11.48002"><ele>469</ele></trkpt>
<trkpt lat="48.87351" lon="11.48030"><ele>470</ele></trkpt>
<trkpt lat="48.87572" lon="11.48313"><ele>474</ele></trkpt>
<trkpt lat="48.87887" lon="11.48726"><ele>465</ele></trkpt>
<trkpt lat="48.87903" lon="11.48910"><ele>470</ele></trkpt>
<trkpt lat="48.87940" lon="11.49427"><ele>476</ele></trkpt>
<trkpt lat="48.87945" lon="11.49454"><ele>476</ele></trkpt>
<trkpt lat="48.88121" lon="11.49880"><ele>484</ele></trkpt>
<trkpt lat="48.88561" lon="11.50864"><ele>460</ele></trkpt>
<trkpt lat="48.88574" lon="11.50899"><ele>459</ele></trkpt>
<trkpt lat="48.88618" lon="11.51054"><ele>458</ele></trkpt>
<trkpt lat="48.88626" lon="11.51062"><ele>457</ele></trkpt>
<trkpt lat="48.88640" lon="11.51067"><ele>456</ele></trkpt>
<trkpt lat="48.88668" lon="11.51068"><ele>454</ele></trkpt>
<trkpt lat="48.88737" lon="11.51045"><ele>452</ele></trkpt>
<trkpt lat="48.88758" lon="11.51091"><ele>450</ele></trkpt>
<trkpt lat="48.88635" lon="11.52345"><ele>453</ele></trkpt>
<trkpt lat="48.88621" lon="11.52431"><ele>454</ele></trkpt>
<trkpt lat="48.88979" lon="11.52805"><ele>477</ele></trkpt>
<trkpt lat="48.89076" lon="11.52903"><ele>483</ele></trkpt>
<trkpt lat="48.89451" lon="11.53527"><ele>477</ele></trkpt>
<trkpt lat="48.89473" lon="11.53570"><ele>477</ele></trkpt>
<trkpt lat="48.89505" lon="11.53691"><ele>476</ele></trkpt>
<trkpt lat="48.89635" lon="11.54228"><ele>480</ele></trkpt>
<trkpt lat="48.89659" lon="11.54265"><ele>482</ele></trkpt>
<trkpt lat="48.89855" lon="11.54448"><ele>489</ele></trkpt>
<trkpt lat="48.89925" lon="11.54396"><ele>484</ele></trkpt>
<trkpt lat="48.89941" lon="11.54388"><ele>484</ele></trkpt>
<trkpt lat="48.89963" lon="11.54387"><ele>484</ele></trkpt>
<trkpt lat="48.90241" lon="11.54435"><ele>478</ele></trkpt>
<trkpt lat="48.90857" lon="11.54525"><ele>451</ele></trkpt>
<trkpt lat="48.90903" lon="11.54518"><ele>448</ele></trkpt>
<trkpt lat="48.91084" lon="11.54448"><ele>439</ele></trkpt>
<trkpt lat="48.91106" lon="11.54443"><ele>439</ele></trkpt>
<trkpt lat="48.91322" lon="11.54507"><ele>424</ele></trkpt>
<trkpt lat="48.91439" lon="11.54904"><ele>420</ele></trkpt>
<trkpt lat="48.91462" lon="11.54946"><ele>420</ele></trkpt>
<trkpt lat="48.91466" lon="11.54962"><ele>420</ele></trkpt>
<trkpt lat="48.91466" lon="11.54987"><ele>420</ele></trkpt>
<trkpt lat="48.91464" lon="11.55034"><ele>421</ele></trkpt>
<trkpt lat="48.91464" lon="11.55241"><ele>419</ele></trkpt>
<trkpt lat="48.91478" lon="11.55413"><ele>418</ele></trkpt>
<trkpt lat="48.91478" lon="11.55444"><ele>418</ele></trkpt>
<trkpt lat="48.91472" lon="11.55490"><ele>418</ele></trkpt>
<trkpt lat="48.91460" lon="11.55526"><ele>418</ele></trkpt>
<trkpt lat="48.91399" lon="11.55672"><ele>418</ele></trkpt>
<trkpt lat="48.91376" lon="11.55746"><ele>418</ele></trkpt>
<trkpt lat="48.91350" lon="11.55840"><ele>418</ele></trkpt>
<trkpt lat="48.91314" lon="11.56010"><ele>417</ele></trkpt>
<trkpt lat="48.91290" lon="11.56075"><ele>416</ele></trkpt>
<trkpt lat="48.91261" lon="11.56114"><ele>416</ele></trkpt>
<trkpt lat="48.91236" lon="11.56159"><ele>417</ele></trkpt>
<trkpt lat="48.91197" lon="11.56245"><ele>416</ele></trkpt>
<trkpt lat="48.91184" lon="11.56280"><ele>416</ele></trkpt>
<trkpt lat="48.91176" lon="11.56313"><ele>416</ele></trkpt>
<trkpt lat="48.91165" lon="11.56431"><ele>415</ele></trkpt>
<trkpt lat="48.91171" lon="11.56485"><ele>415</ele></trkpt>
<trkpt lat="48.91185" lon="11.56521"><ele>415</ele></trkpt>
<trkpt lat="48.91200" lon="11.56552"><ele>415</ele></trkpt>
<trkpt lat="48.91248" lon="11.56629"><ele>414</ele></trkpt>
<trkpt lat="48.91260" lon="11.56655"><ele>415</ele></trkpt>
<trkpt lat="48.91273" lon="11.56722"><ele>414</ele></trkpt>
<trkpt lat="48.91275" lon="11.56752"><ele>415</ele></trkpt>
<trkpt lat="48.91267" lon="11.56814"><ele>416</ele></trkpt>
<trkpt lat="48.91230" lon="11.56927"><ele>415</ele></trkpt>
<trkpt lat="48.91214" lon="11.57003"><ele>416</ele></trkpt>
<trkpt lat="48.91199" lon="11.57093"><ele>414</ele></trkpt>
<trkpt lat="48.91199" lon="11.57123"><ele>413</ele></trkpt>
<trkpt lat="48.91213" lon="11.57297"><ele>412</ele></trkpt>
<trkpt lat="48.91250" lon="11.57577"><ele>411</ele></trkpt>
<trkpt lat="48.91257" lon="11.57690"><ele>411</ele></trkpt>
<trkpt lat="48.91255" lon="11.57720"><ele>410</ele></trkpt>
<trkpt lat="48.91250" lon="11.57745"><ele>410</ele></trkpt>
<trkpt lat="48.91227" lon="11.57807"><ele>410</ele></trkpt>
<trkpt lat="48.91216" lon="11.57869"><ele>410</ele></trkpt>
<trkpt lat="48.91212" lon="11.57938"><ele>410</ele></trkpt>
<trkpt lat="48.91217" lon="11.58024"><ele>409</ele></trkpt>
<trkpt lat="48.91228" lon="11.58073"><ele>409</ele></trkpt>
<trkpt lat="48.91255" lon="11.58148"><ele>409</ele></trkpt>
<trkpt lat="48.91273" lon="11.58177"><ele>408</ele></trkpt>
<trkpt lat="48.91330" lon="11.58251"><ele>408</ele></trkpt>
<trkpt lat="48.91381" lon="11.58306"><ele>407</ele></trkpt>
<trkpt lat="48.91420" lon="11.58362"><ele>407</ele></trkpt>
<trkpt lat="48.91440" lon="11.58399"><ele>407</ele></trkpt>
<trkpt lat="48.91553" lon="11.58625"><ele>407</ele></trkpt>
<trkpt lat="48.91567" lon="11.58660"><ele>407</ele></trkpt>
<trkpt lat="48.91581" lon="11.58732"><ele>407</ele></trkpt>
<trkpt lat="48.91583" lon="11.58846"><ele>407</ele></trkpt>
<trkpt lat="48.91571" lon="11.59001"><ele>407</ele></trkpt>
<trkpt lat="48.91544" lon="11.59093"><ele>407</ele></trkpt>
<trkpt lat="48.91463" lon="11.59308"><ele>407</ele></trkpt>
<trkpt lat="48.91448" lon="11.59363"><ele>407</ele></trkpt>
<trkpt lat="48.91440" lon="11.59412"><ele>408</ele></trkpt>
<trkpt lat="48.91436" lon="11.59478"><ele>409</ele></trkpt>
<trkpt lat="48.91445" lon="11.59630"><ele>408</ele></trkpt>
<trkpt lat="48.91454" lon="11.59670"><ele>409</ele></trkpt>
<trkpt lat="48.91458" lon="11.59719"><ele>409</ele></trkpt>
<trkpt lat="48.91457" lon="11.59761"><ele>407</ele></trkpt>
<trkpt lat="48.91453" lon="11.59783"><ele>406</ele></trkpt>
<trkpt lat="48.91469" lon="11.59808"><ele>407</ele></trkpt>
<trkpt lat="48.91485" lon="11.59823"><ele>408</ele></trkpt>
<trkpt lat="48.91487" lon="11.59818"><ele>408</ele></trkpt>
<trkpt lat="48.91507" lon="11.59828"><ele>410</ele></trkpt>
<trkpt lat="48.91533" lon="11.59832"><ele>411</ele></trkpt>
<trkpt lat="48.91563" lon="11.59829"><ele>414</ele></trkpt>
<trkpt lat="48.91623" lon="11.59810"><ele>420</ele></trkpt>
<trkpt lat="48.91648" lon="11.59806"><ele>421</ele></trkpt>
<trkpt lat="48.91679" lon="11.59808"><ele>423</ele></trkpt>
<trkpt lat="48.91705" lon="11.59818"><ele>426</ele></trkpt>
<trkpt lat="48.91749" lon="11.59854"><ele>430</ele></trkpt>
<trkpt lat="48.91772" lon="11.59891"><ele>434</ele></trkpt>
<trkpt lat="48.91781" lon="11.59915"><ele>436</ele></trkpt>
<trkpt lat="48.91813" lon="11.60044"><ele>445</ele></trkpt>
<trkpt lat="48.91892" lon="11.60205"><ele>455</ele></trkpt>
<trkpt lat="48.91961" lon="11.60301"><ele>464</ele></trkpt>
<trkpt lat="48.91995" lon="11.60360"><ele>467</ele></trkpt>
<trkpt lat="48.92059" lon="11.60494"><ele>474</ele></trkpt>
<trkpt lat="48.92082" lon="11.60559"><ele>478</ele></trkpt>
<trkpt lat="48.92094" lon="11.60612"><ele>479</ele></trkpt>
<trkpt lat="48.92106" lon="11.60717"><ele>485</ele></trkpt>
<trkpt lat="48.92115" lon="11.60759"><ele>488</ele></trkpt>
<trkpt lat="48.92126" lon="11.60782"><ele>489</ele></trkpt>
<trkpt lat="48.92126" lon="11.60803"><ele>490</ele></trkpt>
<trkpt lat="48.92152" lon="11.60909"><ele>494</ele></trkpt>
<trkpt lat="48.92149" lon="11.60948"><ele>494</ele></trkpt>
<trkpt lat="48.92122" lon="11.61022"><ele>494</ele></trkpt>
<trkpt lat="48.92115" lon="11.61056"><ele>494</ele></trkpt>
<trkpt lat="48.92117" lon="11.61074"><ele>494</ele></trkpt>
<trkpt lat="48.92157" lon="11.61246"><ele>495</ele></trkpt>
<trkpt lat="48.92163" lon="11.61331"><ele>493</ele></trkpt>
<trkpt lat="48.92180" lon="11.61461"><ele>485</ele></trkpt>
<trkpt lat="48.92183" lon="11.61520"><ele>480</ele></trkpt>
<trkpt lat="48.92178" lon="11.61590"><ele>476</ele></trkpt>
<trkpt lat="48.92148" lon="11.61763"><ele>465</ele></trkpt>
<trkpt lat="48.92149" lon="11.61791"><ele>464</ele></trkpt>
<trkpt lat="48.92174" lon="11.61964"><ele>456</ele></trkpt>
<trkpt lat="48.92210" lon="11.62280"><ele>450</ele></trkpt>
<trkpt lat="48.92217" lon="11.62375"><ele>448</ele></trkpt>
<trkpt lat="48.92217" lon="11.62425"><ele>448</ele></trkpt>
<trkpt lat="48.92209" lon="11.62535"><ele>446</ele></trkpt>
<trkpt lat="48.92152" lon="11.62519"><ele>446</ele></trkpt>
<trkpt lat="48.92128" lon="11.62768"><ele>442</ele></trkpt>
<trkpt lat="48.92124" lon="11.62778"><ele>442</ele></trkpt>
<trkpt lat="48.92091" lon="11.62818"><ele>442</ele></trkpt>
<trkpt lat="48.92087" lon="11.62828"><ele>441</ele></trkpt>
<trkpt lat="48.92077" lon="11.62902"><ele>443</ele></trkpt>
<trkpt lat="48.92177" lon="11.62944"><ele>448</ele></trkpt>
<trkpt lat="48.92420" lon="11.63018"><ele>458</ele></trkpt>
<trkpt lat="48.92431" lon="11.63027"><ele>459</ele></trkpt>
<trkpt lat="48.92403" lon="11.63072"><ele>461</ele></trkpt>
<trkpt lat="48.92374" lon="11.63207"><ele>471</ele></trkpt>
<trkpt lat="48.92371" lon="11.63237"><ele>472</ele></trkpt>
<trkpt lat="48.92354" lon="11.63503"><ele>484</ele></trkpt>
<trkpt lat="48.92343" lon="11.63584"><ele>486</ele></trkpt>
<trkpt lat="48.92335" lon="11.63618"><ele>487</ele></trkpt>
<trkpt lat="48.92331" lon="11.63660"><ele>488</ele></trkpt>
<trkpt lat="48.92333" lon="11.63872"><ele>486</ele></trkpt>
<trkpt lat="48.92328" lon="11.64000"><ele>484</ele></trkpt>
<trkpt lat="48.92314" lon="11.64138"><ele>485</ele></trkpt>
<trkpt lat="48.92327" lon="11.64199"><ele>483</ele></trkpt>
<trkpt lat="48.92401" lon="11.64464"><ele>470</ele></trkpt>
<trkpt lat="48.92408" lon="11.64590"><ele>463</ele></trkpt>
<trkpt lat="48.92411" lon="11.64715"><ele>456</ele></trkpt>
<trkpt lat="48.92408" lon="11.64737"><ele>454</ele></trkpt>
<trkpt lat="48.92374" lon="11.64838"><ele>450</ele></trkpt>
<trkpt lat="48.92369" lon="11.64861"><ele>449</ele></trkpt>
<trkpt lat="48.92375" lon="11.64889"><ele>448</ele></trkpt>
<trkpt lat="48.92379" lon="11.64950"><ele>446</ele></trkpt>
<trkpt lat="48.92402" lon="11.65018"><ele>444</ele></trkpt>
<trkpt lat="48.92443" lon="11.65121"><ele>440</ele></trkpt>
<trkpt lat="48.92449" lon="11.65156"><ele>439</ele></trkpt>
<trkpt lat="48.92467" lon="11.65501"><ele>436</ele></trkpt>
<trkpt lat="48.92470" lon="11.65514"><ele>436</ele></trkpt>
<trkpt lat="48.92492" lon="11.65536"><ele>435</ele></trkpt>
<trkpt lat="48.92517" lon="11.65541"><ele>435</ele></trkpt>
<trkpt lat="48.92552" lon="11.65508"><ele>434</ele></trkpt>
<trkpt lat="48.92603" lon="11.65428"><ele>432</ele></trkpt>
<trkpt lat="48.92643" lon="11.65386"><ele>432</ele></trkpt>
<trkpt lat="48.92680" lon="11.65366"><ele>432</ele></trkpt>
<trkpt lat="48.92736" lon="11.65374"><ele>431</ele></trkpt>
<trkpt lat="48.92784" lon="11.65376"><ele>428</ele></trkpt>
<trkpt lat="48.92855" lon="11.65376"><ele>424</ele></trkpt>
<trkpt lat="48.92906" lon="11.65367"><ele>420</ele></trkpt>
<trkpt lat="48.92946" lon="11.65370"><ele>418</ele></trkpt>
<trkpt lat="48.92963" lon="11.65381"><ele>415</ele></trkpt>
<trkpt lat="48.92967" lon="11.65390"><ele>414</ele></trkpt>
<trkpt lat="48.92966" lon="11.65446"><ele>410</ele></trkpt>
<trkpt lat="48.92970" lon="11.65486"><ele>405</ele></trkpt>
<trkpt lat="48.92993" lon="11.65567"><ele>400</ele></trkpt>
<trkpt lat="48.93013" lon="11.65630"><ele>399</ele></trkpt>
<trkpt lat="48.92982" lon="11.65703"><ele>401</ele></trkpt>
<trkpt lat="48.92964" lon="11.65771"><ele>398</ele></trkpt>
<trkpt lat="48.92906" lon="11.66078"><ele>396</ele></trkpt>
<trkpt lat="48.93062" lon="11.66189"><ele>426</ele></trkpt>
<trkpt lat="48.93113" lon="11.66231"><ele>434</ele></trkpt>
<trkpt lat="48.93131" lon="11.66251"><ele>437</ele></trkpt>
<trkpt lat="48.93147" lon="11.66276"><ele>440</ele></trkpt>
<trkpt lat="48.93221" lon="11.66459"><ele>454</ele></trkpt>
<trkpt lat="48.93226" lon="11.66492"><ele>455</ele></trkpt>
<trkpt lat="48.93228" lon="11.66537"><ele>458</ele></trkpt>
<trkpt lat="48.93218" lon="11.66758"><ele>466</ele></trkpt>
<trkpt lat="48.93236" lon="11.67291"><ele>452</ele></trkpt>
<trkpt lat="48.93299" lon="11.67621"><ele>439</ele></trkpt>
<trkpt lat="48.93296" lon="11.67698"><ele>438</ele></trkpt>
<trkpt lat="48.93350" lon="11.67698"><ele>438</ele></trkpt>
<trkpt lat="48.93356" lon="11.67702"><ele>438</ele></trkpt>
<trkpt lat="48.93373" lon="11.67900"><ele>435</ele></trkpt>
<trkpt lat="48.93422" lon="11.67890"><ele>434</ele></trkpt>
<trkpt lat="48.93581" lon="11.67799"><ele>415</ele></trkpt>
<trkpt lat="48.93598" lon="11.67795"><ele>414</ele></trkpt>
<trkpt lat="48.93614" lon="11.67801"><ele>414</ele></trkpt>
<trkpt lat="48.93629" lon="11.67812"><ele>412</ele></trkpt>
<trkpt lat="48.93697" lon="11.67887"><ele>408</ele></trkpt>
<trkpt lat="48.93782" lon="11.67953"><ele>402</ele></trkpt>
<trkpt lat="48.93950" lon="11.68129"><ele>387</ele></trkpt>
<trkpt lat="48.94024" lon="11.68237"><ele>376</ele></trkpt>
<trkpt lat="48.94067" lon="11.68308"><ele>368</ele></trkpt>
<trkpt lat="48.94079" lon="11.68318"><ele>366</ele></trkpt>
<trkpt lat="48.94132" lon="11.68330"><ele>363</ele></trkpt>
<trkpt lat="48.94147" lon="11.68345"><ele>362</ele></trkpt>
<trkpt lat="48.94311" lon="11.68330"><ele>361</ele></trkpt>
<trkpt lat="48.94377" lon="11.68336"><ele>360</ele></trkpt>
<trkpt lat="48.94403" lon="11.68348"><ele>362</ele></trkpt>
<trkpt lat="48.94502" lon="11.68437"><ele>359</ele></trkpt>
<trkpt lat="48.94537" lon="11.68457"><ele>362</ele></trkpt>
<trkpt lat="48.94565" lon="11.68464"><ele>362</ele></trkpt>
<trkpt lat="48.94636" lon="11.68467"><ele>362</ele></trkpt>
<trkpt lat="48.94645" lon="11.68475"><ele>361</ele></trkpt>
<trkpt lat="48.94649" lon="11.68471"><ele>361</ele></trkpt>
<trkpt lat="48.94654" lon="11.68441"><ele>361</ele></trkpt>
<trkpt lat="48.94694" lon="11.68407"><ele>361</ele></trkpt>
<trkpt lat="48.94719" lon="11.68368"><ele>360</ele></trkpt>
<trkpt lat="48.94732" lon="11.68343"><ele>360</ele></trkpt>
<trkpt lat="48.94770" lon="11.68225"><ele>359</ele></trkpt>
<trkpt lat="48.94794" lon="11.68170"><ele>358</ele></trkpt>
<trkpt lat="48.94808" lon="11.68145"><ele>359</ele></trkpt>
<trkpt lat="48.94836" lon="11.68107"><ele>359</ele></trkpt>
<trkpt lat="48.94876" lon="11.68072"><ele>358</ele></trkpt>
<trkpt lat="48.94974" lon="11.68019"><ele>359</ele></trkpt>
<trkpt lat="48.95049" lon="11.68008"><ele>358</ele></trkpt>
<trkpt lat="48.95078" lon="11.68008"><ele>358</ele></trkpt>
<trkpt lat="48.95229" lon="11.68018"><ele>360</ele></trkpt>
<trkpt lat="48.95249" lon="11.68001"><ele>361</ele></trkpt>
<trkpt lat="48.95276" lon="11.67988"><ele>362</ele></trkpt>
<trkpt lat="48.95282" lon="11.67981"><ele>363</ele></trkpt>
<trkpt lat="48.95343" lon="11.68027"><ele>360</ele></trkpt>
<trkpt lat="48.95391" lon="11.68082"><ele>358</ele></trkpt>
<trkpt lat="48.95478" lon="11.68118"><ele>358</ele></trkpt>
<trkpt lat="48.95514" lon="11.68123"><ele>358</ele></trkpt>
<trkpt lat="48.95529" lon="11.68121"><ele>358</ele></trkpt>
<trkpt lat="48.95591" lon="11.68098"><ele>359</ele></trkpt>
<trkpt lat="48.95655" lon="11.68061"><ele>356</ele></trkpt>
<trkpt lat="48.95676" lon="11.68065"><ele>354</ele></trkpt>
<trkpt lat="48.95703" lon="11.68082"><ele>354</ele></trkpt>
<trkpt lat="48.95724" lon="11.68086"><ele>354</ele></trkpt>
<trkpt lat="48.95745" lon="11.68081"><ele>354</ele></trkpt>
<trkpt lat="48.95770" lon="11.68065"><ele>354</ele></trkpt>
<trkpt lat="48.95777" lon="11.68064"><ele>354</ele></trkpt>
<trkpt lat="48.95783" lon="11.68068"><ele>354</ele></trkpt>
<trkpt lat="48.95791" lon="11.68075"><ele>354</ele></trkpt>
<trkpt lat="48.95773" lon="11.68101"><ele>354</ele></trkpt>
<trkpt lat="48.95758" lon="11.68171"><ele>354</ele></trkpt>
<trkpt lat="48.95764" lon="11.68179"><ele>355</ele></trkpt>
<trkpt lat="48.95788" lon="11.68191"><ele>356</ele></trkpt>
<trkpt lat="48.95828" lon="11.68230"><ele>354</ele></trkpt>
<trkpt lat="48.95863" lon="11.68300"><ele>354</ele></trkpt>
<trkpt lat="48.95893" lon="11.68383"><ele>353</ele></trkpt>
<trkpt lat="48.95901" lon="11.68459"><ele>354</ele></trkpt>
<trkpt lat="48.95902" lon="11.68546"><ele>355</ele></trkpt>
<trkpt lat="48.95914" lon="11.68555"><ele>354</ele></trkpt>
<trkpt lat="48.95947" lon="11.68542"><ele>355</ele></trkpt>
<trkpt lat="48.96045" lon="11.68521"><ele>352</ele></trkpt>
<trkpt lat="48.96076" lon="11.68519"><ele>352</ele></trkpt>
<trkpt lat="48.96109" lon="11.68528"><ele>352</ele></trkpt>
<trkpt lat="48.96151" lon="11.68555"><ele>353</ele></trkpt>
<trkpt lat="48.96173" lon="11.68554"><ele>352</ele></trkpt>
<trkpt lat="48.96303" lon="11.68390"><ele>353</ele></trkpt>
<trkpt lat="48.96308" lon="11.68387"><ele>352</ele></trkpt>
<trkpt lat="48.96317" lon="11.68390"><ele>352</ele></trkpt>
<trkpt lat="48.96385" lon="11.68559"><ele>353</ele></trkpt>
<trkpt lat="48.96421" lon="11.68610"><ele>355</ele></trkpt>
<trkpt lat="48.96429" lon="11.68594"><ele>355</ele></trkpt>
<trkpt lat="48.96383" lon="11.68694"><ele>356</ele></trkpt>
<trkpt lat="48.96356" lon="11.68642"><ele>354</ele></trkpt>
<trkpt lat="48.96342" lon="11.68623"><ele>353</ele></trkpt>
<trkpt lat="48.96328" lon="11.68620"><ele>352</ele></trkpt>
<trkpt lat="48.96319" lon="11.68626"><ele>352</ele></trkpt>
<trkpt lat="48.96242" lon="11.68754"><ele>352</ele></trkpt>
<trkpt lat="48.96197" lon="11.68849"><ele>353</ele></trkpt>
<trkpt lat="48.96179" lon="11.68903"><ele>354</ele></trkpt>
<trkpt lat="48.96154" lon="11.68996"><ele>354</ele></trkpt>
<trkpt lat="48.96124" lon="11.68974"><ele>352</ele></trkpt>
<trkpt lat="48.96111" lon="11.68983"><ele>351</ele></trkpt>
<trkpt lat="48.96099" lon="11.68986"><ele>351</ele></trkpt>
<trkpt lat="48.96065" lon="11.68987"><ele>350</ele></trkpt>
<trkpt lat="48.96052" lon="11.68996"><ele>350</ele></trkpt>
<trkpt lat="48.96045" lon="11.69009"><ele>350</ele></trkpt>
<trkpt lat="48.96040" lon="11.69028"><ele>350</ele></trkpt>
<trkpt lat="48.96041" lon="11.69053"><ele>350</ele></trkpt>
<trkpt lat="48.96047" lon="11.69070"><ele>351</ele></trkpt>
<trkpt lat="48.96049" lon="11.69091"><ele>351</ele></trkpt>
<trkpt lat="48.96046" lon="11.69108"><ele>352</ele></trkpt>
<trkpt lat="48.96003" lon="11.69167"><ele>349</ele></trkpt>
<trkpt lat="48.95974" lon="11.69213"><ele>350</ele></trkpt>
<trkpt lat="48.95936" lon="11.69253"><ele>349</ele></trkpt>
<trkpt lat="48.95926" lon="11.69271"><ele>350</ele></trkpt>
<trkpt lat="48.95816" lon="11.69617"><ele>349</ele></trkpt>
<trkpt lat="48.95775" lon="11.69799"><ele>350</ele></trkpt>
<trkpt lat="48.95768" lon="11.69923"><ele>350</ele></trkpt>
<trkpt lat="48.95762" lon="11.69952"><ele>350</ele></trkpt>
<trkpt lat="48.95755" lon="11.69979"><ele>350</ele></trkpt>
<trkpt lat="48.95716" lon="11.70061"><ele>350</ele></trkpt>
<trkpt lat="48.95712" lon="11.70077"><ele>349</ele></trkpt>
<trkpt lat="48.95702" lon="11.70151"><ele>350</ele></trkpt>
<trkpt lat="48.95655" lon="11.70353"><ele>349</ele></trkpt>
<trkpt lat="48.95655" lon="11.70383"><ele>349</ele></trkpt>
<trkpt lat="48.95696" lon="11.70471"><ele>350</ele></trkpt>
<trkpt lat="48.95701" lon="11.70495"><ele>350</ele></trkpt>
<trkpt lat="48.95704" lon="11.70561"><ele>350</ele></trkpt>
<trkpt lat="48.95784" lon="11.70559"><ele>352</ele></trkpt>
<trkpt lat="48.95788" lon="11.70626"><ele>356</ele></trkpt>
<trkpt lat="48.95795" lon="11.70632"><ele>356</ele></trkpt>
<trkpt lat="48.95810" lon="11.70624"><ele>357</ele></trkpt>
<trkpt lat="48.95822" lon="11.70630"><ele>359</ele></trkpt>
<trkpt lat="48.95824" lon="11.70637"><ele>360</ele></trkpt>
<trkpt lat="48.95794" lon="11.70824"><ele>359</ele></trkpt>
<trkpt lat="48.95773" lon="11.71051"><ele>361</ele></trkpt>
<trkpt lat="48.95747" lon="11.71249"><ele>360</ele></trkpt>
<trkpt lat="48.95708" lon="11.71402"><ele>356</ele></trkpt>
<trkpt lat="48.95662" lon="11.71552"><ele>356</ele></trkpt>
<trkpt lat="48.95665" lon="11.71562"><ele>356</ele></trkpt>
<trkpt lat="48.95675" lon="11.71573"><ele>356</ele></trkpt>
<trkpt lat="48.95674" lon="11.71602"><ele>357</ele></trkpt>
<trkpt lat="48.95713" lon="11.71594"><ele>358</ele></trkpt>
<trkpt lat="48.95768" lon="11.71563"><ele>360</ele></trkpt>
<trkpt lat="48.95806" lon="11.71566"><ele>361</ele></trkpt>
<trkpt lat="48.95891" lon="11.71588"><ele>365</ele></trkpt>
<trkpt lat="48.95933" lon="11.71578"><ele>369</ele></trkpt>
<trkpt lat="48.95973" lon="11.71575"><ele>375</ele></trkpt>
<trkpt lat="48.95992" lon="11.71595"><ele>377</ele></trkpt>
<trkpt lat="48.96005" lon="11.71626"><ele>379</ele></trkpt>
<trkpt lat="48.96029" lon="11.71649"><ele>382</ele></trkpt>
<trkpt lat="48.96046" lon="11.71682"><ele>384</ele></trkpt>
<trkpt lat="48.96075" lon="11.71720"><ele>387</ele></trkpt>
<trkpt lat="48.96129" lon="11.71764"><ele>396</ele></trkpt>
<trkpt lat="48.96155" lon="11.71780"><ele>396</ele></trkpt>
<trkpt lat="48.96182" lon="11.71784"><ele>398</ele></trkpt>
<trkpt lat="48.96223" lon="11.71817"><ele>398</ele></trkpt>
<trkpt lat="48.96249" lon="11.71889"><ele>402</ele></trkpt>
<trkpt lat="48.96258" lon="11.71899"><ele>402</ele></trkpt>
<trkpt lat="48.96293" lon="11.71920"><ele>404</ele></trkpt>
<trkpt lat="48.96311" lon="11.71936"><ele>405</ele></trkpt>
<trkpt lat="48.96344" lon="11.72008"><ele>408</ele></trkpt>
<trkpt lat="48.96355" lon="11.72024"><ele>408</ele></trkpt>
<trkpt lat="48.96372" lon="11.72035"><ele>409</ele></trkpt>
<trkpt lat="48.96404" lon="11.72031"><ele>410</ele></trkpt>
<trkpt lat="48.96421" lon="11.72026"><ele>410</ele></trkpt>
<trkpt lat="48.96444" lon="11.72007"><ele>413</ele></trkpt>
<trkpt lat="48.96458" lon="11.72001"><ele>415</ele></trkpt>
<trkpt lat="48.96477" lon="11.72006"><ele>416</ele></trkpt>
<trkpt lat="48.96501" lon="11.72025"><ele>417</ele></trkpt>
<trkpt lat="48.96518" lon="11.72045"><ele>420</ele></trkpt>
<trkpt lat="48.96534" lon="11.72077"><ele>420</ele></trkpt>
<trkpt lat="48.96597" lon="11.72174"><ele>420</ele></trkpt>
<trkpt lat="48.96605" lon="11.72194"><ele>418</ele></trkpt>
<trkpt lat="48.96608" lon="11.72214"><ele>418</ele></trkpt>
<trkpt lat="48.96612" lon="11.72319"><ele>418</ele></trkpt>
<trkpt lat="48.96631" lon="11.72382"><ele>419</ele></trkpt>
<trkpt lat="48.96642" lon="11.72400"><ele>420</ele></trkpt>
<trkpt lat="48.96663" lon="11.72400"><ele>421</ele></trkpt>
<trkpt lat="48.96672" lon="11.72394"><ele>421</ele></trkpt>
<trkpt lat="48.96791" lon="11.72285"><ele>422</ele></trkpt>
<trkpt lat="48.96939" lon="11.72176"><ele>426</ele></trkpt>
<trkpt lat="48.97008" lon="11.72104"><ele>427</ele></trkpt>
<trkpt lat="48.97038" lon="11.72057"><ele>426</ele></trkpt>
<trkpt lat="48.97081" lon="11.72008"><ele>427</ele></trkpt>
<trkpt lat="48.97106" lon="11.71985"><ele>429</ele></trkpt>
<trkpt lat="48.97188" lon="11.71873"><ele>430</ele></trkpt>
<trkpt lat="48.97205" lon="11.71865"><ele>430</ele></trkpt>
<trkpt lat="48.97239" lon="11.71862"><ele>430</ele></trkpt>
<trkpt lat="48.97253" lon="11.71866"><ele>431</ele></trkpt>
<trkpt lat="48.97291" lon="11.71894"><ele>432</ele></trkpt>
<trkpt lat="48.97399" lon="11.71927"><ele>434</ele></trkpt>
<trkpt lat="48.97427" lon="11.71930"><ele>434</ele></trkpt>
<trkpt lat="48.97450" lon="11.71944"><ele>434</ele></trkpt>
<trkpt lat="48.97481" lon="11.71971"><ele>435</ele></trkpt>
<trkpt lat="48.97570" lon="11.72021"><ele>438</ele></trkpt>
<trkpt lat="48.97584" lon="11.72039"><ele>439</ele></trkpt>
<trkpt lat="48.97616" lon="11.72092"><ele>440</ele></trkpt>
<trkpt lat="48.97640" lon="11.72028"><ele>446</ele></trkpt>
<trkpt lat="48.97709" lon="11.71889"><ele>455</ele></trkpt>
<trkpt lat="48.97733" lon="11.71824"><ele>461</ele></trkpt>
<trkpt lat="48.97746" lon="11.71776"><ele>464</ele></trkpt>
<trkpt lat="48.97752" lon="11.71747"><ele>466</ele></trkpt>
<trkpt lat="48.97749" lon="11.71649"><ele>466</ele></trkpt>
<trkpt lat="48.97735" lon="11.71634"><ele>469</ele></trkpt>
<trkpt lat="48.97711" lon="11.71637"><ele>473</ele></trkpt>
<trkpt lat="48.97704" lon="11.71632"><ele>475</ele></trkpt>
<trkpt lat="48.97696" lon="11.71617"><ele>478</ele></trkpt>
<trkpt lat="48.97684" lon="11.71609"><ele>480</ele></trkpt>
<trkpt lat="48.97665" lon="11.71610"><ele>483</ele></trkpt>
<trkpt lat="48.97649" lon="11.71623"><ele>485</ele></trkpt>
<trkpt lat="48.97631" lon="11.71653"><ele>486</ele></trkpt>
<trkpt lat="48.97615" lon="11.71664"><ele>488</ele></trkpt>
<trkpt lat="48.97569" lon="11.71674"><ele>490</ele></trkpt>
<trkpt lat="48.97540" lon="11.71669"><ele>491</ele></trkpt>
<trkpt lat="48.97513" lon="11.71660"><ele>491</ele></trkpt>
<trkpt lat="48.97497" lon="11.71639"><ele>493</ele></trkpt>
<trkpt lat="48.97474" lon="11.71626"><ele>494</ele></trkpt>
<trkpt lat="48.97458" lon="11.71607"><ele>495</ele></trkpt>
<trkpt lat="48.97433" lon="11.71569"><ele>496</ele></trkpt>
<trkpt lat="48.97418" lon="11.71517"><ele>500</ele></trkpt>
<trkpt lat="48.97396" lon="11.71488"><ele>501</ele></trkpt>
<trkpt lat="48.97383" lon="11.71456"><ele>502</ele></trkpt>
<trkpt lat="48.97381" lon="11.71442"><ele>504</ele></trkpt>
<trkpt lat="48.97359" lon="11.71407"><ele>505</ele></trkpt>
<trkpt lat="48.97346" lon="11.71371"><ele>507</ele></trkpt>
<trkpt lat="48.97319" lon="11.71332"><ele>508</ele></trkpt>
<trkpt lat="48.97062" lon="11.71211"><ele>514</ele></trkpt>
<trkpt lat="48.97010" lon="11.71204"><ele>514</ele></trkpt>
<trkpt lat="48.97010" lon="11.71198"><ele>514</ele></trkpt>
<trkpt lat="48.96975" lon="11.71164"><ele>514</ele></trkpt>
<trkpt lat="48.96965" lon="11.71146"><ele>514</ele></trkpt>
<trkpt lat="48.96957" lon="11.71119"><ele>514</ele></trkpt>
<trkpt lat="48.96950" lon="11.71111"><ele>514</ele></trkpt>
<trkpt lat="48.96933" lon="11.71014"><ele>513</ele></trkpt>
<trkpt lat="48.96958" lon="11.70932"><ele>513</ele></trkpt>
<trkpt lat="48.96964" lon="11.70922"><ele>513</ele></trkpt>
<trkpt lat="48.97117" lon="11.70975"><ele>514</ele></trkpt>
<trkpt lat="48.97244" lon="11.71028"><ele>516</ele></trkpt>
<trkpt lat="48.97296" lon="11.71036"><ele>517</ele></trkpt>
<trkpt lat="48.97365" lon="11.71029"><ele>519</ele></trkpt>
<trkpt lat="48.97410" lon="11.70924"><ele>519</ele></trkpt>
<trkpt lat="48.97489" lon="11.70837"><ele>519</ele></trkpt>
<trkpt lat="48.97594" lon="11.70650"><ele>516</ele></trkpt>
<trkpt lat="48.97646" lon="11.70575"><ele>515</ele></trkpt>
<trkpt lat="48.97707" lon="11.70527"><ele>515</ele></trkpt>
<trkpt lat="48.97747" lon="11.70480"><ele>516</ele></trkpt>
<trkpt lat="48.97775" lon="11.70453"><ele>517</ele></trkpt>
<trkpt lat="48.97843" lon="11.70511"><ele>519</ele></trkpt>
<trkpt lat="48.97888" lon="11.70554"><ele>520</ele></trkpt>
<trkpt lat="48.97899" lon="11.70573"><ele>520</ele></trkpt>
<trkpt lat="48.97908" lon="11.70597"><ele>520</ele></trkpt>
<trkpt lat="48.97919" lon="11.70675"><ele>518</ele></trkpt>
<trkpt lat="48.97934" lon="11.70716"><ele>518</ele></trkpt>
<trkpt lat="48.97948" lon="11.70739"><ele>516</ele></trkpt>
<trkpt lat="48.98067" lon="11.70873"><ele>510</ele></trkpt>
<trkpt lat="48.98082" lon="11.70905"><ele>511</ele></trkpt>
<trkpt lat="48.98096" lon="11.70972"><ele>513</ele></trkpt>
<trkpt lat="48.98103" lon="11.70985"><ele>514</ele></trkpt>
<trkpt lat="48.98112" lon="11.70996"><ele>515</ele></trkpt>
<trkpt lat="48.98167" lon="11.71043"><ele>517</ele></trkpt>
<trkpt lat="48.98200" lon="11.71080"><ele>518</ele></trkpt>
<trkpt lat="48.98221" lon="11.71087"><ele>518</ele></trkpt>
<trkpt lat="48.98270" lon="11.71125"><ele>518</ele></trkpt>
<trkpt lat="48.98274" lon="11.71104"><ele>518</ele></trkpt>
<trkpt lat="48.98350" lon="11.71133"><ele>515</ele></trkpt>
<trkpt lat="48.98364" lon="11.71136"><ele>515</ele></trkpt>
<trkpt lat="48.98382" lon="11.71133"><ele>514</ele></trkpt>
<trkpt lat="48.98449" lon="11.71108"><ele>510</ele></trkpt>
<trkpt lat="48.98496" lon="11.71066"><ele>507</ele></trkpt>
<trkpt lat="48.98524" lon="11.71054"><ele>505</ele></trkpt>
<trkpt lat="48.98544" lon="11.71054"><ele>505</ele></trkpt>
<trkpt lat="48.98891" lon="11.71130"><ele>521</ele></trkpt>
<trkpt lat="48.98900" lon="11.70964"><ele>520</ele></trkpt>
<trkpt lat="48.99073" lon="11.70882"><ele>528</ele></trkpt>
<trkpt lat="48.99172" lon="11.70884"><ele>531</ele></trkpt>
<trkpt lat="48.99197" lon="11.70876"><ele>532</ele></trkpt>
<trkpt lat="48.99217" lon="11.70855"><ele>534</ele></trkpt>
<trkpt lat="48.99225" lon="11.70836"><ele>534</ele></trkpt>
<trkpt lat="48.99227" lon="11.70819"><ele>534</ele></trkpt>
<trkpt lat="48.99225" lon="11.70740"><ele>536</ele></trkpt>
<trkpt lat="48.99232" lon="11.70697"><ele>536</ele></trkpt>
<trkpt lat="48.99253" lon="11.70639"><ele>538</ele></trkpt>
<trkpt lat="48.99293" lon="11.70436"><ele>541</ele></trkpt>
<trkpt lat="48.99310" lon="11.70375"><ele>541</ele></trkpt>
<trkpt lat="48.99317" lon="11.70318"><ele>541</ele></trkpt>
<trkpt lat="48.99323" lon="11.70127"><ele>536</ele></trkpt>
<trkpt lat="48.99329" lon="11.70083"><ele>535</ele></trkpt>
<trkpt lat="48.99347" lon="11.70024"><ele>533</ele></trkpt>
<trkpt lat="48.99357" lon="11.70009"><ele>532</ele></trkpt>
<trkpt lat="48.99428" lon="11.69933"><ele>528</ele></trkpt>
<trkpt lat="48.99460" lon="11.69890"><ele>525</ele></trkpt>
<trkpt lat="48.99500" lon="11.69801"><ele>520</ele></trkpt>
<trkpt lat="48.99531" lon="11.69743"><ele>518</ele></trkpt>
<trkpt lat="48.99591" lon="11.69656"><ele>516</ele></trkpt>
<trkpt lat="48.99605" lon="11.69627"><ele>516</ele></trkpt>
<trkpt lat="48.99641" lon="11.69527"><ele>515</ele></trkpt>
<trkpt lat="48.99660" lon="11.69482"><ele>514</ele></trkpt>
<trkpt lat="48.99713" lon="11.69402"><ele>511</ele></trkpt>
<trkpt lat="48.99750" lon="11.69362"><ele>507</ele></trkpt>
<trkpt lat="48.99765" lon="11.69341"><ele>506</ele></trkpt>
<trkpt lat="48.99799" lon="11.69284"><ele>504</ele></trkpt>
<trkpt lat="48.99820" lon="11.69226"><ele>504</ele></trkpt>
<trkpt lat="48.99850" lon="11.69166"><ele>504</ele></trkpt>
<trkpt lat="48.99863" lon="11.69135"><ele>503</ele></trkpt>
<trkpt lat="48.99918" lon="11.69058"><ele>502</ele></trkpt>
<trkpt lat="48.99935" lon="11.69024"><ele>502</ele></trkpt>
<trkpt lat="48.99960" lon="11.68927"><ele>502</ele></trkpt>
<trkpt lat="48.99973" lon="11.68819"><ele>504</ele></trkpt>
<trkpt lat="48.99999" lon="11.68713"><ele>506</ele></trkpt>
<trkpt lat="49.00014" lon="11.68663"><ele>506</ele></trkpt>
<trkpt lat="49.00046" lon="11.68597"><ele>507</ele></trkpt>
<trkpt lat="49.00052" lon="11.68567"><ele>507</ele></trkpt>
<trkpt lat="49.00049" lon="11.68525"><ele>506</ele></trkpt>
<trkpt lat="49.00023" lon="11.68443"><ele>505</ele></trkpt>
<trkpt lat="49.00004" lon="11.68314"><ele>504</ele></trkpt>
<trkpt lat="49.00006" lon="11.68053"><ele>504</ele></trkpt>
<trkpt lat="49.00010" lon="11.67898"><ele>504</ele></trkpt>
<trkpt lat="49.00028" lon="11.67824"><ele>503</ele></trkpt>
<trkpt lat="49.00034" lon="11.67782"><ele>502</ele></trkpt>
<trkpt lat="49.00036" lon="11.67706"><ele>501</ele></trkpt>
<trkpt lat="49.00022" lon="11.67368"><ele>498</ele></trkpt>
<trkpt lat="48.99986" lon="11.66970"><ele>496</ele></trkpt>
<trkpt lat="48.99987" lon="11.66958"><ele>496</ele></trkpt>
<trkpt lat="48.99983" lon="11.66953"><ele>496</ele></trkpt>
<trkpt lat="48.99945" lon="11.66671"><ele>496</ele></trkpt>
<trkpt lat="48.99912" lon="11.66476"><ele>493</ele></trkpt>
<trkpt lat="48.99880" lon="11.66337"><ele>499</ele></trkpt>
<trkpt lat="48.99878" lon="11.66225"><ele>502</ele></trkpt>
<trkpt lat="48.99859" lon="11.65984"><ele>510</ele></trkpt>
<trkpt lat="48.99844" lon="11.65887"><ele>514</ele></trkpt>
<trkpt lat="48.99783" lon="11.65588"><ele>522</ele></trkpt>
<trkpt lat="48.99764" lon="11.65483"><ele>522</ele></trkpt>
<trkpt lat="48.99751" lon="11.65395"><ele>523</ele></trkpt>
<trkpt lat="48.99734" lon="11.65226"><ele>522</ele></trkpt>
<trkpt lat="48.99719" lon="11.65144"><ele>522</ele></trkpt>
<trkpt lat="48.99693" lon="11.64941"><ele>520</ele></trkpt>
<trkpt lat="48.99679" lon="11.64868"><ele>518</ele></trkpt>
<trkpt lat="48.99651" lon="11.64738"><ele>514</ele></trkpt>
<trkpt lat="48.99638" lon="11.64715"><ele>514</ele></trkpt>
<trkpt lat="48.99611" lon="11.64638"><ele>511</ele></trkpt>
<trkpt lat="48.99532" lon="11.64173"><ele>484</ele></trkpt>
<trkpt lat="48.99521" lon="11.64129"><ele>480</ele></trkpt>
<trkpt lat="48.99505" lon="11.64074"><ele>473</ele></trkpt>
<trkpt lat="48.99431" lon="11.63891"><ele>450</ele></trkpt>
<trkpt lat="48.99403" lon="11.63796"><ele>436</ele></trkpt>
<trkpt lat="48.99391" lon="11.63685"><ele>419</ele></trkpt>
<trkpt lat="48.99343" lon="11.63522"><ele>393</ele></trkpt>
<trkpt lat="48.99338" lon="11.63468"><ele>388</ele></trkpt>
<trkpt lat="48.99343" lon="11.63433"><ele>384</ele></trkpt>
<trkpt lat="48.99369" lon="11.63378"><ele>375</ele></trkpt>
<trkpt lat="48.99394" lon="11.63354"><ele>370</ele></trkpt>
<trkpt lat="48.99470" lon="11.63314"><ele>366</ele></trkpt>
<trkpt lat="48.99564" lon="11.63274"><ele>364</ele></trkpt>
<trkpt lat="48.99545" lon="11.63239"><ele>360</ele></trkpt>
<trkpt lat="48.99533" lon="11.63209"><ele>359</ele></trkpt>
<trkpt lat="48.99526" lon="11.63182"><ele>358</ele></trkpt>
<trkpt lat="48.99521" lon="11.63140"><ele>358</ele></trkpt>
<trkpt lat="48.99547" lon="11.63133"><ele>357</ele></trkpt>
<trkpt lat="48.99560" lon="11.63119"><ele>357</ele></trkpt>
<trkpt lat="48.99592" lon="11.63099"><ele>356</ele></trkpt>
<trkpt lat="48.99711" lon="11.63071"><ele>356</ele></trkpt>
<trkpt lat="48.99766" lon="11.63052"><ele>356</ele></trkpt>
<trkpt lat="48.99836" lon="11.63047"><ele>357</ele></trkpt>
<trkpt lat="48.99867" lon="11.63039"><ele>358</ele></trkpt>
<trkpt lat="48.99931" lon="11.62999"><ele>358</ele></trkpt>
<trkpt lat="48.99996" lon="11.62970"><ele>358</ele></trkpt>
<trkpt lat="49.00047" lon="11.62914"><ele>358</ele></trkpt>
<trkpt lat="49.00122" lon="11.62866"><ele>357</ele></trkpt>
<trkpt lat="49.00163" lon="11.62841"><ele>358</ele></trkpt>
<trkpt lat="49.00226" lon="11.62815"><ele>358</ele></trkpt>
<trkpt lat="49.00279" lon="11.62787"><ele>358</ele></trkpt>
<trkpt lat="49.00304" lon="11.62767"><ele>358</ele></trkpt>
<trkpt lat="49.00328" lon="11.62736"><ele>357</ele></trkpt>
<trkpt lat="49.00350" lon="11.62697"><ele>358</ele></trkpt>
<trkpt lat="49.00373" lon="11.62672"><ele>358</ele></trkpt>
<trkpt lat="49.00418" lon="11.62640"><ele>358</ele></trkpt>
<trkpt lat="49.00444" lon="11.62614"><ele>358</ele></trkpt>
<trkpt lat="49.00492" lon="11.62552"><ele>358</ele></trkpt>
<trkpt lat="49.00548" lon="11.62494"><ele>357</ele></trkpt>
<trkpt lat="49.00597" lon="11.62450"><ele>358</ele></trkpt>
<trkpt lat="49.00623" lon="11.62442"><ele>358</ele></trkpt>
<trkpt lat="49.00643" lon="11.62428"><ele>358</ele></trkpt>
<trkpt lat="49.00670" lon="11.62358"><ele>358</ele></trkpt>
<trkpt lat="49.00715" lon="11.62291"><ele>358</ele></trkpt>
<trkpt lat="49.00780" lon="11.62220"><ele>358</ele></trkpt>
<trkpt lat="49.00852" lon="11.62083"><ele>358</ele></trkpt>
<trkpt lat="49.00895" lon="11.62017"><ele>358</ele></trkpt>
<trkpt lat="49.00927" lon="11.61956"><ele>358</ele></trkpt>
<trkpt lat="49.00935" lon="11.61948"><ele>358</ele></trkpt>
<trkpt lat="49.00970" lon="11.61929"><ele>359</ele></trkpt>
<trkpt lat="49.01058" lon="11.61828"><ele>360</ele></trkpt>
<trkpt lat="49.01141" lon="11.61716"><ele>359</ele></trkpt>
<trkpt lat="49.01169" lon="11.61665"><ele>359</ele></trkpt>
<trkpt lat="49.01197" lon="11.61595"><ele>359</ele></trkpt>
<trkpt lat="49.01205" lon="11.61585"><ele>359</ele></trkpt>
<trkpt lat="49.01282" lon="11.61411"><ele>359</ele></trkpt>
<trkpt lat="49.01407" lon="11.61152"><ele>358</ele></trkpt>
<trkpt lat="49.01527" lon="11.60784"><ele>359</ele></trkpt>
<trkpt lat="49.01534" lon="11.60776"><ele>359</ele></trkpt>
<trkpt lat="49.01550" lon="11.60775"><ele>359</ele></trkpt>
<trkpt lat="49.01586" lon="11.60716"><ele>359</ele></trkpt>
<trkpt lat="49.01583" lon="11.60684"><ele>359</ele></trkpt>
<trkpt lat="49.01586" lon="11.60647"><ele>359</ele></trkpt>
<trkpt lat="49.01585" lon="11.60620"><ele>359</ele></trkpt>
<trkpt lat="49.01554" lon="11.60476"><ele>359</ele></trkpt>
<trkpt lat="49.01550" lon="11.60423"><ele>359</ele></trkpt>
<trkpt lat="49.01553" lon="11.60312"><ele>359</ele></trkpt>
<trkpt lat="49.01560" lon="11.60227"><ele>359</ele></trkpt>
<trkpt lat="49.01598" lon="11.60123"><ele>358</ele></trkpt>
<trkpt lat="49.01699" lon="11.59896"><ele>358</ele></trkpt>
<trkpt lat="49.01834" lon="11.59685"><ele>358</ele></trkpt>
<trkpt lat="49.01920" lon="11.59567"><ele>359</ele></trkpt>
<trkpt lat="49.01927" lon="11.59544"><ele>359</ele></trkpt>
<trkpt lat="49.01918" lon="11.59500"><ele>359</ele></trkpt>
<trkpt lat="49.01919" lon="11.59482"><ele>359</ele></trkpt>
<trkpt lat="49.01930" lon="11.59457"><ele>359</ele></trkpt>
<trkpt lat="49.02058" lon="11.59257"><ele>360</ele></trkpt>
<trkpt lat="49.02107" lon="11.59170"><ele>360</ele></trkpt>
<trkpt lat="49.02127" lon="11.59151"><ele>359</ele></trkpt>
<trkpt lat="49.02154" lon="11.59149"><ele>360</ele></trkpt>
<trkpt lat="49.02247" lon="11.59122"><ele>359</ele></trkpt>
<trkpt lat="49.02260" lon="11.59111"><ele>360</ele></trkpt>
<trkpt lat="49.02271" lon="11.59094"><ele>360</ele></trkpt>
<trkpt lat="49.02285" lon="11.59062"><ele>359</ele></trkpt>
<trkpt lat="49.02307" lon="11.58913"><ele>360</ele></trkpt>
<trkpt lat="49.02305" lon="11.58904"><ele>360</ele></trkpt>
<trkpt lat="49.02316" lon="11.58883"><ele>360</ele></trkpt>
<trkpt lat="49.02305" lon="11.58868"><ele>360</ele></trkpt>
<trkpt lat="49.02307" lon="11.58855"><ele>359</ele></trkpt>
<trkpt lat="49.02418" lon="11.58687"><ele>359</ele></trkpt>
<trkpt lat="49.02445" lon="11.58626"><ele>357</ele></trkpt>
<trkpt lat="49.02498" lon="11.58551"><ele>357</ele></trkpt>
<trkpt lat="49.02546" lon="11.58476"><ele>356</ele></trkpt>
<trkpt lat="49.02585" lon="11.58445"><ele>357</ele></trkpt>
<trkpt lat="49.02663" lon="11.58301"><ele>357</ele></trkpt>
<trkpt lat="49.02689" lon="11.58221"><ele>357</ele></trkpt>
<trkpt lat="49.02709" lon="11.58204"><ele>358</ele></trkpt>
<trkpt lat="49.02709" lon="11.58188"><ele>357</ele></trkpt>
<trkpt lat="49.02719" lon="11.58131"><ele>357</ele></trkpt>
<trkpt lat="49.02728" lon="11.58117"><ele>357</ele></trkpt>
<trkpt lat="49.02744" lon="11.58107"><ele>357</ele></trkpt>
<trkpt lat="49.02763" lon="11.58138"><ele>360</ele></trkpt>
<trkpt lat="49.02769" lon="11.58143"><ele>360</ele></trkpt>
<trkpt lat="49.02779" lon="11.58143"><ele>359</ele></trkpt>
<trkpt lat="49.02912" lon="11.58061"><ele>360</ele></trkpt>
<trkpt lat="49.02936" lon="11.58034"><ele>360</ele></trkpt>
<trkpt lat="49.02952" lon="11.58000"><ele>359</ele></trkpt>
<trkpt lat="49.02957" lon="11.57961"><ele>359</ele></trkpt>
<trkpt lat="49.02956" lon="11.57939"><ele>359</ele></trkpt>
<trkpt lat="49.02931" lon="11.57755"><ele>358</ele></trkpt>
<trkpt lat="49.03047" lon="11.57656"><ele>360</ele></trkpt>
<trkpt lat="49.03054" lon="11.57634"><ele>360</ele></trkpt>
<trkpt lat="49.03118" lon="11.57577"><ele>359</ele></trkpt>
<trkpt lat="49.03137" lon="11.57544"><ele>360</ele></trkpt>
<trkpt lat="49.03148" lon="11.57495"><ele>360</ele></trkpt>
<trkpt lat="49.03157" lon="11.57428"><ele>360</ele></trkpt>
<trkpt lat="49.03152" lon="11.57365"><ele>359</ele></trkpt>
<trkpt lat="49.03190" lon="11.57370"><ele>360</ele></trkpt>
<trkpt lat="49.03206" lon="11.57376"><ele>361</ele></trkpt>
<trkpt lat="49.03223" lon="11.57389"><ele>362</ele></trkpt>
<trkpt lat="49.03236" lon="11.57406"><ele>362</ele></trkpt>
<trkpt lat="49.03250" lon="11.57373"><ele>363</ele></trkpt>
<trkpt lat="49.03252" lon="11.57358"><ele>363</ele></trkpt>
<trkpt lat="49.03246" lon="11.57312"><ele>362</ele></trkpt>
<trkpt lat="49.03261" lon="11.57306"><ele>363</ele></trkpt>
<trkpt lat="49.03266" lon="11.57285"><ele>364</ele></trkpt>
<trkpt lat="49.03250" lon="11.57215"><ele>365</ele></trkpt>
<trkpt lat="49.03247" lon="11.57120"><ele>366</ele></trkpt>
<trkpt lat="49.03249" lon="11.57047"><ele>366</ele></trkpt>
<trkpt lat="49.03244" lon="11.56972"><ele>367</ele></trkpt>
<trkpt lat="49.03235" lon="11.56929"><ele>367</ele></trkpt>
<trkpt lat="49.03226" lon="11.56915"><ele>367</ele></trkpt>
<trkpt lat="49.03246" lon="11.56876"><ele>368</ele></trkpt>
<trkpt lat="49.03235" lon="11.56861"><ele>367</ele></trkpt>
<trkpt lat="49.03221" lon="11.56827"><ele>367</ele></trkpt>
<trkpt lat="49.03215" lon="11.56783"><ele>367</ele></trkpt>
<trkpt lat="49.03219" lon="11.56755"><ele>368</ele></trkpt>
<trkpt lat="49.03256" lon="11.56633"><ele>368</ele></trkpt>
<trkpt lat="49.03264" lon="11.56595"><ele>368</ele></trkpt>
<trkpt lat="49.03280" lon="11.56467"><ele>368</ele></trkpt>
<trkpt lat="49.03292" lon="11.56416"><ele>368</ele></trkpt>
<trkpt lat="49.03424" lon="11.55992"><ele>368</ele></trkpt>
<trkpt lat="49.03439" lon="11.55935"><ele>368</ele></trkpt>
<trkpt lat="49.03462" lon="11.55830"><ele>372</ele></trkpt>
<trkpt lat="49.03472" lon="11.55817"><ele>372</ele></trkpt>
<trkpt lat="49.03496" lon="11.55816"><ele>374</ele></trkpt>
<trkpt lat="49.03517" lon="11.55694"><ele>374</ele></trkpt>
<trkpt lat="49.03534" lon="11.55568"><ele>373</ele></trkpt>
<trkpt lat="49.03534" lon="11.55530"><ele>374</ele></trkpt>
<trkpt lat="49.03527" lon="11.55469"><ele>374</ele></trkpt>
<trkpt lat="49.03538" lon="11.55307"><ele>375</ele></trkpt>
<trkpt lat="49.03551" lon="11.55254"><ele>376</ele></trkpt>
<trkpt lat="49.03563" lon="11.55224"><ele>376</ele></trkpt>
<trkpt lat="49.03576" lon="11.55120"><ele>376</ele></trkpt>
<trkpt lat="49.03581" lon="11.54896"><ele>374</ele></trkpt>
<trkpt lat="49.03547" lon="11.54889"><ele>372</ele></trkpt>
<trkpt lat="49.03537" lon="11.54879"><ele>372</ele></trkpt>
<trkpt lat="49.03536" lon="11.54870"><ele>372</ele></trkpt>
<trkpt lat="49.03530" lon="11.54729"><ele>373</ele></trkpt>
<trkpt lat="49.03528" lon="11.54564"><ele>374</ele></trkpt>
<trkpt lat="49.03525" lon="11.54505"><ele>374</ele></trkpt>
<trkpt lat="49.03527" lon="11.54449"><ele>374</ele></trkpt>
<trkpt lat="49.03517" lon="11.54295"><ele>374</ele></trkpt>
<trkpt lat="49.03520" lon="11.54285"><ele>374</ele></trkpt>
<trkpt lat="49.03531" lon="11.54273"><ele>376</ele></trkpt>
<trkpt lat="49.03529" lon="11.54244"><ele>376</ele></trkpt>
<trkpt lat="49.03531" lon="11.54219"><ele>376</ele></trkpt>
<trkpt lat="49.03540" lon="11.54200"><ele>376</ele></trkpt>
<trkpt lat="49.03559" lon="11.54175"><ele>376</ele></trkpt>
<trkpt lat="49.03561" lon="11.54159"><ele>376</ele></trkpt>
<trkpt lat="49.03561" lon="11.54102"><ele>376</ele></trkpt>
<trkpt lat="49.03556" lon="11.53989"><ele>378</ele></trkpt>
<trkpt lat="49.03410" lon="11.54005"><ele>380</ele></trkpt>
<trkpt lat="49.03215" lon="11.54017"><ele>404</ele></trkpt>
<trkpt lat="49.03207" lon="11.53979"><ele>404</ele></trkpt>
<trkpt lat="49.03136" lon="11.53523"><ele>402</ele></trkpt>
<trkpt lat="49.03093" lon="11.53286"><ele>401</ele></trkpt>
<trkpt lat="49.03034" lon="11.53054"><ele>401</ele></trkpt>
<trkpt lat="49.03023" lon="11.53032"><ele>402</ele></trkpt>
<trkpt lat="49.02971" lon="11.52865"><ele>404</ele></trkpt>
<trkpt lat="49.02943" lon="11.52825"><ele>408</ele></trkpt>
<trkpt lat="49.02903" lon="11.52699"><ele>412</ele></trkpt>
<trkpt lat="49.02876" lon="11.52583"><ele>414</ele></trkpt>
<trkpt lat="49.02862" lon="11.52480"><ele>416</ele></trkpt>
<trkpt lat="49.02858" lon="11.52407"><ele>417</ele></trkpt>
<trkpt lat="49.02863" lon="11.52334"><ele>416</ele></trkpt>
<trkpt lat="49.02877" lon="11.52250"><ele>418</ele></trkpt>
<trkpt lat="49.02900" lon="11.52170"><ele>417</ele></trkpt>
<trkpt lat="49.02944" lon="11.52097"><ele>413</ele></trkpt>
<trkpt lat="49.02988" lon="11.52037"><ele>414</ele></trkpt>
<trkpt lat="49.03072" lon="11.51935"><ele>415</ele></trkpt>
<trkpt lat="49.03130" lon="11.51888"><ele>414</ele></trkpt>
<trkpt lat="49.03179" lon="11.51860"><ele>414</ele></trkpt>
<trkpt lat="49.03195" lon="11.51842"><ele>414</ele></trkpt>
<trkpt lat="49.03224" lon="11.51789"><ele>417</ele></trkpt>
<trkpt lat="49.03234" lon="11.51779"><ele>418</ele></trkpt>
<trkpt lat="49.03317" lon="11.51727"><ele>417</ele></trkpt>
<trkpt lat="49.03375" lon="11.51682"><ele>416</ele></trkpt>
<trkpt lat="49.03391" lon="11.51665"><ele>416</ele></trkpt>
<trkpt lat="49.03475" lon="11.51628"><ele>413</ele></trkpt>
<trkpt lat="49.03492" lon="11.51612"><ele>412</ele></trkpt>
<trkpt lat="49.03508" lon="11.51591"><ele>412</ele></trkpt>
<trkpt lat="49.03527" lon="11.51550"><ele>412</ele></trkpt>
<trkpt lat="49.03558" lon="11.51460"><ele>412</ele></trkpt>
<trkpt lat="49.03568" lon="11.51438"><ele>411</ele></trkpt>
<trkpt lat="49.03589" lon="11.51409"><ele>408</ele></trkpt>
<trkpt lat="49.03575" lon="11.51395"><ele>411</ele></trkpt>
<trkpt lat="49.03565" lon="11.51373"><ele>412</ele></trkpt>
<trkpt lat="49.03553" lon="11.51329"><ele>414</ele></trkpt>
<trkpt lat="49.03482" lon="11.51206"><ele>423</ele></trkpt>
<trkpt lat="49.03378" lon="11.51006"><ele>441</ele></trkpt>
<trkpt lat="49.03308" lon="11.50944"><ele>450</ele></trkpt>
<trkpt lat="49.03256" lon="11.50911"><ele>458</ele></trkpt>
<trkpt lat="49.03215" lon="11.50866"><ele>462</ele></trkpt>
<trkpt lat="49.03204" lon="11.50848"><ele>465</ele></trkpt>
<trkpt lat="49.03199" lon="11.50826"><ele>466</ele></trkpt>
<trkpt lat="49.03192" lon="11.50744"><ele>470</ele></trkpt>
<trkpt lat="49.03192" lon="11.50700"><ele>472</ele></trkpt>
<trkpt lat="49.03197" lon="11.50658"><ele>474</ele></trkpt>
<trkpt lat="49.03210" lon="11.50595"><ele>479</ele></trkpt>
<trkpt lat="49.03222" lon="11.50558"><ele>478</ele></trkpt>
<trkpt lat="49.03250" lon="11.50493"><ele>482</ele></trkpt>
<trkpt lat="49.03277" lon="11.50399"><ele>485</ele></trkpt>
<trkpt lat="49.03325" lon="11.50139"><ele>489</ele></trkpt>
<trkpt lat="49.03350" lon="11.49977"><ele>490</ele></trkpt>
<trkpt lat="49.03352" lon="11.49903"><ele>490</ele></trkpt>
<trkpt lat="49.03348" lon="11.49784"><ele>490</ele></trkpt>
<trkpt lat="49.03333" lon="11.49725"><ele>491</ele></trkpt>
<trkpt lat="49.03312" lon="11.49671"><ele>491</ele></trkpt>
<trkpt lat="49.03202" lon="11.49512"><ele>490</ele></trkpt>
<trkpt lat="49.03107" lon="11.49342"><ele>491</ele></trkpt>
<trkpt lat="49.03084" lon="11.49285"><ele>492</ele></trkpt>
<trkpt lat="49.03038" lon="11.49143"><ele>491</ele></trkpt>
<trkpt lat="49.02990" lon="11.49011"><ele>490</ele></trkpt>
<trkpt lat="49.02971" lon="11.48901"><ele>478</ele></trkpt>
<trkpt lat="49.02976" lon="11.48864"><ele>473</ele></trkpt>
<trkpt lat="49.02996" lon="11.48814"><ele>466</ele></trkpt>
<trkpt lat="49.03019" lon="11.48768"><ele>461</ele></trkpt>
<trkpt lat="49.03058" lon="11.48704"><ele>455</ele></trkpt>
<trkpt lat="49.03108" lon="11.48649"><ele>449</ele></trkpt>
<trkpt lat="49.03197" lon="11.48448"><ele>426</ele></trkpt>
<trkpt lat="49.03241" lon="11.48301"><ele>405</ele></trkpt>
<trkpt lat="49.03255" lon="11.48229"><ele>398</ele></trkpt>
<trkpt lat="49.03268" lon="11.48188"><ele>396</ele></trkpt>
<trkpt lat="49.03270" lon="11.48161"><ele>394</ele></trkpt>
<trkpt lat="49.03268" lon="11.48102"><ele>388</ele></trkpt>
<trkpt lat="49.03270" lon="11.48072"><ele>385</ele></trkpt>
<trkpt lat="49.03281" lon="11.48022"><ele>382</ele></trkpt>
<trkpt lat="49.03318" lon="11.47896"><ele>374</ele></trkpt>
<trkpt lat="49.03316" lon="11.47883"><ele>372</ele></trkpt>
<trkpt lat="49.03338" lon="11.47856"><ele>371</ele></trkpt>
<trkpt lat="49.03317" lon="11.47824"><ele>368</ele></trkpt>
<trkpt lat="49.03310" lon="11.47819"><ele>368</ele></trkpt>
<trkpt lat="49.03305" lon="11.47820"><ele>368</ele></trkpt>
<trkpt lat="49.03272" lon="11.47762"><ele>366</ele></trkpt>
<trkpt lat="49.03264" lon="11.47727"><ele>367</ele></trkpt>
<trkpt lat="49.03265" lon="11.47718"><ele>367</ele></trkpt>
<trkpt lat="49.03204" lon="11.47571"><ele>367</ele></trkpt>
<trkpt lat="49.03229" lon="11.47547"><ele>367</ele></trkpt>
<trkpt lat="49.03180" lon="11.47451"><ele>367</ele></trkpt>
<trkpt lat="49.03168" lon="11.47438"><ele>367</ele></trkpt>
<trkpt lat="49.03148" lon="11.47428"><ele>367</ele></trkpt>
<trkpt lat="49.03171" lon="11.47392"><ele>368</ele></trkpt>
<trkpt lat="49.03194" lon="11.47364"><ele>368</ele></trkpt>
<trkpt lat="49.03258" lon="11.47310"><ele>368</ele></trkpt>
<trkpt lat="49.03278" lon="11.47312"><ele>368</ele></trkpt>
<trkpt lat="49.03283" lon="11.47296"><ele>368</ele></trkpt>
<trkpt lat="49.03299" lon="11.47275"><ele>368</ele></trkpt>
<trkpt lat="49.03196" lon="11.47014"><ele>368</ele></trkpt>
<trkpt lat="49.03122" lon="11.46852"><ele>368</ele></trkpt>
<trkpt lat="49.02947" lon="11.46576"><ele>367</ele></trkpt>
<trkpt lat="49.02795" lon="11.46249"><ele>365</ele></trkpt>
<trkpt lat="49.02777" lon="11.46225"><ele>365</ele></trkpt>
<trkpt lat="49.02768" lon="11.46216"><ele>365</ele></trkpt>
<trkpt lat="49.02756" lon="11.46221"><ele>365</ele></trkpt>
<trkpt lat="49.02703" lon="11.46338"><ele>365</ele></trkpt>
<trkpt lat="49.02684" lon="11.46361"><ele>365</ele></trkpt>
<trkpt lat="49.02665" lon="11.46373"><ele>365</ele></trkpt>
<trkpt lat="49.02590" lon="11.46483"><ele>365</ele></trkpt>
<trkpt lat="49.02572" lon="11.46497"><ele>365</ele></trkpt>
<trkpt lat="49.02565" lon="11.46495"><ele>365</ele></trkpt>
<trkpt lat="49.02416" lon="11.46289"><ele>366</ele></trkpt>
<trkpt lat="49.02385" lon="11.46242"><ele>366</ele></trkpt>
<trkpt lat="49.02233" lon="11.45729"><ele>366</ele></trkpt>
<trkpt lat="49.02192" lon="11.45620"><ele>366</ele></trkpt>
<trkpt lat="49.02120" lon="11.45457"><ele>366</ele></trkpt>
<trkpt lat="49.02107" lon="11.45440"><ele>366</ele></trkpt>
<trkpt lat="49.01766" lon="11.45247"><ele>366</ele></trkpt>
<trkpt lat="49.01735" lon="11.45386"><ele>366</ele></trkpt>
<trkpt lat="49.01728" lon="11.45436"><ele>367</ele></trkpt>
<trkpt lat="49.01729" lon="11.45502"><ele>368</ele></trkpt>
<trkpt lat="49.01737" lon="11.45550"><ele>370</ele></trkpt>
<trkpt lat="49.01762" lon="11.45612"><ele>376</ele></trkpt>
<trkpt lat="49.01783" lon="11.45647"><ele>378</ele></trkpt>
<trkpt lat="49.01798" lon="11.45663"><ele>379</ele></trkpt>
<trkpt lat="49.01871" lon="11.45722"><ele>375</ele></trkpt>
<trkpt lat="49.01886" lon="11.45749"><ele>376</ele></trkpt>
<trkpt lat="49.01890" lon="11.45765"><ele>377</ele></trkpt>
<trkpt lat="49.01892" lon="11.45782"><ele>378</ele></trkpt>
<trkpt lat="49.01912" lon="11.45860"><ele>379</ele></trkpt>
<trkpt lat="49.01889" lon="11.45885"><ele>383</ele></trkpt>
<trkpt lat="49.01834" lon="11.45922"><ele>392</ele></trkpt>
<trkpt lat="49.01820" lon="11.45927"><ele>394</ele></trkpt>
<trkpt lat="49.01752" lon="11.45924"><ele>408</ele></trkpt>
<trkpt lat="49.01742" lon="11.45918"><ele>410</ele></trkpt>
<trkpt lat="49.01725" lon="11.45897"><ele>414</ele></trkpt>
<trkpt lat="49.01666" lon="11.45799"><ele>432</ele></trkpt>
<trkpt lat="49.01659" lon="11.45795"><ele>433</ele></trkpt>
<trkpt lat="49.01646" lon="11.45796"><ele>436</ele></trkpt>
<trkpt lat="49.01628" lon="11.45814"><ele>440</ele></trkpt>
<trkpt lat="49.01579" lon="11.45919"><ele>455</ele></trkpt>
<trkpt lat="49.01535" lon="11.46064"><ele>470</ele></trkpt>
<trkpt lat="49.01520" lon="11.46106"><ele>474</ele></trkpt>
<trkpt lat="49.01476" lon="11.46196"><ele>484</ele></trkpt>
<trkpt lat="49.01470" lon="11.46225"><ele>485</ele></trkpt>
<trkpt lat="49.01468" lon="11.46275"><ele>487</ele></trkpt>
<trkpt lat="49.01479" lon="11.46342"><ele>489</ele></trkpt>
<trkpt lat="49.01480" lon="11.46412"><ele>490</ele></trkpt>
<trkpt lat="49.01487" lon="11.46462"><ele>489</ele></trkpt>
<trkpt lat="49.01488" lon="11.46595"><ele>488</ele></trkpt>
<trkpt lat="49.01411" lon="11.46695"><ele>489</ele></trkpt>
<trkpt lat="49.01300" lon="11.46816"><ele>490</ele></trkpt>
<trkpt lat="49.01269" lon="11.46833"><ele>490</ele></trkpt>
<trkpt lat="49.01173" lon="11.46841"><ele>491</ele></trkpt>
<trkpt lat="49.01152" lon="11.46775"><ele>490</ele></trkpt>
<trkpt lat="49.01095" lon="11.46625"><ele>492</ele></trkpt>
<trkpt lat="49.01086" lon="11.46613"><ele>493</ele></trkpt>
<trkpt lat="49.01015" lon="11.46570"><ele>496</ele></trkpt>
<trkpt lat="49.00877" lon="11.46505"><ele>501</ele></trkpt>
<trkpt lat="49.00766" lon="11.46459"><ele>502</ele></trkpt>
<trkpt lat="49.00745" lon="11.46457"><ele>501</ele></trkpt>
<trkpt lat="49.00696" lon="11.46479"><ele>497</ele></trkpt>
<trkpt lat="49.00623" lon="11.46538"><ele>495</ele></trkpt>
<trkpt lat="49.00574" lon="11.46467"><ele>496</ele></trkpt>
<trkpt lat="49.00565" lon="11.46449"><ele>497</ele></trkpt>
<trkpt lat="49.00515" lon="11.46259"><ele>501</ele></trkpt>
<trkpt lat="49.00507" lon="11.46241"><ele>502</ele></trkpt>
<trkpt lat="49.00465" lon="11.46182"><ele>504</ele></trkpt>
<trkpt lat="49.00386" lon="11.46090"><ele>511</ele></trkpt>
<trkpt lat="49.00370" lon="11.46080"><ele>512</ele></trkpt>
<trkpt lat="49.00298" lon="11.46055"><ele>516</ele></trkpt>
<trkpt lat="49.00055" lon="11.45975"><ele>514</ele></trkpt>
<trkpt lat="49.00023" lon="11.45961"><ele>512</ele></trkpt>
<trkpt lat="48.99996" lon="11.45954"><ele>511</ele></trkpt>
<trkpt lat="48.99965" lon="11.45954"><ele>509</ele></trkpt>
<trkpt lat="48.99917" lon="11.45975"><ele>508</ele></trkpt>
<trkpt lat="48.99895" lon="11.45976"><ele>507</ele></trkpt>
<trkpt lat="48.99875" lon="11.45973"><ele>508</ele></trkpt>
<trkpt lat="48.99850" lon="11.45962"><ele>508</ele></trkpt>
<trkpt lat="48.99807" lon="11.45934"><ele>510</ele></trkpt>
<trkpt lat="48.99756" lon="11.45920"><ele>512</ele></trkpt>
<trkpt lat="48.99791" lon="11.45885"><ele>512</ele></trkpt>
<trkpt lat="48.99797" lon="11.45873"><ele>511</ele></trkpt>
<trkpt lat="48.99798" lon="11.45858"><ele>511</ele></trkpt>
<trkpt lat="48.99785" lon="11.45776"><ele>512</ele></trkpt>
<trkpt lat="48.99781" lon="11.45683"><ele>512</ele></trkpt>
<trkpt lat="48.99766" lon="11.45651"><ele>513</ele></trkpt>
<trkpt lat="48.99744" lon="11.45626"><ele>513</ele></trkpt>
<trkpt lat="48.99669" lon="11.45564"><ele>512</ele></trkpt>
<trkpt lat="48.99542" lon="11.45483"><ele>510</ele></trkpt>
<trkpt lat="48.99485" lon="11.45429"><ele>510</ele></trkpt>
<trkpt lat="48.99405" lon="11.45342"><ele>513</ele></trkpt>
<trkpt lat="48.99352" lon="11.45301"><ele>515</ele></trkpt>
<trkpt lat="48.99303" lon="11.45274"><ele>517</ele></trkpt>
<trkpt lat="48.99284" lon="11.45270"><ele>518</ele></trkpt>
<trkpt lat="48.99273" lon="11.45279"><ele>519</ele></trkpt>
<trkpt lat="48.99247" lon="11.45309"><ele>518</ele></trkpt>
<trkpt lat="48.99212" lon="11.45370"><ele>516</ele></trkpt>
<trkpt lat="48.99201" lon="11.45373"><ele>516</ele></trkpt>
<trkpt lat="48.99198" lon="11.45380"><ele>516</ele></trkpt>
<trkpt lat="48.99200" lon="11.45420"><ele>515</ele></trkpt>
<trkpt lat="48.99197" lon="11.45430"><ele>514</ele></trkpt>
<trkpt lat="48.99157" lon="11.45494"><ele>510</ele></trkpt>
<trkpt lat="48.99081" lon="11.45564"><ele>504</ele></trkpt>
<trkpt lat="48.99079" lon="11.45573"><ele>504</ele></trkpt>
<trkpt lat="48.98996" lon="11.45448"><ele>504</ele></trkpt>
<trkpt lat="48.98922" lon="11.45361"><ele>510</ele></trkpt>
<trkpt lat="48.98915" lon="11.45346"><ele>511</ele></trkpt>
<trkpt lat="48.98882" lon="11.45246"><ele>517</ele></trkpt>
<trkpt lat="48.98871" lon="11.45231"><ele>518</ele></trkpt>
<trkpt lat="48.98837" lon="11.45194"><ele>520</ele></trkpt>
<trkpt lat="48.98748" lon="11.45115"><ele>519</ele></trkpt>
<trkpt lat="48.98721" lon="11.45084"><ele>517</ele></trkpt>
<trkpt lat="48.98582" lon="11.44884"><ele>513</ele></trkpt>
<trkpt lat="48.98517" lon="11.44783"><ele>512</ele></trkpt>
<trkpt lat="48.98440" lon="11.44858"><ele>519</ele></trkpt>
<trkpt lat="48.98396" lon="11.44735"><ele>514</ele></trkpt>
<trkpt lat="48.98318" lon="11.44753"><ele>511</ele></trkpt>
<trkpt lat="48.98311" lon="11.44750"><ele>511</ele></trkpt>
<trkpt lat="48.98302" lon="11.44738"><ele>510</ele></trkpt>
<trkpt lat="48.98260" lon="11.44654"><ele>508</ele></trkpt>
<trkpt lat="48.98202" lon="11.44700"><ele>507</ele></trkpt>
<trkpt lat="48.98129" lon="11.44749"><ele>508</ele></trkpt>
<trkpt lat="48.98041" lon="11.44844"><ele>513</ele></trkpt>
<trkpt lat="48.97985" lon="11.44911"><ele>516</ele></trkpt>
<trkpt lat="48.97980" lon="11.44901"><ele>516</ele></trkpt>
<trkpt lat="48.97976" lon="11.44553"><ele>514</ele></trkpt>
<trkpt lat="48.97977" lon="11.44513"><ele>513</ele></trkpt>
<trkpt lat="48.97601" lon="11.44374"><ele>504</ele></trkpt>
<trkpt lat="48.97594" lon="11.44369"><ele>504</ele></trkpt>
<trkpt lat="48.97513" lon="11.44233"><ele>504</ele></trkpt>
<trkpt lat="48.97496" lon="11.44213"><ele>503</ele></trkpt>
<trkpt lat="48.97309" lon="11.44160"><ele>502</ele></trkpt>
<trkpt lat="48.97295" lon="11.44150"><ele>502</ele></trkpt>
<trkpt lat="48.97165" lon="11.43993"><ele>507</ele></trkpt>
<trkpt lat="48.97158" lon="11.43978"><ele>508</ele></trkpt>
<trkpt lat="48.97109" lon="11.43821"><ele>517</ele></trkpt>
<trkpt lat="48.97087" lon="11.43794"><ele>520</ele></trkpt>
<trkpt lat="48.97028" lon="11.43750"><ele>527</ele></trkpt>
<trkpt lat="48.96931" lon="11.43650"><ele>532</ele></trkpt>
<trkpt lat="48.96892" lon="11.43617"><ele>533</ele></trkpt>
<trkpt lat="48.96821" lon="11.43567"><ele>532</ele></trkpt>
<trkpt lat="48.96686" lon="11.43483"><ele>520</ele></trkpt>
<trkpt lat="48.96666" lon="11.43475"><ele>519</ele></trkpt>
<trkpt lat="48.96633" lon="11.43480"><ele>516</ele></trkpt>
<trkpt lat="48.96606" lon="11.43372"><ele>512</ele></trkpt>
<trkpt lat="48.96601" lon="11.43338"><ele>511</ele></trkpt>
<trkpt lat="48.96595" lon="11.43217"><ele>510</ele></trkpt>
<trkpt lat="48.96587" lon="11.43182"><ele>510</ele></trkpt>
<trkpt lat="48.96580" lon="11.43170"><ele>510</ele></trkpt>
<trkpt lat="48.96577" lon="11.43157"><ele>509</ele></trkpt>
<trkpt lat="48.96576" lon="11.43107"><ele>508</ele></trkpt>
<trkpt lat="48.96525" lon="11.42792"><ele>506</ele></trkpt>
<trkpt lat="48.96520" lon="11.42704"><ele>506</ele></trkpt>
<trkpt lat="48.96385" lon="11.42698"><ele>510</ele></trkpt>
<trkpt lat="48.96205" lon="11.42671"><ele>522</ele></trkpt>
<trkpt lat="48.96201" lon="11.42672"><ele>522</ele></trkpt>
<trkpt lat="48.96200" lon="11.42677"><ele>522</ele></trkpt>
<trkpt lat="48.96205" lon="11.42750"><ele>520</ele></trkpt>
<trkpt lat="48.96203" lon="11.42768"><ele>520</ele></trkpt>
<trkpt lat="48.96194" lon="11.42792"><ele>521</ele></trkpt>
<trkpt lat="48.96184" lon="11.42771"><ele>521</ele></trkpt>
<trkpt lat="48.96163" lon="11.42742"><ele>522</ele></trkpt>
<trkpt lat="48.95965" lon="11.42598"><ele>517</ele></trkpt>
<trkpt lat="48.95945" lon="11.42577"><ele>516</ele></trkpt>
<trkpt lat="48.95929" lon="11.42554"><ele>515</ele></trkpt>
<trkpt lat="48.95861" lon="11.42415"><ele>511</ele></trkpt>
<trkpt lat="48.95853" lon="11.42391"><ele>512</ele></trkpt>
<trkpt lat="48.95851" lon="11.42362"><ele>512</ele></trkpt>
<trkpt lat="48.95837" lon="11.42358"><ele>512</ele></trkpt>
<trkpt lat="48.95800" lon="11.42375"><ele>513</ele></trkpt>
<trkpt lat="48.95712" lon="11.42379"><ele>518</ele></trkpt>
<trkpt lat="48.95696" lon="11.42376"><ele>519</ele></trkpt>
<trkpt lat="48.95670" lon="11.42362"><ele>520</ele></trkpt>
<trkpt lat="48.95623" lon="11.42308"><ele>526</ele></trkpt>
<trkpt lat="48.95592" lon="11.42289"><ele>528</ele></trkpt>
<trkpt lat="48.95580" lon="11.42274"><ele>529</ele></trkpt>
<trkpt lat="48.95468" lon="11.42082"><ele>528</ele></trkpt>
<trkpt lat="48.95344" lon="11.42002"><ele>533</ele></trkpt>
<trkpt lat="48.95319" lon="11.41972"><ele>532</ele></trkpt>
<trkpt lat="48.95301" lon="11.41937"><ele>530</ele></trkpt>
<trkpt lat="48.95293" lon="11.41902"><ele>529</ele></trkpt>
<trkpt lat="48.95224" lon="11.41918"><ele>529</ele></trkpt>
<trkpt lat="48.95052" lon="11.41973"><ele>534</ele></trkpt>
<trkpt lat="48.94975" lon="11.41991"><ele>532</ele></trkpt>
<trkpt lat="48.94939" lon="11.41987"><ele>528</ele></trkpt>
<trkpt lat="48.94921" lon="11.41980"><ele>526</ele></trkpt>
<trkpt lat="48.94907" lon="11.41964"><ele>524</ele></trkpt>
<trkpt lat="48.94882" lon="11.41915"><ele>520</ele></trkpt>
<trkpt lat="48.94914" lon="11.41603"><ele>506</ele></trkpt>
<trkpt lat="48.94975" lon="11.41057"><ele>487</ele></trkpt>
<trkpt lat="48.94990" lon="11.40999"><ele>483</ele></trkpt>
<trkpt lat="48.95007" lon="11.40972"><ele>481</ele></trkpt>
<trkpt lat="48.95081" lon="11.40907"><ele>473</ele></trkpt>
<trkpt lat="48.95104" lon="11.40876"><ele>472</ele></trkpt>
<trkpt lat="48.95137" lon="11.40821"><ele>467</ele></trkpt>
<trkpt lat="48.95156" lon="11.40803"><ele>466</ele></trkpt>
<trkpt lat="48.95165" lon="11.40696"><ele>458</ele></trkpt>
<trkpt lat="48.95206" lon="11.40530"><ele>445</ele></trkpt>
<trkpt lat="48.95233" lon="11.40340"><ele>428</ele></trkpt>
<trkpt lat="48.95228" lon="11.40171"><ele>410</ele></trkpt>
<trkpt lat="48.95231" lon="11.40152"><ele>408</ele></trkpt>
<trkpt lat="48.95251" lon="11.40078"><ele>398</ele></trkpt>
<trkpt lat="48.95254" lon="11.40056"><ele>396</ele></trkpt>
<trkpt lat="48.95251" lon="11.39992"><ele>391</ele></trkpt>
<trkpt lat="48.95239" lon="11.39949"><ele>389</ele></trkpt>
<trkpt lat="48.95223" lon="11.39903"><ele>387</ele></trkpt>
<trkpt lat="48.95179" lon="11.39818"><ele>383</ele></trkpt>
<trkpt lat="48.95172" lon="11.39789"><ele>381</ele></trkpt>
<trkpt lat="48.95172" lon="11.39712"><ele>379</ele></trkpt>
<trkpt lat="48.95180" lon="11.39609"><ele>378</ele></trkpt>
<trkpt lat="48.95149" lon="11.39578"><ele>378</ele></trkpt>
<trkpt lat="48.95098" lon="11.39541"><ele>378</ele></trkpt>
<trkpt lat="48.95023" lon="11.39500"><ele>379</ele></trkpt>
<trkpt lat="48.95025" lon="11.39627"><ele>384</ele></trkpt>
<trkpt lat="48.95023" lon="11.39500"><ele>379</ele></trkpt>
<trkpt lat="48.95015" lon="11.39484"><ele>379</ele></trkpt>
<trkpt lat="48.95011" lon="11.39419"><ele>378</ele></trkpt>
<trkpt lat="48.95003" lon="11.39396"><ele>377</ele></trkpt>
<trkpt lat="48.95006" lon="11.39381"><ele>377</ele></trkpt>
<trkpt lat="48.94998" lon="11.39179"><ele>375</ele></trkpt>
<trkpt lat="48.94998" lon="11.39098"><ele>375</ele></trkpt>
<trkpt lat="48.95005" lon="11.39014"><ele>374</ele></trkpt>
<trkpt lat="48.95014" lon="11.38960"><ele>375</ele></trkpt>
<trkpt lat="48.95047" lon="11.38835"><ele>376</ele></trkpt>
<trkpt lat="48.95056" lon="11.38773"><ele>378</ele></trkpt>
<trkpt lat="48.95026" lon="11.38748"><ele>381</ele></trkpt>
<trkpt lat="48.95016" lon="11.38729"><ele>382</ele></trkpt>
<trkpt lat="48.94969" lon="11.38538"><ele>390</ele></trkpt>
<trkpt lat="48.94972" lon="11.38515"><ele>391</ele></trkpt>
<trkpt lat="48.94995" lon="11.38462"><ele>393</ele></trkpt>
<trkpt lat="48.94969" lon="11.38380"><ele>400</ele></trkpt>
<trkpt lat="48.94962" lon="11.38346"><ele>400</ele></trkpt>
<trkpt lat="48.94956" lon="11.38271"><ele>402</ele></trkpt>
<trkpt lat="48.94961" lon="11.38213"><ele>410</ele></trkpt>
<trkpt lat="48.94982" lon="11.38101"><ele>418</ele></trkpt>
<trkpt lat="48.95039" lon="11.37925"><ele>437</ele></trkpt>
<trkpt lat="48.95041" lon="11.37850"><ele>448</ele></trkpt>
<trkpt lat="48.95038" lon="11.37806"><ele>454</ele></trkpt>
<trkpt lat="48.95041" lon="11.37768"><ele>456</ele></trkpt>
<trkpt lat="48.95076" lon="11.37643"><ele>467</ele></trkpt>
<trkpt lat="48.95081" lon="11.37586"><ele>468</ele></trkpt>
<trkpt lat="48.95086" lon="11.37555"><ele>469</ele></trkpt>
<trkpt lat="48.95132" lon="11.37381"><ele>473</ele></trkpt>
<trkpt lat="48.95145" lon="11.37223"><ele>476</ele></trkpt>
<trkpt lat="48.95148" lon="11.37106"><ele>475</ele></trkpt>
<trkpt lat="48.95144" lon="11.37094"><ele>474</ele></trkpt>
<trkpt lat="48.95136" lon="11.36956"><ele>474</ele></trkpt>
<trkpt lat="48.95139" lon="11.36908"><ele>474</ele></trkpt>
<trkpt lat="48.95152" lon="11.36816"><ele>473</ele></trkpt>
<trkpt lat="48.95158" lon="11.36779"><ele>472</ele></trkpt>
<trkpt lat="48.95185" lon="11.36682"><ele>476</ele></trkpt>
<trkpt lat="48.95215" lon="11.36575"><ele>484</ele></trkpt>
<trkpt lat="48.95223" lon="11.36557"><ele>486</ele></trkpt>
<trkpt lat="48.95240" lon="11.36539"><ele>488</ele></trkpt>
<trkpt lat="48.95429" lon="11.36428"><ele>512</ele></trkpt>
<trkpt lat="48.95456" lon="11.36405"><ele>513</ele></trkpt>
<trkpt lat="48.95487" lon="11.36367"><ele>515</ele></trkpt>
<trkpt lat="48.95498" lon="11.36345"><ele>515</ele></trkpt>
<trkpt lat="48.95510" lon="11.36293"><ele>516</ele></trkpt>
<trkpt lat="48.95530" lon="11.36239"><ele>517</ele></trkpt>
<trkpt lat="48.95629" lon="11.36039"><ele>518</ele></trkpt>
<trkpt lat="48.95705" lon="11.35903"><ele>515</ele></trkpt>
<trkpt lat="48.95716" lon="11.35873"><ele>515</ele></trkpt>
<trkpt lat="48.95745" lon="11.35732"><ele>516</ele></trkpt>
<trkpt lat="48.95754" lon="11.35709"><ele>517</ele></trkpt>
<trkpt lat="48.95809" lon="11.35622"><ele>520</ele></trkpt>
<trkpt lat="48.95711" lon="11.35562"><ele>524</ele></trkpt>
<trkpt lat="48.95549" lon="11.35444"><ele>524</ele></trkpt>
<trkpt lat="48.95572" lon="11.35430"><ele>525</ele></trkpt>
<trkpt lat="48.95630" lon="11.35374"><ele>528</ele></trkpt>
<trkpt lat="48.95677" lon="11.35318"><ele>530</ele></trkpt>
<trkpt lat="48.95811" lon="11.35068"><ele>536</ele></trkpt>
<trkpt lat="48.95862" lon="11.34908"><ele>538</ele></trkpt>
<trkpt lat="48.95906" lon="11.34722"><ele>538</ele></trkpt>
<trkpt lat="48.95923" lon="11.34635"><ele>538</ele></trkpt>
<trkpt lat="48.95711" lon="11.34604"><ele>525</ele></trkpt>
<trkpt lat="48.95705" lon="11.34491"><ele>523</ele></trkpt>
<trkpt lat="48.95702" lon="11.34299"><ele>520</ele></trkpt>
<trkpt lat="48.95709" lon="11.34222"><ele>518</ele></trkpt>
<trkpt lat="48.95746" lon="11.33977"><ele>520</ele></trkpt>
<trkpt lat="48.95789" lon="11.33751"><ele>519</ele></trkpt>
<trkpt lat="48.95859" lon="11.33411"><ele>510</ele></trkpt>
<trkpt lat="48.95873" lon="11.33334"><ele>508</ele></trkpt>
<trkpt lat="48.95878" lon="11.33276"><ele>507</ele></trkpt>
<trkpt lat="48.95914" lon="11.33262"><ele>506</ele></trkpt>
<trkpt lat="48.95935" lon="11.33248"><ele>504</ele></trkpt>
<trkpt lat="48.95981" lon="11.33202"><ele>502</ele></trkpt>
<trkpt lat="48.95992" lon="11.33174"><ele>500</ele></trkpt>
<trkpt lat="48.95995" lon="11.33128"><ele>500</ele></trkpt>
<trkpt lat="48.95991" lon="11.33092"><ele>499</ele></trkpt>
<trkpt lat="48.95964" lon="11.32956"><ele>497</ele></trkpt>
<trkpt lat="48.95960" lon="11.32903"><ele>496</ele></trkpt>
<trkpt lat="48.96037" lon="11.32805"><ele>497</ele></trkpt>
<trkpt lat="48.96036" lon="11.32784"><ele>496</ele></trkpt>
<trkpt lat="48.96025" lon="11.32712"><ele>495</ele></trkpt>
<trkpt lat="48.96007" lon="11.32543"><ele>493</ele></trkpt>
<trkpt lat="48.96006" lon="11.32492"><ele>492</ele></trkpt>
<trkpt lat="48.96047" lon="11.32201"><ele>494</ele></trkpt>
<trkpt lat="48.96052" lon="11.32175"><ele>496</ele></trkpt>
<trkpt lat="48.96050" lon="11.32146"><ele>498</ele></trkpt>
<trkpt lat="48.96052" lon="11.32115"><ele>499</ele></trkpt>
<trkpt lat="48.95894" lon="11.32078"><ele>495</ele></trkpt>
<trkpt lat="48.95884" lon="11.31829"><ele>495</ele></trkpt>
<trkpt lat="48.95848" lon="11.31465"><ele>498</ele></trkpt>
<trkpt lat="48.95821" lon="11.31246"><ele>512</ele></trkpt>
<trkpt lat="48.95819" lon="11.31235"><ele>513</ele></trkpt>
<trkpt lat="48.95814" lon="11.31231"><ele>513</ele></trkpt>
<trkpt lat="48.95799" lon="11.31233"><ele>512</ele></trkpt>
<trkpt lat="48.95791" lon="11.31229"><ele>512</ele></trkpt>
<trkpt lat="48.95789" lon="11.31220"><ele>512</ele></trkpt>
<trkpt lat="48.95775" lon="11.31094"><ele>514</ele></trkpt>
<trkpt lat="48.95761" lon="11.31002"><ele>515</ele></trkpt>
<trkpt lat="48.95757" lon="11.30942"><ele>515</ele></trkpt>
<trkpt lat="48.95733" lon="11.30830"><ele>514</ele></trkpt>
<trkpt lat="48.95685" lon="11.30576"><ele>513</ele></trkpt>
<trkpt lat="48.95676" lon="11.30416"><ele>514</ele></trkpt>
<trkpt lat="48.95682" lon="11.30339"><ele>515</ele></trkpt>
<trkpt lat="48.95681" lon="11.30275"><ele>516</ele></trkpt>
<trkpt lat="48.95677" lon="11.30243"><ele>517</ele></trkpt>
<trkpt lat="48.95669" lon="11.30212"><ele>518</ele></trkpt>
<trkpt lat="48.95627" lon="11.30099"><ele>524</ele></trkpt>
<trkpt lat="48.95578" lon="11.29926"><ele>532</ele></trkpt>
<trkpt lat="48.95558" lon="11.29804"><ele>535</ele></trkpt>
<trkpt lat="48.95548" lon="11.29779"><ele>536</ele></trkpt>
<trkpt lat="48.95515" lon="11.29743"><ele>536</ele></trkpt>
<trkpt lat="48.95479" lon="11.29682"><ele>536</ele></trkpt>
<trkpt lat="48.95446" lon="11.29639"><ele>535</ele></trkpt>
<trkpt lat="48.95439" lon="11.29620"><ele>534</ele></trkpt>
<trkpt lat="48.95416" lon="11.29489"><ele>533</ele></trkpt>
<trkpt lat="48.95407" lon="11.29471"><ele>533</ele></trkpt>
<trkpt lat="48.95370" lon="11.29430"><ele>534</ele></trkpt>
<trkpt lat="48.95343" lon="11.29377"><ele>536</ele></trkpt>
<trkpt lat="48.95304" lon="11.29314"><ele>535</ele></trkpt>
<trkpt lat="48.95262" lon="11.29320"><ele>533</ele></trkpt>
<trkpt lat="48.95220" lon="11.29226"><ele>533</ele></trkpt>
<trkpt lat="48.95207" lon="11.29241"><ele>532</ele></trkpt>
<trkpt lat="48.95192" lon="11.29247"><ele>532</ele></trkpt>
<trkpt lat="48.95182" lon="11.29244"><ele>532</ele></trkpt>
<trkpt lat="48.95154" lon="11.29212"><ele>530</ele></trkpt>
<trkpt lat="48.95121" lon="11.29190"><ele>530</ele></trkpt>
<trkpt lat="48.95111" lon="11.29177"><ele>530</ele></trkpt>
<trkpt lat="48.95100" lon="11.29150"><ele>529</ele></trkpt>
<trkpt lat="48.95062" lon="11.29014"><ele>527</ele></trkpt>
<trkpt lat="48.95061" lon="11.28966"><ele>527</ele></trkpt>
<trkpt lat="48.95071" lon="11.28910"><ele>525</ele></trkpt>
<trkpt lat="48.95072" lon="11.28889"><ele>525</ele></trkpt>
<trkpt lat="48.95060" lon="11.28779"><ele>523</ele></trkpt>
<trkpt lat="48.95064" lon="11.28746"><ele>522</ele></trkpt>
<trkpt lat="48.95078" lon="11.28702"><ele>521</ele></trkpt>
<trkpt lat="48.95077" lon="11.28685"><ele>520</ele></trkpt>
<trkpt lat="48.95053" lon="11.28575"><ele>517</ele></trkpt>
<trkpt lat="48.95025" lon="11.28557"><ele>517</ele></trkpt>
<trkpt lat="48.95020" lon="11.28542"><ele>516</ele></trkpt>
<trkpt lat="48.94870" lon="11.28460"><ele>516</ele></trkpt>
<trkpt lat="48.94786" lon="11.28438"><ele>515</ele></trkpt>
<trkpt lat="48.94686" lon="11.28429"><ele>514</ele></trkpt>
<trkpt lat="48.94663" lon="11.28386"><ele>514</ele></trkpt>
<trkpt lat="48.94615" lon="11.28264"><ele>512</ele></trkpt>
<trkpt lat="48.94577" lon="11.28206"><ele>511</ele></trkpt>
<trkpt lat="48.94573" lon="11.28192"><ele>511</ele></trkpt>
<trkpt lat="48.94547" lon="11.27739"><ele>508</ele></trkpt>
<trkpt lat="48.94525" lon="11.27535"><ele>509</ele></trkpt>
<trkpt lat="48.94522" lon="11.27477"><ele>510</ele></trkpt>
<trkpt lat="48.94524" lon="11.27424"><ele>510</ele></trkpt>
<trkpt lat="48.94509" lon="11.27420"><ele>511</ele></trkpt>
<trkpt lat="48.94517" lon="11.27206"><ele>516</ele></trkpt>
<trkpt lat="48.94558" lon="11.26599"><ele>530</ele></trkpt>
<trkpt lat="48.94496" lon="11.26670"><ele>532</ele></trkpt>
<trkpt lat="48.94430" lon="11.26730"><ele>534</ele></trkpt>
<trkpt lat="48.94373" lon="11.26754"><ele>535</ele></trkpt>
<trkpt lat="48.94336" lon="11.26761"><ele>536</ele></trkpt>
<trkpt lat="48.94327" lon="11.26792"><ele>536</ele></trkpt>
<trkpt lat="48.94286" lon="11.26868"><ele>536</ele></trkpt>
<trkpt lat="48.94273" lon="11.26883"><ele>536</ele></trkpt>
<trkpt lat="48.94181" lon="11.26808"><ele>534</ele></trkpt>
<trkpt lat="48.94030" lon="11.26534"><ele>527</ele></trkpt>
<trkpt lat="48.93533" lon="11.26901"><ele>504</ele></trkpt>
<trkpt lat="48.93519" lon="11.26928"><ele>502</ele></trkpt>
<trkpt lat="48.93520" lon="11.26850"><ele>503</ele></trkpt>
<trkpt lat="48.93536" lon="11.26756"><ele>503</ele></trkpt>
<trkpt lat="48.93606" lon="11.26470"><ele>505</ele></trkpt>
<trkpt lat="48.93587" lon="11.26360"><ele>507</ele></trkpt>
<trkpt lat="48.93577" lon="11.26249"><ele>510</ele></trkpt>
<trkpt lat="48.93576" lon="11.26219"><ele>510</ele></trkpt>
<trkpt lat="48.93589" lon="11.26141"><ele>511</ele></trkpt>
<trkpt lat="48.93586" lon="11.26107"><ele>511</ele></trkpt>
<trkpt lat="48.93547" lon="11.25903"><ele>508</ele></trkpt>
<trkpt lat="48.93553" lon="11.25830"><ele>507</ele></trkpt>
<trkpt lat="48.93575" lon="11.25732"><ele>505</ele></trkpt>
<trkpt lat="48.93575" lon="11.25647"><ele>502</ele></trkpt>
<trkpt lat="48.93589" lon="11.25542"><ele>500</ele></trkpt>
<trkpt lat="48.93588" lon="11.25493"><ele>498</ele></trkpt>
<trkpt lat="48.93581" lon="11.25446"><ele>496</ele></trkpt>
<trkpt lat="48.93554" lon="11.25399"><ele>492</ele></trkpt>
<trkpt lat="48.93580" lon="11.25387"><ele>493</ele></trkpt>
<trkpt lat="48.93585" lon="11.25356"><ele>493</ele></trkpt>
<trkpt lat="48.93666" lon="11.25135"><ele>495</ele></trkpt>
<trkpt lat="48.93098" lon="11.24684"><ele>502</ele></trkpt>
<trkpt lat="48.93087" lon="11.24669"><ele>500</ele></trkpt>
<trkpt lat="48.93078" lon="11.24651"><ele>499</ele></trkpt>
<trkpt lat="48.93071" lon="11.24546"><ele>493</ele></trkpt>
<trkpt lat="48.93073" lon="11.24495"><ele>491</ele></trkpt>
<trkpt lat="48.93080" lon="11.24446"><ele>486</ele></trkpt>
<trkpt lat="48.93095" lon="11.24388"><ele>482</ele></trkpt>
<trkpt lat="48.93100" lon="11.24358"><ele>480</ele></trkpt>
<trkpt lat="48.93095" lon="11.24340"><ele>479</ele></trkpt>
<trkpt lat="48.93085" lon="11.24331"><ele>479</ele></trkpt>
<trkpt lat="48.93070" lon="11.24293"><ele>482</ele></trkpt>
<trkpt lat="48.93021" lon="11.24017"><ele>500</ele></trkpt>
<trkpt lat="48.93004" lon="11.23876"><ele>506</ele></trkpt>
<trkpt lat="48.92976" lon="11.23847"><ele>509</ele></trkpt>
<trkpt lat="48.92962" lon="11.23839"><ele>511</ele></trkpt>
<trkpt lat="48.92931" lon="11.23846"><ele>514</ele></trkpt>
<trkpt lat="48.92785" lon="11.23994"><ele>522</ele></trkpt>
<trkpt lat="48.92780" lon="11.23942"><ele>523</ele></trkpt>
<trkpt lat="48.92755" lon="11.23834"><ele>525</ele></trkpt>
<trkpt lat="48.92712" lon="11.23802"><ele>524</ele></trkpt>
<trkpt lat="48.92707" lon="11.23751"><ele>524</ele></trkpt>
<trkpt lat="48.92664" lon="11.23600"><ele>524</ele></trkpt>
<trkpt lat="48.92648" lon="11.23602"><ele>523</ele></trkpt>
<trkpt lat="48.92607" lon="11.23623"><ele>521</ele></trkpt>
<trkpt lat="48.92613" lon="11.23514"><ele>522</ele></trkpt>
<trkpt lat="48.92601" lon="11.23400"><ele>521</ele></trkpt>
<trkpt lat="48.92595" lon="11.23291"><ele>520</ele></trkpt>
<trkpt lat="48.92595" lon="11.23268"><ele>520</ele></trkpt>
<trkpt lat="48.92607" lon="11.23214"><ele>520</ele></trkpt>
<trkpt lat="48.92606" lon="11.23187"><ele>520</ele></trkpt>
<trkpt lat="48.92591" lon="11.23114"><ele>522</ele></trkpt>
<trkpt lat="48.92555" lon="11.23023"><ele>523</ele></trkpt>
<trkpt lat="48.92555" lon="11.22903"><ele>524</ele></trkpt>
<trkpt lat="48.92580" lon="11.22752"><ele>526</ele></trkpt>
<trkpt lat="48.92583" lon="11.22714"><ele>526</ele></trkpt>
<trkpt lat="48.92569" lon="11.22587"><ele>525</ele></trkpt>
<trkpt lat="48.92559" lon="11.22352"><ele>521</ele></trkpt>
<trkpt lat="48.92560" lon="11.22208"><ele>519</ele></trkpt>
<trkpt lat="48.92552" lon="11.22154"><ele>518</ele></trkpt>
<trkpt lat="48.92533" lon="11.22089"><ele>517</ele></trkpt>
<trkpt lat="48.92512" lon="11.21932"><ele>514</ele></trkpt>
<trkpt lat="48.92481" lon="11.21847"><ele>516</ele></trkpt>
<trkpt lat="48.92476" lon="11.21823"><ele>516</ele></trkpt>
<trkpt lat="48.92473" lon="11.21754"><ele>517</ele></trkpt>
<trkpt lat="48.92465" lon="11.21701"><ele>518</ele></trkpt>
<trkpt lat="48.92445" lon="11.21596"><ele>518</ele></trkpt>
<trkpt lat="48.92432" lon="11.21548"><ele>518</ele></trkpt>
<trkpt lat="48.92397" lon="11.21467"><ele>515</ele></trkpt>
<trkpt lat="48.92388" lon="11.21437"><ele>515</ele></trkpt>
<trkpt lat="48.92384" lon="11.21409"><ele>515</ele></trkpt>
<trkpt lat="48.92390" lon="11.21228"><ele>515</ele></trkpt>
<trkpt lat="48.92378" lon="11.21113"><ele>508</ele></trkpt>
<trkpt lat="48.92359" lon="11.21056"><ele>505</ele></trkpt>
<trkpt lat="48.92337" lon="11.21025"><ele>505</ele></trkpt>
<trkpt lat="48.92325" lon="11.20995"><ele>506</ele></trkpt>
<trkpt lat="48.92223" lon="11.20728"><ele>520</ele></trkpt>
<trkpt lat="48.92207" lon="11.20706"><ele>522</ele></trkpt>
<trkpt lat="48.92085" lon="11.20664"><ele>528</ele></trkpt>
<trkpt lat="48.92026" lon="11.20637"><ele>529</ele></trkpt>
<trkpt lat="48.91950" lon="11.20552"><ele>535</ele></trkpt>
<trkpt lat="48.91848" lon="11.20511"><ele>536</ele></trkpt>
<trkpt lat="48.91826" lon="11.20499"><ele>536</ele></trkpt>
<trkpt lat="48.91767" lon="11.20433"><ele>538</ele></trkpt>
<trkpt lat="48.91627" lon="11.20309"><ele>543</ele></trkpt>
<trkpt lat="48.91563" lon="11.20210"><ele>546</ele></trkpt>
<trkpt lat="48.91534" lon="11.20179"><ele>548</ele></trkpt>
<trkpt lat="48.91516" lon="11.20167"><ele>548</ele></trkpt>
<trkpt lat="48.91400" lon="11.20115"><ele>548</ele></trkpt>
<trkpt lat="48.91302" lon="11.20066"><ele>546</ele></trkpt>
<trkpt lat="48.91235" lon="11.20020"><ele>544</ele></trkpt>
<trkpt lat="48.91215" lon="11.19995"><ele>544</ele></trkpt>
<trkpt lat="48.91160" lon="11.19984"><ele>544</ele></trkpt>
<trkpt lat="48.90791" lon="11.19884"><ele>544</ele></trkpt>
<trkpt lat="48.90786" lon="11.19875"><ele>544</ele></trkpt>
<trkpt lat="48.90785" lon="11.19866"><ele>544</ele></trkpt>
<trkpt lat="48.90789" lon="11.19818"><ele>544</ele></trkpt>
<trkpt lat="48.90786" lon="11.19810"><ele>544</ele></trkpt>
<trkpt lat="48.90776" lon="11.19796"><ele>544</ele></trkpt>
<trkpt lat="48.90759" lon="11.19797"><ele>545</ele></trkpt>
<trkpt lat="48.90750" lon="11.19745"><ele>545</ele></trkpt>
<trkpt lat="48.90745" lon="11.19743"><ele>545</ele></trkpt>
<trkpt lat="48.90718" lon="11.19740"><ele>546</ele></trkpt>
<trkpt lat="48.90711" lon="11.19754"><ele>546</ele></trkpt>
<trkpt lat="48.90688" lon="11.19761"><ele>546</ele></trkpt>
<trkpt lat="48.90668" lon="11.19761"><ele>545</ele></trkpt>
<trkpt lat="48.90617" lon="11.19776"><ele>542</ele></trkpt>
<trkpt lat="48.90547" lon="11.19816"><ele>538</ele></trkpt>
<trkpt lat="48.90532" lon="11.19811"><ele>536</ele></trkpt>
<trkpt lat="48.90519" lon="11.19795"><ele>535</ele></trkpt>
<trkpt lat="48.90514" lon="11.19781"><ele>534</ele></trkpt>
<trkpt lat="48.90509" lon="11.19755"><ele>533</ele></trkpt>
<trkpt lat="48.90514" lon="11.19737"><ele>532</ele></trkpt>
<trkpt lat="48.90513" lon="11.19726"><ele>532</ele></trkpt>
<trkpt lat="48.90480" lon="11.19574"><ele>513</ele></trkpt>
<trkpt lat="48.90474" lon="11.19561"><ele>511</ele></trkpt>
<trkpt lat="48.90390" lon="11.19440"><ele>500</ele></trkpt>
<trkpt lat="48.90359" lon="11.19408"><ele>496</ele></trkpt>
<trkpt lat="48.90330" lon="11.19397"><ele>494</ele></trkpt>
<trkpt lat="48.90268" lon="11.19397"><ele>487</ele></trkpt>
<trkpt lat="48.90229" lon="11.19412"><ele>482</ele></trkpt>
<trkpt lat="48.90163" lon="11.19448"><ele>473</ele></trkpt>
<trkpt lat="48.90149" lon="11.19450"><ele>472</ele></trkpt>
<trkpt lat="48.90141" lon="11.19447"><ele>470</ele></trkpt>
<trkpt lat="48.90090" lon="11.19390"><ele>466</ele></trkpt>
<trkpt lat="48.90072" lon="11.19378"><ele>465</ele></trkpt>
<trkpt lat="48.90027" lon="11.19323"><ele>460</ele></trkpt>
<trkpt lat="48.90005" lon="11.19308"><ele>457</ele></trkpt>
<trkpt lat="48.89909" lon="11.19268"><ele>450</ele></trkpt>
<trkpt lat="48.89829" lon="11.19245"><ele>442</ele></trkpt>
<trkpt lat="48.89762" lon="11.19236"><ele>437</ele></trkpt>
<trkpt lat="48.89684" lon="11.19249"><ele>428</ele></trkpt>
<trkpt lat="48.89624" lon="11.19240"><ele>424</ele></trkpt>
<trkpt lat="48.89610" lon="11.19132"><ele>419</ele></trkpt>
<trkpt lat="48.89592" lon="11.19085"><ele>418</ele></trkpt>
<trkpt lat="48.89584" lon="11.19079"><ele>417</ele></trkpt>
<trkpt lat="48.89572" lon="11.19052"><ele>416</ele></trkpt>
<trkpt lat="48.89509" lon="11.18879"><ele>410</ele></trkpt>
<trkpt lat="48.89468" lon="11.18845"><ele>407</ele></trkpt>
<trkpt lat="48.89417" lon="11.18812"><ele>407</ele></trkpt>
<trkpt lat="48.89383" lon="11.18795"><ele>406</ele></trkpt>
<trkpt lat="48.89340" lon="11.18782"><ele>405</ele></trkpt>
<trkpt lat="48.89332" lon="11.18766"><ele>404</ele></trkpt>
<trkpt lat="48.89310" lon="11.18781"><ele>404</ele></trkpt>
<trkpt lat="48.89283" lon="11.18791"><ele>402</ele></trkpt>
<trkpt lat="48.89256" lon="11.18790"><ele>399</ele></trkpt>
<trkpt lat="48.89180" lon="11.18762"><ele>394</ele></trkpt>
<trkpt lat="48.89111" lon="11.18719"><ele>391</ele></trkpt>
<trkpt lat="48.89156" lon="11.18557"><ele>390</ele></trkpt>
<trkpt lat="48.89106" lon="11.18525"><ele>389</ele></trkpt>
<trkpt lat="48.89086" lon="11.18503"><ele>389</ele></trkpt>
<trkpt lat="48.89073" lon="11.18486"><ele>389</ele></trkpt>
<trkpt lat="48.89063" lon="11.18452"><ele>388</ele></trkpt>
<trkpt lat="48.89059" lon="11.18401"><ele>388</ele></trkpt>
<trkpt lat="48.89063" lon="11.18376"><ele>388</ele></trkpt>
<trkpt lat="48.89074" lon="11.18335"><ele>388</ele></trkpt>
<trkpt lat="48.89096" lon="11.18282"><ele>388</ele></trkpt>
    </trkseg>
  </trk>
</gpx>
