<?xml version="1.0" encoding="UTF-8"?>
<gpx version="1.1" creator="Gravel Kompass" xmlns="http://www.topografix.com/GPX/1/1">
  <metadata><name>München–Haltern am See: Romantische Straße, Taubertal, Main, Lahn &amp; Ruhr – Etappe 5</name></metadata>
  <trk>
    <name>Etappe 5: Hanau – Marburg</name>
    <trkseg>
<trkpt lat="50.13314" lon="8.91698"><ele>104</ele></trkpt>
<trkpt lat="50.13317" lon="8.91219"><ele>103</ele></trkpt>
<trkpt lat="50.13280" lon="8.91230"><ele>103</ele></trkpt>
<trkpt lat="50.13262" lon="8.91217"><ele>103</ele></trkpt>
<trkpt lat="50.13264" lon="8.91200"><ele>104</ele></trkpt>
<trkpt lat="50.13256" lon="8.91113"><ele>104</ele></trkpt>
<trkpt lat="50.13257" lon="8.91086"><ele>103</ele></trkpt>
<trkpt lat="50.13260" lon="8.91074"><ele>103</ele></trkpt>
<trkpt lat="50.13251" lon="8.91042"><ele>102</ele></trkpt>
<trkpt lat="50.13254" lon="8.91035"><ele>102</ele></trkpt>
<trkpt lat="50.13248" lon="8.91026"><ele>102</ele></trkpt>
<trkpt lat="50.13240" lon="8.90991"><ele>102</ele></trkpt>
<trkpt lat="50.13217" lon="8.90932"><ele>101</ele></trkpt>
<trkpt lat="50.13164" lon="8.90842"><ele>100</ele></trkpt>
<trkpt lat="50.13192" lon="8.90806"><ele>102</ele></trkpt>
<trkpt lat="50.13307" lon="8.90632"><ele>102</ele></trkpt>
<trkpt lat="50.13385" lon="8.90503"><ele>102</ele></trkpt>
<trkpt lat="50.13390" lon="8.90488"><ele>102</ele></trkpt>
<trkpt lat="50.13387" lon="8.90440"><ele>101</ele></trkpt>
<trkpt lat="50.13430" lon="8.90279"><ele>101</ele></trkpt>
<trkpt lat="50.13429" lon="8.90125"><ele>103</ele></trkpt>
<trkpt lat="50.13382" lon="8.89993"><ele>105</ele></trkpt>
<trkpt lat="50.13379" lon="8.89968"><ele>104</ele></trkpt>
<trkpt lat="50.13382" lon="8.89950"><ele>104</ele></trkpt>
<trkpt lat="50.13430" lon="8.89988"><ele>106</ele></trkpt>
<trkpt lat="50.13424" lon="8.89970"><ele>105</ele></trkpt>
<trkpt lat="50.13428" lon="8.89946"><ele>104</ele></trkpt>
<trkpt lat="50.13486" lon="8.89902"><ele>104</ele></trkpt>
<trkpt lat="50.13516" lon="8.89869"><ele>105</ele></trkpt>
<trkpt lat="50.13537" lon="8.89838"><ele>105</ele></trkpt>
<trkpt lat="50.13683" lon="8.89605"><ele>104</ele></trkpt>
<trkpt lat="50.13817" lon="8.89385"><ele>104</ele></trkpt>
<trkpt lat="50.13819" lon="8.89376"><ele>104</ele></trkpt>
<trkpt lat="50.13815" lon="8.89347"><ele>104</ele></trkpt>
<trkpt lat="50.13810" lon="8.89164"><ele>104</ele></trkpt>
<trkpt lat="50.13792" lon="8.88716"><ele>104</ele></trkpt>
<trkpt lat="50.13806" lon="8.88711"><ele>104</ele></trkpt>
<trkpt lat="50.13811" lon="8.88702"><ele>104</ele></trkpt>
<trkpt lat="50.13989" lon="8.88625"><ele>103</ele></trkpt>
<trkpt lat="50.14073" lon="8.88584"><ele>103</ele></trkpt>
<trkpt lat="50.14112" lon="8.88574"><ele>103</ele></trkpt>
<trkpt lat="50.14187" lon="8.88536"><ele>103</ele></trkpt>
<trkpt lat="50.14228" lon="8.88521"><ele>103</ele></trkpt>
<trkpt lat="50.14281" lon="8.88490"><ele>102</ele></trkpt>
<trkpt lat="50.14298" lon="8.88491"><ele>102</ele></trkpt>
<trkpt lat="50.14314" lon="8.88474"><ele>102</ele></trkpt>
<trkpt lat="50.14351" lon="8.88465"><ele>102</ele></trkpt>
<trkpt lat="50.14362" lon="8.88420"><ele>102</ele></trkpt>
<trkpt lat="50.14382" lon="8.88412"><ele>103</ele></trkpt>
<trkpt lat="50.14386" lon="8.88401"><ele>103</ele></trkpt>
<trkpt lat="50.14435" lon="8.88381"><ele>103</ele></trkpt>
<trkpt lat="50.14446" lon="8.88043"><ele>102</ele></trkpt>
<trkpt lat="50.14451" lon="8.87991"><ele>103</ele></trkpt>
<trkpt lat="50.14465" lon="8.87919"><ele>103</ele></trkpt>
<trkpt lat="50.14476" lon="8.87871"><ele>102</ele></trkpt>
<trkpt lat="50.14510" lon="8.87777"><ele>102</ele></trkpt>
<trkpt lat="50.14602" lon="8.87589"><ele>102</ele></trkpt>
<trkpt lat="50.14623" lon="8.87527"><ele>103</ele></trkpt>
<trkpt lat="50.14637" lon="8.87473"><ele>105</ele></trkpt>
<trkpt lat="50.14650" lon="8.87398"><ele>106</ele></trkpt>
<trkpt lat="50.14725" lon="8.86855"><ele>104</ele></trkpt>
<trkpt lat="50.14782" lon="8.86529"><ele>104</ele></trkpt>
<trkpt lat="50.14847" lon="8.86252"><ele>105</ele></trkpt>
<trkpt lat="50.14890" lon="8.86017"><ele>106</ele></trkpt>
<trkpt lat="50.14969" lon="8.85699"><ele>102</ele></trkpt>
<trkpt lat="50.15010" lon="8.85511"><ele>102</ele></trkpt>
<trkpt lat="50.15032" lon="8.85319"><ele>102</ele></trkpt>
<trkpt lat="50.15038" lon="8.85236"><ele>102</ele></trkpt>
<trkpt lat="50.15042" lon="8.85173"><ele>102</ele></trkpt>
<trkpt lat="50.15043" lon="8.85088"><ele>102</ele></trkpt>
<trkpt lat="50.15035" lon="8.84886"><ele>102</ele></trkpt>
<trkpt lat="50.15020" lon="8.84705"><ele>102</ele></trkpt>
<trkpt lat="50.15018" lon="8.84649"><ele>102</ele></trkpt>
<trkpt lat="50.15020" lon="8.84594"><ele>102</ele></trkpt>
<trkpt lat="50.15031" lon="8.84487"><ele>102</ele></trkpt>
<trkpt lat="50.15020" lon="8.84489"><ele>102</ele></trkpt>
<trkpt lat="50.15010" lon="8.84477"><ele>102</ele></trkpt>
<trkpt lat="50.15006" lon="8.84466"><ele>102</ele></trkpt>
<trkpt lat="50.15000" lon="8.84329"><ele>102</ele></trkpt>
<trkpt lat="50.15001" lon="8.84297"><ele>102</ele></trkpt>
<trkpt lat="50.15008" lon="8.84277"><ele>102</ele></trkpt>
<trkpt lat="50.15162" lon="8.84191"><ele>103</ele></trkpt>
<trkpt lat="50.15173" lon="8.84181"><ele>103</ele></trkpt>
<trkpt lat="50.15168" lon="8.84171"><ele>103</ele></trkpt>
<trkpt lat="50.15124" lon="8.83873"><ele>105</ele></trkpt>
<trkpt lat="50.15034" lon="8.83905"><ele>102</ele></trkpt>
<trkpt lat="50.15011" lon="8.83603"><ele>104</ele></trkpt>
<trkpt lat="50.15011" lon="8.83358"><ele>104</ele></trkpt>
<trkpt lat="50.14989" lon="8.83197"><ele>104</ele></trkpt>
<trkpt lat="50.14969" lon="8.82960"><ele>103</ele></trkpt>
<trkpt lat="50.14946" lon="8.82846"><ele>102</ele></trkpt>
<trkpt lat="50.14946" lon="8.82824"><ele>102</ele></trkpt>
<trkpt lat="50.14952" lon="8.82810"><ele>102</ele></trkpt>
<trkpt lat="50.14953" lon="8.82784"><ele>104</ele></trkpt>
<trkpt lat="50.14970" lon="8.82731"><ele>105</ele></trkpt>
<trkpt lat="50.14978" lon="8.82690"><ele>106</ele></trkpt>
<trkpt lat="50.14982" lon="8.82650"><ele>106</ele></trkpt>
<trkpt lat="50.14984" lon="8.82595"><ele>102</ele></trkpt>
<trkpt lat="50.14988" lon="8.82570"><ele>102</ele></trkpt>
<trkpt lat="50.14999" lon="8.82533"><ele>100</ele></trkpt>
<trkpt lat="50.15017" lon="8.82501"><ele>103</ele></trkpt>
<trkpt lat="50.15015" lon="8.82494"><ele>103</ele></trkpt>
<trkpt lat="50.14992" lon="8.82453"><ele>100</ele></trkpt>
<trkpt lat="50.15052" lon="8.82364"><ele>100</ele></trkpt>
<trkpt lat="50.15264" lon="8.82029"><ele>106</ele></trkpt>
<trkpt lat="50.15272" lon="8.81998"><ele>107</ele></trkpt>
<trkpt lat="50.15270" lon="8.81936"><ele>105</ele></trkpt>
<trkpt lat="50.15275" lon="8.81917"><ele>104</ele></trkpt>
<trkpt lat="50.15305" lon="8.81846"><ele>104</ele></trkpt>
<trkpt lat="50.15324" lon="8.81746"><ele>102</ele></trkpt>
<trkpt lat="50.15332" lon="8.81677"><ele>102</ele></trkpt>
<trkpt lat="50.15333" lon="8.81615"><ele>102</ele></trkpt>
<trkpt lat="50.15339" lon="8.81599"><ele>102</ele></trkpt>
<trkpt lat="50.15325" lon="8.81077"><ele>101</ele></trkpt>
<trkpt lat="50.15320" lon="8.80988"><ele>102</ele></trkpt>
<trkpt lat="50.15324" lon="8.80982"><ele>102</ele></trkpt>
<trkpt lat="50.15301" lon="8.80858"><ele>102</ele></trkpt>
<trkpt lat="50.15436" lon="8.80746"><ele>104</ele></trkpt>
<trkpt lat="50.15467" lon="8.80714"><ele>104</ele></trkpt>
<trkpt lat="50.15505" lon="8.80688"><ele>106</ele></trkpt>
<trkpt lat="50.15599" lon="8.80658"><ele>109</ele></trkpt>
<trkpt lat="50.15819" lon="8.80612"><ele>115</ele></trkpt>
<trkpt lat="50.15831" lon="8.80606"><ele>116</ele></trkpt>
<trkpt lat="50.15846" lon="8.80584"><ele>116</ele></trkpt>
<trkpt lat="50.15867" lon="8.80510"><ele>118</ele></trkpt>
<trkpt lat="50.15874" lon="8.80496"><ele>119</ele></trkpt>
<trkpt lat="50.15900" lon="8.80469"><ele>120</ele></trkpt>
<trkpt lat="50.15908" lon="8.80450"><ele>121</ele></trkpt>
<trkpt lat="50.15917" lon="8.80409"><ele>121</ele></trkpt>
<trkpt lat="50.15917" lon="8.80400"><ele>121</ele></trkpt>
<trkpt lat="50.15931" lon="8.80395"><ele>122</ele></trkpt>
<trkpt lat="50.15975" lon="8.80398"><ele>126</ele></trkpt>
<trkpt lat="50.15992" lon="8.80394"><ele>126</ele></trkpt>
<trkpt lat="50.16013" lon="8.80384"><ele>128</ele></trkpt>
<trkpt lat="50.16042" lon="8.80361"><ele>129</ele></trkpt>
<trkpt lat="50.16072" lon="8.80324"><ele>129</ele></trkpt>
<trkpt lat="50.16182" lon="8.80170"><ele>130</ele></trkpt>
<trkpt lat="50.16242" lon="8.80107"><ele>132</ele></trkpt>
<trkpt lat="50.16302" lon="8.80056"><ele>133</ele></trkpt>
<trkpt lat="50.16326" lon="8.80056"><ele>134</ele></trkpt>
<trkpt lat="50.16509" lon="8.80087"><ele>137</ele></trkpt>
<trkpt lat="50.16771" lon="8.80107"><ele>154</ele></trkpt>
<trkpt lat="50.16788" lon="8.80098"><ele>156</ele></trkpt>
<trkpt lat="50.16855" lon="8.80017"><ele>162</ele></trkpt>
<trkpt lat="50.16871" lon="8.80005"><ele>164</ele></trkpt>
<trkpt lat="50.16887" lon="8.80004"><ele>166</ele></trkpt>
<trkpt lat="50.16964" lon="8.80021"><ele>170</ele></trkpt>
<trkpt lat="50.17021" lon="8.80019"><ele>172</ele></trkpt>
<trkpt lat="50.17110" lon="8.80006"><ele>171</ele></trkpt>
<trkpt lat="50.17134" lon="8.80076"><ele>172</ele></trkpt>
<trkpt lat="50.17224" lon="8.80045"><ele>168</ele></trkpt>
<trkpt lat="50.17240" lon="8.80044"><ele>167</ele></trkpt>
<trkpt lat="50.17283" lon="8.80055"><ele>167</ele></trkpt>
<trkpt lat="50.17468" lon="8.80054"><ele>157</ele></trkpt>
<trkpt lat="50.17635" lon="8.80031"><ele>140</ele></trkpt>
<trkpt lat="50.17682" lon="8.80029"><ele>137</ele></trkpt>
<trkpt lat="50.17701" lon="8.80031"><ele>137</ele></trkpt>
<trkpt lat="50.17727" lon="8.80049"><ele>136</ele></trkpt>
<trkpt lat="50.17838" lon="8.80160"><ele>134</ele></trkpt>
<trkpt lat="50.17948" lon="8.80230"><ele>132</ele></trkpt>
<trkpt lat="50.17959" lon="8.80235"><ele>132</ele></trkpt>
<trkpt lat="50.18019" lon="8.80238"><ele>130</ele></trkpt>
<trkpt lat="50.18149" lon="8.80238"><ele>129</ele></trkpt>
<trkpt lat="50.18313" lon="8.80217"><ele>126</ele></trkpt>
<trkpt lat="50.18504" lon="8.80169"><ele>123</ele></trkpt>
<trkpt lat="50.18532" lon="8.80155"><ele>123</ele></trkpt>
<trkpt lat="50.18554" lon="8.80137"><ele>123</ele></trkpt>
<trkpt lat="50.18701" lon="8.79937"><ele>121</ele></trkpt>
<trkpt lat="50.18921" lon="8.79728"><ele>119</ele></trkpt>
<trkpt lat="50.18982" lon="8.79746"><ele>119</ele></trkpt>
<trkpt lat="50.19124" lon="8.79739"><ele>118</ele></trkpt>
<trkpt lat="50.19164" lon="8.79743"><ele>118</ele></trkpt>
<trkpt lat="50.19219" lon="8.79784"><ele>117</ele></trkpt>
<trkpt lat="50.19381" lon="8.79930"><ele>115</ele></trkpt>
<trkpt lat="50.19382" lon="8.79917"><ele>115</ele></trkpt>
<trkpt lat="50.19402" lon="8.79832"><ele>116</ele></trkpt>
<trkpt lat="50.19416" lon="8.79748"><ele>116</ele></trkpt>
<trkpt lat="50.19422" lon="8.79705"><ele>116</ele></trkpt>
<trkpt lat="50.19424" lon="8.79673"><ele>117</ele></trkpt>
<trkpt lat="50.19423" lon="8.79625"><ele>117</ele></trkpt>
<trkpt lat="50.19404" lon="8.79434"><ele>117</ele></trkpt>
<trkpt lat="50.19374" lon="8.79187"><ele>114</ele></trkpt>
<trkpt lat="50.19360" lon="8.78992"><ele>117</ele></trkpt>
<trkpt lat="50.19349" lon="8.78936"><ele>118</ele></trkpt>
<trkpt lat="50.19335" lon="8.78887"><ele>118</ele></trkpt>
<trkpt lat="50.19291" lon="8.78789"><ele>118</ele></trkpt>
<trkpt lat="50.19248" lon="8.78632"><ele>122</ele></trkpt>
<trkpt lat="50.19245" lon="8.78609"><ele>120</ele></trkpt>
<trkpt lat="50.19247" lon="8.78558"><ele>120</ele></trkpt>
<trkpt lat="50.19259" lon="8.78474"><ele>118</ele></trkpt>
<trkpt lat="50.19291" lon="8.78361"><ele>114</ele></trkpt>
<trkpt lat="50.19300" lon="8.78294"><ele>111</ele></trkpt>
<trkpt lat="50.19287" lon="8.78174"><ele>112</ele></trkpt>
<trkpt lat="50.19314" lon="8.78111"><ele>111</ele></trkpt>
<trkpt lat="50.19333" lon="8.78092"><ele>111</ele></trkpt>
<trkpt lat="50.19343" lon="8.78073"><ele>110</ele></trkpt>
<trkpt lat="50.19341" lon="8.78058"><ele>110</ele></trkpt>
<trkpt lat="50.19343" lon="8.78012"><ele>111</ele></trkpt>
<trkpt lat="50.19356" lon="8.77932"><ele>111</ele></trkpt>
<trkpt lat="50.19358" lon="8.77907"><ele>111</ele></trkpt>
<trkpt lat="50.19356" lon="8.77887"><ele>111</ele></trkpt>
<trkpt lat="50.19363" lon="8.77868"><ele>111</ele></trkpt>
<trkpt lat="50.19369" lon="8.77794"><ele>109</ele></trkpt>
<trkpt lat="50.19384" lon="8.77665"><ele>109</ele></trkpt>
<trkpt lat="50.19392" lon="8.77622"><ele>109</ele></trkpt>
<trkpt lat="50.19394" lon="8.77572"><ele>109</ele></trkpt>
<trkpt lat="50.19553" lon="8.77492"><ele>109</ele></trkpt>
<trkpt lat="50.19611" lon="8.77406"><ele>110</ele></trkpt>
<trkpt lat="50.19685" lon="8.77265"><ele>110</ele></trkpt>
<trkpt lat="50.19698" lon="8.77252"><ele>111</ele></trkpt>
<trkpt lat="50.20050" lon="8.77232"><ele>110</ele></trkpt>
<trkpt lat="50.20132" lon="8.77239"><ele>110</ele></trkpt>
<trkpt lat="50.20312" lon="8.77264"><ele>109</ele></trkpt>
<trkpt lat="50.20593" lon="8.77319"><ele>110</ele></trkpt>
<trkpt lat="50.20636" lon="8.77319"><ele>110</ele></trkpt>
<trkpt lat="50.20747" lon="8.77300"><ele>110</ele></trkpt>
<trkpt lat="50.20775" lon="8.77302"><ele>110</ele></trkpt>
<trkpt lat="50.20802" lon="8.77317"><ele>110</ele></trkpt>
<trkpt lat="50.20836" lon="8.77354"><ele>109</ele></trkpt>
<trkpt lat="50.20849" lon="8.77353"><ele>109</ele></trkpt>
<trkpt lat="50.20864" lon="8.77343"><ele>109</ele></trkpt>
<trkpt lat="50.20871" lon="8.77343"><ele>110</ele></trkpt>
<trkpt lat="50.20913" lon="8.77360"><ele>111</ele></trkpt>
<trkpt lat="50.20972" lon="8.77402"><ele>110</ele></trkpt>
<trkpt lat="50.20994" lon="8.77413"><ele>110</ele></trkpt>
<trkpt lat="50.21007" lon="8.77413"><ele>110</ele></trkpt>
<trkpt lat="50.21025" lon="8.77400"><ele>110</ele></trkpt>
<trkpt lat="50.21039" lon="8.77381"><ele>110</ele></trkpt>
<trkpt lat="50.21076" lon="8.77264"><ele>110</ele></trkpt>
<trkpt lat="50.21088" lon="8.77243"><ele>110</ele></trkpt>
<trkpt lat="50.21106" lon="8.77228"><ele>110</ele></trkpt>
<trkpt lat="50.21126" lon="8.77224"><ele>110</ele></trkpt>
<trkpt lat="50.21150" lon="8.77232"><ele>109</ele></trkpt>
<trkpt lat="50.21177" lon="8.77231"><ele>109</ele></trkpt>
<trkpt lat="50.21336" lon="8.77248"><ele>110</ele></trkpt>
<trkpt lat="50.21356" lon="8.77222"><ele>110</ele></trkpt>
<trkpt lat="50.21371" lon="8.77209"><ele>110</ele></trkpt>
<trkpt lat="50.21469" lon="8.77187"><ele>110</ele></trkpt>
<trkpt lat="50.21490" lon="8.77177"><ele>110</ele></trkpt>
<trkpt lat="50.21501" lon="8.77160"><ele>110</ele></trkpt>
<trkpt lat="50.21505" lon="8.77145"><ele>110</ele></trkpt>
<trkpt lat="50.21499" lon="8.77075"><ele>111</ele></trkpt>
<trkpt lat="50.21509" lon="8.77041"><ele>110</ele></trkpt>
<trkpt lat="50.21597" lon="8.76860"><ele>110</ele></trkpt>
<trkpt lat="50.21632" lon="8.76803"><ele>110</ele></trkpt>
<trkpt lat="50.21643" lon="8.76789"><ele>110</ele></trkpt>
<trkpt lat="50.21659" lon="8.76779"><ele>111</ele></trkpt>
<trkpt lat="50.21932" lon="8.76669"><ele>111</ele></trkpt>
<trkpt lat="50.21971" lon="8.76658"><ele>111</ele></trkpt>
<trkpt lat="50.21996" lon="8.76660"><ele>111</ele></trkpt>
<trkpt lat="50.22024" lon="8.76674"><ele>111</ele></trkpt>
<trkpt lat="50.22047" lon="8.76694"><ele>111</ele></trkpt>
<trkpt lat="50.22081" lon="8.76738"><ele>111</ele></trkpt>
<trkpt lat="50.22097" lon="8.76765"><ele>110</ele></trkpt>
<trkpt lat="50.22107" lon="8.76810"><ele>111</ele></trkpt>
<trkpt lat="50.22116" lon="8.76928"><ele>111</ele></trkpt>
<trkpt lat="50.22118" lon="8.76936"><ele>111</ele></trkpt>
<trkpt lat="50.22127" lon="8.76940"><ele>111</ele></trkpt>
<trkpt lat="50.22297" lon="8.76870"><ele>110</ele></trkpt>
<trkpt lat="50.22399" lon="8.76823"><ele>110</ele></trkpt>
<trkpt lat="50.22443" lon="8.76790"><ele>112</ele></trkpt>
<trkpt lat="50.22483" lon="8.76767"><ele>112</ele></trkpt>
<trkpt lat="50.22502" lon="8.76749"><ele>112</ele></trkpt>
<trkpt lat="50.22529" lon="8.76704"><ele>112</ele></trkpt>
<trkpt lat="50.22552" lon="8.76629"><ele>111</ele></trkpt>
<trkpt lat="50.22566" lon="8.76609"><ele>112</ele></trkpt>
<trkpt lat="50.22624" lon="8.76579"><ele>112</ele></trkpt>
<trkpt lat="50.22679" lon="8.76573"><ele>112</ele></trkpt>
<trkpt lat="50.22725" lon="8.76576"><ele>111</ele></trkpt>
<trkpt lat="50.22748" lon="8.76566"><ele>112</ele></trkpt>
<trkpt lat="50.22799" lon="8.76529"><ele>111</ele></trkpt>
<trkpt lat="50.22818" lon="8.76469"><ele>112</ele></trkpt>
<trkpt lat="50.22826" lon="8.76461"><ele>112</ele></trkpt>
<trkpt lat="50.22898" lon="8.76413"><ele>112</ele></trkpt>
<trkpt lat="50.22975" lon="8.76379"><ele>112</ele></trkpt>
<trkpt lat="50.23013" lon="8.76384"><ele>112</ele></trkpt>
<trkpt lat="50.23052" lon="8.76361"><ele>112</ele></trkpt>
<trkpt lat="50.23087" lon="8.76350"><ele>111</ele></trkpt>
<trkpt lat="50.23197" lon="8.76343"><ele>111</ele></trkpt>
<trkpt lat="50.23246" lon="8.76351"><ele>110</ele></trkpt>
<trkpt lat="50.23284" lon="8.76351"><ele>111</ele></trkpt>
<trkpt lat="50.23317" lon="8.76342"><ele>112</ele></trkpt>
<trkpt lat="50.23363" lon="8.76348"><ele>112</ele></trkpt>
<trkpt lat="50.23385" lon="8.76309"><ele>113</ele></trkpt>
<trkpt lat="50.23392" lon="8.76299"><ele>113</ele></trkpt>
<trkpt lat="50.23397" lon="8.76299"><ele>113</ele></trkpt>
<trkpt lat="50.23446" lon="8.76323"><ele>112</ele></trkpt>
<trkpt lat="50.23532" lon="8.76353"><ele>112</ele></trkpt>
<trkpt lat="50.23559" lon="8.76401"><ele>112</ele></trkpt>
<trkpt lat="50.23575" lon="8.76404"><ele>111</ele></trkpt>
<trkpt lat="50.23700" lon="8.76287"><ele>112</ele></trkpt>
<trkpt lat="50.23720" lon="8.76260"><ele>111</ele></trkpt>
<trkpt lat="50.23730" lon="8.76227"><ele>111</ele></trkpt>
<trkpt lat="50.23735" lon="8.76194"><ele>111</ele></trkpt>
<trkpt lat="50.23748" lon="8.76016"><ele>113</ele></trkpt>
<trkpt lat="50.23751" lon="8.75999"><ele>113</ele></trkpt>
<trkpt lat="50.23765" lon="8.75962"><ele>112</ele></trkpt>
<trkpt lat="50.23776" lon="8.75942"><ele>113</ele></trkpt>
<trkpt lat="50.23802" lon="8.75915"><ele>113</ele></trkpt>
<trkpt lat="50.23822" lon="8.75908"><ele>112</ele></trkpt>
<trkpt lat="50.23848" lon="8.75909"><ele>112</ele></trkpt>
<trkpt lat="50.23882" lon="8.75926"><ele>113</ele></trkpt>
<trkpt lat="50.23868" lon="8.75978"><ele>113</ele></trkpt>
<trkpt lat="50.23927" lon="8.76013"><ele>112</ele></trkpt>
<trkpt lat="50.23969" lon="8.76026"><ele>113</ele></trkpt>
<trkpt lat="50.24048" lon="8.76014"><ele>111</ele></trkpt>
<trkpt lat="50.24067" lon="8.76027"><ele>112</ele></trkpt>
<trkpt lat="50.24097" lon="8.76036"><ele>112</ele></trkpt>
<trkpt lat="50.24117" lon="8.76038"><ele>112</ele></trkpt>
<trkpt lat="50.24153" lon="8.76028"><ele>112</ele></trkpt>
<trkpt lat="50.24218" lon="8.75979"><ele>112</ele></trkpt>
<trkpt lat="50.24322" lon="8.75947"><ele>113</ele></trkpt>
<trkpt lat="50.24406" lon="8.75934"><ele>112</ele></trkpt>
<trkpt lat="50.24494" lon="8.75878"><ele>112</ele></trkpt>
<trkpt lat="50.24533" lon="8.75865"><ele>113</ele></trkpt>
<trkpt lat="50.24550" lon="8.75865"><ele>113</ele></trkpt>
<trkpt lat="50.24696" lon="8.75884"><ele>112</ele></trkpt>
<trkpt lat="50.24710" lon="8.75895"><ele>112</ele></trkpt>
<trkpt lat="50.24752" lon="8.75954"><ele>113</ele></trkpt>
<trkpt lat="50.24769" lon="8.75969"><ele>113</ele></trkpt>
<trkpt lat="50.24811" lon="8.75976"><ele>113</ele></trkpt>
<trkpt lat="50.24856" lon="8.75972"><ele>114</ele></trkpt>
<trkpt lat="50.24970" lon="8.76026"><ele>114</ele></trkpt>
<trkpt lat="50.24997" lon="8.75961"><ele>114</ele></trkpt>
<trkpt lat="50.25011" lon="8.75896"><ele>114</ele></trkpt>
<trkpt lat="50.25018" lon="8.75689"><ele>116</ele></trkpt>
<trkpt lat="50.25113" lon="8.75692"><ele>116</ele></trkpt>
<trkpt lat="50.25120" lon="8.75686"><ele>116</ele></trkpt>
<trkpt lat="50.25146" lon="8.75649"><ele>116</ele></trkpt>
<trkpt lat="50.25152" lon="8.75666"><ele>116</ele></trkpt>
<trkpt lat="50.25152" lon="8.75777"><ele>115</ele></trkpt>
<trkpt lat="50.25596" lon="8.75682"><ele>114</ele></trkpt>
<trkpt lat="50.25899" lon="8.75690"><ele>114</ele></trkpt>
<trkpt lat="50.25907" lon="8.75683"><ele>114</ele></trkpt>
<trkpt lat="50.25913" lon="8.75639"><ele>115</ele></trkpt>
<trkpt lat="50.25917" lon="8.75631"><ele>116</ele></trkpt>
<trkpt lat="50.25924" lon="8.75627"><ele>117</ele></trkpt>
<trkpt lat="50.26311" lon="8.75785"><ele>118</ele></trkpt>
<trkpt lat="50.26327" lon="8.75724"><ele>118</ele></trkpt>
<trkpt lat="50.26329" lon="8.75720"><ele>118</ele></trkpt>
<trkpt lat="50.26336" lon="8.75724"><ele>118</ele></trkpt>
<trkpt lat="50.26339" lon="8.75720"><ele>118</ele></trkpt>
<trkpt lat="50.26349" lon="8.75676"><ele>119</ele></trkpt>
<trkpt lat="50.26355" lon="8.75625"><ele>120</ele></trkpt>
<trkpt lat="50.26360" lon="8.75619"><ele>120</ele></trkpt>
<trkpt lat="50.26366" lon="8.75618"><ele>120</ele></trkpt>
<trkpt lat="50.26491" lon="8.75648"><ele>120</ele></trkpt>
<trkpt lat="50.26560" lon="8.75680"><ele>120</ele></trkpt>
<trkpt lat="50.26656" lon="8.75754"><ele>120</ele></trkpt>
<trkpt lat="50.26722" lon="8.75827"><ele>120</ele></trkpt>
<trkpt lat="50.26793" lon="8.75889"><ele>124</ele></trkpt>
<trkpt lat="50.26836" lon="8.75919"><ele>124</ele></trkpt>
<trkpt lat="50.26909" lon="8.75957"><ele>126</ele></trkpt>
<trkpt lat="50.27023" lon="8.76009"><ele>128</ele></trkpt>
<trkpt lat="50.27087" lon="8.76032"><ele>128</ele></trkpt>
<trkpt lat="50.27177" lon="8.76051"><ele>128</ele></trkpt>
<trkpt lat="50.27324" lon="8.76068"><ele>124</ele></trkpt>
<trkpt lat="50.27307" lon="8.76020"><ele>124</ele></trkpt>
<trkpt lat="50.27335" lon="8.76001"><ele>123</ele></trkpt>
<trkpt lat="50.27613" lon="8.75953"><ele>134</ele></trkpt>
<trkpt lat="50.27716" lon="8.75927"><ele>137</ele></trkpt>
<trkpt lat="50.27808" lon="8.75900"><ele>140</ele></trkpt>
<trkpt lat="50.27858" lon="8.75858"><ele>144</ele></trkpt>
<trkpt lat="50.27872" lon="8.75857"><ele>144</ele></trkpt>
<trkpt lat="50.27909" lon="8.75868"><ele>144</ele></trkpt>
<trkpt lat="50.28264" lon="8.75801"><ele>138</ele></trkpt>
<trkpt lat="50.28381" lon="8.75768"><ele>135</ele></trkpt>
<trkpt lat="50.28438" lon="8.75756"><ele>132</ele></trkpt>
<trkpt lat="50.28511" lon="8.75759"><ele>132</ele></trkpt>
<trkpt lat="50.28545" lon="8.75770"><ele>134</ele></trkpt>
<trkpt lat="50.28648" lon="8.75824"><ele>135</ele></trkpt>
<trkpt lat="50.28698" lon="8.75861"><ele>135</ele></trkpt>
<trkpt lat="50.28733" lon="8.75896"><ele>134</ele></trkpt>
<trkpt lat="50.28800" lon="8.75986"><ele>131</ele></trkpt>
<trkpt lat="50.28845" lon="8.76033"><ele>128</ele></trkpt>
<trkpt lat="50.28853" lon="8.76049"><ele>127</ele></trkpt>
<trkpt lat="50.28855" lon="8.76062"><ele>126</ele></trkpt>
<trkpt lat="50.28852" lon="8.76075"><ele>126</ele></trkpt>
<trkpt lat="50.28845" lon="8.76088"><ele>125</ele></trkpt>
<trkpt lat="50.28864" lon="8.76117"><ele>125</ele></trkpt>
<trkpt lat="50.28872" lon="8.76172"><ele>125</ele></trkpt>
<trkpt lat="50.28879" lon="8.76183"><ele>126</ele></trkpt>
<trkpt lat="50.28888" lon="8.76189"><ele>126</ele></trkpt>
<trkpt lat="50.29037" lon="8.75948"><ele>128</ele></trkpt>
<trkpt lat="50.29202" lon="8.75747"><ele>129</ele></trkpt>
<trkpt lat="50.29206" lon="8.75758"><ele>129</ele></trkpt>
<trkpt lat="50.29236" lon="8.75764"><ele>130</ele></trkpt>
<trkpt lat="50.29306" lon="8.75749"><ele>131</ele></trkpt>
<trkpt lat="50.29321" lon="8.75755"><ele>130</ele></trkpt>
<trkpt lat="50.29397" lon="8.75847"><ele>132</ele></trkpt>
<trkpt lat="50.29464" lon="8.75898"><ele>132</ele></trkpt>
<trkpt lat="50.29483" lon="8.75906"><ele>133</ele></trkpt>
<trkpt lat="50.29517" lon="8.75908"><ele>134</ele></trkpt>
<trkpt lat="50.29531" lon="8.75932"><ele>136</ele></trkpt>
<trkpt lat="50.29783" lon="8.75656"><ele>138</ele></trkpt>
<trkpt lat="50.29869" lon="8.75525"><ele>139</ele></trkpt>
<trkpt lat="50.29883" lon="8.75558"><ele>140</ele></trkpt>
<trkpt lat="50.29976" lon="8.75709"><ele>144</ele></trkpt>
<trkpt lat="50.30007" lon="8.75666"><ele>145</ele></trkpt>
<trkpt lat="50.30008" lon="8.75540"><ele>143</ele></trkpt>
<trkpt lat="50.30067" lon="8.75288"><ele>142</ele></trkpt>
<trkpt lat="50.30072" lon="8.75215"><ele>142</ele></trkpt>
<trkpt lat="50.30069" lon="8.75186"><ele>142</ele></trkpt>
<trkpt lat="50.30202" lon="8.75100"><ele>148</ele></trkpt>
<trkpt lat="50.30201" lon="8.75089"><ele>148</ele></trkpt>
<trkpt lat="50.30211" lon="8.75081"><ele>148</ele></trkpt>
<trkpt lat="50.30574" lon="8.74847"><ele>164</ele></trkpt>
<trkpt lat="50.30930" lon="8.74633"><ele>170</ele></trkpt>
<trkpt lat="50.30966" lon="8.74621"><ele>169</ele></trkpt>
<trkpt lat="50.31100" lon="8.74604"><ele>166</ele></trkpt>
<trkpt lat="50.31126" lon="8.74595"><ele>166</ele></trkpt>
<trkpt lat="50.31148" lon="8.74583"><ele>166</ele></trkpt>
<trkpt lat="50.31206" lon="8.74539"><ele>164</ele></trkpt>
<trkpt lat="50.31238" lon="8.74522"><ele>162</ele></trkpt>
<trkpt lat="50.31294" lon="8.74519"><ele>160</ele></trkpt>
<trkpt lat="50.31416" lon="8.74576"><ele>158</ele></trkpt>
<trkpt lat="50.31432" lon="8.74580"><ele>158</ele></trkpt>
<trkpt lat="50.31450" lon="8.74576"><ele>158</ele></trkpt>
<trkpt lat="50.31468" lon="8.74563"><ele>158</ele></trkpt>
<trkpt lat="50.31473" lon="8.74541"><ele>158</ele></trkpt>
<trkpt lat="50.31479" lon="8.74540"><ele>158</ele></trkpt>
<trkpt lat="50.31488" lon="8.74546"><ele>158</ele></trkpt>
<trkpt lat="50.31500" lon="8.74564"><ele>156</ele></trkpt>
<trkpt lat="50.31510" lon="8.74566"><ele>156</ele></trkpt>
<trkpt lat="50.31566" lon="8.74601"><ele>152</ele></trkpt>
<trkpt lat="50.31668" lon="8.74623"><ele>147</ele></trkpt>
<trkpt lat="50.31682" lon="8.74632"><ele>147</ele></trkpt>
<trkpt lat="50.31686" lon="8.74624"><ele>146</ele></trkpt>
<trkpt lat="50.31706" lon="8.74630"><ele>146</ele></trkpt>
<trkpt lat="50.31712" lon="8.74625"><ele>146</ele></trkpt>
<trkpt lat="50.31758" lon="8.74629"><ele>144</ele></trkpt>
<trkpt lat="50.31794" lon="8.74627"><ele>144</ele></trkpt>
<trkpt lat="50.31929" lon="8.74638"><ele>144</ele></trkpt>
<trkpt lat="50.31985" lon="8.74650"><ele>145</ele></trkpt>
<trkpt lat="50.32038" lon="8.74668"><ele>145</ele></trkpt>
<trkpt lat="50.32048" lon="8.74678"><ele>146</ele></trkpt>
<trkpt lat="50.32168" lon="8.74728"><ele>151</ele></trkpt>
<trkpt lat="50.32179" lon="8.74735"><ele>152</ele></trkpt>
<trkpt lat="50.32194" lon="8.74768"><ele>152</ele></trkpt>
<trkpt lat="50.32207" lon="8.74768"><ele>153</ele></trkpt>
<trkpt lat="50.32214" lon="8.74754"><ele>153</ele></trkpt>
<trkpt lat="50.32219" lon="8.74752"><ele>153</ele></trkpt>
<trkpt lat="50.32491" lon="8.74869"><ele>167</ele></trkpt>
<trkpt lat="50.32522" lon="8.74877"><ele>168</ele></trkpt>
<trkpt lat="50.32822" lon="8.74992"><ele>157</ele></trkpt>
<trkpt lat="50.32830" lon="8.75000"><ele>157</ele></trkpt>
<trkpt lat="50.32840" lon="8.75000"><ele>157</ele></trkpt>
<trkpt lat="50.32950" lon="8.75062"><ele>156</ele></trkpt>
<trkpt lat="50.32950" lon="8.75050"><ele>156</ele></trkpt>
<trkpt lat="50.32955" lon="8.75034"><ele>156</ele></trkpt>
<trkpt lat="50.32946" lon="8.75022"><ele>156</ele></trkpt>
<trkpt lat="50.32917" lon="8.74948"><ele>157</ele></trkpt>
<trkpt lat="50.32736" lon="8.74451"><ele>164</ele></trkpt>
<trkpt lat="50.32784" lon="8.74412"><ele>163</ele></trkpt>
<trkpt lat="50.32776" lon="8.74361"><ele>163</ele></trkpt>
<trkpt lat="50.32758" lon="8.74313"><ele>163</ele></trkpt>
<trkpt lat="50.32897" lon="8.74227"><ele>158</ele></trkpt>
<trkpt lat="50.32879" lon="8.74157"><ele>158</ele></trkpt>
<trkpt lat="50.32870" lon="8.74094"><ele>158</ele></trkpt>
<trkpt lat="50.32868" lon="8.73966"><ele>157</ele></trkpt>
<trkpt lat="50.32864" lon="8.73943"><ele>157</ele></trkpt>
<trkpt lat="50.32827" lon="8.73963"><ele>159</ele></trkpt>
<trkpt lat="50.33016" lon="8.73844"><ele>152</ele></trkpt>
<trkpt lat="50.33253" lon="8.73888"><ele>147</ele></trkpt>
<trkpt lat="50.33263" lon="8.73884"><ele>147</ele></trkpt>
<trkpt lat="50.33276" lon="8.73865"><ele>147</ele></trkpt>
<trkpt lat="50.33286" lon="8.73859"><ele>147</ele></trkpt>
<trkpt lat="50.33357" lon="8.74086"><ele>147</ele></trkpt>
<trkpt lat="50.33366" lon="8.74129"><ele>148</ele></trkpt>
<trkpt lat="50.33369" lon="8.74128"><ele>147</ele></trkpt>
<trkpt lat="50.33378" lon="8.74221"><ele>148</ele></trkpt>
<trkpt lat="50.33395" lon="8.74508"><ele>148</ele></trkpt>
<trkpt lat="50.33401" lon="8.74557"><ele>148</ele></trkpt>
<trkpt lat="50.33412" lon="8.74611"><ele>146</ele></trkpt>
<trkpt lat="50.33417" lon="8.74613"><ele>146</ele></trkpt>
<trkpt lat="50.33418" lon="8.74621"><ele>146</ele></trkpt>
<trkpt lat="50.33432" lon="8.74616"><ele>145</ele></trkpt>
<trkpt lat="50.33440" lon="8.74618"><ele>145</ele></trkpt>
<trkpt lat="50.33458" lon="8.74635"><ele>145</ele></trkpt>
<trkpt lat="50.33469" lon="8.74641"><ele>145</ele></trkpt>
<trkpt lat="50.33611" lon="8.74662"><ele>144</ele></trkpt>
<trkpt lat="50.33605" lon="8.74785"><ele>144</ele></trkpt>
<trkpt lat="50.33606" lon="8.74822"><ele>144</ele></trkpt>
<trkpt lat="50.33620" lon="8.74885"><ele>143</ele></trkpt>
<trkpt lat="50.33635" lon="8.74917"><ele>144</ele></trkpt>
<trkpt lat="50.33643" lon="8.74978"><ele>142</ele></trkpt>
<trkpt lat="50.33793" lon="8.75013"><ele>142</ele></trkpt>
<trkpt lat="50.33883" lon="8.75020"><ele>142</ele></trkpt>
<trkpt lat="50.33919" lon="8.75010"><ele>142</ele></trkpt>
<trkpt lat="50.33951" lon="8.75010"><ele>142</ele></trkpt>
<trkpt lat="50.33971" lon="8.74998"><ele>143</ele></trkpt>
<trkpt lat="50.33986" lon="8.75006"><ele>143</ele></trkpt>
<trkpt lat="50.33997" lon="8.75035"><ele>143</ele></trkpt>
<trkpt lat="50.34011" lon="8.75029"><ele>142</ele></trkpt>
<trkpt lat="50.34072" lon="8.75038"><ele>140</ele></trkpt>
<trkpt lat="50.34188" lon="8.75028"><ele>139</ele></trkpt>
<trkpt lat="50.34191" lon="8.75113"><ele>139</ele></trkpt>
<trkpt lat="50.34206" lon="8.75108"><ele>139</ele></trkpt>
<trkpt lat="50.34300" lon="8.75097"><ele>138</ele></trkpt>
<trkpt lat="50.34320" lon="8.75132"><ele>139</ele></trkpt>
<trkpt lat="50.34325" lon="8.75155"><ele>138</ele></trkpt>
<trkpt lat="50.34346" lon="8.75201"><ele>138</ele></trkpt>
<trkpt lat="50.34350" lon="8.75203"><ele>138</ele></trkpt>
<trkpt lat="50.34472" lon="8.75153"><ele>135</ele></trkpt>
<trkpt lat="50.34560" lon="8.75151"><ele>136</ele></trkpt>
<trkpt lat="50.34604" lon="8.75144"><ele>135</ele></trkpt>
<trkpt lat="50.34606" lon="8.75159"><ele>136</ele></trkpt>
<trkpt lat="50.34613" lon="8.75165"><ele>136</ele></trkpt>
<trkpt lat="50.34628" lon="8.75167"><ele>136</ele></trkpt>
<trkpt lat="50.34702" lon="8.75108"><ele>136</ele></trkpt>
<trkpt lat="50.34727" lon="8.75097"><ele>136</ele></trkpt>
<trkpt lat="50.34767" lon="8.75125"><ele>136</ele></trkpt>
<trkpt lat="50.34784" lon="8.75128"><ele>136</ele></trkpt>
<trkpt lat="50.34812" lon="8.75117"><ele>136</ele></trkpt>
<trkpt lat="50.34826" lon="8.75125"><ele>136</ele></trkpt>
<trkpt lat="50.34842" lon="8.75142"><ele>136</ele></trkpt>
<trkpt lat="50.34857" lon="8.75145"><ele>136</ele></trkpt>
<trkpt lat="50.34891" lon="8.75126"><ele>137</ele></trkpt>
<trkpt lat="50.34899" lon="8.75109"><ele>137</ele></trkpt>
<trkpt lat="50.34905" lon="8.75072"><ele>136</ele></trkpt>
<trkpt lat="50.34914" lon="8.75057"><ele>137</ele></trkpt>
<trkpt lat="50.34936" lon="8.75043"><ele>136</ele></trkpt>
<trkpt lat="50.35071" lon="8.74987"><ele>137</ele></trkpt>
<trkpt lat="50.35096" lon="8.74981"><ele>137</ele></trkpt>
<trkpt lat="50.35438" lon="8.74943"><ele>138</ele></trkpt>
<trkpt lat="50.35457" lon="8.74936"><ele>138</ele></trkpt>
<trkpt lat="50.35493" lon="8.74904"><ele>138</ele></trkpt>
<trkpt lat="50.35631" lon="8.74755"><ele>138</ele></trkpt>
<trkpt lat="50.35643" lon="8.74730"><ele>139</ele></trkpt>
<trkpt lat="50.35699" lon="8.74573"><ele>139</ele></trkpt>
<trkpt lat="50.35717" lon="8.74537"><ele>139</ele></trkpt>
<trkpt lat="50.35749" lon="8.74486"><ele>140</ele></trkpt>
<trkpt lat="50.35784" lon="8.74452"><ele>140</ele></trkpt>
<trkpt lat="50.35789" lon="8.74440"><ele>140</ele></trkpt>
<trkpt lat="50.35795" lon="8.74439"><ele>140</ele></trkpt>
<trkpt lat="50.35795" lon="8.74482"><ele>140</ele></trkpt>
<trkpt lat="50.35802" lon="8.74489"><ele>140</ele></trkpt>
<trkpt lat="50.35848" lon="8.74462"><ele>140</ele></trkpt>
<trkpt lat="50.36071" lon="8.74227"><ele>141</ele></trkpt>
<trkpt lat="50.36092" lon="8.74216"><ele>142</ele></trkpt>
<trkpt lat="50.36116" lon="8.74212"><ele>142</ele></trkpt>
<trkpt lat="50.36155" lon="8.74219"><ele>142</ele></trkpt>
<trkpt lat="50.36250" lon="8.74283"><ele>143</ele></trkpt>
<trkpt lat="50.36261" lon="8.74284"><ele>142</ele></trkpt>
<trkpt lat="50.36274" lon="8.74292"><ele>142</ele></trkpt>
<trkpt lat="50.36277" lon="8.74301"><ele>143</ele></trkpt>
<trkpt lat="50.36495" lon="8.74375"><ele>145</ele></trkpt>
<trkpt lat="50.36528" lon="8.74383"><ele>146</ele></trkpt>
<trkpt lat="50.36542" lon="8.74376"><ele>146</ele></trkpt>
<trkpt lat="50.36548" lon="8.74407"><ele>146</ele></trkpt>
<trkpt lat="50.36560" lon="8.74438"><ele>146</ele></trkpt>
<trkpt lat="50.36582" lon="8.74479"><ele>146</ele></trkpt>
<trkpt lat="50.36599" lon="8.74499"><ele>146</ele></trkpt>
<trkpt lat="50.36653" lon="8.74532"><ele>147</ele></trkpt>
<trkpt lat="50.36675" lon="8.74537"><ele>147</ele></trkpt>
<trkpt lat="50.36713" lon="8.74537"><ele>147</ele></trkpt>
<trkpt lat="50.36762" lon="8.74529"><ele>148</ele></trkpt>
<trkpt lat="50.36809" lon="8.74497"><ele>147</ele></trkpt>
<trkpt lat="50.36856" lon="8.74432"><ele>146</ele></trkpt>
<trkpt lat="50.36881" lon="8.74379"><ele>146</ele></trkpt>
<trkpt lat="50.36922" lon="8.74443"><ele>147</ele></trkpt>
<trkpt lat="50.37076" lon="8.74316"><ele>148</ele></trkpt>
<trkpt lat="50.37082" lon="8.74318"><ele>148</ele></trkpt>
<trkpt lat="50.37092" lon="8.74354"><ele>148</ele></trkpt>
<trkpt lat="50.37100" lon="8.74358"><ele>148</ele></trkpt>
<trkpt lat="50.37127" lon="8.74347"><ele>148</ele></trkpt>
<trkpt lat="50.37181" lon="8.74307"><ele>148</ele></trkpt>
<trkpt lat="50.37256" lon="8.74244"><ele>148</ele></trkpt>
<trkpt lat="50.37317" lon="8.74185"><ele>149</ele></trkpt>
<trkpt lat="50.37443" lon="8.74054"><ele>150</ele></trkpt>
<trkpt lat="50.37471" lon="8.74044"><ele>148</ele></trkpt>
<trkpt lat="50.37513" lon="8.74042"><ele>149</ele></trkpt>
<trkpt lat="50.37531" lon="8.74020"><ele>149</ele></trkpt>
<trkpt lat="50.37539" lon="8.74038"><ele>150</ele></trkpt>
<trkpt lat="50.37707" lon="8.74277"><ele>160</ele></trkpt>
<trkpt lat="50.37755" lon="8.74404"><ele>164</ele></trkpt>
<trkpt lat="50.37774" lon="8.74443"><ele>166</ele></trkpt>
<trkpt lat="50.37804" lon="8.74478"><ele>168</ele></trkpt>
<trkpt lat="50.37869" lon="8.74536"><ele>171</ele></trkpt>
<trkpt lat="50.37888" lon="8.74612"><ele>174</ele></trkpt>
<trkpt lat="50.37917" lon="8.74595"><ele>174</ele></trkpt>
<trkpt lat="50.37941" lon="8.74588"><ele>175</ele></trkpt>
<trkpt lat="50.37984" lon="8.74603"><ele>176</ele></trkpt>
<trkpt lat="50.38059" lon="8.74606"><ele>178</ele></trkpt>
<trkpt lat="50.38074" lon="8.74612"><ele>180</ele></trkpt>
<trkpt lat="50.38112" lon="8.74610"><ele>180</ele></trkpt>
<trkpt lat="50.38119" lon="8.74602"><ele>180</ele></trkpt>
<trkpt lat="50.38247" lon="8.74591"><ele>178</ele></trkpt>
<trkpt lat="50.38531" lon="8.74608"><ele>165</ele></trkpt>
<trkpt lat="50.38674" lon="8.74645"><ele>160</ele></trkpt>
<trkpt lat="50.38861" lon="8.74704"><ele>148</ele></trkpt>
<trkpt lat="50.38885" lon="8.74704"><ele>148</ele></trkpt>
<trkpt lat="50.39015" lon="8.74676"><ele>144</ele></trkpt>
<trkpt lat="50.39094" lon="8.74689"><ele>144</ele></trkpt>
<trkpt lat="50.39117" lon="8.74695"><ele>145</ele></trkpt>
<trkpt lat="50.39185" lon="8.74734"><ele>142</ele></trkpt>
<trkpt lat="50.39215" lon="8.74745"><ele>141</ele></trkpt>
<trkpt lat="50.39229" lon="8.74744"><ele>141</ele></trkpt>
<trkpt lat="50.39256" lon="8.74732"><ele>140</ele></trkpt>
<trkpt lat="50.39450" lon="8.74635"><ele>140</ele></trkpt>
<trkpt lat="50.39464" lon="8.74634"><ele>139</ele></trkpt>
<trkpt lat="50.39489" lon="8.74641"><ele>139</ele></trkpt>
<trkpt lat="50.39497" lon="8.74640"><ele>139</ele></trkpt>
<trkpt lat="50.39560" lon="8.74708"><ele>138</ele></trkpt>
<trkpt lat="50.39623" lon="8.74748"><ele>139</ele></trkpt>
<trkpt lat="50.39644" lon="8.74766"><ele>139</ele></trkpt>
<trkpt lat="50.39691" lon="8.74843"><ele>140</ele></trkpt>
<trkpt lat="50.39702" lon="8.74856"><ele>140</ele></trkpt>
<trkpt lat="50.39708" lon="8.74857"><ele>140</ele></trkpt>
<trkpt lat="50.39709" lon="8.74873"><ele>140</ele></trkpt>
<trkpt lat="50.39720" lon="8.74896"><ele>141</ele></trkpt>
<trkpt lat="50.39813" lon="8.75047"><ele>146</ele></trkpt>
<trkpt lat="50.39817" lon="8.75047"><ele>146</ele></trkpt>
<trkpt lat="50.39825" lon="8.75044"><ele>146</ele></trkpt>
<trkpt lat="50.39895" lon="8.74960"><ele>149</ele></trkpt>
<trkpt lat="50.40005" lon="8.74786"><ele>150</ele></trkpt>
<trkpt lat="50.39999" lon="8.74754"><ele>150</ele></trkpt>
<trkpt lat="50.40000" lon="8.74732"><ele>149</ele></trkpt>
<trkpt lat="50.40126" lon="8.74349"><ele>149</ele></trkpt>
<trkpt lat="50.40138" lon="8.74188"><ele>146</ele></trkpt>
<trkpt lat="50.40138" lon="8.74174"><ele>146</ele></trkpt>
<trkpt lat="50.40133" lon="8.74157"><ele>145</ele></trkpt>
<trkpt lat="50.40141" lon="8.74137"><ele>145</ele></trkpt>
<trkpt lat="50.40148" lon="8.74111"><ele>144</ele></trkpt>
<trkpt lat="50.40160" lon="8.73968"><ele>141</ele></trkpt>
<trkpt lat="50.40168" lon="8.73954"><ele>141</ele></trkpt>
<trkpt lat="50.40222" lon="8.73912"><ele>141</ele></trkpt>
<trkpt lat="50.40238" lon="8.73909"><ele>140</ele></trkpt>
<trkpt lat="50.40249" lon="8.73912"><ele>140</ele></trkpt>
<trkpt lat="50.40271" lon="8.73928"><ele>141</ele></trkpt>
<trkpt lat="50.40359" lon="8.74013"><ele>140</ele></trkpt>
<trkpt lat="50.40364" lon="8.74011"><ele>140</ele></trkpt>
<trkpt lat="50.40420" lon="8.74100"><ele>139</ele></trkpt>
<trkpt lat="50.40465" lon="8.74195"><ele>140</ele></trkpt>
<trkpt lat="50.40495" lon="8.74251"><ele>140</ele></trkpt>
<trkpt lat="50.40521" lon="8.74286"><ele>140</ele></trkpt>
<trkpt lat="50.40562" lon="8.74334"><ele>140</ele></trkpt>
<trkpt lat="50.40619" lon="8.74376"><ele>140</ele></trkpt>
<trkpt lat="50.40663" lon="8.74393"><ele>140</ele></trkpt>
<trkpt lat="50.40700" lon="8.74400"><ele>140</ele></trkpt>
<trkpt lat="50.41185" lon="8.74411"><ele>142</ele></trkpt>
<trkpt lat="50.41252" lon="8.74420"><ele>141</ele></trkpt>
<trkpt lat="50.41305" lon="8.74436"><ele>142</ele></trkpt>
<trkpt lat="50.41420" lon="8.74481"><ele>142</ele></trkpt>
<trkpt lat="50.41444" lon="8.74486"><ele>142</ele></trkpt>
<trkpt lat="50.41449" lon="8.74495"><ele>143</ele></trkpt>
<trkpt lat="50.41458" lon="8.74492"><ele>143</ele></trkpt>
<trkpt lat="50.41491" lon="8.74467"><ele>142</ele></trkpt>
<trkpt lat="50.41506" lon="8.74442"><ele>142</ele></trkpt>
<trkpt lat="50.41601" lon="8.74122"><ele>142</ele></trkpt>
<trkpt lat="50.41642" lon="8.73945"><ele>141</ele></trkpt>
<trkpt lat="50.41653" lon="8.73922"><ele>141</ele></trkpt>
<trkpt lat="50.41668" lon="8.73910"><ele>142</ele></trkpt>
<trkpt lat="50.41699" lon="8.73899"><ele>142</ele></trkpt>
<trkpt lat="50.41714" lon="8.73898"><ele>143</ele></trkpt>
<trkpt lat="50.41846" lon="8.73942"><ele>145</ele></trkpt>
<trkpt lat="50.41898" lon="8.73966"><ele>145</ele></trkpt>
<trkpt lat="50.41918" lon="8.73960"><ele>144</ele></trkpt>
<trkpt lat="50.41949" lon="8.73975"><ele>144</ele></trkpt>
<trkpt lat="50.41974" lon="8.73980"><ele>144</ele></trkpt>
<trkpt lat="50.42114" lon="8.73987"><ele>146</ele></trkpt>
<trkpt lat="50.42114" lon="8.73996"><ele>146</ele></trkpt>
<trkpt lat="50.42247" lon="8.74000"><ele>147</ele></trkpt>
<trkpt lat="50.42315" lon="8.73994"><ele>147</ele></trkpt>
<trkpt lat="50.42337" lon="8.73998"><ele>147</ele></trkpt>
<trkpt lat="50.42342" lon="8.74007"><ele>147</ele></trkpt>
<trkpt lat="50.42350" lon="8.74009"><ele>147</ele></trkpt>
<trkpt lat="50.42365" lon="8.73991"><ele>147</ele></trkpt>
<trkpt lat="50.42381" lon="8.73982"><ele>147</ele></trkpt>
<trkpt lat="50.42454" lon="8.73970"><ele>148</ele></trkpt>
<trkpt lat="50.42475" lon="8.73970"><ele>148</ele></trkpt>
<trkpt lat="50.42581" lon="8.73989"><ele>148</ele></trkpt>
<trkpt lat="50.42633" lon="8.73983"><ele>146</ele></trkpt>
<trkpt lat="50.42680" lon="8.73964"><ele>144</ele></trkpt>
<trkpt lat="50.42818" lon="8.73866"><ele>148</ele></trkpt>
<trkpt lat="50.42822" lon="8.73850"><ele>148</ele></trkpt>
<trkpt lat="50.42821" lon="8.73825"><ele>148</ele></trkpt>
<trkpt lat="50.42806" lon="8.73725"><ele>147</ele></trkpt>
<trkpt lat="50.42806" lon="8.73699"><ele>146</ele></trkpt>
<trkpt lat="50.42813" lon="8.73683"><ele>146</ele></trkpt>
<trkpt lat="50.42825" lon="8.73672"><ele>147</ele></trkpt>
<trkpt lat="50.42895" lon="8.73635"><ele>151</ele></trkpt>
<trkpt lat="50.42926" lon="8.73604"><ele>152</ele></trkpt>
<trkpt lat="50.43001" lon="8.73506"><ele>153</ele></trkpt>
<trkpt lat="50.43016" lon="8.73492"><ele>154</ele></trkpt>
<trkpt lat="50.43026" lon="8.73494"><ele>155</ele></trkpt>
<trkpt lat="50.43044" lon="8.73517"><ele>156</ele></trkpt>
<trkpt lat="50.43072" lon="8.73519"><ele>158</ele></trkpt>
<trkpt lat="50.43091" lon="8.73474"><ele>158</ele></trkpt>
<trkpt lat="50.43143" lon="8.73406"><ele>156</ele></trkpt>
<trkpt lat="50.43202" lon="8.73320"><ele>150</ele></trkpt>
<trkpt lat="50.43399" lon="8.73303"><ele>152</ele></trkpt>
<trkpt lat="50.43433" lon="8.73285"><ele>151</ele></trkpt>
<trkpt lat="50.43553" lon="8.73281"><ele>154</ele></trkpt>
<trkpt lat="50.43794" lon="8.73218"><ele>151</ele></trkpt>
<trkpt lat="50.43819" lon="8.73219"><ele>149</ele></trkpt>
<trkpt lat="50.43832" lon="8.73232"><ele>148</ele></trkpt>
<trkpt lat="50.43902" lon="8.73391"><ele>148</ele></trkpt>
<trkpt lat="50.43984" lon="8.73535"><ele>149</ele></trkpt>
<trkpt lat="50.44063" lon="8.73662"><ele>154</ele></trkpt>
<trkpt lat="50.44087" lon="8.73691"><ele>155</ele></trkpt>
<trkpt lat="50.44118" lon="8.73719"><ele>158</ele></trkpt>
<trkpt lat="50.44140" lon="8.73724"><ele>160</ele></trkpt>
<trkpt lat="50.44186" lon="8.73691"><ele>162</ele></trkpt>
<trkpt lat="50.44211" lon="8.73682"><ele>164</ele></trkpt>
<trkpt lat="50.44232" lon="8.73697"><ele>164</ele></trkpt>
<trkpt lat="50.44249" lon="8.73716"><ele>164</ele></trkpt>
<trkpt lat="50.44263" lon="8.73751"><ele>165</ele></trkpt>
<trkpt lat="50.44280" lon="8.73885"><ele>168</ele></trkpt>
<trkpt lat="50.44293" lon="8.73945"><ele>168</ele></trkpt>
<trkpt lat="50.44495" lon="8.73806"><ele>177</ele></trkpt>
<trkpt lat="50.44674" lon="8.73663"><ele>175</ele></trkpt>
<trkpt lat="50.44824" lon="8.73506"><ele>169</ele></trkpt>
<trkpt lat="50.45148" lon="8.73133"><ele>154</ele></trkpt>
<trkpt lat="50.45230" lon="8.73094"><ele>151</ele></trkpt>
<trkpt lat="50.45236" lon="8.73083"><ele>151</ele></trkpt>
<trkpt lat="50.45237" lon="8.73060"><ele>151</ele></trkpt>
<trkpt lat="50.45275" lon="8.73051"><ele>148</ele></trkpt>
<trkpt lat="50.45311" lon="8.73051"><ele>149</ele></trkpt>
<trkpt lat="50.45409" lon="8.73014"><ele>148</ele></trkpt>
<trkpt lat="50.45430" lon="8.73013"><ele>148</ele></trkpt>
<trkpt lat="50.45476" lon="8.73023"><ele>149</ele></trkpt>
<trkpt lat="50.45568" lon="8.72982"><ele>153</ele></trkpt>
<trkpt lat="50.45660" lon="8.72922"><ele>157</ele></trkpt>
<trkpt lat="50.45680" lon="8.72902"><ele>158</ele></trkpt>
<trkpt lat="50.45807" lon="8.72697"><ele>164</ele></trkpt>
<trkpt lat="50.45870" lon="8.72819"><ele>160</ele></trkpt>
<trkpt lat="50.45925" lon="8.72758"><ele>160</ele></trkpt>
<trkpt lat="50.45958" lon="8.72740"><ele>161</ele></trkpt>
<trkpt lat="50.45969" lon="8.72779"><ele>160</ele></trkpt>
<trkpt lat="50.45986" lon="8.72806"><ele>160</ele></trkpt>
<trkpt lat="50.46008" lon="8.72819"><ele>160</ele></trkpt>
<trkpt lat="50.46025" lon="8.72822"><ele>160</ele></trkpt>
<trkpt lat="50.46030" lon="8.72850"><ele>160</ele></trkpt>
<trkpt lat="50.46032" lon="8.72876"><ele>160</ele></trkpt>
<trkpt lat="50.46133" lon="8.72856"><ele>162</ele></trkpt>
<trkpt lat="50.46211" lon="8.72832"><ele>164</ele></trkpt>
<trkpt lat="50.46238" lon="8.72818"><ele>164</ele></trkpt>
<trkpt lat="50.46247" lon="8.72841"><ele>164</ele></trkpt>
<trkpt lat="50.46263" lon="8.72899"><ele>166</ele></trkpt>
<trkpt lat="50.46281" lon="8.72979"><ele>169</ele></trkpt>
<trkpt lat="50.46295" lon="8.72978"><ele>170</ele></trkpt>
<trkpt lat="50.46307" lon="8.72984"><ele>170</ele></trkpt>
<trkpt lat="50.46331" lon="8.72964"><ele>170</ele></trkpt>
<trkpt lat="50.46344" lon="8.72944"><ele>170</ele></trkpt>
<trkpt lat="50.46368" lon="8.72878"><ele>172</ele></trkpt>
<trkpt lat="50.46391" lon="8.72851"><ele>172</ele></trkpt>
<trkpt lat="50.46435" lon="8.72516"><ele>175</ele></trkpt>
<trkpt lat="50.46460" lon="8.72383"><ele>177</ele></trkpt>
<trkpt lat="50.46468" lon="8.72316"><ele>178</ele></trkpt>
<trkpt lat="50.46476" lon="8.72279"><ele>178</ele></trkpt>
<trkpt lat="50.46496" lon="8.72227"><ele>181</ele></trkpt>
<trkpt lat="50.46549" lon="8.72149"><ele>181</ele></trkpt>
<trkpt lat="50.46606" lon="8.72177"><ele>186</ele></trkpt>
<trkpt lat="50.46650" lon="8.72185"><ele>189</ele></trkpt>
<trkpt lat="50.46823" lon="8.72238"><ele>196</ele></trkpt>
<trkpt lat="50.47001" lon="8.72266"><ele>204</ele></trkpt>
<trkpt lat="50.47041" lon="8.72269"><ele>207</ele></trkpt>
<trkpt lat="50.47135" lon="8.72265"><ele>209</ele></trkpt>
<trkpt lat="50.47219" lon="8.72246"><ele>211</ele></trkpt>
<trkpt lat="50.47305" lon="8.72211"><ele>211</ele></trkpt>
<trkpt lat="50.47346" lon="8.72184"><ele>212</ele></trkpt>
<trkpt lat="50.47458" lon="8.72092"><ele>211</ele></trkpt>
<trkpt lat="50.47498" lon="8.72052"><ele>211</ele></trkpt>
<trkpt lat="50.47567" lon="8.71964"><ele>210</ele></trkpt>
<trkpt lat="50.47598" lon="8.71914"><ele>210</ele></trkpt>
<trkpt lat="50.47655" lon="8.71810"><ele>212</ele></trkpt>
<trkpt lat="50.47709" lon="8.71690"><ele>213</ele></trkpt>
<trkpt lat="50.47792" lon="8.71458"><ele>214</ele></trkpt>
<trkpt lat="50.47833" lon="8.71308"><ele>214</ele></trkpt>
<trkpt lat="50.47844" lon="8.71257"><ele>214</ele></trkpt>
<trkpt lat="50.47860" lon="8.71154"><ele>209</ele></trkpt>
<trkpt lat="50.47866" lon="8.71069"><ele>205</ele></trkpt>
<trkpt lat="50.47885" lon="8.70979"><ele>206</ele></trkpt>
<trkpt lat="50.47890" lon="8.70935"><ele>206</ele></trkpt>
<trkpt lat="50.47911" lon="8.70870"><ele>210</ele></trkpt>
<trkpt lat="50.48088" lon="8.71132"><ele>215</ele></trkpt>
<trkpt lat="50.48117" lon="8.71147"><ele>216</ele></trkpt>
<trkpt lat="50.48360" lon="8.71218"><ele>225</ele></trkpt>
<trkpt lat="50.48471" lon="8.71448"><ele>230</ele></trkpt>
<trkpt lat="50.48498" lon="8.71529"><ele>232</ele></trkpt>
<trkpt lat="50.48546" lon="8.71694"><ele>234</ele></trkpt>
<trkpt lat="50.48570" lon="8.71736"><ele>234</ele></trkpt>
<trkpt lat="50.48619" lon="8.71774"><ele>235</ele></trkpt>
<trkpt lat="50.48633" lon="8.71792"><ele>235</ele></trkpt>
<trkpt lat="50.48649" lon="8.71820"><ele>235</ele></trkpt>
<trkpt lat="50.48727" lon="8.71724"><ele>238</ele></trkpt>
<trkpt lat="50.48734" lon="8.71730"><ele>238</ele></trkpt>
<trkpt lat="50.48758" lon="8.71775"><ele>236</ele></trkpt>
<trkpt lat="50.48849" lon="8.71621"><ele>240</ele></trkpt>
<trkpt lat="50.48861" lon="8.71630"><ele>240</ele></trkpt>
<trkpt lat="50.48921" lon="8.71512"><ele>246</ele></trkpt>
<trkpt lat="50.48993" lon="8.71356"><ele>252</ele></trkpt>
<trkpt lat="50.49072" lon="8.71041"><ele>260</ele></trkpt>
<trkpt lat="50.49126" lon="8.70917"><ele>264</ele></trkpt>
<trkpt lat="50.49209" lon="8.70752"><ele>263</ele></trkpt>
<trkpt lat="50.49276" lon="8.70633"><ele>260</ele></trkpt>
<trkpt lat="50.49311" lon="8.70589"><ele>261</ele></trkpt>
<trkpt lat="50.49352" lon="8.70542"><ele>263</ele></trkpt>
<trkpt lat="50.49429" lon="8.70478"><ele>264</ele></trkpt>
<trkpt lat="50.49523" lon="8.70391"><ele>258</ele></trkpt>
<trkpt lat="50.49610" lon="8.70278"><ele>253</ele></trkpt>
<trkpt lat="50.49663" lon="8.70185"><ele>251</ele></trkpt>
<trkpt lat="50.49747" lon="8.69994"><ele>249</ele></trkpt>
<trkpt lat="50.49780" lon="8.69908"><ele>248</ele></trkpt>
<trkpt lat="50.49797" lon="8.69846"><ele>247</ele></trkpt>
<trkpt lat="50.49817" lon="8.69750"><ele>246</ele></trkpt>
<trkpt lat="50.49842" lon="8.69779"><ele>245</ele></trkpt>
<trkpt lat="50.49922" lon="8.69842"><ele>243</ele></trkpt>
<trkpt lat="50.49995" lon="8.69893"><ele>247</ele></trkpt>
<trkpt lat="50.50312" lon="8.70160"><ele>268</ele></trkpt>
<trkpt lat="50.50446" lon="8.70260"><ele>269</ele></trkpt>
<trkpt lat="50.50717" lon="8.70483"><ele>266</ele></trkpt>
<trkpt lat="50.50852" lon="8.70195"><ele>263</ele></trkpt>
<trkpt lat="50.50811" lon="8.69791"><ele>254</ele></trkpt>
<trkpt lat="50.50795" lon="8.69664"><ele>252</ele></trkpt>
<trkpt lat="50.50784" lon="8.69619"><ele>251</ele></trkpt>
<trkpt lat="50.50780" lon="8.69556"><ele>250</ele></trkpt>
<trkpt lat="50.50801" lon="8.69543"><ele>250</ele></trkpt>
<trkpt lat="50.50816" lon="8.69525"><ele>250</ele></trkpt>
<trkpt lat="50.50845" lon="8.69473"><ele>249</ele></trkpt>
<trkpt lat="50.50971" lon="8.69080"><ele>238</ele></trkpt>
<trkpt lat="50.51017" lon="8.68953"><ele>233</ele></trkpt>
<trkpt lat="50.51074" lon="8.68961"><ele>234</ele></trkpt>
<trkpt lat="50.51174" lon="8.68947"><ele>235</ele></trkpt>
<trkpt lat="50.51188" lon="8.68921"><ele>233</ele></trkpt>
<trkpt lat="50.51649" lon="8.68694"><ele>223</ele></trkpt>
<trkpt lat="50.51582" lon="8.68193"><ele>203</ele></trkpt>
<trkpt lat="50.51635" lon="8.68167"><ele>201</ele></trkpt>
<trkpt lat="50.51809" lon="8.67962"><ele>197</ele></trkpt>
<trkpt lat="50.51863" lon="8.67851"><ele>195</ele></trkpt>
<trkpt lat="50.51886" lon="8.67798"><ele>194</ele></trkpt>
<trkpt lat="50.51973" lon="8.67694"><ele>193</ele></trkpt>
<trkpt lat="50.51986" lon="8.67684"><ele>192</ele></trkpt>
<trkpt lat="50.52018" lon="8.67668"><ele>192</ele></trkpt>
<trkpt lat="50.52032" lon="8.67641"><ele>193</ele></trkpt>
<trkpt lat="50.52248" lon="8.67654"><ele>187</ele></trkpt>
<trkpt lat="50.52324" lon="8.67651"><ele>185</ele></trkpt>
<trkpt lat="50.52411" lon="8.67633"><ele>182</ele></trkpt>
<trkpt lat="50.52412" lon="8.67645"><ele>182</ele></trkpt>
<trkpt lat="50.52530" lon="8.67628"><ele>179</ele></trkpt>
<trkpt lat="50.52609" lon="8.67601"><ele>176</ele></trkpt>
<trkpt lat="50.52691" lon="8.67598"><ele>176</ele></trkpt>
<trkpt lat="50.52824" lon="8.67561"><ele>175</ele></trkpt>
<trkpt lat="50.52896" lon="8.67499"><ele>174</ele></trkpt>
<trkpt lat="50.52939" lon="8.67485"><ele>173</ele></trkpt>
<trkpt lat="50.52987" lon="8.67714"><ele>174</ele></trkpt>
<trkpt lat="50.53009" lon="8.67714"><ele>174</ele></trkpt>
<trkpt lat="50.53065" lon="8.67690"><ele>172</ele></trkpt>
<trkpt lat="50.53063" lon="8.67679"><ele>173</ele></trkpt>
<trkpt lat="50.53168" lon="8.67634"><ele>171</ele></trkpt>
<trkpt lat="50.53174" lon="8.67627"><ele>171</ele></trkpt>
<trkpt lat="50.53175" lon="8.67614"><ele>170</ele></trkpt>
<trkpt lat="50.53190" lon="8.67604"><ele>170</ele></trkpt>
<trkpt lat="50.53211" lon="8.67617"><ele>170</ele></trkpt>
<trkpt lat="50.53462" lon="8.67511"><ele>167</ele></trkpt>
<trkpt lat="50.53618" lon="8.67463"><ele>166</ele></trkpt>
<trkpt lat="50.53649" lon="8.67455"><ele>166</ele></trkpt>
<trkpt lat="50.53653" lon="8.67468"><ele>166</ele></trkpt>
<trkpt lat="50.53895" lon="8.67418"><ele>168</ele></trkpt>
<trkpt lat="50.53910" lon="8.67428"><ele>168</ele></trkpt>
<trkpt lat="50.54029" lon="8.67403"><ele>170</ele></trkpt>
<trkpt lat="50.54054" lon="8.67402"><ele>170</ele></trkpt>
<trkpt lat="50.54099" lon="8.67408"><ele>172</ele></trkpt>
<trkpt lat="50.54124" lon="8.67413"><ele>172</ele></trkpt>
<trkpt lat="50.54218" lon="8.67459"><ele>176</ele></trkpt>
<trkpt lat="50.54680" lon="8.67721"><ele>179</ele></trkpt>
<trkpt lat="50.54964" lon="8.67890"><ele>186</ele></trkpt>
<trkpt lat="50.55476" lon="8.68182"><ele>198</ele></trkpt>
<trkpt lat="50.55529" lon="8.68200"><ele>198</ele></trkpt>
<trkpt lat="50.55601" lon="8.68211"><ele>196</ele></trkpt>
<trkpt lat="50.55696" lon="8.68201"><ele>192</ele></trkpt>
<trkpt lat="50.55847" lon="8.68119"><ele>188</ele></trkpt>
<trkpt lat="50.56071" lon="8.68008"><ele>189</ele></trkpt>
<trkpt lat="50.56130" lon="8.67976"><ele>187</ele></trkpt>
<trkpt lat="50.56135" lon="8.67970"><ele>187</ele></trkpt>
<trkpt lat="50.56128" lon="8.67961"><ele>187</ele></trkpt>
<trkpt lat="50.56354" lon="8.67845"><ele>178</ele></trkpt>
<trkpt lat="50.56521" lon="8.67753"><ele>182</ele></trkpt>
<trkpt lat="50.56954" lon="8.67572"><ele>185</ele></trkpt>
<trkpt lat="50.56972" lon="8.67569"><ele>185</ele></trkpt>
<trkpt lat="50.57016" lon="8.67546"><ele>184</ele></trkpt>
<trkpt lat="50.57026" lon="8.67533"><ele>184</ele></trkpt>
<trkpt lat="50.57248" lon="8.67390"><ele>185</ele></trkpt>
<trkpt lat="50.57270" lon="8.67371"><ele>186</ele></trkpt>
<trkpt lat="50.57323" lon="8.67311"><ele>188</ele></trkpt>
<trkpt lat="50.57394" lon="8.67214"><ele>190</ele></trkpt>
<trkpt lat="50.57490" lon="8.67107"><ele>187</ele></trkpt>
<trkpt lat="50.57507" lon="8.67092"><ele>186</ele></trkpt>
<trkpt lat="50.57619" lon="8.67035"><ele>179</ele></trkpt>
<trkpt lat="50.57639" lon="8.67016"><ele>178</ele></trkpt>
<trkpt lat="50.57657" lon="8.66988"><ele>178</ele></trkpt>
<trkpt lat="50.57689" lon="8.66971"><ele>177</ele></trkpt>
<trkpt lat="50.57781" lon="8.66939"><ele>175</ele></trkpt>
<trkpt lat="50.57800" lon="8.66969"><ele>174</ele></trkpt>
<trkpt lat="50.57909" lon="8.66755"><ele>172</ele></trkpt>
<trkpt lat="50.57992" lon="8.66866"><ele>167</ele></trkpt>
<trkpt lat="50.57997" lon="8.66849"><ele>167</ele></trkpt>
<trkpt lat="50.57997" lon="8.66805"><ele>167</ele></trkpt>
<trkpt lat="50.58021" lon="8.66803"><ele>166</ele></trkpt>
<trkpt lat="50.58028" lon="8.66795"><ele>166</ele></trkpt>
<trkpt lat="50.58100" lon="8.66659"><ele>168</ele></trkpt>
<trkpt lat="50.58136" lon="8.66586"><ele>167</ele></trkpt>
<trkpt lat="50.58138" lon="8.66573"><ele>167</ele></trkpt>
<trkpt lat="50.58149" lon="8.66579"><ele>166</ele></trkpt>
<trkpt lat="50.58186" lon="8.66623"><ele>164</ele></trkpt>
<trkpt lat="50.58374" lon="8.66856"><ele>159</ele></trkpt>
<trkpt lat="50.58382" lon="8.66872"><ele>159</ele></trkpt>
<trkpt lat="50.58461" lon="8.67083"><ele>157</ele></trkpt>
<trkpt lat="50.58523" lon="8.67223"><ele>157</ele></trkpt>
<trkpt lat="50.58542" lon="8.67256"><ele>157</ele></trkpt>
<trkpt lat="50.58588" lon="8.67283"><ele>158</ele></trkpt>
<trkpt lat="50.58593" lon="8.67330"><ele>158</ele></trkpt>
<trkpt lat="50.58609" lon="8.67385"><ele>158</ele></trkpt>
<trkpt lat="50.58628" lon="8.67425"><ele>158</ele></trkpt>
<trkpt lat="50.58667" lon="8.67476"><ele>159</ele></trkpt>
<trkpt lat="50.58681" lon="8.67473"><ele>159</ele></trkpt>
<trkpt lat="50.58719" lon="8.67486"><ele>159</ele></trkpt>
<trkpt lat="50.58784" lon="8.67514"><ele>158</ele></trkpt>
<trkpt lat="50.58819" lon="8.67533"><ele>158</ele></trkpt>
<trkpt lat="50.58837" lon="8.67556"><ele>158</ele></trkpt>
<trkpt lat="50.58859" lon="8.67604"><ele>158</ele></trkpt>
<trkpt lat="50.58978" lon="8.67793"><ele>159</ele></trkpt>
<trkpt lat="50.58992" lon="8.67823"><ele>159</ele></trkpt>
<trkpt lat="50.59006" lon="8.67873"><ele>160</ele></trkpt>
<trkpt lat="50.59036" lon="8.67871"><ele>160</ele></trkpt>
<trkpt lat="50.59154" lon="8.67917"><ele>159</ele></trkpt>
<trkpt lat="50.59224" lon="8.67960"><ele>159</ele></trkpt>
<trkpt lat="50.59281" lon="8.68003"><ele>159</ele></trkpt>
<trkpt lat="50.59353" lon="8.68065"><ele>159</ele></trkpt>
<trkpt lat="50.59466" lon="8.68170"><ele>160</ele></trkpt>
<trkpt lat="50.59570" lon="8.68258"><ele>162</ele></trkpt>
<trkpt lat="50.59580" lon="8.68275"><ele>162</ele></trkpt>
<trkpt lat="50.59772" lon="8.68446"><ele>169</ele></trkpt>
<trkpt lat="50.59924" lon="8.68592"><ele>175</ele></trkpt>
<trkpt lat="50.60060" lon="8.68710"><ele>180</ele></trkpt>
<trkpt lat="50.60090" lon="8.68766"><ele>180</ele></trkpt>
<trkpt lat="50.60195" lon="8.68940"><ele>184</ele></trkpt>
<trkpt lat="50.60229" lon="8.69007"><ele>185</ele></trkpt>
<trkpt lat="50.60565" lon="8.69539"><ele>187</ele></trkpt>
<trkpt lat="50.60631" lon="8.69643"><ele>188</ele></trkpt>
<trkpt lat="50.60641" lon="8.69626"><ele>189</ele></trkpt>
<trkpt lat="50.60724" lon="8.69759"><ele>190</ele></trkpt>
<trkpt lat="50.60744" lon="8.69767"><ele>190</ele></trkpt>
<trkpt lat="50.60797" lon="8.69853"><ele>192</ele></trkpt>
<trkpt lat="50.60810" lon="8.69863"><ele>192</ele></trkpt>
<trkpt lat="50.60813" lon="8.69897"><ele>192</ele></trkpt>
<trkpt lat="50.60825" lon="8.69913"><ele>192</ele></trkpt>
<trkpt lat="50.61068" lon="8.70117"><ele>196</ele></trkpt>
<trkpt lat="50.61080" lon="8.70117"><ele>196</ele></trkpt>
<trkpt lat="50.61097" lon="8.70129"><ele>197</ele></trkpt>
<trkpt lat="50.61100" lon="8.70139"><ele>197</ele></trkpt>
<trkpt lat="50.61230" lon="8.70250"><ele>197</ele></trkpt>
<trkpt lat="50.61243" lon="8.70252"><ele>198</ele></trkpt>
<trkpt lat="50.61291" lon="8.70278"><ele>197</ele></trkpt>
<trkpt lat="50.61299" lon="8.70268"><ele>198</ele></trkpt>
<trkpt lat="50.61312" lon="8.70282"><ele>198</ele></trkpt>
<trkpt lat="50.61380" lon="8.70317"><ele>197</ele></trkpt>
<trkpt lat="50.61672" lon="8.70428"><ele>196</ele></trkpt>
<trkpt lat="50.61747" lon="8.70462"><ele>194</ele></trkpt>
<trkpt lat="50.61951" lon="8.70536"><ele>192</ele></trkpt>
<trkpt lat="50.61982" lon="8.70558"><ele>192</ele></trkpt>
<trkpt lat="50.62117" lon="8.70605"><ele>192</ele></trkpt>
<trkpt lat="50.62401" lon="8.70680"><ele>196</ele></trkpt>
<trkpt lat="50.62403" lon="8.70676"><ele>197</ele></trkpt>
<trkpt lat="50.62465" lon="8.70682"><ele>197</ele></trkpt>
<trkpt lat="50.62609" lon="8.70701"><ele>196</ele></trkpt>
<trkpt lat="50.62620" lon="8.70691"><ele>196</ele></trkpt>
<trkpt lat="50.62692" lon="8.70711"><ele>196</ele></trkpt>
<trkpt lat="50.62939" lon="8.70708"><ele>184</ele></trkpt>
<trkpt lat="50.63183" lon="8.70673"><ele>171</ele></trkpt>
<trkpt lat="50.63448" lon="8.70611"><ele>165</ele></trkpt>
<trkpt lat="50.63457" lon="8.70619"><ele>165</ele></trkpt>
<trkpt lat="50.63709" lon="8.70553"><ele>165</ele></trkpt>
<trkpt lat="50.63716" lon="8.70548"><ele>165</ele></trkpt>
<trkpt lat="50.63721" lon="8.70539"><ele>165</ele></trkpt>
<trkpt lat="50.63723" lon="8.70526"><ele>165</ele></trkpt>
<trkpt lat="50.63726" lon="8.70524"><ele>165</ele></trkpt>
<trkpt lat="50.63720" lon="8.70559"><ele>165</ele></trkpt>
<trkpt lat="50.63725" lon="8.70574"><ele>165</ele></trkpt>
<trkpt lat="50.63736" lon="8.70578"><ele>166</ele></trkpt>
<trkpt lat="50.63742" lon="8.70573"><ele>166</ele></trkpt>
<trkpt lat="50.63746" lon="8.70564"><ele>166</ele></trkpt>
<trkpt lat="50.63762" lon="8.70550"><ele>166</ele></trkpt>
<trkpt lat="50.64274" lon="8.70424"><ele>168</ele></trkpt>
<trkpt lat="50.64370" lon="8.70397"><ele>166</ele></trkpt>
<trkpt lat="50.64381" lon="8.70454"><ele>167</ele></trkpt>
<trkpt lat="50.64400" lon="8.70491"><ele>167</ele></trkpt>
<trkpt lat="50.64471" lon="8.70610"><ele>168</ele></trkpt>
<trkpt lat="50.64514" lon="8.70694"><ele>169</ele></trkpt>
<trkpt lat="50.64577" lon="8.70615"><ele>164</ele></trkpt>
<trkpt lat="50.64586" lon="8.70610"><ele>164</ele></trkpt>
<trkpt lat="50.64639" lon="8.70609"><ele>165</ele></trkpt>
<trkpt lat="50.64654" lon="8.70614"><ele>165</ele></trkpt>
<trkpt lat="50.64688" lon="8.70638"><ele>165</ele></trkpt>
<trkpt lat="50.64759" lon="8.70753"><ele>165</ele></trkpt>
<trkpt lat="50.64789" lon="8.70807"><ele>165</ele></trkpt>
<trkpt lat="50.64867" lon="8.70742"><ele>165</ele></trkpt>
<trkpt lat="50.64885" lon="8.70715"><ele>165</ele></trkpt>
<trkpt lat="50.64988" lon="8.70527"><ele>166</ele></trkpt>
<trkpt lat="50.65275" lon="8.70847"><ele>171</ele></trkpt>
<trkpt lat="50.65347" lon="8.70933"><ele>174</ele></trkpt>
<trkpt lat="50.65380" lon="8.70967"><ele>176</ele></trkpt>
<trkpt lat="50.65410" lon="8.71007"><ele>177</ele></trkpt>
<trkpt lat="50.65419" lon="8.71000"><ele>176</ele></trkpt>
<trkpt lat="50.65427" lon="8.71014"><ele>176</ele></trkpt>
<trkpt lat="50.65433" lon="8.71001"><ele>175</ele></trkpt>
<trkpt lat="50.65490" lon="8.70948"><ele>173</ele></trkpt>
<trkpt lat="50.65588" lon="8.70822"><ele>168</ele></trkpt>
<trkpt lat="50.65633" lon="8.70772"><ele>165</ele></trkpt>
<trkpt lat="50.65656" lon="8.70752"><ele>165</ele></trkpt>
<trkpt lat="50.65711" lon="8.70718"><ele>165</ele></trkpt>
<trkpt lat="50.65780" lon="8.70994"><ele>165</ele></trkpt>
<trkpt lat="50.65884" lon="8.71083"><ele>165</ele></trkpt>
<trkpt lat="50.65925" lon="8.71108"><ele>165</ele></trkpt>
<trkpt lat="50.66009" lon="8.71170"><ele>165</ele></trkpt>
<trkpt lat="50.66043" lon="8.71186"><ele>165</ele></trkpt>
<trkpt lat="50.66063" lon="8.71183"><ele>165</ele></trkpt>
<trkpt lat="50.66072" lon="8.71187"><ele>165</ele></trkpt>
<trkpt lat="50.66101" lon="8.71236"><ele>166</ele></trkpt>
<trkpt lat="50.66111" lon="8.71245"><ele>167</ele></trkpt>
<trkpt lat="50.66108" lon="8.71264"><ele>165</ele></trkpt>
<trkpt lat="50.66107" lon="8.71386"><ele>168</ele></trkpt>
<trkpt lat="50.66152" lon="8.71388"><ele>166</ele></trkpt>
<trkpt lat="50.66293" lon="8.71373"><ele>166</ele></trkpt>
<trkpt lat="50.66409" lon="8.71344"><ele>166</ele></trkpt>
<trkpt lat="50.66491" lon="8.71307"><ele>166</ele></trkpt>
<trkpt lat="50.66566" lon="8.71267"><ele>166</ele></trkpt>
<trkpt lat="50.66717" lon="8.71171"><ele>165</ele></trkpt>
<trkpt lat="50.66887" lon="8.71101"><ele>166</ele></trkpt>
<trkpt lat="50.66954" lon="8.71084"><ele>166</ele></trkpt>
<trkpt lat="50.67032" lon="8.71074"><ele>167</ele></trkpt>
<trkpt lat="50.67117" lon="8.71070"><ele>166</ele></trkpt>
<trkpt lat="50.67123" lon="8.71054"><ele>165</ele></trkpt>
<trkpt lat="50.67137" lon="8.71042"><ele>165</ele></trkpt>
<trkpt lat="50.67160" lon="8.71051"><ele>166</ele></trkpt>
<trkpt lat="50.67182" lon="8.71068"><ele>166</ele></trkpt>
<trkpt lat="50.67232" lon="8.71074"><ele>167</ele></trkpt>
<trkpt lat="50.67244" lon="8.71071"><ele>167</ele></trkpt>
<trkpt lat="50.67255" lon="8.71058"><ele>166</ele></trkpt>
<trkpt lat="50.67257" lon="8.71048"><ele>166</ele></trkpt>
<trkpt lat="50.67264" lon="8.70983"><ele>164</ele></trkpt>
<trkpt lat="50.67264" lon="8.70951"><ele>164</ele></trkpt>
<trkpt lat="50.67259" lon="8.70913"><ele>165</ele></trkpt>
<trkpt lat="50.67230" lon="8.70763"><ele>166</ele></trkpt>
<trkpt lat="50.67227" lon="8.70708"><ele>167</ele></trkpt>
<trkpt lat="50.67220" lon="8.70735"><ele>166</ele></trkpt>
<trkpt lat="50.67220" lon="8.70768"><ele>165</ele></trkpt>
<trkpt lat="50.67224" lon="8.70810"><ele>164</ele></trkpt>
<trkpt lat="50.67230" lon="8.70820"><ele>163</ele></trkpt>
<trkpt lat="50.67246" lon="8.70814"><ele>164</ele></trkpt>
<trkpt lat="50.67287" lon="8.70765"><ele>164</ele></trkpt>
<trkpt lat="50.67334" lon="8.70760"><ele>164</ele></trkpt>
<trkpt lat="50.67340" lon="8.70616"><ele>168</ele></trkpt>
<trkpt lat="50.67382" lon="8.70613"><ele>167</ele></trkpt>
<trkpt lat="50.67403" lon="8.70577"><ele>170</ele></trkpt>
<trkpt lat="50.67434" lon="8.70585"><ele>169</ele></trkpt>
<trkpt lat="50.67496" lon="8.70543"><ele>171</ele></trkpt>
<trkpt lat="50.67562" lon="8.70461"><ele>170</ele></trkpt>
<trkpt lat="50.67566" lon="8.70450"><ele>170</ele></trkpt>
<trkpt lat="50.67609" lon="8.70558"><ele>165</ele></trkpt>
<trkpt lat="50.67613" lon="8.70559"><ele>165</ele></trkpt>
<trkpt lat="50.67685" lon="8.70441"><ele>165</ele></trkpt>
<trkpt lat="50.67738" lon="8.70202"><ele>165</ele></trkpt>
<trkpt lat="50.67737" lon="8.70194"><ele>165</ele></trkpt>
<trkpt lat="50.67715" lon="8.70144"><ele>167</ele></trkpt>
<trkpt lat="50.67736" lon="8.70073"><ele>167</ele></trkpt>
<trkpt lat="50.67740" lon="8.70046"><ele>167</ele></trkpt>
<trkpt lat="50.67863" lon="8.70010"><ele>166</ele></trkpt>
<trkpt lat="50.67864" lon="8.70018"><ele>166</ele></trkpt>
<trkpt lat="50.67880" lon="8.70019"><ele>167</ele></trkpt>
<trkpt lat="50.67889" lon="8.70029"><ele>167</ele></trkpt>
<trkpt lat="50.67910" lon="8.70106"><ele>168</ele></trkpt>
<trkpt lat="50.67918" lon="8.70123"><ele>168</ele></trkpt>
<trkpt lat="50.67937" lon="8.70141"><ele>167</ele></trkpt>
<trkpt lat="50.67947" lon="8.70140"><ele>167</ele></trkpt>
<trkpt lat="50.67996" lon="8.70098"><ele>168</ele></trkpt>
<trkpt lat="50.68011" lon="8.70102"><ele>166</ele></trkpt>
<trkpt lat="50.68022" lon="8.70119"><ele>166</ele></trkpt>
<trkpt lat="50.68028" lon="8.70119"><ele>166</ele></trkpt>
<trkpt lat="50.68099" lon="8.70052"><ele>166</ele></trkpt>
<trkpt lat="50.68102" lon="8.70043"><ele>166</ele></trkpt>
<trkpt lat="50.68100" lon="8.70012"><ele>166</ele></trkpt>
<trkpt lat="50.68102" lon="8.70002"><ele>167</ele></trkpt>
<trkpt lat="50.68139" lon="8.69954"><ele>166</ele></trkpt>
<trkpt lat="50.68189" lon="8.69863"><ele>166</ele></trkpt>
<trkpt lat="50.68193" lon="8.69853"><ele>166</ele></trkpt>
<trkpt lat="50.68192" lon="8.69822"><ele>169</ele></trkpt>
<trkpt lat="50.68214" lon="8.69773"><ele>170</ele></trkpt>
<trkpt lat="50.68238" lon="8.69732"><ele>170</ele></trkpt>
<trkpt lat="50.68267" lon="8.69699"><ele>170</ele></trkpt>
<trkpt lat="50.68300" lon="8.69673"><ele>170</ele></trkpt>
<trkpt lat="50.68384" lon="8.69629"><ele>170</ele></trkpt>
<trkpt lat="50.68478" lon="8.69589"><ele>170</ele></trkpt>
<trkpt lat="50.68535" lon="8.69571"><ele>169</ele></trkpt>
<trkpt lat="50.68546" lon="8.69985"><ele>166</ele></trkpt>
<trkpt lat="50.68536" lon="8.70274"><ele>166</ele></trkpt>
<trkpt lat="50.68541" lon="8.70281"><ele>166</ele></trkpt>
<trkpt lat="50.68592" lon="8.70298"><ele>166</ele></trkpt>
<trkpt lat="50.68671" lon="8.70337"><ele>166</ele></trkpt>
<trkpt lat="50.68704" lon="8.70367"><ele>166</ele></trkpt>
<trkpt lat="50.68704" lon="8.70386"><ele>166</ele></trkpt>
<trkpt lat="50.68720" lon="8.70408"><ele>166</ele></trkpt>
<trkpt lat="50.68705" lon="8.70422"><ele>168</ele></trkpt>
<trkpt lat="50.68704" lon="8.70434"><ele>166</ele></trkpt>
<trkpt lat="50.68762" lon="8.70638"><ele>167</ele></trkpt>
<trkpt lat="50.69029" lon="8.70951"><ele>166</ele></trkpt>
<trkpt lat="50.68980" lon="8.71174"><ele>166</ele></trkpt>
<trkpt lat="50.68980" lon="8.71184"><ele>166</ele></trkpt>
<trkpt lat="50.69098" lon="8.71233"><ele>166</ele></trkpt>
<trkpt lat="50.69109" lon="8.71241"><ele>167</ele></trkpt>
<trkpt lat="50.69115" lon="8.71254"><ele>167</ele></trkpt>
<trkpt lat="50.69113" lon="8.71304"><ele>167</ele></trkpt>
<trkpt lat="50.69116" lon="8.71332"><ele>166</ele></trkpt>
<trkpt lat="50.69138" lon="8.71431"><ele>167</ele></trkpt>
<trkpt lat="50.69150" lon="8.71466"><ele>166</ele></trkpt>
<trkpt lat="50.69189" lon="8.71534"><ele>166</ele></trkpt>
<trkpt lat="50.69209" lon="8.71552"><ele>166</ele></trkpt>
<trkpt lat="50.69263" lon="8.71575"><ele>166</ele></trkpt>
<trkpt lat="50.69325" lon="8.71595"><ele>167</ele></trkpt>
<trkpt lat="50.69346" lon="8.71611"><ele>167</ele></trkpt>
<trkpt lat="50.69402" lon="8.71721"><ele>166</ele></trkpt>
<trkpt lat="50.69414" lon="8.71746"><ele>167</ele></trkpt>
<trkpt lat="50.69421" lon="8.71772"><ele>167</ele></trkpt>
<trkpt lat="50.69442" lon="8.71924"><ele>166</ele></trkpt>
<trkpt lat="50.69458" lon="8.71983"><ele>167</ele></trkpt>
<trkpt lat="50.69462" lon="8.72010"><ele>168</ele></trkpt>
<trkpt lat="50.69463" lon="8.72037"><ele>167</ele></trkpt>
<trkpt lat="50.69443" lon="8.72124"><ele>168</ele></trkpt>
<trkpt lat="50.69451" lon="8.72131"><ele>168</ele></trkpt>
<trkpt lat="50.69481" lon="8.72190"><ele>169</ele></trkpt>
<trkpt lat="50.69493" lon="8.72203"><ele>169</ele></trkpt>
<trkpt lat="50.69522" lon="8.72210"><ele>169</ele></trkpt>
<trkpt lat="50.69613" lon="8.72195"><ele>169</ele></trkpt>
<trkpt lat="50.69622" lon="8.72188"><ele>169</ele></trkpt>
<trkpt lat="50.69681" lon="8.72177"><ele>168</ele></trkpt>
<trkpt lat="50.69692" lon="8.72171"><ele>169</ele></trkpt>
<trkpt lat="50.69696" lon="8.72176"><ele>168</ele></trkpt>
<trkpt lat="50.69700" lon="8.72175"><ele>168</ele></trkpt>
<trkpt lat="50.69718" lon="8.72154"><ele>168</ele></trkpt>
<trkpt lat="50.69835" lon="8.72178"><ele>168</ele></trkpt>
<trkpt lat="50.69888" lon="8.72173"><ele>168</ele></trkpt>
<trkpt lat="50.69906" lon="8.72170"><ele>168</ele></trkpt>
<trkpt lat="50.69946" lon="8.72150"><ele>168</ele></trkpt>
<trkpt lat="50.70052" lon="8.72108"><ele>168</ele></trkpt>
<trkpt lat="50.70144" lon="8.72115"><ele>169</ele></trkpt>
<trkpt lat="50.70145" lon="8.72123"><ele>168</ele></trkpt>
<trkpt lat="50.70152" lon="8.72130"><ele>168</ele></trkpt>
<trkpt lat="50.70177" lon="8.72133"><ele>169</ele></trkpt>
<trkpt lat="50.70185" lon="8.72143"><ele>169</ele></trkpt>
<trkpt lat="50.70187" lon="8.72152"><ele>169</ele></trkpt>
<trkpt lat="50.70209" lon="8.72152"><ele>170</ele></trkpt>
<trkpt lat="50.70211" lon="8.72137"><ele>170</ele></trkpt>
<trkpt lat="50.70218" lon="8.72126"><ele>170</ele></trkpt>
<trkpt lat="50.70225" lon="8.72121"><ele>170</ele></trkpt>
<trkpt lat="50.70291" lon="8.72125"><ele>172</ele></trkpt>
<trkpt lat="50.70336" lon="8.72133"><ele>175</ele></trkpt>
<trkpt lat="50.70342" lon="8.72111"><ele>174</ele></trkpt>
<trkpt lat="50.70364" lon="8.72110"><ele>175</ele></trkpt>
<trkpt lat="50.70433" lon="8.72056"><ele>177</ele></trkpt>
<trkpt lat="50.70487" lon="8.72038"><ele>178</ele></trkpt>
<trkpt lat="50.70492" lon="8.72041"><ele>178</ele></trkpt>
<trkpt lat="50.70493" lon="8.72053"><ele>178</ele></trkpt>
<trkpt lat="50.70499" lon="8.72058"><ele>178</ele></trkpt>
<trkpt lat="50.70507" lon="8.72053"><ele>178</ele></trkpt>
<trkpt lat="50.70509" lon="8.72043"><ele>178</ele></trkpt>
<trkpt lat="50.70552" lon="8.72054"><ele>180</ele></trkpt>
<trkpt lat="50.70652" lon="8.72120"><ele>181</ele></trkpt>
<trkpt lat="50.70661" lon="8.72110"><ele>181</ele></trkpt>
<trkpt lat="50.70870" lon="8.72060"><ele>173</ele></trkpt>
<trkpt lat="50.70922" lon="8.72042"><ele>172</ele></trkpt>
<trkpt lat="50.71040" lon="8.71989"><ele>177</ele></trkpt>
<trkpt lat="50.71090" lon="8.71945"><ele>177</ele></trkpt>
<trkpt lat="50.71112" lon="8.71940"><ele>176</ele></trkpt>
<trkpt lat="50.71149" lon="8.71919"><ele>176</ele></trkpt>
<trkpt lat="50.71193" lon="8.71865"><ele>177</ele></trkpt>
<trkpt lat="50.71268" lon="8.71763"><ele>182</ele></trkpt>
<trkpt lat="50.71281" lon="8.71751"><ele>182</ele></trkpt>
<trkpt lat="50.71302" lon="8.71744"><ele>182</ele></trkpt>
<trkpt lat="50.71406" lon="8.71732"><ele>180</ele></trkpt>
<trkpt lat="50.71514" lon="8.71749"><ele>178</ele></trkpt>
<trkpt lat="50.71552" lon="8.71765"><ele>178</ele></trkpt>
<trkpt lat="50.71596" lon="8.71767"><ele>179</ele></trkpt>
<trkpt lat="50.71602" lon="8.71752"><ele>179</ele></trkpt>
<trkpt lat="50.71608" lon="8.71704"><ele>179</ele></trkpt>
<trkpt lat="50.71607" lon="8.71675"><ele>178</ele></trkpt>
<trkpt lat="50.71598" lon="8.71600"><ele>174</ele></trkpt>
<trkpt lat="50.71599" lon="8.71570"><ele>173</ele></trkpt>
<trkpt lat="50.71604" lon="8.71553"><ele>172</ele></trkpt>
<trkpt lat="50.71624" lon="8.71524"><ele>170</ele></trkpt>
<trkpt lat="50.71640" lon="8.71511"><ele>170</ele></trkpt>
<trkpt lat="50.71663" lon="8.71501"><ele>170</ele></trkpt>
<trkpt lat="50.71709" lon="8.71513"><ele>170</ele></trkpt>
<trkpt lat="50.71782" lon="8.71549"><ele>170</ele></trkpt>
<trkpt lat="50.71836" lon="8.71583"><ele>171</ele></trkpt>
<trkpt lat="50.71897" lon="8.71633"><ele>170</ele></trkpt>
<trkpt lat="50.71953" lon="8.71698"><ele>170</ele></trkpt>
<trkpt lat="50.72009" lon="8.71771"><ele>172</ele></trkpt>
<trkpt lat="50.72044" lon="8.71806"><ele>172</ele></trkpt>
<trkpt lat="50.72066" lon="8.71817"><ele>170</ele></trkpt>
<trkpt lat="50.72080" lon="8.71814"><ele>169</ele></trkpt>
<trkpt lat="50.72096" lon="8.71797"><ele>169</ele></trkpt>
<trkpt lat="50.72120" lon="8.71795"><ele>170</ele></trkpt>
<trkpt lat="50.72155" lon="8.71803"><ele>170</ele></trkpt>
<trkpt lat="50.72428" lon="8.72061"><ele>170</ele></trkpt>
<trkpt lat="50.72587" lon="8.72314"><ele>170</ele></trkpt>
<trkpt lat="50.72599" lon="8.72341"><ele>170</ele></trkpt>
<trkpt lat="50.72603" lon="8.72358"><ele>171</ele></trkpt>
<trkpt lat="50.72605" lon="8.72379"><ele>172</ele></trkpt>
<trkpt lat="50.72600" lon="8.72400"><ele>172</ele></trkpt>
<trkpt lat="50.72606" lon="8.72424"><ele>172</ele></trkpt>
<trkpt lat="50.72631" lon="8.72400"><ele>172</ele></trkpt>
<trkpt lat="50.72650" lon="8.72389"><ele>171</ele></trkpt>
<trkpt lat="50.72669" lon="8.72381"><ele>171</ele></trkpt>
<trkpt lat="50.72699" lon="8.72378"><ele>170</ele></trkpt>
<trkpt lat="50.72716" lon="8.72381"><ele>172</ele></trkpt>
<trkpt lat="50.72747" lon="8.72395"><ele>171</ele></trkpt>
<trkpt lat="50.72763" lon="8.72410"><ele>171</ele></trkpt>
<trkpt lat="50.72771" lon="8.72424"><ele>171</ele></trkpt>
<trkpt lat="50.72809" lon="8.72387"><ele>171</ele></trkpt>
<trkpt lat="50.72858" lon="8.72321"><ele>170</ele></trkpt>
<trkpt lat="50.73068" lon="8.72617"><ele>170</ele></trkpt>
<trkpt lat="50.73083" lon="8.72648"><ele>171</ele></trkpt>
<trkpt lat="50.73077" lon="8.72656"><ele>171</ele></trkpt>
<trkpt lat="50.73085" lon="8.72671"><ele>171</ele></trkpt>
<trkpt lat="50.73099" lon="8.72684"><ele>170</ele></trkpt>
<trkpt lat="50.73183" lon="8.72719"><ele>170</ele></trkpt>
<trkpt lat="50.73229" lon="8.72756"><ele>170</ele></trkpt>
<trkpt lat="50.73263" lon="8.72790"><ele>170</ele></trkpt>
<trkpt lat="50.73310" lon="8.72849"><ele>171</ele></trkpt>
<trkpt lat="50.73328" lon="8.72887"><ele>171</ele></trkpt>
<trkpt lat="50.73357" lon="8.72914"><ele>171</ele></trkpt>
<trkpt lat="50.73431" lon="8.72964"><ele>171</ele></trkpt>
<trkpt lat="50.73528" lon="8.73037"><ele>171</ele></trkpt>
<trkpt lat="50.73562" lon="8.73057"><ele>171</ele></trkpt>
<trkpt lat="50.73643" lon="8.73046"><ele>171</ele></trkpt>
<trkpt lat="50.73739" lon="8.73085"><ele>171</ele></trkpt>
<trkpt lat="50.73863" lon="8.73205"><ele>172</ele></trkpt>
<trkpt lat="50.73959" lon="8.73305"><ele>171</ele></trkpt>
<trkpt lat="50.73975" lon="8.73320"><ele>172</ele></trkpt>
<trkpt lat="50.74010" lon="8.73340"><ele>172</ele></trkpt>
<trkpt lat="50.74039" lon="8.73354"><ele>172</ele></trkpt>
<trkpt lat="50.74056" lon="8.73320"><ele>172</ele></trkpt>
<trkpt lat="50.74067" lon="8.73318"><ele>172</ele></trkpt>
<trkpt lat="50.74083" lon="8.73322"><ele>172</ele></trkpt>
<trkpt lat="50.74118" lon="8.73340"><ele>172</ele></trkpt>
<trkpt lat="50.74164" lon="8.73372"><ele>172</ele></trkpt>
<trkpt lat="50.74221" lon="8.73437"><ele>172</ele></trkpt>
<trkpt lat="50.74256" lon="8.73470"><ele>172</ele></trkpt>
<trkpt lat="50.74279" lon="8.73484"><ele>173</ele></trkpt>
<trkpt lat="50.74291" lon="8.73484"><ele>173</ele></trkpt>
<trkpt lat="50.74351" lon="8.73528"><ele>173</ele></trkpt>
<trkpt lat="50.74365" lon="8.73531"><ele>172</ele></trkpt>
<trkpt lat="50.74377" lon="8.73525"><ele>172</ele></trkpt>
<trkpt lat="50.74396" lon="8.73497"><ele>173</ele></trkpt>
<trkpt lat="50.74400" lon="8.73505"><ele>173</ele></trkpt>
<trkpt lat="50.74465" lon="8.73569"><ele>173</ele></trkpt>
<trkpt lat="50.74527" lon="8.73658"><ele>174</ele></trkpt>
<trkpt lat="50.74546" lon="8.73694"><ele>174</ele></trkpt>
<trkpt lat="50.74587" lon="8.73669"><ele>174</ele></trkpt>
<trkpt lat="50.74630" lon="8.73666"><ele>174</ele></trkpt>
<trkpt lat="50.74659" lon="8.73680"><ele>174</ele></trkpt>
<trkpt lat="50.74735" lon="8.73727"><ele>173</ele></trkpt>
<trkpt lat="50.74766" lon="8.73605"><ele>173</ele></trkpt>
<trkpt lat="50.74845" lon="8.73577"><ele>173</ele></trkpt>
<trkpt lat="50.74862" lon="8.73574"><ele>173</ele></trkpt>
<trkpt lat="50.74868" lon="8.73580"><ele>173</ele></trkpt>
<trkpt lat="50.74871" lon="8.73596"><ele>172</ele></trkpt>
<trkpt lat="50.74867" lon="8.73615"><ele>173</ele></trkpt>
<trkpt lat="50.74869" lon="8.73626"><ele>172</ele></trkpt>
<trkpt lat="50.74881" lon="8.73638"><ele>172</ele></trkpt>
<trkpt lat="50.75210" lon="8.73844"><ele>173</ele></trkpt>
<trkpt lat="50.75314" lon="8.73906"><ele>174</ele></trkpt>
<trkpt lat="50.75328" lon="8.73904"><ele>174</ele></trkpt>
<trkpt lat="50.75344" lon="8.73888"><ele>174</ele></trkpt>
<trkpt lat="50.75361" lon="8.73850"><ele>174</ele></trkpt>
<trkpt lat="50.75364" lon="8.73828"><ele>173</ele></trkpt>
<trkpt lat="50.75350" lon="8.73801"><ele>172</ele></trkpt>
<trkpt lat="50.75348" lon="8.73785"><ele>172</ele></trkpt>
<trkpt lat="50.75370" lon="8.73737"><ele>174</ele></trkpt>
<trkpt lat="50.75373" lon="8.73716"><ele>174</ele></trkpt>
<trkpt lat="50.75367" lon="8.73693"><ele>174</ele></trkpt>
<trkpt lat="50.75357" lon="8.73685"><ele>174</ele></trkpt>
<trkpt lat="50.75311" lon="8.73675"><ele>174</ele></trkpt>
<trkpt lat="50.75302" lon="8.73671"><ele>174</ele></trkpt>
<trkpt lat="50.75297" lon="8.73659"><ele>174</ele></trkpt>
<trkpt lat="50.75294" lon="8.73210"><ele>174</ele></trkpt>
<trkpt lat="50.75296" lon="8.73201"><ele>174</ele></trkpt>
<trkpt lat="50.75308" lon="8.73184"><ele>174</ele></trkpt>
<trkpt lat="50.75428" lon="8.73150"><ele>176</ele></trkpt>
<trkpt lat="50.75449" lon="8.73135"><ele>176</ele></trkpt>
<trkpt lat="50.75467" lon="8.73140"><ele>176</ele></trkpt>
<trkpt lat="50.75604" lon="8.73304"><ele>176</ele></trkpt>
<trkpt lat="50.75951" lon="8.73749"><ele>176</ele></trkpt>
<trkpt lat="50.76169" lon="8.74017"><ele>176</ele></trkpt>
<trkpt lat="50.76381" lon="8.74293"><ele>175</ele></trkpt>
<trkpt lat="50.76435" lon="8.74358"><ele>176</ele></trkpt>
<trkpt lat="50.76453" lon="8.74362"><ele>176</ele></trkpt>
<trkpt lat="50.76480" lon="8.74396"><ele>176</ele></trkpt>
<trkpt lat="50.76480" lon="8.74405"><ele>176</ele></trkpt>
<trkpt lat="50.76487" lon="8.74424"><ele>175</ele></trkpt>
<trkpt lat="50.76574" lon="8.74529"><ele>175</ele></trkpt>
<trkpt lat="50.76660" lon="8.74624"><ele>176</ele></trkpt>
<trkpt lat="50.76669" lon="8.74644"><ele>176</ele></trkpt>
<trkpt lat="50.76671" lon="8.74653"><ele>176</ele></trkpt>
<trkpt lat="50.76660" lon="8.74691"><ele>176</ele></trkpt>
<trkpt lat="50.76661" lon="8.74698"><ele>176</ele></trkpt>
<trkpt lat="50.76736" lon="8.74732"><ele>175</ele></trkpt>
<trkpt lat="50.76745" lon="8.74741"><ele>175</ele></trkpt>
<trkpt lat="50.76928" lon="8.74966"><ele>176</ele></trkpt>
<trkpt lat="50.77191" lon="8.75307"><ele>175</ele></trkpt>
<trkpt lat="50.77244" lon="8.75076"><ele>176</ele></trkpt>
<trkpt lat="50.77246" lon="8.75055"><ele>176</ele></trkpt>
<trkpt lat="50.77243" lon="8.75029"><ele>176</ele></trkpt>
<trkpt lat="50.77273" lon="8.75018"><ele>177</ele></trkpt>
<trkpt lat="50.77298" lon="8.75016"><ele>177</ele></trkpt>
<trkpt lat="50.77453" lon="8.75026"><ele>177</ele></trkpt>
<trkpt lat="50.77456" lon="8.75034"><ele>177</ele></trkpt>
<trkpt lat="50.77625" lon="8.75043"><ele>177</ele></trkpt>
<trkpt lat="50.77665" lon="8.75050"><ele>177</ele></trkpt>
<trkpt lat="50.78172" lon="8.75070"><ele>177</ele></trkpt>
<trkpt lat="50.78451" lon="8.75117"><ele>179</ele></trkpt>
<trkpt lat="50.78598" lon="8.75128"><ele>179</ele></trkpt>
<trkpt lat="50.78740" lon="8.75105"><ele>178</ele></trkpt>
<trkpt lat="50.78773" lon="8.75105"><ele>178</ele></trkpt>
<trkpt lat="50.78887" lon="8.75126"><ele>178</ele></trkpt>
<trkpt lat="50.78940" lon="8.75149"><ele>177</ele></trkpt>
<trkpt lat="50.79005" lon="8.75185"><ele>177</ele></trkpt>
<trkpt lat="50.79028" lon="8.75183"><ele>178</ele></trkpt>
<trkpt lat="50.79062" lon="8.75200"><ele>178</ele></trkpt>
<trkpt lat="50.79080" lon="8.75213"><ele>178</ele></trkpt>
<trkpt lat="50.79196" lon="8.75319"><ele>176</ele></trkpt>
<trkpt lat="50.79212" lon="8.75328"><ele>177</ele></trkpt>
<trkpt lat="50.79229" lon="8.75345"><ele>177</ele></trkpt>
<trkpt lat="50.79288" lon="8.75417"><ele>177</ele></trkpt>
<trkpt lat="50.79336" lon="8.75486"><ele>177</ele></trkpt>
<trkpt lat="50.79510" lon="8.75882"><ele>178</ele></trkpt>
<trkpt lat="50.79521" lon="8.75909"><ele>178</ele></trkpt>
<trkpt lat="50.79532" lon="8.75958"><ele>178</ele></trkpt>
<trkpt lat="50.79539" lon="8.75978"><ele>178</ele></trkpt>
<trkpt lat="50.79568" lon="8.76004"><ele>178</ele></trkpt>
<trkpt lat="50.79613" lon="8.76086"><ele>180</ele></trkpt>
<trkpt lat="50.79616" lon="8.76105"><ele>178</ele></trkpt>
<trkpt lat="50.79621" lon="8.76105"><ele>179</ele></trkpt>
<trkpt lat="50.79630" lon="8.76088"><ele>180</ele></trkpt>
<trkpt lat="50.79666" lon="8.76128"><ele>180</ele></trkpt>
<trkpt lat="50.79714" lon="8.76171"><ele>179</ele></trkpt>
<trkpt lat="50.79754" lon="8.76198"><ele>180</ele></trkpt>
<trkpt lat="50.79789" lon="8.76234"><ele>180</ele></trkpt>
<trkpt lat="50.79799" lon="8.76239"><ele>180</ele></trkpt>
<trkpt lat="50.79884" lon="8.76200"><ele>179</ele></trkpt>
<trkpt lat="50.79889" lon="8.76191"><ele>179</ele></trkpt>
<trkpt lat="50.80147" lon="8.75969"><ele>182</ele></trkpt>
<trkpt lat="50.80234" lon="8.75926"><ele>183</ele></trkpt>
<trkpt lat="50.80300" lon="8.75908"><ele>184</ele></trkpt>
<trkpt lat="50.80430" lon="8.75893"><ele>187</ele></trkpt>
<trkpt lat="50.80449" lon="8.75894"><ele>187</ele></trkpt>
<trkpt lat="50.80485" lon="8.75908"><ele>188</ele></trkpt>
<trkpt lat="50.80497" lon="8.75920"><ele>188</ele></trkpt>
<trkpt lat="50.80509" lon="8.75919"><ele>189</ele></trkpt>
<trkpt lat="50.80596" lon="8.76008"><ele>191</ele></trkpt>
<trkpt lat="50.80616" lon="8.76034"><ele>192</ele></trkpt>
<trkpt lat="50.80665" lon="8.76164"><ele>196</ele></trkpt>
<trkpt lat="50.80662" lon="8.76124"><ele>198</ele></trkpt>
<trkpt lat="50.80673" lon="8.76120"><ele>202</ele></trkpt>
<trkpt lat="50.80758" lon="8.76226"><ele>217</ele></trkpt>
<trkpt lat="50.80828" lon="8.76383"><ele>223</ele></trkpt>
<trkpt lat="50.80844" lon="8.76426"><ele>226</ele></trkpt>
<trkpt lat="50.80873" lon="8.76537"><ele>229</ele></trkpt>
<trkpt lat="50.80882" lon="8.76585"><ele>235</ele></trkpt>
<trkpt lat="50.80884" lon="8.76628"><ele>234</ele></trkpt>
<trkpt lat="50.80895" lon="8.76673"><ele>236</ele></trkpt>
<trkpt lat="50.80903" lon="8.76734"><ele>237</ele></trkpt>
<trkpt lat="50.80914" lon="8.76774"><ele>238</ele></trkpt>
<trkpt lat="50.80924" lon="8.76846"><ele>234</ele></trkpt>
<trkpt lat="50.80936" lon="8.76914"><ele>231</ele></trkpt>
<trkpt lat="50.80971" lon="8.77009"><ele>223</ele></trkpt>
<trkpt lat="50.80972" lon="8.77016"><ele>223</ele></trkpt>
<trkpt lat="50.80913" lon="8.77054"><ele>215</ele></trkpt>
<trkpt lat="50.80911" lon="8.77050"><ele>214</ele></trkpt>
    </trkseg>
  </trk>
</gpx>
