<?xml version="1.0" encoding="UTF-8"?>
<gpx version="1.1" creator="Gravel Kompass" xmlns="http://www.topografix.com/GPX/1/1">
  <metadata><name>München – Haltern am See: Von der Isar ins Münsterland – Etappe 7</name></metadata>
  <trk>
    <name>Etappe 7: Würzburg – Schweinfurt</name>
    <trkseg>
<trkpt lat="49.79133" lon="9.95340"><ele>227</ele></trkpt>
<trkpt lat="49.79134" lon="9.95331"><ele>226</ele></trkpt>
<trkpt lat="49.79115" lon="9.95328"><ele>226</ele></trkpt>
<trkpt lat="49.78869" lon="9.95755"><ele>233</ele></trkpt>
<trkpt lat="49.78841" lon="9.95819"><ele>236</ele></trkpt>
<trkpt lat="49.78814" lon="9.95897"><ele>238</ele></trkpt>
<trkpt lat="49.78803" lon="9.95966"><ele>240</ele></trkpt>
<trkpt lat="49.78801" lon="9.96055"><ele>242</ele></trkpt>
<trkpt lat="49.78783" lon="9.96071"><ele>240</ele></trkpt>
<trkpt lat="49.78779" lon="9.96079"><ele>240</ele></trkpt>
<trkpt lat="49.78734" lon="9.96265"><ele>240</ele></trkpt>
<trkpt lat="49.78697" lon="9.96351"><ele>249</ele></trkpt>
<trkpt lat="49.78691" lon="9.96374"><ele>250</ele></trkpt>
<trkpt lat="49.78660" lon="9.96412"><ele>254</ele></trkpt>
<trkpt lat="49.78604" lon="9.96508"><ele>258</ele></trkpt>
<trkpt lat="49.78560" lon="9.96619"><ele>260</ele></trkpt>
<trkpt lat="49.78513" lon="9.96764"><ele>262</ele></trkpt>
<trkpt lat="49.78506" lon="9.96777"><ele>263</ele></trkpt>
<trkpt lat="49.78223" lon="9.96663"><ele>273</ele></trkpt>
<trkpt lat="49.78207" lon="9.96672"><ele>273</ele></trkpt>
<trkpt lat="49.78183" lon="9.96675"><ele>274</ele></trkpt>
<trkpt lat="49.77899" lon="9.96664"><ele>277</ele></trkpt>
<trkpt lat="49.77895" lon="9.96986"><ele>277</ele></trkpt>
<trkpt lat="49.77859" lon="9.96983"><ele>276</ele></trkpt>
<trkpt lat="49.77808" lon="9.96996"><ele>275</ele></trkpt>
<trkpt lat="49.77751" lon="9.97019"><ele>276</ele></trkpt>
<trkpt lat="49.77673" lon="9.97076"><ele>278</ele></trkpt>
<trkpt lat="49.77573" lon="9.97134"><ele>280</ele></trkpt>
<trkpt lat="49.77529" lon="9.97164"><ele>280</ele></trkpt>
<trkpt lat="49.77383" lon="9.97284"><ele>277</ele></trkpt>
<trkpt lat="49.77343" lon="9.97326"><ele>279</ele></trkpt>
<trkpt lat="49.77326" lon="9.97348"><ele>280</ele></trkpt>
<trkpt lat="49.77298" lon="9.97421"><ele>283</ele></trkpt>
<trkpt lat="49.77284" lon="9.97451"><ele>285</ele></trkpt>
<trkpt lat="49.77273" lon="9.97465"><ele>285</ele></trkpt>
<trkpt lat="49.77227" lon="9.97485"><ele>287</ele></trkpt>
<trkpt lat="49.77155" lon="9.97506"><ele>290</ele></trkpt>
<trkpt lat="49.77097" lon="9.97540"><ele>294</ele></trkpt>
<trkpt lat="49.77019" lon="9.97576"><ele>295</ele></trkpt>
<trkpt lat="49.76980" lon="9.97616"><ele>291</ele></trkpt>
<trkpt lat="49.76937" lon="9.97686"><ele>284</ele></trkpt>
<trkpt lat="49.76924" lon="9.97699"><ele>282</ele></trkpt>
<trkpt lat="49.76811" lon="9.97794"><ele>277</ele></trkpt>
<trkpt lat="49.76642" lon="9.97944"><ele>281</ele></trkpt>
<trkpt lat="49.76580" lon="9.97992"><ele>276</ele></trkpt>
<trkpt lat="49.76449" lon="9.98107"><ele>255</ele></trkpt>
<trkpt lat="49.76424" lon="9.98118"><ele>252</ele></trkpt>
<trkpt lat="49.76401" lon="9.98141"><ele>250</ele></trkpt>
<trkpt lat="49.76393" lon="9.98154"><ele>249</ele></trkpt>
<trkpt lat="49.76382" lon="9.98182"><ele>248</ele></trkpt>
<trkpt lat="49.76367" lon="9.98256"><ele>246</ele></trkpt>
<trkpt lat="49.76340" lon="9.98468"><ele>241</ele></trkpt>
<trkpt lat="49.76317" lon="9.98592"><ele>234</ele></trkpt>
<trkpt lat="49.76311" lon="9.98610"><ele>234</ele></trkpt>
<trkpt lat="49.76242" lon="9.98463"><ele>220</ele></trkpt>
<trkpt lat="49.76231" lon="9.98433"><ele>219</ele></trkpt>
<trkpt lat="49.76198" lon="9.98306"><ele>209</ele></trkpt>
<trkpt lat="49.76182" lon="9.98291"><ele>205</ele></trkpt>
<trkpt lat="49.76147" lon="9.98240"><ele>195</ele></trkpt>
<trkpt lat="49.76122" lon="9.98214"><ele>190</ele></trkpt>
<trkpt lat="49.76045" lon="9.98203"><ele>180</ele></trkpt>
<trkpt lat="49.76029" lon="9.98157"><ele>180</ele></trkpt>
<trkpt lat="49.76029" lon="9.98132"><ele>180</ele></trkpt>
<trkpt lat="49.76034" lon="9.98118"><ele>180</ele></trkpt>
<trkpt lat="49.76036" lon="9.98090"><ele>180</ele></trkpt>
<trkpt lat="49.76034" lon="9.98062"><ele>179</ele></trkpt>
<trkpt lat="49.76025" lon="9.98031"><ele>178</ele></trkpt>
<trkpt lat="49.75938" lon="9.97921"><ele>173</ele></trkpt>
<trkpt lat="49.75907" lon="9.97873"><ele>172</ele></trkpt>
<trkpt lat="49.75872" lon="9.97783"><ele>170</ele></trkpt>
<trkpt lat="49.75886" lon="9.97768"><ele>170</ele></trkpt>
<trkpt lat="49.75884" lon="9.97763"><ele>170</ele></trkpt>
<trkpt lat="49.75871" lon="9.97775"><ele>170</ele></trkpt>
<trkpt lat="49.75859" lon="9.97795"><ele>170</ele></trkpt>
<trkpt lat="49.75850" lon="9.97838"><ele>170</ele></trkpt>
<trkpt lat="49.75839" lon="9.97863"><ele>171</ele></trkpt>
<trkpt lat="49.75828" lon="9.97875"><ele>170</ele></trkpt>
<trkpt lat="49.75815" lon="9.97877"><ele>170</ele></trkpt>
<trkpt lat="49.75791" lon="9.97920"><ele>172</ele></trkpt>
<trkpt lat="49.75748" lon="9.97963"><ele>172</ele></trkpt>
<trkpt lat="49.75721" lon="9.98000"><ele>171</ele></trkpt>
<trkpt lat="49.75716" lon="9.98005"><ele>171</ele></trkpt>
<trkpt lat="49.75686" lon="9.98014"><ele>172</ele></trkpt>
<trkpt lat="49.75443" lon="9.98201"><ele>172</ele></trkpt>
<trkpt lat="49.75427" lon="9.98220"><ele>172</ele></trkpt>
<trkpt lat="49.75422" lon="9.98232"><ele>172</ele></trkpt>
<trkpt lat="49.75385" lon="9.98248"><ele>172</ele></trkpt>
<trkpt lat="49.75234" lon="9.98384"><ele>172</ele></trkpt>
<trkpt lat="49.75221" lon="9.98400"><ele>173</ele></trkpt>
<trkpt lat="49.75208" lon="9.98437"><ele>172</ele></trkpt>
<trkpt lat="49.75183" lon="9.98470"><ele>172</ele></trkpt>
<trkpt lat="49.75155" lon="9.98518"><ele>172</ele></trkpt>
<trkpt lat="49.75089" lon="9.98594"><ele>172</ele></trkpt>
<trkpt lat="49.75042" lon="9.98634"><ele>173</ele></trkpt>
<trkpt lat="49.74995" lon="9.98665"><ele>173</ele></trkpt>
<trkpt lat="49.74844" lon="9.98734"><ele>173</ele></trkpt>
<trkpt lat="49.74795" lon="9.98748"><ele>173</ele></trkpt>
<trkpt lat="49.74690" lon="9.98770"><ele>173</ele></trkpt>
<trkpt lat="49.74548" lon="9.98784"><ele>173</ele></trkpt>
<trkpt lat="49.74420" lon="9.98769"><ele>173</ele></trkpt>
<trkpt lat="49.74252" lon="9.98776"><ele>173</ele></trkpt>
<trkpt lat="49.74155" lon="9.98762"><ele>173</ele></trkpt>
<trkpt lat="49.74102" lon="9.98759"><ele>173</ele></trkpt>
<trkpt lat="49.74028" lon="9.98745"><ele>173</ele></trkpt>
<trkpt lat="49.73980" lon="9.98740"><ele>173</ele></trkpt>
<trkpt lat="49.73948" lon="9.98742"><ele>173</ele></trkpt>
<trkpt lat="49.73897" lon="9.98758"><ele>173</ele></trkpt>
<trkpt lat="49.73855" lon="9.98764"><ele>173</ele></trkpt>
<trkpt lat="49.73793" lon="9.98755"><ele>174</ele></trkpt>
<trkpt lat="49.73771" lon="9.98747"><ele>174</ele></trkpt>
<trkpt lat="49.73687" lon="9.98701"><ele>173</ele></trkpt>
<trkpt lat="49.73596" lon="9.98676"><ele>173</ele></trkpt>
<trkpt lat="49.73506" lon="9.98669"><ele>173</ele></trkpt>
<trkpt lat="49.73278" lon="9.98769"><ele>173</ele></trkpt>
<trkpt lat="49.73147" lon="9.98838"><ele>173</ele></trkpt>
<trkpt lat="49.73007" lon="9.98889"><ele>173</ele></trkpt>
<trkpt lat="49.72927" lon="9.98924"><ele>173</ele></trkpt>
<trkpt lat="49.72845" lon="9.98980"><ele>173</ele></trkpt>
<trkpt lat="49.72741" lon="9.99081"><ele>173</ele></trkpt>
<trkpt lat="49.72694" lon="9.99138"><ele>174</ele></trkpt>
<trkpt lat="49.72661" lon="9.99194"><ele>173</ele></trkpt>
<trkpt lat="49.72630" lon="9.99239"><ele>173</ele></trkpt>
<trkpt lat="49.72559" lon="9.99370"><ele>174</ele></trkpt>
<trkpt lat="49.72555" lon="9.99381"><ele>173</ele></trkpt>
<trkpt lat="49.72559" lon="9.99410"><ele>174</ele></trkpt>
<trkpt lat="49.72523" lon="9.99438"><ele>174</ele></trkpt>
<trkpt lat="49.72469" lon="9.99492"><ele>176</ele></trkpt>
<trkpt lat="49.72425" lon="9.99525"><ele>175</ele></trkpt>
<trkpt lat="49.72398" lon="9.99537"><ele>175</ele></trkpt>
<trkpt lat="49.72376" lon="9.99585"><ele>175</ele></trkpt>
<trkpt lat="49.72286" lon="9.99704"><ele>175</ele></trkpt>
<trkpt lat="49.72219" lon="9.99806"><ele>175</ele></trkpt>
<trkpt lat="49.72191" lon="9.99834"><ele>174</ele></trkpt>
<trkpt lat="49.72185" lon="9.99846"><ele>174</ele></trkpt>
<trkpt lat="49.72183" lon="9.99865"><ele>174</ele></trkpt>
<trkpt lat="49.72114" lon="10.00037"><ele>174</ele></trkpt>
<trkpt lat="49.72091" lon="10.00076"><ele>174</ele></trkpt>
<trkpt lat="49.72075" lon="10.00088"><ele>174</ele></trkpt>
<trkpt lat="49.72065" lon="10.00101"><ele>173</ele></trkpt>
<trkpt lat="49.72021" lon="10.00220"><ele>174</ele></trkpt>
<trkpt lat="49.71982" lon="10.00268"><ele>174</ele></trkpt>
<trkpt lat="49.71889" lon="10.00471"><ele>173</ele></trkpt>
<trkpt lat="49.71864" lon="10.00551"><ele>173</ele></trkpt>
<trkpt lat="49.71845" lon="10.00851"><ele>174</ele></trkpt>
<trkpt lat="49.71831" lon="10.00911"><ele>175</ele></trkpt>
<trkpt lat="49.71817" lon="10.00946"><ele>175</ele></trkpt>
<trkpt lat="49.71714" lon="10.01126"><ele>175</ele></trkpt>
<trkpt lat="49.71478" lon="10.01510"><ele>176</ele></trkpt>
<trkpt lat="49.71362" lon="10.01693"><ele>176</ele></trkpt>
<trkpt lat="49.71250" lon="10.01841"><ele>176</ele></trkpt>
<trkpt lat="49.71186" lon="10.01909"><ele>176</ele></trkpt>
<trkpt lat="49.71140" lon="10.01947"><ele>175</ele></trkpt>
<trkpt lat="49.71085" lon="10.01984"><ele>175</ele></trkpt>
<trkpt lat="49.70983" lon="10.02023"><ele>174</ele></trkpt>
<trkpt lat="49.70874" lon="10.02033"><ele>174</ele></trkpt>
<trkpt lat="49.70825" lon="10.02013"><ele>173</ele></trkpt>
<trkpt lat="49.70752" lon="10.02034"><ele>174</ele></trkpt>
<trkpt lat="49.70742" lon="10.02037"><ele>174</ele></trkpt>
<trkpt lat="49.70709" lon="10.02064"><ele>175</ele></trkpt>
<trkpt lat="49.70549" lon="10.02137"><ele>175</ele></trkpt>
<trkpt lat="49.70509" lon="10.02157"><ele>176</ele></trkpt>
<trkpt lat="49.70479" lon="10.02178"><ele>176</ele></trkpt>
<trkpt lat="49.70462" lon="10.02178"><ele>175</ele></trkpt>
<trkpt lat="49.70396" lon="10.02205"><ele>175</ele></trkpt>
<trkpt lat="49.70356" lon="10.02213"><ele>174</ele></trkpt>
<trkpt lat="49.70274" lon="10.02249"><ele>175</ele></trkpt>
<trkpt lat="49.70129" lon="10.02258"><ele>175</ele></trkpt>
<trkpt lat="49.70009" lon="10.02246"><ele>174</ele></trkpt>
<trkpt lat="49.69714" lon="10.02266"><ele>175</ele></trkpt>
<trkpt lat="49.69544" lon="10.02256"><ele>175</ele></trkpt>
<trkpt lat="49.69453" lon="10.02240"><ele>175</ele></trkpt>
<trkpt lat="49.69377" lon="10.02235"><ele>175</ele></trkpt>
<trkpt lat="49.69292" lon="10.02219"><ele>174</ele></trkpt>
<trkpt lat="49.69212" lon="10.02234"><ele>175</ele></trkpt>
<trkpt lat="49.69146" lon="10.02255"><ele>175</ele></trkpt>
<trkpt lat="49.69096" lon="10.02277"><ele>175</ele></trkpt>
<trkpt lat="49.69021" lon="10.02326"><ele>174</ele></trkpt>
<trkpt lat="49.68999" lon="10.02351"><ele>174</ele></trkpt>
<trkpt lat="49.68936" lon="10.02451"><ele>175</ele></trkpt>
<trkpt lat="49.68828" lon="10.02572"><ele>175</ele></trkpt>
<trkpt lat="49.68733" lon="10.02693"><ele>175</ele></trkpt>
<trkpt lat="49.68661" lon="10.02770"><ele>175</ele></trkpt>
<trkpt lat="49.68583" lon="10.02880"><ele>176</ele></trkpt>
<trkpt lat="49.68436" lon="10.03068"><ele>175</ele></trkpt>
<trkpt lat="49.68309" lon="10.03289"><ele>176</ele></trkpt>
<trkpt lat="49.68203" lon="10.03445"><ele>176</ele></trkpt>
<trkpt lat="49.68121" lon="10.03556"><ele>177</ele></trkpt>
<trkpt lat="49.68080" lon="10.03597"><ele>177</ele></trkpt>
<trkpt lat="49.67958" lon="10.03740"><ele>175</ele></trkpt>
<trkpt lat="49.67804" lon="10.03910"><ele>177</ele></trkpt>
<trkpt lat="49.67771" lon="10.03959"><ele>176</ele></trkpt>
<trkpt lat="49.67755" lon="10.04024"><ele>177</ele></trkpt>
<trkpt lat="49.67746" lon="10.04037"><ele>177</ele></trkpt>
<trkpt lat="49.67720" lon="10.04046"><ele>177</ele></trkpt>
<trkpt lat="49.67707" lon="10.04055"><ele>177</ele></trkpt>
<trkpt lat="49.67652" lon="10.04135"><ele>177</ele></trkpt>
<trkpt lat="49.67598" lon="10.04230"><ele>176</ele></trkpt>
<trkpt lat="49.67580" lon="10.04268"><ele>176</ele></trkpt>
<trkpt lat="49.67569" lon="10.04306"><ele>177</ele></trkpt>
<trkpt lat="49.67530" lon="10.04356"><ele>178</ele></trkpt>
<trkpt lat="49.67309" lon="10.04747"><ele>177</ele></trkpt>
<trkpt lat="49.67163" lon="10.04956"><ele>176</ele></trkpt>
<trkpt lat="49.67039" lon="10.05144"><ele>176</ele></trkpt>
<trkpt lat="49.67000" lon="10.05228"><ele>176</ele></trkpt>
<trkpt lat="49.66985" lon="10.05274"><ele>176</ele></trkpt>
<trkpt lat="49.66957" lon="10.05394"><ele>177</ele></trkpt>
<trkpt lat="49.66950" lon="10.05445"><ele>176</ele></trkpt>
<trkpt lat="49.66873" lon="10.05721"><ele>177</ele></trkpt>
<trkpt lat="49.66860" lon="10.05825"><ele>177</ele></trkpt>
<trkpt lat="49.66863" lon="10.05851"><ele>177</ele></trkpt>
<trkpt lat="49.66855" lon="10.05900"><ele>177</ele></trkpt>
<trkpt lat="49.66832" lon="10.06177"><ele>178</ele></trkpt>
<trkpt lat="49.66831" lon="10.06236"><ele>178</ele></trkpt>
<trkpt lat="49.66840" lon="10.06277"><ele>178</ele></trkpt>
<trkpt lat="49.66843" lon="10.06341"><ele>179</ele></trkpt>
<trkpt lat="49.66860" lon="10.06341"><ele>181</ele></trkpt>
<trkpt lat="49.66884" lon="10.06349"><ele>182</ele></trkpt>
<trkpt lat="49.66940" lon="10.06359"><ele>187</ele></trkpt>
<trkpt lat="49.66961" lon="10.06346"><ele>189</ele></trkpt>
<trkpt lat="49.66997" lon="10.06283"><ele>190</ele></trkpt>
<trkpt lat="49.67015" lon="10.06266"><ele>191</ele></trkpt>
<trkpt lat="49.67038" lon="10.06269"><ele>193</ele></trkpt>
<trkpt lat="49.67080" lon="10.06288"><ele>198</ele></trkpt>
<trkpt lat="49.67117" lon="10.06326"><ele>202</ele></trkpt>
<trkpt lat="49.67207" lon="10.06430"><ele>216</ele></trkpt>
<trkpt lat="49.67262" lon="10.06515"><ele>226</ele></trkpt>
<trkpt lat="49.67291" lon="10.06540"><ele>229</ele></trkpt>
<trkpt lat="49.67360" lon="10.06611"><ele>240</ele></trkpt>
<trkpt lat="49.67450" lon="10.06663"><ele>250</ele></trkpt>
<trkpt lat="49.67530" lon="10.06740"><ele>253</ele></trkpt>
<trkpt lat="49.67545" lon="10.06745"><ele>254</ele></trkpt>
<trkpt lat="49.67569" lon="10.06741"><ele>254</ele></trkpt>
<trkpt lat="49.67654" lon="10.06693"><ele>259</ele></trkpt>
<trkpt lat="49.67701" lon="10.06691"><ele>264</ele></trkpt>
<trkpt lat="49.67744" lon="10.06678"><ele>268</ele></trkpt>
<trkpt lat="49.67844" lon="10.06656"><ele>276</ele></trkpt>
<trkpt lat="49.67987" lon="10.06567"><ele>280</ele></trkpt>
<trkpt lat="49.68044" lon="10.06551"><ele>282</ele></trkpt>
<trkpt lat="49.68180" lon="10.06545"><ele>285</ele></trkpt>
<trkpt lat="49.68398" lon="10.06479"><ele>286</ele></trkpt>
<trkpt lat="49.68543" lon="10.06501"><ele>284</ele></trkpt>
<trkpt lat="49.68602" lon="10.06481"><ele>284</ele></trkpt>
<trkpt lat="49.68744" lon="10.06471"><ele>277</ele></trkpt>
<trkpt lat="49.68823" lon="10.06490"><ele>272</ele></trkpt>
<trkpt lat="49.68942" lon="10.06528"><ele>264</ele></trkpt>
<trkpt lat="49.69112" lon="10.06542"><ele>258</ele></trkpt>
<trkpt lat="49.69123" lon="10.06531"><ele>258</ele></trkpt>
<trkpt lat="49.69141" lon="10.06561"><ele>259</ele></trkpt>
<trkpt lat="49.69173" lon="10.06631"><ele>262</ele></trkpt>
<trkpt lat="49.69239" lon="10.06707"><ele>264</ele></trkpt>
<trkpt lat="49.69288" lon="10.06778"><ele>266</ele></trkpt>
<trkpt lat="49.69402" lon="10.06888"><ele>268</ele></trkpt>
<trkpt lat="49.69512" lon="10.06978"><ele>266</ele></trkpt>
<trkpt lat="49.69621" lon="10.07077"><ele>264</ele></trkpt>
<trkpt lat="49.69749" lon="10.07198"><ele>260</ele></trkpt>
<trkpt lat="49.69833" lon="10.07286"><ele>258</ele></trkpt>
<trkpt lat="49.69849" lon="10.07314"><ele>258</ele></trkpt>
<trkpt lat="49.69995" lon="10.07630"><ele>258</ele></trkpt>
<trkpt lat="49.70022" lon="10.07676"><ele>260</ele></trkpt>
<trkpt lat="49.70046" lon="10.07702"><ele>261</ele></trkpt>
<trkpt lat="49.70082" lon="10.07733"><ele>263</ele></trkpt>
<trkpt lat="49.70168" lon="10.07795"><ele>265</ele></trkpt>
<trkpt lat="49.70234" lon="10.07821"><ele>267</ele></trkpt>
<trkpt lat="49.70321" lon="10.07863"><ele>266</ele></trkpt>
<trkpt lat="49.70366" lon="10.07898"><ele>264</ele></trkpt>
<trkpt lat="49.70416" lon="10.07948"><ele>263</ele></trkpt>
<trkpt lat="49.70420" lon="10.07962"><ele>263</ele></trkpt>
<trkpt lat="49.70423" lon="10.07952"><ele>263</ele></trkpt>
<trkpt lat="49.70453" lon="10.07918"><ele>264</ele></trkpt>
<trkpt lat="49.70520" lon="10.07897"><ele>265</ele></trkpt>
<trkpt lat="49.70592" lon="10.07880"><ele>264</ele></trkpt>
<trkpt lat="49.70679" lon="10.07875"><ele>264</ele></trkpt>
<trkpt lat="49.70714" lon="10.07883"><ele>264</ele></trkpt>
<trkpt lat="49.70734" lon="10.07897"><ele>264</ele></trkpt>
<trkpt lat="49.70759" lon="10.07926"><ele>263</ele></trkpt>
<trkpt lat="49.70749" lon="10.08050"><ele>262</ele></trkpt>
<trkpt lat="49.70749" lon="10.08339"><ele>264</ele></trkpt>
<trkpt lat="49.70740" lon="10.08384"><ele>265</ele></trkpt>
<trkpt lat="49.70654" lon="10.08571"><ele>272</ele></trkpt>
<trkpt lat="49.70647" lon="10.08597"><ele>272</ele></trkpt>
<trkpt lat="49.70637" lon="10.08761"><ele>275</ele></trkpt>
<trkpt lat="49.70621" lon="10.08870"><ele>280</ele></trkpt>
<trkpt lat="49.70615" lon="10.08934"><ele>281</ele></trkpt>
<trkpt lat="49.70619" lon="10.09517"><ele>283</ele></trkpt>
<trkpt lat="49.70630" lon="10.09758"><ele>286</ele></trkpt>
<trkpt lat="49.70630" lon="10.09797"><ele>286</ele></trkpt>
<trkpt lat="49.70608" lon="10.09898"><ele>285</ele></trkpt>
<trkpt lat="49.70604" lon="10.09958"><ele>284</ele></trkpt>
<trkpt lat="49.70605" lon="10.09980"><ele>284</ele></trkpt>
<trkpt lat="49.70612" lon="10.10018"><ele>283</ele></trkpt>
<trkpt lat="49.70629" lon="10.10073"><ele>283</ele></trkpt>
<trkpt lat="49.70664" lon="10.10169"><ele>281</ele></trkpt>
<trkpt lat="49.70684" lon="10.10247"><ele>280</ele></trkpt>
<trkpt lat="49.70727" lon="10.10507"><ele>280</ele></trkpt>
<trkpt lat="49.70731" lon="10.10552"><ele>280</ele></trkpt>
<trkpt lat="49.70742" lon="10.10932"><ele>280</ele></trkpt>
<trkpt lat="49.70769" lon="10.11316"><ele>274</ele></trkpt>
<trkpt lat="49.71100" lon="10.11197"><ele>252</ele></trkpt>
<trkpt lat="49.71238" lon="10.11220"><ele>241</ele></trkpt>
<trkpt lat="49.71263" lon="10.11220"><ele>241</ele></trkpt>
<trkpt lat="49.71270" lon="10.11226"><ele>242</ele></trkpt>
<trkpt lat="49.71337" lon="10.11600"><ele>241</ele></trkpt>
<trkpt lat="49.71391" lon="10.12165"><ele>229</ele></trkpt>
<trkpt lat="49.71389" lon="10.12250"><ele>228</ele></trkpt>
<trkpt lat="49.71368" lon="10.12351"><ele>224</ele></trkpt>
<trkpt lat="49.71304" lon="10.12531"><ele>220</ele></trkpt>
<trkpt lat="49.71237" lon="10.12785"><ele>212</ele></trkpt>
<trkpt lat="49.71242" lon="10.12788"><ele>212</ele></trkpt>
<trkpt lat="49.71247" lon="10.12800"><ele>212</ele></trkpt>
<trkpt lat="49.71254" lon="10.12983"><ele>217</ele></trkpt>
<trkpt lat="49.71243" lon="10.13120"><ele>214</ele></trkpt>
<trkpt lat="49.71234" lon="10.13179"><ele>218</ele></trkpt>
<trkpt lat="49.71213" lon="10.13271"><ele>220</ele></trkpt>
<trkpt lat="49.71209" lon="10.13345"><ele>222</ele></trkpt>
<trkpt lat="49.71214" lon="10.13378"><ele>222</ele></trkpt>
<trkpt lat="49.71220" lon="10.13400"><ele>223</ele></trkpt>
<trkpt lat="49.71249" lon="10.13467"><ele>219</ele></trkpt>
<trkpt lat="49.71220" lon="10.13505"><ele>216</ele></trkpt>
<trkpt lat="49.71149" lon="10.13530"><ele>204</ele></trkpt>
<trkpt lat="49.71089" lon="10.13532"><ele>193</ele></trkpt>
<trkpt lat="49.71079" lon="10.13537"><ele>190</ele></trkpt>
<trkpt lat="49.71071" lon="10.13545"><ele>188</ele></trkpt>
<trkpt lat="49.71043" lon="10.13594"><ele>184</ele></trkpt>
<trkpt lat="49.71065" lon="10.13631"><ele>184</ele></trkpt>
<trkpt lat="49.71142" lon="10.13709"><ele>184</ele></trkpt>
<trkpt lat="49.71186" lon="10.13762"><ele>184</ele></trkpt>
<trkpt lat="49.71255" lon="10.13810"><ele>184</ele></trkpt>
<trkpt lat="49.71321" lon="10.13875"><ele>184</ele></trkpt>
<trkpt lat="49.71394" lon="10.13928"><ele>184</ele></trkpt>
<trkpt lat="49.71455" lon="10.13962"><ele>187</ele></trkpt>
<trkpt lat="49.71546" lon="10.14031"><ele>189</ele></trkpt>
<trkpt lat="49.71637" lon="10.14133"><ele>188</ele></trkpt>
<trkpt lat="49.71724" lon="10.14245"><ele>188</ele></trkpt>
<trkpt lat="49.71743" lon="10.14279"><ele>186</ele></trkpt>
<trkpt lat="49.71732" lon="10.14296"><ele>185</ele></trkpt>
<trkpt lat="49.71769" lon="10.14381"><ele>185</ele></trkpt>
<trkpt lat="49.71815" lon="10.14523"><ele>185</ele></trkpt>
<trkpt lat="49.71843" lon="10.14582"><ele>185</ele></trkpt>
<trkpt lat="49.71838" lon="10.14588"><ele>185</ele></trkpt>
<trkpt lat="49.71904" lon="10.14676"><ele>185</ele></trkpt>
<trkpt lat="49.72077" lon="10.14875"><ele>187</ele></trkpt>
<trkpt lat="49.72104" lon="10.14915"><ele>187</ele></trkpt>
<trkpt lat="49.72141" lon="10.14986"><ele>187</ele></trkpt>
<trkpt lat="49.72093" lon="10.15064"><ele>186</ele></trkpt>
<trkpt lat="49.72087" lon="10.15086"><ele>186</ele></trkpt>
<trkpt lat="49.72089" lon="10.15101"><ele>186</ele></trkpt>
<trkpt lat="49.72097" lon="10.15123"><ele>186</ele></trkpt>
<trkpt lat="49.72147" lon="10.15220"><ele>185</ele></trkpt>
<trkpt lat="49.72193" lon="10.15288"><ele>184</ele></trkpt>
<trkpt lat="49.72232" lon="10.15333"><ele>185</ele></trkpt>
<trkpt lat="49.72306" lon="10.15436"><ele>185</ele></trkpt>
<trkpt lat="49.72340" lon="10.15492"><ele>184</ele></trkpt>
<trkpt lat="49.72401" lon="10.15605"><ele>184</ele></trkpt>
<trkpt lat="49.72514" lon="10.15780"><ele>185</ele></trkpt>
<trkpt lat="49.72541" lon="10.15812"><ele>185</ele></trkpt>
<trkpt lat="49.72608" lon="10.15878"><ele>186</ele></trkpt>
<trkpt lat="49.72671" lon="10.15928"><ele>187</ele></trkpt>
<trkpt lat="49.72662" lon="10.15959"><ele>187</ele></trkpt>
<trkpt lat="49.72623" lon="10.16069"><ele>188</ele></trkpt>
<trkpt lat="49.72612" lon="10.16087"><ele>188</ele></trkpt>
<trkpt lat="49.72608" lon="10.16105"><ele>188</ele></trkpt>
<trkpt lat="49.72610" lon="10.16120"><ele>189</ele></trkpt>
<trkpt lat="49.72503" lon="10.16540"><ele>192</ele></trkpt>
<trkpt lat="49.72490" lon="10.16602"><ele>190</ele></trkpt>
<trkpt lat="49.72501" lon="10.16613"><ele>192</ele></trkpt>
<trkpt lat="49.72517" lon="10.16608"><ele>192</ele></trkpt>
<trkpt lat="49.72558" lon="10.16632"><ele>188</ele></trkpt>
<trkpt lat="49.72577" lon="10.16637"><ele>188</ele></trkpt>
<trkpt lat="49.72593" lon="10.16639"><ele>187</ele></trkpt>
<trkpt lat="49.72614" lon="10.16629"><ele>186</ele></trkpt>
<trkpt lat="49.72638" lon="10.16695"><ele>183</ele></trkpt>
<trkpt lat="49.72644" lon="10.16725"><ele>183</ele></trkpt>
<trkpt lat="49.72653" lon="10.16753"><ele>183</ele></trkpt>
<trkpt lat="49.72684" lon="10.16791"><ele>184</ele></trkpt>
<trkpt lat="49.72789" lon="10.16855"><ele>184</ele></trkpt>
<trkpt lat="49.72782" lon="10.17126"><ele>186</ele></trkpt>
<trkpt lat="49.72711" lon="10.17561"><ele>190</ele></trkpt>
<trkpt lat="49.72968" lon="10.17533"><ele>188</ele></trkpt>
<trkpt lat="49.73069" lon="10.17510"><ele>187</ele></trkpt>
<trkpt lat="49.73121" lon="10.17510"><ele>188</ele></trkpt>
<trkpt lat="49.73146" lon="10.17504"><ele>188</ele></trkpt>
<trkpt lat="49.73187" lon="10.17477"><ele>190</ele></trkpt>
<trkpt lat="49.73253" lon="10.17524"><ele>192</ele></trkpt>
<trkpt lat="49.73304" lon="10.17545"><ele>190</ele></trkpt>
<trkpt lat="49.73335" lon="10.17562"><ele>191</ele></trkpt>
<trkpt lat="49.73352" lon="10.17577"><ele>192</ele></trkpt>
<trkpt lat="49.73350" lon="10.17587"><ele>192</ele></trkpt>
<trkpt lat="49.73321" lon="10.17582"><ele>190</ele></trkpt>
<trkpt lat="49.73316" lon="10.17603"><ele>190</ele></trkpt>
<trkpt lat="49.73311" lon="10.17662"><ele>190</ele></trkpt>
<trkpt lat="49.73320" lon="10.17656"><ele>190</ele></trkpt>
<trkpt lat="49.73339" lon="10.17656"><ele>190</ele></trkpt>
<trkpt lat="49.73399" lon="10.17667"><ele>189</ele></trkpt>
<trkpt lat="49.73407" lon="10.17672"><ele>189</ele></trkpt>
<trkpt lat="49.73434" lon="10.17671"><ele>188</ele></trkpt>
<trkpt lat="49.73441" lon="10.17657"><ele>187</ele></trkpt>
<trkpt lat="49.73506" lon="10.17662"><ele>188</ele></trkpt>
<trkpt lat="49.73595" lon="10.17699"><ele>190</ele></trkpt>
<trkpt lat="49.73622" lon="10.17707"><ele>190</ele></trkpt>
<trkpt lat="49.73659" lon="10.17729"><ele>190</ele></trkpt>
<trkpt lat="49.73760" lon="10.17808"><ele>188</ele></trkpt>
<trkpt lat="49.73821" lon="10.17868"><ele>189</ele></trkpt>
<trkpt lat="49.73842" lon="10.17914"><ele>192</ele></trkpt>
<trkpt lat="49.73854" lon="10.17923"><ele>192</ele></trkpt>
<trkpt lat="49.73879" lon="10.17854"><ele>191</ele></trkpt>
<trkpt lat="49.73879" lon="10.17843"><ele>191</ele></trkpt>
<trkpt lat="49.73889" lon="10.17857"><ele>192</ele></trkpt>
<trkpt lat="49.73900" lon="10.17886"><ele>190</ele></trkpt>
<trkpt lat="49.73912" lon="10.17904"><ele>189</ele></trkpt>
<trkpt lat="49.74003" lon="10.17978"><ele>190</ele></trkpt>
<trkpt lat="49.74045" lon="10.18005"><ele>190</ele></trkpt>
<trkpt lat="49.74073" lon="10.18017"><ele>190</ele></trkpt>
<trkpt lat="49.74099" lon="10.18016"><ele>189</ele></trkpt>
<trkpt lat="49.74103" lon="10.18036"><ele>189</ele></trkpt>
<trkpt lat="49.74114" lon="10.18035"><ele>188</ele></trkpt>
<trkpt lat="49.74186" lon="10.18060"><ele>190</ele></trkpt>
<trkpt lat="49.74230" lon="10.18070"><ele>192</ele></trkpt>
<trkpt lat="49.74309" lon="10.18075"><ele>191</ele></trkpt>
<trkpt lat="49.74318" lon="10.18072"><ele>191</ele></trkpt>
<trkpt lat="49.74376" lon="10.18070"><ele>192</ele></trkpt>
<trkpt lat="49.74496" lon="10.18040"><ele>192</ele></trkpt>
<trkpt lat="49.74522" lon="10.18151"><ele>193</ele></trkpt>
<trkpt lat="49.74579" lon="10.18327"><ele>193</ele></trkpt>
<trkpt lat="49.74578" lon="10.18339"><ele>193</ele></trkpt>
<trkpt lat="49.74599" lon="10.18442"><ele>194</ele></trkpt>
<trkpt lat="49.74607" lon="10.18512"><ele>194</ele></trkpt>
<trkpt lat="49.74609" lon="10.18654"><ele>194</ele></trkpt>
<trkpt lat="49.74606" lon="10.18684"><ele>194</ele></trkpt>
<trkpt lat="49.74582" lon="10.18715"><ele>193</ele></trkpt>
<trkpt lat="49.74574" lon="10.18750"><ele>192</ele></trkpt>
<trkpt lat="49.74601" lon="10.18977"><ele>194</ele></trkpt>
<trkpt lat="49.74619" lon="10.19016"><ele>195</ele></trkpt>
<trkpt lat="49.74625" lon="10.19040"><ele>195</ele></trkpt>
<trkpt lat="49.74590" lon="10.19067"><ele>194</ele></trkpt>
<trkpt lat="49.74584" lon="10.19089"><ele>193</ele></trkpt>
<trkpt lat="49.74604" lon="10.19222"><ele>194</ele></trkpt>
<trkpt lat="49.74612" lon="10.19349"><ele>194</ele></trkpt>
<trkpt lat="49.74715" lon="10.19712"><ele>196</ele></trkpt>
<trkpt lat="49.74776" lon="10.19859"><ele>197</ele></trkpt>
<trkpt lat="49.74832" lon="10.19980"><ele>198</ele></trkpt>
<trkpt lat="49.74897" lon="10.20101"><ele>198</ele></trkpt>
<trkpt lat="49.74907" lon="10.20112"><ele>198</ele></trkpt>
<trkpt lat="49.74945" lon="10.20094"><ele>200</ele></trkpt>
<trkpt lat="49.74963" lon="10.20125"><ele>200</ele></trkpt>
<trkpt lat="49.75019" lon="10.20309"><ele>200</ele></trkpt>
<trkpt lat="49.75051" lon="10.20451"><ele>200</ele></trkpt>
<trkpt lat="49.75073" lon="10.20621"><ele>200</ele></trkpt>
<trkpt lat="49.75082" lon="10.20732"><ele>200</ele></trkpt>
<trkpt lat="49.75084" lon="10.20823"><ele>201</ele></trkpt>
<trkpt lat="49.75073" lon="10.21043"><ele>204</ele></trkpt>
<trkpt lat="49.75067" lon="10.21230"><ele>208</ele></trkpt>
<trkpt lat="49.75068" lon="10.21263"><ele>209</ele></trkpt>
<trkpt lat="49.75104" lon="10.21262"><ele>209</ele></trkpt>
<trkpt lat="49.75116" lon="10.21269"><ele>209</ele></trkpt>
<trkpt lat="49.75149" lon="10.21325"><ele>209</ele></trkpt>
<trkpt lat="49.75181" lon="10.21353"><ele>210</ele></trkpt>
<trkpt lat="49.75279" lon="10.21389"><ele>211</ele></trkpt>
<trkpt lat="49.75316" lon="10.21396"><ele>210</ele></trkpt>
<trkpt lat="49.75345" lon="10.21393"><ele>210</ele></trkpt>
<trkpt lat="49.75395" lon="10.21376"><ele>209</ele></trkpt>
<trkpt lat="49.75842" lon="10.21184"><ele>203</ele></trkpt>
<trkpt lat="49.76029" lon="10.21091"><ele>202</ele></trkpt>
<trkpt lat="49.76215" lon="10.21009"><ele>200</ele></trkpt>
<trkpt lat="49.76239" lon="10.20995"><ele>200</ele></trkpt>
<trkpt lat="49.76264" lon="10.20969"><ele>200</ele></trkpt>
<trkpt lat="49.76291" lon="10.20912"><ele>200</ele></trkpt>
<trkpt lat="49.76298" lon="10.20889"><ele>200</ele></trkpt>
<trkpt lat="49.76318" lon="10.20926"><ele>201</ele></trkpt>
<trkpt lat="49.76336" lon="10.21059"><ele>200</ele></trkpt>
<trkpt lat="49.76359" lon="10.21111"><ele>201</ele></trkpt>
<trkpt lat="49.76443" lon="10.21216"><ele>204</ele></trkpt>
<trkpt lat="49.76508" lon="10.21272"><ele>204</ele></trkpt>
<trkpt lat="49.76562" lon="10.21300"><ele>205</ele></trkpt>
<trkpt lat="49.76694" lon="10.21400"><ele>207</ele></trkpt>
<trkpt lat="49.77471" lon="10.21941"><ele>223</ele></trkpt>
<trkpt lat="49.77548" lon="10.21990"><ele>224</ele></trkpt>
<trkpt lat="49.77610" lon="10.22040"><ele>225</ele></trkpt>
<trkpt lat="49.77600" lon="10.22148"><ele>224</ele></trkpt>
<trkpt lat="49.77588" lon="10.22218"><ele>224</ele></trkpt>
<trkpt lat="49.77565" lon="10.22325"><ele>223</ele></trkpt>
<trkpt lat="49.77600" lon="10.22339"><ele>224</ele></trkpt>
<trkpt lat="49.77642" lon="10.22364"><ele>224</ele></trkpt>
<trkpt lat="49.77715" lon="10.22387"><ele>225</ele></trkpt>
<trkpt lat="49.77732" lon="10.22387"><ele>225</ele></trkpt>
<trkpt lat="49.77887" lon="10.22419"><ele>225</ele></trkpt>
<trkpt lat="49.77882" lon="10.22312"><ele>225</ele></trkpt>
<trkpt lat="49.77886" lon="10.22268"><ele>225</ele></trkpt>
<trkpt lat="49.77890" lon="10.22250"><ele>226</ele></trkpt>
<trkpt lat="49.77941" lon="10.22248"><ele>224</ele></trkpt>
<trkpt lat="49.78022" lon="10.22236"><ele>222</ele></trkpt>
<trkpt lat="49.78110" lon="10.22250"><ele>217</ele></trkpt>
<trkpt lat="49.78180" lon="10.22256"><ele>213</ele></trkpt>
<trkpt lat="49.78229" lon="10.22211"><ele>212</ele></trkpt>
<trkpt lat="49.78281" lon="10.22153"><ele>209</ele></trkpt>
<trkpt lat="49.78402" lon="10.21967"><ele>200</ele></trkpt>
<trkpt lat="49.78455" lon="10.21925"><ele>196</ele></trkpt>
<trkpt lat="49.78509" lon="10.21910"><ele>194</ele></trkpt>
<trkpt lat="49.78587" lon="10.21877"><ele>193</ele></trkpt>
<trkpt lat="49.78744" lon="10.21841"><ele>191</ele></trkpt>
<trkpt lat="49.78781" lon="10.21826"><ele>191</ele></trkpt>
<trkpt lat="49.78835" lon="10.21786"><ele>191</ele></trkpt>
<trkpt lat="49.78910" lon="10.21697"><ele>190</ele></trkpt>
<trkpt lat="49.78972" lon="10.21658"><ele>190</ele></trkpt>
<trkpt lat="49.78986" lon="10.21645"><ele>190</ele></trkpt>
<trkpt lat="49.79089" lon="10.21802"><ele>190</ele></trkpt>
<trkpt lat="49.79206" lon="10.21936"><ele>190</ele></trkpt>
<trkpt lat="49.79215" lon="10.21941"><ele>190</ele></trkpt>
<trkpt lat="49.79299" lon="10.21866"><ele>190</ele></trkpt>
<trkpt lat="49.79341" lon="10.21778"><ele>188</ele></trkpt>
<trkpt lat="49.79354" lon="10.21782"><ele>188</ele></trkpt>
<trkpt lat="49.79477" lon="10.21909"><ele>188</ele></trkpt>
<trkpt lat="49.79533" lon="10.21945"><ele>189</ele></trkpt>
<trkpt lat="49.79563" lon="10.21958"><ele>189</ele></trkpt>
<trkpt lat="49.79725" lon="10.21963"><ele>189</ele></trkpt>
<trkpt lat="49.79759" lon="10.21972"><ele>190</ele></trkpt>
<trkpt lat="49.79765" lon="10.21969"><ele>190</ele></trkpt>
<trkpt lat="49.79782" lon="10.21945"><ele>191</ele></trkpt>
<trkpt lat="49.79793" lon="10.21943"><ele>191</ele></trkpt>
<trkpt lat="49.79899" lon="10.21715"><ele>190</ele></trkpt>
<trkpt lat="49.79908" lon="10.21702"><ele>190</ele></trkpt>
<trkpt lat="49.79918" lon="10.21700"><ele>190</ele></trkpt>
<trkpt lat="49.79930" lon="10.21712"><ele>190</ele></trkpt>
<trkpt lat="49.79932" lon="10.21721"><ele>191</ele></trkpt>
<trkpt lat="49.79931" lon="10.21732"><ele>191</ele></trkpt>
<trkpt lat="49.79917" lon="10.21765"><ele>190</ele></trkpt>
<trkpt lat="49.79923" lon="10.21776"><ele>189</ele></trkpt>
<trkpt lat="49.80120" lon="10.22035"><ele>189</ele></trkpt>
<trkpt lat="49.80238" lon="10.22137"><ele>189</ele></trkpt>
<trkpt lat="49.80308" lon="10.22231"><ele>189</ele></trkpt>
<trkpt lat="49.80324" lon="10.22272"><ele>189</ele></trkpt>
<trkpt lat="49.80335" lon="10.22314"><ele>189</ele></trkpt>
<trkpt lat="49.80356" lon="10.22343"><ele>189</ele></trkpt>
<trkpt lat="49.80378" lon="10.22357"><ele>189</ele></trkpt>
<trkpt lat="49.80416" lon="10.22366"><ele>189</ele></trkpt>
<trkpt lat="49.80447" lon="10.22404"><ele>189</ele></trkpt>
<trkpt lat="49.80471" lon="10.22420"><ele>189</ele></trkpt>
<trkpt lat="49.80540" lon="10.22443"><ele>189</ele></trkpt>
<trkpt lat="49.80674" lon="10.22509"><ele>189</ele></trkpt>
<trkpt lat="49.80700" lon="10.22531"><ele>189</ele></trkpt>
<trkpt lat="49.80729" lon="10.22541"><ele>189</ele></trkpt>
<trkpt lat="49.80766" lon="10.22542"><ele>190</ele></trkpt>
<trkpt lat="49.80853" lon="10.22514"><ele>190</ele></trkpt>
<trkpt lat="49.80971" lon="10.22432"><ele>190</ele></trkpt>
<trkpt lat="49.81014" lon="10.22393"><ele>190</ele></trkpt>
<trkpt lat="49.81044" lon="10.22380"><ele>190</ele></trkpt>
<trkpt lat="49.81065" lon="10.22378"><ele>190</ele></trkpt>
<trkpt lat="49.81097" lon="10.22360"><ele>190</ele></trkpt>
<trkpt lat="49.81336" lon="10.22311"><ele>190</ele></trkpt>
<trkpt lat="49.81414" lon="10.22310"><ele>190</ele></trkpt>
<trkpt lat="49.81513" lon="10.22289"><ele>190</ele></trkpt>
<trkpt lat="49.81524" lon="10.22297"><ele>190</ele></trkpt>
<trkpt lat="49.81547" lon="10.22302"><ele>191</ele></trkpt>
<trkpt lat="49.81607" lon="10.22299"><ele>192</ele></trkpt>
<trkpt lat="49.81689" lon="10.22272"><ele>194</ele></trkpt>
<trkpt lat="49.81712" lon="10.22247"><ele>194</ele></trkpt>
<trkpt lat="49.81720" lon="10.22244"><ele>194</ele></trkpt>
<trkpt lat="49.81732" lon="10.22221"><ele>194</ele></trkpt>
<trkpt lat="49.81746" lon="10.22211"><ele>193</ele></trkpt>
<trkpt lat="49.81853" lon="10.22194"><ele>194</ele></trkpt>
<trkpt lat="49.81905" lon="10.22222"><ele>196</ele></trkpt>
<trkpt lat="49.81990" lon="10.22211"><ele>196</ele></trkpt>
<trkpt lat="49.82162" lon="10.22167"><ele>195</ele></trkpt>
<trkpt lat="49.82259" lon="10.22136"><ele>195</ele></trkpt>
<trkpt lat="49.82323" lon="10.22128"><ele>195</ele></trkpt>
<trkpt lat="49.82343" lon="10.22146"><ele>195</ele></trkpt>
<trkpt lat="49.82356" lon="10.22152"><ele>195</ele></trkpt>
<trkpt lat="49.82414" lon="10.22152"><ele>195</ele></trkpt>
<trkpt lat="49.82424" lon="10.22150"><ele>195</ele></trkpt>
<trkpt lat="49.82446" lon="10.22125"><ele>194</ele></trkpt>
<trkpt lat="49.82457" lon="10.22124"><ele>194</ele></trkpt>
<trkpt lat="49.82670" lon="10.22152"><ele>196</ele></trkpt>
<trkpt lat="49.82688" lon="10.22164"><ele>196</ele></trkpt>
<trkpt lat="49.82834" lon="10.22217"><ele>197</ele></trkpt>
<trkpt lat="49.82987" lon="10.22291"><ele>197</ele></trkpt>
<trkpt lat="49.83171" lon="10.22410"><ele>196</ele></trkpt>
<trkpt lat="49.83447" lon="10.22605"><ele>197</ele></trkpt>
<trkpt lat="49.83486" lon="10.22620"><ele>196</ele></trkpt>
<trkpt lat="49.83640" lon="10.22730"><ele>196</ele></trkpt>
<trkpt lat="49.83722" lon="10.22776"><ele>197</ele></trkpt>
<trkpt lat="49.83829" lon="10.22828"><ele>197</ele></trkpt>
<trkpt lat="49.83940" lon="10.22873"><ele>198</ele></trkpt>
<trkpt lat="49.84105" lon="10.22913"><ele>198</ele></trkpt>
<trkpt lat="49.84239" lon="10.22934"><ele>199</ele></trkpt>
<trkpt lat="49.84332" lon="10.22935"><ele>198</ele></trkpt>
<trkpt lat="49.84497" lon="10.22924"><ele>198</ele></trkpt>
<trkpt lat="49.84705" lon="10.22875"><ele>199</ele></trkpt>
<trkpt lat="49.84786" lon="10.22846"><ele>199</ele></trkpt>
<trkpt lat="49.85008" lon="10.22746"><ele>199</ele></trkpt>
<trkpt lat="49.85082" lon="10.22720"><ele>198</ele></trkpt>
<trkpt lat="49.85162" lon="10.22684"><ele>199</ele></trkpt>
<trkpt lat="49.85262" lon="10.22627"><ele>196</ele></trkpt>
<trkpt lat="49.85288" lon="10.22617"><ele>196</ele></trkpt>
<trkpt lat="49.85311" lon="10.22616"><ele>196</ele></trkpt>
<trkpt lat="49.85370" lon="10.22589"><ele>196</ele></trkpt>
<trkpt lat="49.85389" lon="10.22574"><ele>195</ele></trkpt>
<trkpt lat="49.85392" lon="10.22599"><ele>196</ele></trkpt>
<trkpt lat="49.85456" lon="10.22599"><ele>196</ele></trkpt>
<trkpt lat="49.85540" lon="10.22606"><ele>195</ele></trkpt>
<trkpt lat="49.85674" lon="10.22638"><ele>195</ele></trkpt>
<trkpt lat="49.85744" lon="10.22664"><ele>195</ele></trkpt>
<trkpt lat="49.85759" lon="10.22677"><ele>194</ele></trkpt>
<trkpt lat="49.85777" lon="10.22728"><ele>195</ele></trkpt>
<trkpt lat="49.85800" lon="10.22747"><ele>196</ele></trkpt>
<trkpt lat="49.85801" lon="10.22757"><ele>195</ele></trkpt>
<trkpt lat="49.85805" lon="10.22764"><ele>195</ele></trkpt>
<trkpt lat="49.85824" lon="10.22774"><ele>196</ele></trkpt>
<trkpt lat="49.85852" lon="10.22770"><ele>196</ele></trkpt>
<trkpt lat="49.85915" lon="10.22727"><ele>196</ele></trkpt>
<trkpt lat="49.85938" lon="10.22723"><ele>196</ele></trkpt>
<trkpt lat="49.86371" lon="10.22698"><ele>201</ele></trkpt>
<trkpt lat="49.86351" lon="10.22537"><ele>197</ele></trkpt>
<trkpt lat="49.86353" lon="10.22534"><ele>197</ele></trkpt>
<trkpt lat="49.86390" lon="10.22523"><ele>197</ele></trkpt>
<trkpt lat="49.86404" lon="10.22533"><ele>196</ele></trkpt>
<trkpt lat="49.86419" lon="10.22502"><ele>196</ele></trkpt>
<trkpt lat="49.86481" lon="10.22411"><ele>196</ele></trkpt>
<trkpt lat="49.86492" lon="10.22401"><ele>197</ele></trkpt>
<trkpt lat="49.86558" lon="10.22381"><ele>198</ele></trkpt>
<trkpt lat="49.86566" lon="10.22374"><ele>196</ele></trkpt>
<trkpt lat="49.86570" lon="10.22367"><ele>196</ele></trkpt>
<trkpt lat="49.86577" lon="10.22326"><ele>196</ele></trkpt>
<trkpt lat="49.86589" lon="10.22310"><ele>195</ele></trkpt>
<trkpt lat="49.86583" lon="10.22226"><ele>194</ele></trkpt>
<trkpt lat="49.86606" lon="10.22208"><ele>195</ele></trkpt>
<trkpt lat="49.86704" lon="10.22111"><ele>195</ele></trkpt>
<trkpt lat="49.86791" lon="10.21941"><ele>195</ele></trkpt>
<trkpt lat="49.86845" lon="10.21852"><ele>195</ele></trkpt>
<trkpt lat="49.86914" lon="10.21759"><ele>195</ele></trkpt>
<trkpt lat="49.86990" lon="10.21602"><ele>195</ele></trkpt>
<trkpt lat="49.86993" lon="10.21599"><ele>195</ele></trkpt>
<trkpt lat="49.87000" lon="10.21603"><ele>195</ele></trkpt>
<trkpt lat="49.87078" lon="10.21687"><ele>195</ele></trkpt>
<trkpt lat="49.87157" lon="10.21540"><ele>195</ele></trkpt>
<trkpt lat="49.87237" lon="10.21399"><ele>196</ele></trkpt>
<trkpt lat="49.87341" lon="10.21200"><ele>198</ele></trkpt>
<trkpt lat="49.87363" lon="10.21218"><ele>199</ele></trkpt>
<trkpt lat="49.87419" lon="10.21085"><ele>201</ele></trkpt>
<trkpt lat="49.87439" lon="10.21072"><ele>202</ele></trkpt>
<trkpt lat="49.87476" lon="10.21034"><ele>205</ele></trkpt>
<trkpt lat="49.87569" lon="10.20981"><ele>212</ele></trkpt>
<trkpt lat="49.87633" lon="10.20969"><ele>214</ele></trkpt>
<trkpt lat="49.87671" lon="10.20967"><ele>214</ele></trkpt>
<trkpt lat="49.87738" lon="10.21012"><ele>216</ele></trkpt>
<trkpt lat="49.87748" lon="10.21021"><ele>216</ele></trkpt>
<trkpt lat="49.87762" lon="10.21048"><ele>216</ele></trkpt>
<trkpt lat="49.87813" lon="10.21103"><ele>220</ele></trkpt>
<trkpt lat="49.87857" lon="10.21161"><ele>224</ele></trkpt>
<trkpt lat="49.87898" lon="10.21228"><ele>228</ele></trkpt>
<trkpt lat="49.87921" lon="10.21244"><ele>230</ele></trkpt>
<trkpt lat="49.87949" lon="10.21254"><ele>229</ele></trkpt>
<trkpt lat="49.87961" lon="10.21308"><ele>230</ele></trkpt>
<trkpt lat="49.88068" lon="10.21271"><ele>240</ele></trkpt>
<trkpt lat="49.88527" lon="10.20919"><ele>267</ele></trkpt>
<trkpt lat="49.88552" lon="10.20903"><ele>267</ele></trkpt>
<trkpt lat="49.88579" lon="10.20895"><ele>268</ele></trkpt>
<trkpt lat="49.88671" lon="10.20888"><ele>270</ele></trkpt>
<trkpt lat="49.88895" lon="10.20908"><ele>283</ele></trkpt>
<trkpt lat="49.88946" lon="10.20908"><ele>285</ele></trkpt>
<trkpt lat="49.89018" lon="10.20899"><ele>287</ele></trkpt>
<trkpt lat="49.89076" lon="10.20903"><ele>286</ele></trkpt>
<trkpt lat="49.89159" lon="10.20959"><ele>287</ele></trkpt>
<trkpt lat="49.89251" lon="10.21001"><ele>288</ele></trkpt>
<trkpt lat="49.89353" lon="10.21035"><ele>287</ele></trkpt>
<trkpt lat="49.89352" lon="10.21040"><ele>287</ele></trkpt>
<trkpt lat="49.89359" lon="10.21045"><ele>287</ele></trkpt>
<trkpt lat="49.89394" lon="10.21058"><ele>287</ele></trkpt>
<trkpt lat="49.89431" lon="10.21070"><ele>286</ele></trkpt>
<trkpt lat="49.89448" lon="10.21070"><ele>286</ele></trkpt>
<trkpt lat="49.89455" lon="10.21049"><ele>286</ele></trkpt>
<trkpt lat="49.89511" lon="10.20992"><ele>283</ele></trkpt>
<trkpt lat="49.89524" lon="10.20957"><ele>282</ele></trkpt>
<trkpt lat="49.89522" lon="10.20915"><ele>281</ele></trkpt>
<trkpt lat="49.89515" lon="10.20886"><ele>280</ele></trkpt>
<trkpt lat="49.89608" lon="10.20858"><ele>275</ele></trkpt>
<trkpt lat="49.89613" lon="10.20850"><ele>274</ele></trkpt>
<trkpt lat="49.89632" lon="10.20851"><ele>275</ele></trkpt>
<trkpt lat="49.89931" lon="10.20765"><ele>292</ele></trkpt>
<trkpt lat="49.89987" lon="10.20757"><ele>288</ele></trkpt>
<trkpt lat="49.90029" lon="10.20763"><ele>282</ele></trkpt>
<trkpt lat="49.90103" lon="10.20792"><ele>271</ele></trkpt>
<trkpt lat="49.90179" lon="10.20764"><ele>263</ele></trkpt>
<trkpt lat="49.90276" lon="10.20744"><ele>251</ele></trkpt>
<trkpt lat="49.90309" lon="10.20721"><ele>246</ele></trkpt>
<trkpt lat="49.90338" lon="10.20710"><ele>242</ele></trkpt>
<trkpt lat="49.90646" lon="10.20656"><ele>235</ele></trkpt>
<trkpt lat="49.90865" lon="10.20692"><ele>246</ele></trkpt>
<trkpt lat="49.90879" lon="10.20697"><ele>246</ele></trkpt>
<trkpt lat="49.90966" lon="10.20787"><ele>256</ele></trkpt>
<trkpt lat="49.90975" lon="10.20786"><ele>257</ele></trkpt>
<trkpt lat="49.90975" lon="10.20754"><ele>256</ele></trkpt>
<trkpt lat="49.90980" lon="10.20733"><ele>256</ele></trkpt>
<trkpt lat="49.91027" lon="10.20572"><ele>254</ele></trkpt>
<trkpt lat="49.91081" lon="10.20406"><ele>251</ele></trkpt>
<trkpt lat="49.91123" lon="10.20314"><ele>250</ele></trkpt>
<trkpt lat="49.91219" lon="10.20136"><ele>246</ele></trkpt>
<trkpt lat="49.91257" lon="10.20057"><ele>243</ele></trkpt>
<trkpt lat="49.91293" lon="10.19969"><ele>241</ele></trkpt>
<trkpt lat="49.91374" lon="10.19746"><ele>235</ele></trkpt>
<trkpt lat="49.91392" lon="10.19705"><ele>234</ele></trkpt>
<trkpt lat="49.91414" lon="10.19665"><ele>233</ele></trkpt>
<trkpt lat="49.91433" lon="10.19639"><ele>231</ele></trkpt>
<trkpt lat="49.91453" lon="10.19616"><ele>230</ele></trkpt>
<trkpt lat="49.91471" lon="10.19602"><ele>229</ele></trkpt>
<trkpt lat="49.91483" lon="10.19601"><ele>230</ele></trkpt>
<trkpt lat="49.91506" lon="10.19614"><ele>234</ele></trkpt>
<trkpt lat="49.91555" lon="10.19688"><ele>245</ele></trkpt>
<trkpt lat="49.91582" lon="10.19652"><ele>244</ele></trkpt>
<trkpt lat="49.91601" lon="10.19617"><ele>241</ele></trkpt>
<trkpt lat="49.91681" lon="10.19426"><ele>231</ele></trkpt>
<trkpt lat="49.91686" lon="10.19380"><ele>228</ele></trkpt>
<trkpt lat="49.91681" lon="10.19342"><ele>225</ele></trkpt>
<trkpt lat="49.91675" lon="10.19329"><ele>224</ele></trkpt>
<trkpt lat="49.91658" lon="10.19303"><ele>221</ele></trkpt>
<trkpt lat="49.91639" lon="10.19293"><ele>218</ele></trkpt>
<trkpt lat="49.91617" lon="10.19288"><ele>217</ele></trkpt>
<trkpt lat="49.91592" lon="10.19148"><ele>209</ele></trkpt>
<trkpt lat="49.91583" lon="10.19124"><ele>208</ele></trkpt>
<trkpt lat="49.91561" lon="10.19017"><ele>204</ele></trkpt>
<trkpt lat="49.91595" lon="10.19001"><ele>205</ele></trkpt>
<trkpt lat="49.91679" lon="10.18972"><ele>204</ele></trkpt>
<trkpt lat="49.91911" lon="10.18905"><ele>204</ele></trkpt>
<trkpt lat="49.91943" lon="10.19192"><ele>210</ele></trkpt>
<trkpt lat="49.92020" lon="10.19184"><ele>218</ele></trkpt>
<trkpt lat="49.92086" lon="10.19133"><ele>224</ele></trkpt>
<trkpt lat="49.92096" lon="10.19130"><ele>224</ele></trkpt>
<trkpt lat="49.92152" lon="10.19350"><ele>241</ele></trkpt>
<trkpt lat="49.92211" lon="10.19316"><ele>242</ele></trkpt>
<trkpt lat="49.92302" lon="10.19248"><ele>240</ele></trkpt>
<trkpt lat="49.92599" lon="10.19057"><ele>241</ele></trkpt>
<trkpt lat="49.92640" lon="10.19041"><ele>239</ele></trkpt>
<trkpt lat="49.92741" lon="10.19032"><ele>233</ele></trkpt>
<trkpt lat="49.93187" lon="10.19017"><ele>237</ele></trkpt>
<trkpt lat="49.93192" lon="10.18617"><ele>224</ele></trkpt>
<trkpt lat="49.93200" lon="10.18605"><ele>224</ele></trkpt>
<trkpt lat="49.93343" lon="10.18551"><ele>214</ele></trkpt>
<trkpt lat="49.93348" lon="10.18545"><ele>214</ele></trkpt>
<trkpt lat="49.93391" lon="10.18259"><ele>202</ele></trkpt>
<trkpt lat="49.93455" lon="10.18250"><ele>203</ele></trkpt>
<trkpt lat="49.93569" lon="10.18252"><ele>204</ele></trkpt>
<trkpt lat="49.93734" lon="10.18239"><ele>203</ele></trkpt>
<trkpt lat="49.93843" lon="10.18240"><ele>203</ele></trkpt>
<trkpt lat="49.93933" lon="10.18257"><ele>203</ele></trkpt>
<trkpt lat="49.93963" lon="10.18276"><ele>203</ele></trkpt>
<trkpt lat="49.93977" lon="10.18272"><ele>203</ele></trkpt>
<trkpt lat="49.93983" lon="10.18341"><ele>207</ele></trkpt>
<trkpt lat="49.94046" lon="10.18361"><ele>206</ele></trkpt>
<trkpt lat="49.94271" lon="10.18450"><ele>205</ele></trkpt>
<trkpt lat="49.94288" lon="10.18477"><ele>206</ele></trkpt>
<trkpt lat="49.94313" lon="10.18619"><ele>208</ele></trkpt>
<trkpt lat="49.94410" lon="10.18586"><ele>205</ele></trkpt>
<trkpt lat="49.94521" lon="10.18715"><ele>208</ele></trkpt>
<trkpt lat="49.94572" lon="10.18763"><ele>207</ele></trkpt>
<trkpt lat="49.94589" lon="10.18768"><ele>207</ele></trkpt>
<trkpt lat="49.94727" lon="10.18762"><ele>204</ele></trkpt>
<trkpt lat="49.94863" lon="10.18763"><ele>203</ele></trkpt>
<trkpt lat="49.94872" lon="10.18770"><ele>203</ele></trkpt>
<trkpt lat="49.94924" lon="10.18778"><ele>204</ele></trkpt>
<trkpt lat="49.94942" lon="10.18788"><ele>203</ele></trkpt>
<trkpt lat="49.95016" lon="10.18853"><ele>204</ele></trkpt>
<trkpt lat="49.95055" lon="10.18879"><ele>204</ele></trkpt>
<trkpt lat="49.95121" lon="10.18913"><ele>204</ele></trkpt>
<trkpt lat="49.95206" lon="10.18939"><ele>202</ele></trkpt>
<trkpt lat="49.95206" lon="10.18926"><ele>202</ele></trkpt>
<trkpt lat="49.95214" lon="10.18928"><ele>202</ele></trkpt>
<trkpt lat="49.95223" lon="10.18753"><ele>200</ele></trkpt>
<trkpt lat="49.95271" lon="10.18729"><ele>200</ele></trkpt>
<trkpt lat="49.95398" lon="10.18746"><ele>200</ele></trkpt>
<trkpt lat="49.95439" lon="10.18744"><ele>200</ele></trkpt>
<trkpt lat="49.95674" lon="10.18586"><ele>201</ele></trkpt>
<trkpt lat="49.95716" lon="10.18553"><ele>202</ele></trkpt>
<trkpt lat="49.95727" lon="10.18553"><ele>202</ele></trkpt>
<trkpt lat="49.95839" lon="10.18859"><ele>201</ele></trkpt>
<trkpt lat="49.95835" lon="10.18868"><ele>201</ele></trkpt>
<trkpt lat="49.95769" lon="10.18909"><ele>201</ele></trkpt>
<trkpt lat="49.95762" lon="10.18921"><ele>201</ele></trkpt>
<trkpt lat="49.95786" lon="10.19162"><ele>200</ele></trkpt>
<trkpt lat="49.95786" lon="10.19186"><ele>201</ele></trkpt>
<trkpt lat="49.95911" lon="10.19188"><ele>202</ele></trkpt>
<trkpt lat="49.95931" lon="10.19195"><ele>201</ele></trkpt>
<trkpt lat="49.95949" lon="10.19249"><ele>202</ele></trkpt>
<trkpt lat="49.95981" lon="10.19286"><ele>202</ele></trkpt>
<trkpt lat="49.96019" lon="10.19321"><ele>202</ele></trkpt>
<trkpt lat="49.96050" lon="10.19370"><ele>201</ele></trkpt>
<trkpt lat="49.96081" lon="10.19405"><ele>202</ele></trkpt>
<trkpt lat="49.96168" lon="10.19476"><ele>202</ele></trkpt>
<trkpt lat="49.96205" lon="10.19500"><ele>202</ele></trkpt>
<trkpt lat="49.96233" lon="10.19558"><ele>202</ele></trkpt>
<trkpt lat="49.96261" lon="10.19643"><ele>202</ele></trkpt>
<trkpt lat="49.96278" lon="10.19736"><ele>203</ele></trkpt>
<trkpt lat="49.96298" lon="10.19705"><ele>202</ele></trkpt>
<trkpt lat="49.96327" lon="10.19670"><ele>202</ele></trkpt>
<trkpt lat="49.96355" lon="10.19644"><ele>202</ele></trkpt>
<trkpt lat="49.96412" lon="10.19613"><ele>203</ele></trkpt>
<trkpt lat="49.96467" lon="10.19576"><ele>202</ele></trkpt>
<trkpt lat="49.96673" lon="10.19420"><ele>202</ele></trkpt>
<trkpt lat="49.96697" lon="10.19393"><ele>202</ele></trkpt>
<trkpt lat="49.96709" lon="10.19368"><ele>202</ele></trkpt>
<trkpt lat="49.96738" lon="10.19283"><ele>202</ele></trkpt>
<trkpt lat="49.96804" lon="10.19177"><ele>202</ele></trkpt>
<trkpt lat="49.96858" lon="10.19102"><ele>202</ele></trkpt>
<trkpt lat="49.96876" lon="10.19073"><ele>201</ele></trkpt>
<trkpt lat="49.96936" lon="10.18938"><ele>202</ele></trkpt>
<trkpt lat="49.97226" lon="10.18382"><ele>203</ele></trkpt>
<trkpt lat="49.97241" lon="10.18339"><ele>202</ele></trkpt>
<trkpt lat="49.97254" lon="10.18279"><ele>202</ele></trkpt>
<trkpt lat="49.97267" lon="10.18240"><ele>202</ele></trkpt>
<trkpt lat="49.97336" lon="10.18111"><ele>203</ele></trkpt>
<trkpt lat="49.97357" lon="10.18165"><ele>202</ele></trkpt>
<trkpt lat="49.97382" lon="10.18214"><ele>202</ele></trkpt>
<trkpt lat="49.97404" lon="10.18248"><ele>202</ele></trkpt>
<trkpt lat="49.97427" lon="10.18269"><ele>202</ele></trkpt>
<trkpt lat="49.97501" lon="10.18303"><ele>202</ele></trkpt>
<trkpt lat="49.97515" lon="10.18313"><ele>202</ele></trkpt>
<trkpt lat="49.97544" lon="10.18342"><ele>202</ele></trkpt>
<trkpt lat="49.97566" lon="10.18383"><ele>202</ele></trkpt>
<trkpt lat="49.97579" lon="10.18416"><ele>203</ele></trkpt>
<trkpt lat="49.97597" lon="10.18479"><ele>202</ele></trkpt>
<trkpt lat="49.97599" lon="10.18546"><ele>202</ele></trkpt>
<trkpt lat="49.97593" lon="10.18598"><ele>202</ele></trkpt>
<trkpt lat="49.97619" lon="10.18748"><ele>203</ele></trkpt>
<trkpt lat="49.97828" lon="10.18703"><ele>204</ele></trkpt>
<trkpt lat="49.98042" lon="10.18691"><ele>204</ele></trkpt>
<trkpt lat="49.98087" lon="10.18305"><ele>204</ele></trkpt>
<trkpt lat="49.98123" lon="10.18219"><ele>204</ele></trkpt>
<trkpt lat="49.98167" lon="10.18137"><ele>204</ele></trkpt>
<trkpt lat="49.98177" lon="10.18095"><ele>203</ele></trkpt>
<trkpt lat="49.98190" lon="10.18063"><ele>204</ele></trkpt>
<trkpt lat="49.98219" lon="10.18007"><ele>204</ele></trkpt>
<trkpt lat="49.98243" lon="10.17975"><ele>204</ele></trkpt>
<trkpt lat="49.98266" lon="10.17966"><ele>204</ele></trkpt>
<trkpt lat="49.98290" lon="10.17962"><ele>204</ele></trkpt>
<trkpt lat="49.98394" lon="10.17975"><ele>204</ele></trkpt>
<trkpt lat="49.98446" lon="10.17860"><ele>204</ele></trkpt>
<trkpt lat="49.98465" lon="10.17831"><ele>203</ele></trkpt>
<trkpt lat="49.98494" lon="10.17797"><ele>203</ele></trkpt>
<trkpt lat="49.98551" lon="10.17759"><ele>203</ele></trkpt>
<trkpt lat="49.98581" lon="10.17750"><ele>203</ele></trkpt>
<trkpt lat="49.98613" lon="10.17747"><ele>203</ele></trkpt>
<trkpt lat="49.98774" lon="10.17749"><ele>203</ele></trkpt>
<trkpt lat="49.98857" lon="10.17680"><ele>203</ele></trkpt>
<trkpt lat="49.98933" lon="10.17561"><ele>203</ele></trkpt>
<trkpt lat="49.98941" lon="10.17554"><ele>203</ele></trkpt>
<trkpt lat="49.98947" lon="10.17554"><ele>203</ele></trkpt>
<trkpt lat="49.98954" lon="10.17561"><ele>203</ele></trkpt>
<trkpt lat="49.98985" lon="10.17652"><ele>204</ele></trkpt>
<trkpt lat="49.98995" lon="10.17665"><ele>206</ele></trkpt>
<trkpt lat="49.99064" lon="10.17681"><ele>204</ele></trkpt>
<trkpt lat="50.00249" lon="10.18665"><ele>205</ele></trkpt>
<trkpt lat="50.00311" lon="10.18715"><ele>206</ele></trkpt>
<trkpt lat="50.00386" lon="10.18758"><ele>207</ele></trkpt>
<trkpt lat="50.00390" lon="10.18766"><ele>207</ele></trkpt>
<trkpt lat="50.00403" lon="10.18774"><ele>208</ele></trkpt>
<trkpt lat="50.00427" lon="10.18798"><ele>208</ele></trkpt>
<trkpt lat="50.00423" lon="10.18807"><ele>208</ele></trkpt>
<trkpt lat="50.00428" lon="10.18825"><ele>208</ele></trkpt>
<trkpt lat="50.00428" lon="10.18840"><ele>207</ele></trkpt>
<trkpt lat="50.00442" lon="10.18849"><ele>208</ele></trkpt>
<trkpt lat="50.00449" lon="10.18839"><ele>209</ele></trkpt>
<trkpt lat="50.00458" lon="10.18836"><ele>209</ele></trkpt>
<trkpt lat="50.00460" lon="10.18830"><ele>208</ele></trkpt>
<trkpt lat="50.00491" lon="10.18861"><ele>207</ele></trkpt>
<trkpt lat="50.00731" lon="10.19066"><ele>206</ele></trkpt>
<trkpt lat="50.00768" lon="10.19107"><ele>206</ele></trkpt>
<trkpt lat="50.00885" lon="10.19265"><ele>207</ele></trkpt>
<trkpt lat="50.00888" lon="10.19285"><ele>207</ele></trkpt>
<trkpt lat="50.00887" lon="10.19343"><ele>206</ele></trkpt>
<trkpt lat="50.00929" lon="10.19354"><ele>206</ele></trkpt>
<trkpt lat="50.00957" lon="10.19368"><ele>207</ele></trkpt>
<trkpt lat="50.01231" lon="10.19758"><ele>207</ele></trkpt>
<trkpt lat="50.01305" lon="10.19871"><ele>206</ele></trkpt>
<trkpt lat="50.01366" lon="10.19972"><ele>207</ele></trkpt>
<trkpt lat="50.02110" lon="10.21336"><ele>209</ele></trkpt>
<trkpt lat="50.02162" lon="10.21414"><ele>210</ele></trkpt>
<trkpt lat="50.02300" lon="10.21563"><ele>207</ele></trkpt>
<trkpt lat="50.02343" lon="10.21623"><ele>208</ele></trkpt>
<trkpt lat="50.02354" lon="10.21661"><ele>209</ele></trkpt>
<trkpt lat="50.02352" lon="10.21706"><ele>210</ele></trkpt>
<trkpt lat="50.02304" lon="10.21849"><ele>207</ele></trkpt>
<trkpt lat="50.02452" lon="10.21991"><ele>209</ele></trkpt>
<trkpt lat="50.02728" lon="10.22237"><ele>209</ele></trkpt>
<trkpt lat="50.02813" lon="10.22307"><ele>209</ele></trkpt>
<trkpt lat="50.02869" lon="10.22359"><ele>209</ele></trkpt>
<trkpt lat="50.02879" lon="10.22377"><ele>209</ele></trkpt>
<trkpt lat="50.03070" lon="10.22547"><ele>209</ele></trkpt>
<trkpt lat="50.03095" lon="10.22554"><ele>209</ele></trkpt>
<trkpt lat="50.03218" lon="10.22662"><ele>209</ele></trkpt>
<trkpt lat="50.03209" lon="10.22690"><ele>210</ele></trkpt>
<trkpt lat="50.03211" lon="10.22725"><ele>210</ele></trkpt>
<trkpt lat="50.03219" lon="10.22733"><ele>210</ele></trkpt>
<trkpt lat="50.03119" lon="10.23000"><ele>209</ele></trkpt>
<trkpt lat="50.03124" lon="10.23006"><ele>209</ele></trkpt>
<trkpt lat="50.03137" lon="10.23010"><ele>209</ele></trkpt>
<trkpt lat="50.03160" lon="10.23035"><ele>209</ele></trkpt>
<trkpt lat="50.03195" lon="10.23095"><ele>209</ele></trkpt>
<trkpt lat="50.03210" lon="10.23103"><ele>209</ele></trkpt>
<trkpt lat="50.03240" lon="10.23141"><ele>211</ele></trkpt>
<trkpt lat="50.03249" lon="10.23163"><ele>209</ele></trkpt>
<trkpt lat="50.03260" lon="10.23180"><ele>209</ele></trkpt>
<trkpt lat="50.03345" lon="10.23283"><ele>209</ele></trkpt>
<trkpt lat="50.03389" lon="10.23331"><ele>210</ele></trkpt>
<trkpt lat="50.03393" lon="10.23348"><ele>210</ele></trkpt>
<trkpt lat="50.03417" lon="10.23360"><ele>210</ele></trkpt>
<trkpt lat="50.03424" lon="10.23351"><ele>210</ele></trkpt>
<trkpt lat="50.03473" lon="10.23373"><ele>209</ele></trkpt>
<trkpt lat="50.03514" lon="10.23381"><ele>210</ele></trkpt>
<trkpt lat="50.03633" lon="10.23390"><ele>210</ele></trkpt>
<trkpt lat="50.03638" lon="10.23394"><ele>210</ele></trkpt>
<trkpt lat="50.03679" lon="10.23563"><ele>210</ele></trkpt>
<trkpt lat="50.03708" lon="10.23644"><ele>210</ele></trkpt>
<trkpt lat="50.03717" lon="10.23636"><ele>210</ele></trkpt>
<trkpt lat="50.03762" lon="10.23727"><ele>210</ele></trkpt>
<trkpt lat="50.03814" lon="10.23809"><ele>210</ele></trkpt>
<trkpt lat="50.03821" lon="10.23812"><ele>210</ele></trkpt>
<trkpt lat="50.03858" lon="10.23805"><ele>211</ele></trkpt>
<trkpt lat="50.03867" lon="10.23809"><ele>210</ele></trkpt>
<trkpt lat="50.03874" lon="10.23819"><ele>210</ele></trkpt>
<trkpt lat="50.03884" lon="10.23933"><ele>210</ele></trkpt>
<trkpt lat="50.03893" lon="10.23971"><ele>210</ele></trkpt>
<trkpt lat="50.03900" lon="10.23986"><ele>209</ele></trkpt>
<trkpt lat="50.03882" lon="10.24002"><ele>211</ele></trkpt>
<trkpt lat="50.03883" lon="10.24024"><ele>211</ele></trkpt>
<trkpt lat="50.03897" lon="10.24037"><ele>210</ele></trkpt>
<trkpt lat="50.03904" lon="10.24023"><ele>210</ele></trkpt>
<trkpt lat="50.03920" lon="10.24011"><ele>210</ele></trkpt>
<trkpt lat="50.04054" lon="10.24004"><ele>212</ele></trkpt>
<trkpt lat="50.04070" lon="10.23999"><ele>212</ele></trkpt>
<trkpt lat="50.04091" lon="10.23986"><ele>212</ele></trkpt>
<trkpt lat="50.04103" lon="10.23970"><ele>212</ele></trkpt>
<trkpt lat="50.04262" lon="10.23819"><ele>212</ele></trkpt>
<trkpt lat="50.04362" lon="10.23710"><ele>216</ele></trkpt>
<trkpt lat="50.04366" lon="10.23706"><ele>216</ele></trkpt>
<trkpt lat="50.04378" lon="10.23708"><ele>216</ele></trkpt>
<trkpt lat="50.04395" lon="10.23689"><ele>217</ele></trkpt>
<trkpt lat="50.04387" lon="10.23668"><ele>218</ele></trkpt>
<trkpt lat="50.04429" lon="10.23604"><ele>218</ele></trkpt>
<trkpt lat="50.04491" lon="10.23497"><ele>218</ele></trkpt>
<trkpt lat="50.04496" lon="10.23471"><ele>218</ele></trkpt>
<trkpt lat="50.04518" lon="10.23438"><ele>219</ele></trkpt>
<trkpt lat="50.04547" lon="10.23411"><ele>220</ele></trkpt>
<trkpt lat="50.04573" lon="10.23394"><ele>221</ele></trkpt>
<trkpt lat="50.04592" lon="10.23396"><ele>222</ele></trkpt>
<trkpt lat="50.04642" lon="10.23378"><ele>224</ele></trkpt>
<trkpt lat="50.04665" lon="10.23363"><ele>226</ele></trkpt>
<trkpt lat="50.04789" lon="10.23226"><ele>228</ele></trkpt>
<trkpt lat="50.04895" lon="10.23136"><ele>230</ele></trkpt>
<trkpt lat="50.04905" lon="10.23122"><ele>230</ele></trkpt>
<trkpt lat="50.04909" lon="10.23130"><ele>230</ele></trkpt>
<trkpt lat="50.04919" lon="10.23123"><ele>229</ele></trkpt>
<trkpt lat="50.04925" lon="10.23114"><ele>230</ele></trkpt>
<trkpt lat="50.04909" lon="10.23070"><ele>231</ele></trkpt>
<trkpt lat="50.04918" lon="10.23057"><ele>231</ele></trkpt>
    </trkseg>
  </trk>
</gpx>
