<?xml version="1.0" encoding="UTF-8"?>
<gpx version="1.1" creator="Gravel Kompass" xmlns="http://www.topografix.com/GPX/1/1">
  <metadata><name>München–Haltern am See: Romantische Straße, Taubertal, Main, Lahn &amp; Ruhr – Etappe 3</name></metadata>
  <trk>
    <name>Etappe 3: Rothenburg ob der Tauber – Wertheim</name>
    <trkseg>
<trkpt lat="49.37720" lon="10.17893"><ele>425</ele></trkpt>
<trkpt lat="49.37701" lon="10.17901"><ele>424</ele></trkpt>
<trkpt lat="49.37694" lon="10.17899"><ele>424</ele></trkpt>
<trkpt lat="49.37696" lon="10.17889"><ele>424</ele></trkpt>
<trkpt lat="49.37689" lon="10.17747"><ele>422</ele></trkpt>
<trkpt lat="49.37735" lon="10.17747"><ele>423</ele></trkpt>
<trkpt lat="49.37762" lon="10.17741"><ele>422</ele></trkpt>
<trkpt lat="49.37771" lon="10.17734"><ele>422</ele></trkpt>
<trkpt lat="49.37894" lon="10.17707"><ele>416</ele></trkpt>
<trkpt lat="49.38019" lon="10.17645"><ele>414</ele></trkpt>
<trkpt lat="49.38034" lon="10.17642"><ele>414</ele></trkpt>
<trkpt lat="49.38045" lon="10.17630"><ele>414</ele></trkpt>
<trkpt lat="49.38056" lon="10.17600"><ele>412</ele></trkpt>
<trkpt lat="49.38076" lon="10.17587"><ele>412</ele></trkpt>
<trkpt lat="49.38101" lon="10.17599"><ele>414</ele></trkpt>
<trkpt lat="49.38104" lon="10.17605"><ele>414</ele></trkpt>
<trkpt lat="49.38159" lon="10.17584"><ele>411</ele></trkpt>
<trkpt lat="49.38184" lon="10.17579"><ele>410</ele></trkpt>
<trkpt lat="49.38220" lon="10.17579"><ele>410</ele></trkpt>
<trkpt lat="49.38230" lon="10.17573"><ele>409</ele></trkpt>
<trkpt lat="49.38240" lon="10.17560"><ele>409</ele></trkpt>
<trkpt lat="49.38250" lon="10.17538"><ele>408</ele></trkpt>
<trkpt lat="49.38253" lon="10.17506"><ele>407</ele></trkpt>
<trkpt lat="49.38254" lon="10.17413"><ele>405</ele></trkpt>
<trkpt lat="49.38266" lon="10.17379"><ele>404</ele></trkpt>
<trkpt lat="49.38282" lon="10.17360"><ele>402</ele></trkpt>
<trkpt lat="49.38331" lon="10.17324"><ele>399</ele></trkpt>
<trkpt lat="49.38368" lon="10.17288"><ele>396</ele></trkpt>
<trkpt lat="49.38405" lon="10.17243"><ele>394</ele></trkpt>
<trkpt lat="49.38478" lon="10.17134"><ele>388</ele></trkpt>
<trkpt lat="49.38498" lon="10.17117"><ele>387</ele></trkpt>
<trkpt lat="49.38520" lon="10.17111"><ele>385</ele></trkpt>
<trkpt lat="49.38570" lon="10.17128"><ele>383</ele></trkpt>
<trkpt lat="49.38594" lon="10.17147"><ele>382</ele></trkpt>
<trkpt lat="49.38647" lon="10.17206"><ele>380</ele></trkpt>
<trkpt lat="49.38663" lon="10.17215"><ele>379</ele></trkpt>
<trkpt lat="49.38681" lon="10.17216"><ele>376</ele></trkpt>
<trkpt lat="49.38698" lon="10.17208"><ele>375</ele></trkpt>
<trkpt lat="49.38711" lon="10.17191"><ele>377</ele></trkpt>
<trkpt lat="49.38723" lon="10.17150"><ele>373</ele></trkpt>
<trkpt lat="49.38721" lon="10.17116"><ele>370</ele></trkpt>
<trkpt lat="49.38707" lon="10.17088"><ele>366</ele></trkpt>
<trkpt lat="49.38697" lon="10.17078"><ele>365</ele></trkpt>
<trkpt lat="49.38665" lon="10.17065"><ele>364</ele></trkpt>
<trkpt lat="49.38608" lon="10.17058"><ele>363</ele></trkpt>
<trkpt lat="49.38585" lon="10.17051"><ele>362</ele></trkpt>
<trkpt lat="49.38564" lon="10.17035"><ele>362</ele></trkpt>
<trkpt lat="49.38551" lon="10.17013"><ele>360</ele></trkpt>
<trkpt lat="49.38525" lon="10.16999"><ele>358</ele></trkpt>
<trkpt lat="49.38500" lon="10.17012"><ele>358</ele></trkpt>
<trkpt lat="49.38400" lon="10.17114"><ele>352</ele></trkpt>
<trkpt lat="49.38365" lon="10.17142"><ele>350</ele></trkpt>
<trkpt lat="49.38326" lon="10.17167"><ele>348</ele></trkpt>
<trkpt lat="49.38266" lon="10.17189"><ele>345</ele></trkpt>
<trkpt lat="49.38241" lon="10.17188"><ele>344</ele></trkpt>
<trkpt lat="49.38220" lon="10.17180"><ele>343</ele></trkpt>
<trkpt lat="49.38190" lon="10.17152"><ele>340</ele></trkpt>
<trkpt lat="49.38173" lon="10.17117"><ele>339</ele></trkpt>
<trkpt lat="49.38163" lon="10.17066"><ele>338</ele></trkpt>
<trkpt lat="49.38165" lon="10.17011"><ele>338</ele></trkpt>
<trkpt lat="49.38138" lon="10.17008"><ele>338</ele></trkpt>
<trkpt lat="49.38074" lon="10.17048"><ele>336</ele></trkpt>
<trkpt lat="49.38065" lon="10.17020"><ele>337</ele></trkpt>
<trkpt lat="49.38061" lon="10.16938"><ele>339</ele></trkpt>
<trkpt lat="49.38056" lon="10.16905"><ele>340</ele></trkpt>
<trkpt lat="49.38038" lon="10.16842"><ele>342</ele></trkpt>
<trkpt lat="49.38020" lon="10.16802"><ele>344</ele></trkpt>
<trkpt lat="49.37964" lon="10.16708"><ele>348</ele></trkpt>
<trkpt lat="49.37953" lon="10.16665"><ele>349</ele></trkpt>
<trkpt lat="49.37935" lon="10.16561"><ele>352</ele></trkpt>
<trkpt lat="49.37935" lon="10.16518"><ele>352</ele></trkpt>
<trkpt lat="49.37943" lon="10.16451"><ele>350</ele></trkpt>
<trkpt lat="49.37939" lon="10.16412"><ele>351</ele></trkpt>
<trkpt lat="49.37908" lon="10.16288"><ele>361</ele></trkpt>
<trkpt lat="49.37909" lon="10.16168"><ele>360</ele></trkpt>
<trkpt lat="49.37899" lon="10.16099"><ele>367</ele></trkpt>
<trkpt lat="49.37903" lon="10.16017"><ele>366</ele></trkpt>
<trkpt lat="49.37899" lon="10.15822"><ele>372</ele></trkpt>
<trkpt lat="49.37906" lon="10.15738"><ele>374</ele></trkpt>
<trkpt lat="49.37906" lon="10.15681"><ele>375</ele></trkpt>
<trkpt lat="49.37923" lon="10.15525"><ele>381</ele></trkpt>
<trkpt lat="49.37934" lon="10.15448"><ele>384</ele></trkpt>
<trkpt lat="49.37955" lon="10.15367"><ele>387</ele></trkpt>
<trkpt lat="49.37970" lon="10.15230"><ele>392</ele></trkpt>
<trkpt lat="49.37979" lon="10.15203"><ele>393</ele></trkpt>
<trkpt lat="49.37994" lon="10.15171"><ele>393</ele></trkpt>
<trkpt lat="49.38020" lon="10.15090"><ele>395</ele></trkpt>
<trkpt lat="49.38034" lon="10.15059"><ele>394</ele></trkpt>
<trkpt lat="49.38081" lon="10.14989"><ele>395</ele></trkpt>
<trkpt lat="49.38098" lon="10.14952"><ele>395</ele></trkpt>
<trkpt lat="49.38128" lon="10.14878"><ele>398</ele></trkpt>
<trkpt lat="49.38154" lon="10.14790"><ele>400</ele></trkpt>
<trkpt lat="49.38182" lon="10.14742"><ele>402</ele></trkpt>
<trkpt lat="49.38268" lon="10.14566"><ele>410</ele></trkpt>
<trkpt lat="49.38376" lon="10.14291"><ele>427</ele></trkpt>
<trkpt lat="49.38394" lon="10.14258"><ele>428</ele></trkpt>
<trkpt lat="49.38402" lon="10.14233"><ele>429</ele></trkpt>
<trkpt lat="49.38622" lon="10.14210"><ele>434</ele></trkpt>
<trkpt lat="49.38815" lon="10.14124"><ele>436</ele></trkpt>
<trkpt lat="49.38880" lon="10.14111"><ele>438</ele></trkpt>
<trkpt lat="49.38949" lon="10.14088"><ele>439</ele></trkpt>
<trkpt lat="49.38964" lon="10.14077"><ele>440</ele></trkpt>
<trkpt lat="49.39002" lon="10.13887"><ele>440</ele></trkpt>
<trkpt lat="49.39013" lon="10.13847"><ele>440</ele></trkpt>
<trkpt lat="49.39075" lon="10.13718"><ele>442</ele></trkpt>
<trkpt lat="49.39098" lon="10.13741"><ele>442</ele></trkpt>
<trkpt lat="49.39129" lon="10.13709"><ele>442</ele></trkpt>
<trkpt lat="49.39276" lon="10.13632"><ele>448</ele></trkpt>
<trkpt lat="49.39584" lon="10.13487"><ele>460</ele></trkpt>
<trkpt lat="49.39685" lon="10.13428"><ele>458</ele></trkpt>
<trkpt lat="49.39966" lon="10.13308"><ele>445</ele></trkpt>
<trkpt lat="49.40205" lon="10.13281"><ele>436</ele></trkpt>
<trkpt lat="49.40224" lon="10.13271"><ele>436</ele></trkpt>
<trkpt lat="49.40250" lon="10.13243"><ele>433</ele></trkpt>
<trkpt lat="49.40324" lon="10.13107"><ele>433</ele></trkpt>
<trkpt lat="49.40351" lon="10.13072"><ele>434</ele></trkpt>
<trkpt lat="49.40710" lon="10.12919"><ele>450</ele></trkpt>
<trkpt lat="49.40732" lon="10.12896"><ele>450</ele></trkpt>
<trkpt lat="49.40740" lon="10.12867"><ele>450</ele></trkpt>
<trkpt lat="49.40741" lon="10.12833"><ele>450</ele></trkpt>
<trkpt lat="49.40729" lon="10.12704"><ele>450</ele></trkpt>
<trkpt lat="49.40715" lon="10.12495"><ele>451</ele></trkpt>
<trkpt lat="49.40701" lon="10.12336"><ele>450</ele></trkpt>
<trkpt lat="49.40702" lon="10.12282"><ele>450</ele></trkpt>
<trkpt lat="49.40711" lon="10.12239"><ele>449</ele></trkpt>
<trkpt lat="49.40796" lon="10.12072"><ele>441</ele></trkpt>
<trkpt lat="49.40823" lon="10.12026"><ele>440</ele></trkpt>
<trkpt lat="49.40870" lon="10.12069"><ele>440</ele></trkpt>
<trkpt lat="49.40903" lon="10.12110"><ele>439</ele></trkpt>
<trkpt lat="49.40925" lon="10.12128"><ele>438</ele></trkpt>
<trkpt lat="49.40942" lon="10.12138"><ele>438</ele></trkpt>
<trkpt lat="49.40971" lon="10.12145"><ele>438</ele></trkpt>
<trkpt lat="49.41076" lon="10.12131"><ele>438</ele></trkpt>
<trkpt lat="49.41318" lon="10.12119"><ele>443</ele></trkpt>
<trkpt lat="49.41373" lon="10.12111"><ele>441</ele></trkpt>
<trkpt lat="49.41416" lon="10.12097"><ele>439</ele></trkpt>
<trkpt lat="49.41436" lon="10.12078"><ele>438</ele></trkpt>
<trkpt lat="49.41579" lon="10.11899"><ele>435</ele></trkpt>
<trkpt lat="49.41649" lon="10.11851"><ele>436</ele></trkpt>
<trkpt lat="49.41790" lon="10.11716"><ele>439</ele></trkpt>
<trkpt lat="49.41817" lon="10.11694"><ele>441</ele></trkpt>
<trkpt lat="49.41889" lon="10.11652"><ele>443</ele></trkpt>
<trkpt lat="49.41942" lon="10.11635"><ele>440</ele></trkpt>
<trkpt lat="49.41991" lon="10.11625"><ele>438</ele></trkpt>
<trkpt lat="49.42145" lon="10.11603"><ele>432</ele></trkpt>
<trkpt lat="49.42207" lon="10.11585"><ele>434</ele></trkpt>
<trkpt lat="49.42352" lon="10.11518"><ele>438</ele></trkpt>
<trkpt lat="49.42438" lon="10.11491"><ele>432</ele></trkpt>
<trkpt lat="49.42521" lon="10.11483"><ele>434</ele></trkpt>
<trkpt lat="49.42629" lon="10.11499"><ele>432</ele></trkpt>
<trkpt lat="49.42687" lon="10.11496"><ele>428</ele></trkpt>
<trkpt lat="49.42723" lon="10.11503"><ele>426</ele></trkpt>
<trkpt lat="49.42741" lon="10.11491"><ele>426</ele></trkpt>
<trkpt lat="49.42858" lon="10.11301"><ele>440</ele></trkpt>
<trkpt lat="49.42899" lon="10.11245"><ele>443</ele></trkpt>
<trkpt lat="49.42948" lon="10.11170"><ele>446</ele></trkpt>
<trkpt lat="49.43050" lon="10.10979"><ele>447</ele></trkpt>
<trkpt lat="49.43220" lon="10.10705"><ele>439</ele></trkpt>
<trkpt lat="49.43271" lon="10.10602"><ele>437</ele></trkpt>
<trkpt lat="49.43309" lon="10.10494"><ele>434</ele></trkpt>
<trkpt lat="49.43331" lon="10.10407"><ele>432</ele></trkpt>
<trkpt lat="49.43339" lon="10.10357"><ele>430</ele></trkpt>
<trkpt lat="49.43345" lon="10.10248"><ele>428</ele></trkpt>
<trkpt lat="49.43343" lon="10.10185"><ele>428</ele></trkpt>
<trkpt lat="49.43334" lon="10.10106"><ele>428</ele></trkpt>
<trkpt lat="49.43320" lon="10.10036"><ele>428</ele></trkpt>
<trkpt lat="49.43266" lon="10.09793"><ele>428</ele></trkpt>
<trkpt lat="49.43251" lon="10.09674"><ele>428</ele></trkpt>
<trkpt lat="49.43246" lon="10.09598"><ele>426</ele></trkpt>
<trkpt lat="49.43248" lon="10.09503"><ele>425</ele></trkpt>
<trkpt lat="49.43258" lon="10.09397"><ele>429</ele></trkpt>
<trkpt lat="49.43269" lon="10.09336"><ele>432</ele></trkpt>
<trkpt lat="49.43303" lon="10.09202"><ele>436</ele></trkpt>
<trkpt lat="49.43358" lon="10.09058"><ele>437</ele></trkpt>
<trkpt lat="49.43424" lon="10.08928"><ele>435</ele></trkpt>
<trkpt lat="49.43650" lon="10.08552"><ele>434</ele></trkpt>
<trkpt lat="49.43727" lon="10.08385"><ele>430</ele></trkpt>
<trkpt lat="49.43754" lon="10.08317"><ele>427</ele></trkpt>
<trkpt lat="49.43796" lon="10.08163"><ele>424</ele></trkpt>
<trkpt lat="49.43816" lon="10.08073"><ele>423</ele></trkpt>
<trkpt lat="49.43866" lon="10.07755"><ele>421</ele></trkpt>
<trkpt lat="49.43879" lon="10.07701"><ele>420</ele></trkpt>
<trkpt lat="49.43914" lon="10.07610"><ele>419</ele></trkpt>
<trkpt lat="49.43942" lon="10.07551"><ele>419</ele></trkpt>
<trkpt lat="49.44008" lon="10.07441"><ele>414</ele></trkpt>
<trkpt lat="49.44033" lon="10.07410"><ele>411</ele></trkpt>
<trkpt lat="49.44052" lon="10.07400"><ele>410</ele></trkpt>
<trkpt lat="49.44111" lon="10.07383"><ele>408</ele></trkpt>
<trkpt lat="49.44133" lon="10.07369"><ele>406</ele></trkpt>
<trkpt lat="49.44157" lon="10.07345"><ele>404</ele></trkpt>
<trkpt lat="49.44186" lon="10.07301"><ele>399</ele></trkpt>
<trkpt lat="49.44224" lon="10.07226"><ele>394</ele></trkpt>
<trkpt lat="49.44242" lon="10.07197"><ele>393</ele></trkpt>
<trkpt lat="49.44262" lon="10.07174"><ele>393</ele></trkpt>
<trkpt lat="49.44367" lon="10.07100"><ele>384</ele></trkpt>
<trkpt lat="49.44409" lon="10.07086"><ele>380</ele></trkpt>
<trkpt lat="49.44436" lon="10.07084"><ele>376</ele></trkpt>
<trkpt lat="49.44490" lon="10.07058"><ele>372</ele></trkpt>
<trkpt lat="49.44530" lon="10.07027"><ele>366</ele></trkpt>
<trkpt lat="49.44599" lon="10.06955"><ele>362</ele></trkpt>
<trkpt lat="49.44630" lon="10.06932"><ele>358</ele></trkpt>
<trkpt lat="49.44841" lon="10.06815"><ele>336</ele></trkpt>
<trkpt lat="49.44877" lon="10.06790"><ele>332</ele></trkpt>
<trkpt lat="49.44916" lon="10.06753"><ele>327</ele></trkpt>
<trkpt lat="49.44957" lon="10.06727"><ele>321</ele></trkpt>
<trkpt lat="49.44976" lon="10.06720"><ele>319</ele></trkpt>
<trkpt lat="49.45014" lon="10.06718"><ele>315</ele></trkpt>
<trkpt lat="49.45091" lon="10.06733"><ele>306</ele></trkpt>
<trkpt lat="49.45200" lon="10.06735"><ele>299</ele></trkpt>
<trkpt lat="49.45221" lon="10.06744"><ele>297</ele></trkpt>
<trkpt lat="49.45262" lon="10.06783"><ele>294</ele></trkpt>
<trkpt lat="49.45298" lon="10.06808"><ele>290</ele></trkpt>
<trkpt lat="49.45302" lon="10.06794"><ele>290</ele></trkpt>
<trkpt lat="49.45356" lon="10.06690"><ele>289</ele></trkpt>
<trkpt lat="49.45511" lon="10.06318"><ele>291</ele></trkpt>
<trkpt lat="49.45528" lon="10.06273"><ele>292</ele></trkpt>
<trkpt lat="49.45536" lon="10.06240"><ele>292</ele></trkpt>
<trkpt lat="49.45539" lon="10.06206"><ele>295</ele></trkpt>
<trkpt lat="49.45570" lon="10.06131"><ele>298</ele></trkpt>
<trkpt lat="49.45600" lon="10.06087"><ele>300</ele></trkpt>
<trkpt lat="49.45676" lon="10.06020"><ele>296</ele></trkpt>
<trkpt lat="49.45954" lon="10.05661"><ele>286</ele></trkpt>
<trkpt lat="49.45997" lon="10.05596"><ele>284</ele></trkpt>
<trkpt lat="49.46049" lon="10.05501"><ele>283</ele></trkpt>
<trkpt lat="49.46131" lon="10.05367"><ele>282</ele></trkpt>
<trkpt lat="49.46198" lon="10.05276"><ele>280</ele></trkpt>
<trkpt lat="49.46247" lon="10.05198"><ele>279</ele></trkpt>
<trkpt lat="49.46333" lon="10.05103"><ele>274</ele></trkpt>
<trkpt lat="49.46358" lon="10.05070"><ele>274</ele></trkpt>
<trkpt lat="49.46362" lon="10.05061"><ele>274</ele></trkpt>
<trkpt lat="49.46364" lon="10.05039"><ele>274</ele></trkpt>
<trkpt lat="49.46386" lon="10.04719"><ele>277</ele></trkpt>
<trkpt lat="49.46426" lon="10.04480"><ele>278</ele></trkpt>
<trkpt lat="49.46437" lon="10.04441"><ele>277</ele></trkpt>
<trkpt lat="49.46504" lon="10.04265"><ele>276</ele></trkpt>
<trkpt lat="49.46594" lon="10.03946"><ele>281</ele></trkpt>
<trkpt lat="49.46660" lon="10.03754"><ele>282</ele></trkpt>
<trkpt lat="49.46686" lon="10.03685"><ele>280</ele></trkpt>
<trkpt lat="49.46762" lon="10.03532"><ele>276</ele></trkpt>
<trkpt lat="49.46780" lon="10.03485"><ele>276</ele></trkpt>
<trkpt lat="49.46802" lon="10.03405"><ele>275</ele></trkpt>
<trkpt lat="49.46812" lon="10.03346"><ele>276</ele></trkpt>
<trkpt lat="49.46815" lon="10.03310"><ele>277</ele></trkpt>
<trkpt lat="49.46812" lon="10.03246"><ele>277</ele></trkpt>
<trkpt lat="49.46818" lon="10.03207"><ele>274</ele></trkpt>
<trkpt lat="49.46832" lon="10.03170"><ele>272</ele></trkpt>
<trkpt lat="49.46848" lon="10.03156"><ele>270</ele></trkpt>
<trkpt lat="49.46865" lon="10.03116"><ele>269</ele></trkpt>
<trkpt lat="49.46867" lon="10.03052"><ele>270</ele></trkpt>
<trkpt lat="49.46877" lon="10.02987"><ele>274</ele></trkpt>
<trkpt lat="49.46884" lon="10.02996"><ele>272</ele></trkpt>
<trkpt lat="49.46877" lon="10.02987"><ele>274</ele></trkpt>
<trkpt lat="49.46867" lon="10.03052"><ele>270</ele></trkpt>
<trkpt lat="49.46921" lon="10.03063"><ele>269</ele></trkpt>
<trkpt lat="49.46974" lon="10.03094"><ele>267</ele></trkpt>
<trkpt lat="49.47008" lon="10.03132"><ele>267</ele></trkpt>
<trkpt lat="49.47051" lon="10.03193"><ele>267</ele></trkpt>
<trkpt lat="49.47076" lon="10.03157"><ele>267</ele></trkpt>
<trkpt lat="49.47128" lon="10.03040"><ele>267</ele></trkpt>
<trkpt lat="49.47196" lon="10.02931"><ele>267</ele></trkpt>
<trkpt lat="49.47230" lon="10.02867"><ele>266</ele></trkpt>
<trkpt lat="49.47244" lon="10.02832"><ele>266</ele></trkpt>
<trkpt lat="49.47298" lon="10.02858"><ele>267</ele></trkpt>
<trkpt lat="49.47311" lon="10.02840"><ele>267</ele></trkpt>
<trkpt lat="49.47319" lon="10.02838"><ele>267</ele></trkpt>
<trkpt lat="49.47434" lon="10.02679"><ele>268</ele></trkpt>
<trkpt lat="49.47449" lon="10.02672"><ele>268</ele></trkpt>
<trkpt lat="49.47456" lon="10.02664"><ele>268</ele></trkpt>
<trkpt lat="49.47531" lon="10.02505"><ele>267</ele></trkpt>
<trkpt lat="49.47573" lon="10.02430"><ele>267</ele></trkpt>
<trkpt lat="49.47648" lon="10.02317"><ele>267</ele></trkpt>
<trkpt lat="49.47699" lon="10.02255"><ele>266</ele></trkpt>
<trkpt lat="49.47780" lon="10.02169"><ele>266</ele></trkpt>
<trkpt lat="49.47837" lon="10.02119"><ele>266</ele></trkpt>
<trkpt lat="49.47860" lon="10.02104"><ele>266</ele></trkpt>
<trkpt lat="49.47917" lon="10.02078"><ele>266</ele></trkpt>
<trkpt lat="49.48107" lon="10.02018"><ele>266</ele></trkpt>
<trkpt lat="49.48143" lon="10.02008"><ele>266</ele></trkpt>
<trkpt lat="49.48214" lon="10.01997"><ele>264</ele></trkpt>
<trkpt lat="49.48295" lon="10.02000"><ele>264</ele></trkpt>
<trkpt lat="49.48365" lon="10.02011"><ele>264</ele></trkpt>
<trkpt lat="49.48521" lon="10.02057"><ele>266</ele></trkpt>
<trkpt lat="49.48573" lon="10.02063"><ele>266</ele></trkpt>
<trkpt lat="49.48609" lon="10.02061"><ele>267</ele></trkpt>
<trkpt lat="49.48639" lon="10.02053"><ele>266</ele></trkpt>
<trkpt lat="49.48684" lon="10.02027"><ele>265</ele></trkpt>
<trkpt lat="49.48787" lon="10.01938"><ele>264</ele></trkpt>
<trkpt lat="49.48829" lon="10.01918"><ele>262</ele></trkpt>
<trkpt lat="49.48876" lon="10.01912"><ele>263</ele></trkpt>
<trkpt lat="49.48906" lon="10.01916"><ele>262</ele></trkpt>
<trkpt lat="49.48951" lon="10.01935"><ele>262</ele></trkpt>
<trkpt lat="49.49167" lon="10.02091"><ele>260</ele></trkpt>
<trkpt lat="49.49220" lon="10.02117"><ele>260</ele></trkpt>
<trkpt lat="49.49272" lon="10.02134"><ele>261</ele></trkpt>
<trkpt lat="49.49333" lon="10.02142"><ele>260</ele></trkpt>
<trkpt lat="49.49529" lon="10.02134"><ele>262</ele></trkpt>
<trkpt lat="49.49602" lon="10.02123"><ele>260</ele></trkpt>
<trkpt lat="49.49659" lon="10.02102"><ele>261</ele></trkpt>
<trkpt lat="49.49739" lon="10.02059"><ele>259</ele></trkpt>
<trkpt lat="49.49833" lon="10.01997"><ele>258</ele></trkpt>
<trkpt lat="49.49948" lon="10.01895"><ele>257</ele></trkpt>
<trkpt lat="49.49974" lon="10.01877"><ele>257</ele></trkpt>
<trkpt lat="49.50043" lon="10.01844"><ele>256</ele></trkpt>
<trkpt lat="49.50088" lon="10.01836"><ele>256</ele></trkpt>
<trkpt lat="49.50137" lon="10.01837"><ele>256</ele></trkpt>
<trkpt lat="49.50183" lon="10.01846"><ele>256</ele></trkpt>
<trkpt lat="49.50245" lon="10.01875"><ele>256</ele></trkpt>
<trkpt lat="49.50296" lon="10.01908"><ele>255</ele></trkpt>
<trkpt lat="49.50340" lon="10.01930"><ele>253</ele></trkpt>
<trkpt lat="49.50402" lon="10.01945"><ele>255</ele></trkpt>
<trkpt lat="49.50441" lon="10.01940"><ele>255</ele></trkpt>
<trkpt lat="49.50460" lon="10.01925"><ele>254</ele></trkpt>
<trkpt lat="49.50487" lon="10.01916"><ele>254</ele></trkpt>
<trkpt lat="49.50593" lon="10.01864"><ele>251</ele></trkpt>
<trkpt lat="49.50656" lon="10.01855"><ele>250</ele></trkpt>
<trkpt lat="49.50718" lon="10.01861"><ele>250</ele></trkpt>
<trkpt lat="49.50766" lon="10.01838"><ele>250</ele></trkpt>
<trkpt lat="49.50796" lon="10.01809"><ele>250</ele></trkpt>
<trkpt lat="49.50821" lon="10.01803"><ele>250</ele></trkpt>
<trkpt lat="49.50919" lon="10.01804"><ele>250</ele></trkpt>
<trkpt lat="49.50928" lon="10.01801"><ele>251</ele></trkpt>
<trkpt lat="49.50966" lon="10.01748"><ele>252</ele></trkpt>
<trkpt lat="49.51008" lon="10.01628"><ele>251</ele></trkpt>
<trkpt lat="49.51028" lon="10.01519"><ele>250</ele></trkpt>
<trkpt lat="49.51035" lon="10.01385"><ele>251</ele></trkpt>
<trkpt lat="49.51029" lon="10.01234"><ele>249</ele></trkpt>
<trkpt lat="49.51030" lon="10.01179"><ele>250</ele></trkpt>
<trkpt lat="49.51037" lon="10.01135"><ele>252</ele></trkpt>
<trkpt lat="49.51056" lon="10.01092"><ele>252</ele></trkpt>
<trkpt lat="49.51150" lon="10.01061"><ele>256</ele></trkpt>
<trkpt lat="49.51200" lon="10.01036"><ele>256</ele></trkpt>
<trkpt lat="49.51224" lon="10.01032"><ele>256</ele></trkpt>
<trkpt lat="49.51264" lon="10.01040"><ele>256</ele></trkpt>
<trkpt lat="49.51297" lon="10.01055"><ele>255</ele></trkpt>
<trkpt lat="49.51306" lon="10.01007"><ele>253</ele></trkpt>
<trkpt lat="49.51314" lon="10.00933"><ele>252</ele></trkpt>
<trkpt lat="49.51311" lon="10.00920"><ele>252</ele></trkpt>
<trkpt lat="49.51451" lon="10.00812"><ele>248</ele></trkpt>
<trkpt lat="49.51474" lon="10.00802"><ele>248</ele></trkpt>
<trkpt lat="49.51517" lon="10.00793"><ele>247</ele></trkpt>
<trkpt lat="49.51559" lon="10.00789"><ele>247</ele></trkpt>
<trkpt lat="49.51577" lon="10.00468"><ele>245</ele></trkpt>
<trkpt lat="49.51602" lon="10.00282"><ele>247</ele></trkpt>
<trkpt lat="49.51640" lon="10.00298"><ele>246</ele></trkpt>
<trkpt lat="49.51680" lon="10.00297"><ele>246</ele></trkpt>
<trkpt lat="49.51700" lon="10.00287"><ele>246</ele></trkpt>
<trkpt lat="49.51734" lon="10.00247"><ele>246</ele></trkpt>
<trkpt lat="49.51790" lon="10.00195"><ele>245</ele></trkpt>
<trkpt lat="49.51813" lon="10.00155"><ele>246</ele></trkpt>
<trkpt lat="49.51842" lon="10.00095"><ele>245</ele></trkpt>
<trkpt lat="49.51861" lon="10.00048"><ele>246</ele></trkpt>
<trkpt lat="49.51884" lon="9.99976"><ele>247</ele></trkpt>
<trkpt lat="49.51917" lon="9.99845"><ele>246</ele></trkpt>
<trkpt lat="49.51922" lon="9.99812"><ele>245</ele></trkpt>
<trkpt lat="49.51922" lon="9.99753"><ele>245</ele></trkpt>
<trkpt lat="49.51900" lon="9.99628"><ele>244</ele></trkpt>
<trkpt lat="49.51861" lon="9.99473"><ele>244</ele></trkpt>
<trkpt lat="49.51837" lon="9.99307"><ele>246</ele></trkpt>
<trkpt lat="49.51788" lon="9.99154"><ele>244</ele></trkpt>
<trkpt lat="49.51745" lon="9.99056"><ele>244</ele></trkpt>
<trkpt lat="49.51655" lon="9.98830"><ele>244</ele></trkpt>
<trkpt lat="49.51734" lon="9.98736"><ele>242</ele></trkpt>
<trkpt lat="49.51736" lon="9.98724"><ele>240</ele></trkpt>
<trkpt lat="49.51732" lon="9.98713"><ele>241</ele></trkpt>
<trkpt lat="49.51722" lon="9.98702"><ele>242</ele></trkpt>
<trkpt lat="49.51476" lon="9.98438"><ele>242</ele></trkpt>
<trkpt lat="49.51468" lon="9.98436"><ele>241</ele></trkpt>
<trkpt lat="49.51458" lon="9.98348"><ele>240</ele></trkpt>
<trkpt lat="49.51452" lon="9.98264"><ele>241</ele></trkpt>
<trkpt lat="49.51441" lon="9.98225"><ele>241</ele></trkpt>
<trkpt lat="49.51354" lon="9.97971"><ele>241</ele></trkpt>
<trkpt lat="49.51343" lon="9.97931"><ele>240</ele></trkpt>
<trkpt lat="49.51332" lon="9.97793"><ele>242</ele></trkpt>
<trkpt lat="49.51298" lon="9.97732"><ele>242</ele></trkpt>
<trkpt lat="49.51206" lon="9.97541"><ele>241</ele></trkpt>
<trkpt lat="49.51210" lon="9.97536"><ele>242</ele></trkpt>
<trkpt lat="49.51177" lon="9.97439"><ele>241</ele></trkpt>
<trkpt lat="49.51087" lon="9.97138"><ele>241</ele></trkpt>
<trkpt lat="49.51084" lon="9.97099"><ele>241</ele></trkpt>
<trkpt lat="49.51070" lon="9.97086"><ele>241</ele></trkpt>
<trkpt lat="49.51038" lon="9.96965"><ele>240</ele></trkpt>
<trkpt lat="49.51030" lon="9.96960"><ele>240</ele></trkpt>
<trkpt lat="49.50998" lon="9.96913"><ele>241</ele></trkpt>
<trkpt lat="49.50991" lon="9.96910"><ele>241</ele></trkpt>
<trkpt lat="49.50897" lon="9.96993"><ele>239</ele></trkpt>
<trkpt lat="49.50896" lon="9.97008"><ele>239</ele></trkpt>
<trkpt lat="49.50698" lon="9.97049"><ele>239</ele></trkpt>
<trkpt lat="49.50673" lon="9.97051"><ele>239</ele></trkpt>
<trkpt lat="49.50604" lon="9.97029"><ele>239</ele></trkpt>
<trkpt lat="49.50565" lon="9.97011"><ele>240</ele></trkpt>
<trkpt lat="49.50551" lon="9.97001"><ele>240</ele></trkpt>
<trkpt lat="49.50497" lon="9.96933"><ele>242</ele></trkpt>
<trkpt lat="49.50495" lon="9.96920"><ele>241</ele></trkpt>
<trkpt lat="49.50454" lon="9.96853"><ele>241</ele></trkpt>
<trkpt lat="49.50406" lon="9.96754"><ele>240</ele></trkpt>
<trkpt lat="49.50369" lon="9.96689"><ele>239</ele></trkpt>
<trkpt lat="49.50274" lon="9.96557"><ele>238</ele></trkpt>
<trkpt lat="49.50136" lon="9.96334"><ele>239</ele></trkpt>
<trkpt lat="49.49917" lon="9.95733"><ele>240</ele></trkpt>
<trkpt lat="49.49827" lon="9.95521"><ele>238</ele></trkpt>
<trkpt lat="49.49773" lon="9.95403"><ele>238</ele></trkpt>
<trkpt lat="49.49672" lon="9.95304"><ele>240</ele></trkpt>
<trkpt lat="49.49645" lon="9.95306"><ele>242</ele></trkpt>
<trkpt lat="49.49619" lon="9.95300"><ele>243</ele></trkpt>
<trkpt lat="49.49608" lon="9.95293"><ele>243</ele></trkpt>
<trkpt lat="49.49499" lon="9.95130"><ele>236</ele></trkpt>
<trkpt lat="49.49441" lon="9.95050"><ele>236</ele></trkpt>
<trkpt lat="49.49401" lon="9.94938"><ele>235</ele></trkpt>
<trkpt lat="49.49357" lon="9.94782"><ele>236</ele></trkpt>
<trkpt lat="49.49331" lon="9.94672"><ele>236</ele></trkpt>
<trkpt lat="49.49317" lon="9.94596"><ele>244</ele></trkpt>
<trkpt lat="49.49304" lon="9.94308"><ele>236</ele></trkpt>
<trkpt lat="49.49292" lon="9.94270"><ele>240</ele></trkpt>
<trkpt lat="49.49326" lon="9.94053"><ele>238</ele></trkpt>
<trkpt lat="49.49378" lon="9.94043"><ele>234</ele></trkpt>
<trkpt lat="49.49387" lon="9.94038"><ele>234</ele></trkpt>
<trkpt lat="49.49402" lon="9.94021"><ele>233</ele></trkpt>
<trkpt lat="49.49418" lon="9.93977"><ele>233</ele></trkpt>
<trkpt lat="49.49477" lon="9.93750"><ele>233</ele></trkpt>
<trkpt lat="49.49507" lon="9.93664"><ele>233</ele></trkpt>
<trkpt lat="49.49537" lon="9.93556"><ele>232</ele></trkpt>
<trkpt lat="49.49543" lon="9.93543"><ele>232</ele></trkpt>
<trkpt lat="49.49550" lon="9.93537"><ele>232</ele></trkpt>
<trkpt lat="49.49546" lon="9.93400"><ele>231</ele></trkpt>
<trkpt lat="49.49546" lon="9.93255"><ele>232</ele></trkpt>
<trkpt lat="49.49588" lon="9.92871"><ele>231</ele></trkpt>
<trkpt lat="49.49590" lon="9.92454"><ele>231</ele></trkpt>
<trkpt lat="49.49596" lon="9.92305"><ele>230</ele></trkpt>
<trkpt lat="49.49598" lon="9.91928"><ele>230</ele></trkpt>
<trkpt lat="49.49567" lon="9.91558"><ele>230</ele></trkpt>
<trkpt lat="49.49555" lon="9.91157"><ele>230</ele></trkpt>
<trkpt lat="49.49514" lon="9.90858"><ele>229</ele></trkpt>
<trkpt lat="49.49506" lon="9.90727"><ele>228</ele></trkpt>
<trkpt lat="49.49493" lon="9.90621"><ele>227</ele></trkpt>
<trkpt lat="49.49480" lon="9.90561"><ele>226</ele></trkpt>
<trkpt lat="49.49444" lon="9.90482"><ele>227</ele></trkpt>
<trkpt lat="49.49385" lon="9.90360"><ele>228</ele></trkpt>
<trkpt lat="49.49339" lon="9.90279"><ele>227</ele></trkpt>
<trkpt lat="49.49312" lon="9.90238"><ele>227</ele></trkpt>
<trkpt lat="49.49306" lon="9.90219"><ele>226</ele></trkpt>
<trkpt lat="49.49300" lon="9.90115"><ele>225</ele></trkpt>
<trkpt lat="49.49296" lon="9.90103"><ele>225</ele></trkpt>
<trkpt lat="49.49116" lon="9.90130"><ele>230</ele></trkpt>
<trkpt lat="49.49027" lon="9.90158"><ele>231</ele></trkpt>
<trkpt lat="49.48895" lon="9.90185"><ele>232</ele></trkpt>
<trkpt lat="49.48880" lon="9.90172"><ele>232</ele></trkpt>
<trkpt lat="49.48877" lon="9.90181"><ele>232</ele></trkpt>
<trkpt lat="49.48862" lon="9.90204"><ele>233</ele></trkpt>
<trkpt lat="49.48853" lon="9.90196"><ele>233</ele></trkpt>
<trkpt lat="49.48843" lon="9.90200"><ele>233</ele></trkpt>
<trkpt lat="49.48833" lon="9.90187"><ele>232</ele></trkpt>
<trkpt lat="49.48723" lon="9.90132"><ele>230</ele></trkpt>
<trkpt lat="49.48595" lon="9.90021"><ele>228</ele></trkpt>
<trkpt lat="49.48480" lon="9.89947"><ele>226</ele></trkpt>
<trkpt lat="49.48405" lon="9.89906"><ele>225</ele></trkpt>
<trkpt lat="49.48369" lon="9.89910"><ele>225</ele></trkpt>
<trkpt lat="49.48366" lon="9.89906"><ele>225</ele></trkpt>
<trkpt lat="49.48359" lon="9.89930"><ele>225</ele></trkpt>
<trkpt lat="49.48311" lon="9.89921"><ele>225</ele></trkpt>
<trkpt lat="49.48286" lon="9.89922"><ele>225</ele></trkpt>
<trkpt lat="49.48281" lon="9.89970"><ele>225</ele></trkpt>
<trkpt lat="49.48269" lon="9.90036"><ele>226</ele></trkpt>
<trkpt lat="49.48242" lon="9.90006"><ele>225</ele></trkpt>
<trkpt lat="49.48213" lon="9.89960"><ele>225</ele></trkpt>
<trkpt lat="49.48145" lon="9.89930"><ele>225</ele></trkpt>
<trkpt lat="49.48105" lon="9.89902"><ele>226</ele></trkpt>
<trkpt lat="49.48105" lon="9.89828"><ele>226</ele></trkpt>
<trkpt lat="49.48079" lon="9.89811"><ele>227</ele></trkpt>
<trkpt lat="49.48071" lon="9.89797"><ele>228</ele></trkpt>
<trkpt lat="49.48055" lon="9.89793"><ele>229</ele></trkpt>
<trkpt lat="49.48052" lon="9.89782"><ele>229</ele></trkpt>
<trkpt lat="49.48054" lon="9.89765"><ele>228</ele></trkpt>
<trkpt lat="49.48052" lon="9.89782"><ele>229</ele></trkpt>
<trkpt lat="49.48055" lon="9.89793"><ele>229</ele></trkpt>
<trkpt lat="49.48047" lon="9.89804"><ele>229</ele></trkpt>
<trkpt lat="49.48027" lon="9.89806"><ele>230</ele></trkpt>
<trkpt lat="49.47973" lon="9.89843"><ele>233</ele></trkpt>
<trkpt lat="49.47961" lon="9.89875"><ele>234</ele></trkpt>
<trkpt lat="49.47755" lon="9.89766"><ele>232</ele></trkpt>
<trkpt lat="49.47747" lon="9.89745"><ele>232</ele></trkpt>
<trkpt lat="49.47720" lon="9.89708"><ele>230</ele></trkpt>
<trkpt lat="49.47687" lon="9.89675"><ele>229</ele></trkpt>
<trkpt lat="49.47636" lon="9.89638"><ele>227</ele></trkpt>
<trkpt lat="49.47582" lon="9.89628"><ele>225</ele></trkpt>
<trkpt lat="49.47476" lon="9.89624"><ele>224</ele></trkpt>
<trkpt lat="49.47462" lon="9.89627"><ele>224</ele></trkpt>
<trkpt lat="49.47439" lon="9.89644"><ele>224</ele></trkpt>
<trkpt lat="49.47417" lon="9.89644"><ele>223</ele></trkpt>
<trkpt lat="49.47379" lon="9.89634"><ele>223</ele></trkpt>
<trkpt lat="49.47308" lon="9.89607"><ele>222</ele></trkpt>
<trkpt lat="49.47264" lon="9.89551"><ele>222</ele></trkpt>
<trkpt lat="49.47202" lon="9.89436"><ele>222</ele></trkpt>
<trkpt lat="49.47154" lon="9.89289"><ele>221</ele></trkpt>
<trkpt lat="49.47143" lon="9.89280"><ele>221</ele></trkpt>
<trkpt lat="49.47123" lon="9.89285"><ele>221</ele></trkpt>
<trkpt lat="49.47109" lon="9.89304"><ele>221</ele></trkpt>
<trkpt lat="49.47084" lon="9.89389"><ele>221</ele></trkpt>
<trkpt lat="49.47019" lon="9.89354"><ele>221</ele></trkpt>
<trkpt lat="49.46947" lon="9.89326"><ele>221</ele></trkpt>
<trkpt lat="49.46847" lon="9.89305"><ele>225</ele></trkpt>
<trkpt lat="49.46828" lon="9.89286"><ele>225</ele></trkpt>
<trkpt lat="49.46770" lon="9.89194"><ele>227</ele></trkpt>
<trkpt lat="49.46758" lon="9.89152"><ele>226</ele></trkpt>
<trkpt lat="49.46753" lon="9.89097"><ele>224</ele></trkpt>
<trkpt lat="49.46736" lon="9.88985"><ele>222</ele></trkpt>
<trkpt lat="49.46695" lon="9.88829"><ele>222</ele></trkpt>
<trkpt lat="49.46653" lon="9.88630"><ele>222</ele></trkpt>
<trkpt lat="49.46650" lon="9.88534"><ele>222</ele></trkpt>
<trkpt lat="49.46654" lon="9.88436"><ele>221</ele></trkpt>
<trkpt lat="49.46684" lon="9.88257"><ele>220</ele></trkpt>
<trkpt lat="49.46701" lon="9.88206"><ele>220</ele></trkpt>
<trkpt lat="49.46752" lon="9.88125"><ele>219</ele></trkpt>
<trkpt lat="49.46774" lon="9.88074"><ele>219</ele></trkpt>
<trkpt lat="49.46843" lon="9.87891"><ele>220</ele></trkpt>
<trkpt lat="49.46859" lon="9.87826"><ele>221</ele></trkpt>
<trkpt lat="49.46860" lon="9.87461"><ele>228</ele></trkpt>
<trkpt lat="49.46849" lon="9.87349"><ele>230</ele></trkpt>
<trkpt lat="49.46841" lon="9.87208"><ele>231</ele></trkpt>
<trkpt lat="49.46842" lon="9.87192"><ele>230</ele></trkpt>
<trkpt lat="49.46851" lon="9.87179"><ele>230</ele></trkpt>
<trkpt lat="49.46946" lon="9.87245"><ele>225</ele></trkpt>
<trkpt lat="49.46998" lon="9.87259"><ele>221</ele></trkpt>
<trkpt lat="49.47072" lon="9.87295"><ele>217</ele></trkpt>
<trkpt lat="49.47273" lon="9.87369"><ele>219</ele></trkpt>
<trkpt lat="49.47301" lon="9.87270"><ele>219</ele></trkpt>
<trkpt lat="49.47389" lon="9.86795"><ele>220</ele></trkpt>
<trkpt lat="49.47412" lon="9.86690"><ele>220</ele></trkpt>
<trkpt lat="49.47428" lon="9.86487"><ele>221</ele></trkpt>
<trkpt lat="49.47438" lon="9.86288"><ele>220</ele></trkpt>
<trkpt lat="49.47435" lon="9.86150"><ele>218</ele></trkpt>
<trkpt lat="49.47396" lon="9.85586"><ele>217</ele></trkpt>
<trkpt lat="49.47386" lon="9.85221"><ele>215</ele></trkpt>
<trkpt lat="49.47378" lon="9.85115"><ele>214</ele></trkpt>
<trkpt lat="49.47380" lon="9.84852"><ele>214</ele></trkpt>
<trkpt lat="49.47411" lon="9.84561"><ele>214</ele></trkpt>
<trkpt lat="49.47420" lon="9.84503"><ele>213</ele></trkpt>
<trkpt lat="49.47453" lon="9.84205"><ele>212</ele></trkpt>
<trkpt lat="49.47462" lon="9.84156"><ele>212</ele></trkpt>
<trkpt lat="49.47484" lon="9.84097"><ele>212</ele></trkpt>
<trkpt lat="49.47526" lon="9.84016"><ele>211</ele></trkpt>
<trkpt lat="49.47575" lon="9.83849"><ele>211</ele></trkpt>
<trkpt lat="49.47634" lon="9.83715"><ele>211</ele></trkpt>
<trkpt lat="49.47662" lon="9.83630"><ele>211</ele></trkpt>
<trkpt lat="49.47668" lon="9.83577"><ele>211</ele></trkpt>
<trkpt lat="49.47665" lon="9.83504"><ele>211</ele></trkpt>
<trkpt lat="49.47676" lon="9.83461"><ele>211</ele></trkpt>
<trkpt lat="49.47689" lon="9.83439"><ele>212</ele></trkpt>
<trkpt lat="49.47592" lon="9.83385"><ele>212</ele></trkpt>
<trkpt lat="49.47537" lon="9.83371"><ele>212</ele></trkpt>
<trkpt lat="49.47510" lon="9.83357"><ele>212</ele></trkpt>
<trkpt lat="49.47458" lon="9.83293"><ele>213</ele></trkpt>
<trkpt lat="49.47398" lon="9.83260"><ele>214</ele></trkpt>
<trkpt lat="49.47403" lon="9.83234"><ele>214</ele></trkpt>
<trkpt lat="49.47424" lon="9.83165"><ele>215</ele></trkpt>
<trkpt lat="49.47444" lon="9.83134"><ele>216</ele></trkpt>
<trkpt lat="49.47474" lon="9.83101"><ele>218</ele></trkpt>
<trkpt lat="49.47482" lon="9.83083"><ele>219</ele></trkpt>
<trkpt lat="49.47482" lon="9.83076"><ele>220</ele></trkpt>
<trkpt lat="49.47512" lon="9.83022"><ele>220</ele></trkpt>
<trkpt lat="49.47549" lon="9.82939"><ele>218</ele></trkpt>
<trkpt lat="49.47656" lon="9.82544"><ele>214</ele></trkpt>
<trkpt lat="49.47737" lon="9.82301"><ele>212</ele></trkpt>
<trkpt lat="49.47760" lon="9.82257"><ele>212</ele></trkpt>
<trkpt lat="49.47789" lon="9.82216"><ele>212</ele></trkpt>
<trkpt lat="49.47849" lon="9.82096"><ele>215</ele></trkpt>
<trkpt lat="49.47892" lon="9.82028"><ele>215</ele></trkpt>
<trkpt lat="49.47986" lon="9.81828"><ele>214</ele></trkpt>
<trkpt lat="49.48044" lon="9.81726"><ele>214</ele></trkpt>
<trkpt lat="49.48118" lon="9.81645"><ele>215</ele></trkpt>
<trkpt lat="49.48144" lon="9.81624"><ele>216</ele></trkpt>
<trkpt lat="49.48166" lon="9.81594"><ele>218</ele></trkpt>
<trkpt lat="49.48280" lon="9.81493"><ele>222</ele></trkpt>
<trkpt lat="49.48292" lon="9.81487"><ele>223</ele></trkpt>
<trkpt lat="49.48369" lon="9.81499"><ele>218</ele></trkpt>
<trkpt lat="49.48484" lon="9.81493"><ele>211</ele></trkpt>
<trkpt lat="49.48513" lon="9.81487"><ele>209</ele></trkpt>
<trkpt lat="49.48567" lon="9.81451"><ele>210</ele></trkpt>
<trkpt lat="49.48598" lon="9.81441"><ele>211</ele></trkpt>
<trkpt lat="49.48637" lon="9.81439"><ele>211</ele></trkpt>
<trkpt lat="49.48664" lon="9.81442"><ele>210</ele></trkpt>
<trkpt lat="49.48706" lon="9.81434"><ele>211</ele></trkpt>
<trkpt lat="49.48747" lon="9.81434"><ele>209</ele></trkpt>
<trkpt lat="49.48778" lon="9.81426"><ele>210</ele></trkpt>
<trkpt lat="49.48848" lon="9.81380"><ele>210</ele></trkpt>
<trkpt lat="49.48947" lon="9.81301"><ele>210</ele></trkpt>
<trkpt lat="49.48964" lon="9.81301"><ele>209</ele></trkpt>
<trkpt lat="49.48979" lon="9.81312"><ele>208</ele></trkpt>
<trkpt lat="49.49012" lon="9.81347"><ele>207</ele></trkpt>
<trkpt lat="49.49020" lon="9.81348"><ele>207</ele></trkpt>
<trkpt lat="49.49080" lon="9.81317"><ele>207</ele></trkpt>
<trkpt lat="49.49114" lon="9.81288"><ele>207</ele></trkpt>
<trkpt lat="49.49130" lon="9.81257"><ele>207</ele></trkpt>
<trkpt lat="49.49139" lon="9.81216"><ele>207</ele></trkpt>
<trkpt lat="49.49148" lon="9.81199"><ele>207</ele></trkpt>
<trkpt lat="49.49205" lon="9.81355"><ele>207</ele></trkpt>
<trkpt lat="49.49283" lon="9.81319"><ele>208</ele></trkpt>
<trkpt lat="49.49299" lon="9.81306"><ele>208</ele></trkpt>
<trkpt lat="49.49353" lon="9.81215"><ele>207</ele></trkpt>
<trkpt lat="49.49419" lon="9.81073"><ele>207</ele></trkpt>
<trkpt lat="49.49462" lon="9.80946"><ele>207</ele></trkpt>
<trkpt lat="49.49490" lon="9.80835"><ele>206</ele></trkpt>
<trkpt lat="49.49512" lon="9.80721"><ele>206</ele></trkpt>
<trkpt lat="49.49521" lon="9.80647"><ele>206</ele></trkpt>
<trkpt lat="49.49532" lon="9.80507"><ele>206</ele></trkpt>
<trkpt lat="49.49534" lon="9.80428"><ele>207</ele></trkpt>
<trkpt lat="49.49532" lon="9.80377"><ele>207</ele></trkpt>
<trkpt lat="49.49522" lon="9.80235"><ele>208</ele></trkpt>
<trkpt lat="49.49506" lon="9.80118"><ele>208</ele></trkpt>
<trkpt lat="49.49498" lon="9.80080"><ele>207</ele></trkpt>
<trkpt lat="49.49388" lon="9.79814"><ele>205</ele></trkpt>
<trkpt lat="49.49360" lon="9.79586"><ele>205</ele></trkpt>
<trkpt lat="49.49339" lon="9.79269"><ele>204</ele></trkpt>
<trkpt lat="49.49335" lon="9.79197"><ele>205</ele></trkpt>
<trkpt lat="49.49339" lon="9.79167"><ele>205</ele></trkpt>
<trkpt lat="49.49338" lon="9.79147"><ele>205</ele></trkpt>
<trkpt lat="49.49325" lon="9.79088"><ele>204</ele></trkpt>
<trkpt lat="49.49312" lon="9.79077"><ele>203</ele></trkpt>
<trkpt lat="49.49273" lon="9.78735"><ele>203</ele></trkpt>
<trkpt lat="49.49181" lon="9.78624"><ele>203</ele></trkpt>
<trkpt lat="49.49203" lon="9.78579"><ele>203</ele></trkpt>
<trkpt lat="49.49213" lon="9.78544"><ele>203</ele></trkpt>
<trkpt lat="49.49219" lon="9.78440"><ele>203</ele></trkpt>
<trkpt lat="49.49201" lon="9.78377"><ele>202</ele></trkpt>
<trkpt lat="49.49198" lon="9.78295"><ele>202</ele></trkpt>
<trkpt lat="49.49177" lon="9.78262"><ele>202</ele></trkpt>
<trkpt lat="49.49175" lon="9.78253"><ele>202</ele></trkpt>
<trkpt lat="49.49176" lon="9.78216"><ele>202</ele></trkpt>
<trkpt lat="49.49180" lon="9.78211"><ele>202</ele></trkpt>
<trkpt lat="49.49175" lon="9.78195"><ele>202</ele></trkpt>
<trkpt lat="49.49180" lon="9.78179"><ele>202</ele></trkpt>
<trkpt lat="49.49177" lon="9.78158"><ele>202</ele></trkpt>
<trkpt lat="49.49139" lon="9.78064"><ele>202</ele></trkpt>
<trkpt lat="49.49099" lon="9.77945"><ele>202</ele></trkpt>
<trkpt lat="49.49079" lon="9.77828"><ele>202</ele></trkpt>
<trkpt lat="49.49063" lon="9.77780"><ele>204</ele></trkpt>
<trkpt lat="49.49035" lon="9.77719"><ele>206</ele></trkpt>
<trkpt lat="49.49014" lon="9.77665"><ele>209</ele></trkpt>
<trkpt lat="49.49021" lon="9.77645"><ele>208</ele></trkpt>
<trkpt lat="49.49018" lon="9.77640"><ele>208</ele></trkpt>
<trkpt lat="49.49062" lon="9.77581"><ele>206</ele></trkpt>
<trkpt lat="49.49091" lon="9.77534"><ele>206</ele></trkpt>
<trkpt lat="49.49094" lon="9.77474"><ele>206</ele></trkpt>
<trkpt lat="49.49090" lon="9.77395"><ele>205</ele></trkpt>
<trkpt lat="49.49085" lon="9.77336"><ele>205</ele></trkpt>
<trkpt lat="49.49077" lon="9.77334"><ele>205</ele></trkpt>
<trkpt lat="49.49105" lon="9.77337"><ele>205</ele></trkpt>
<trkpt lat="49.49183" lon="9.77355"><ele>204</ele></trkpt>
<trkpt lat="49.49198" lon="9.77346"><ele>204</ele></trkpt>
<trkpt lat="49.49206" lon="9.77373"><ele>204</ele></trkpt>
<trkpt lat="49.49243" lon="9.77373"><ele>204</ele></trkpt>
<trkpt lat="49.49266" lon="9.77348"><ele>204</ele></trkpt>
<trkpt lat="49.49283" lon="9.77376"><ele>204</ele></trkpt>
<trkpt lat="49.49357" lon="9.77437"><ele>204</ele></trkpt>
<trkpt lat="49.49374" lon="9.77446"><ele>204</ele></trkpt>
<trkpt lat="49.49396" lon="9.77447"><ele>204</ele></trkpt>
<trkpt lat="49.49454" lon="9.77436"><ele>203</ele></trkpt>
<trkpt lat="49.49495" lon="9.77437"><ele>202</ele></trkpt>
<trkpt lat="49.49509" lon="9.77432"><ele>202</ele></trkpt>
<trkpt lat="49.49515" lon="9.77445"><ele>202</ele></trkpt>
<trkpt lat="49.49522" lon="9.77448"><ele>202</ele></trkpt>
<trkpt lat="49.49530" lon="9.77442"><ele>202</ele></trkpt>
<trkpt lat="49.49535" lon="9.77451"><ele>202</ele></trkpt>
<trkpt lat="49.49634" lon="9.77532"><ele>200</ele></trkpt>
<trkpt lat="49.49692" lon="9.77568"><ele>203</ele></trkpt>
<trkpt lat="49.49709" lon="9.77511"><ele>204</ele></trkpt>
<trkpt lat="49.49730" lon="9.77367"><ele>203</ele></trkpt>
<trkpt lat="49.49821" lon="9.77009"><ele>202</ele></trkpt>
<trkpt lat="49.49902" lon="9.76645"><ele>202</ele></trkpt>
<trkpt lat="49.49917" lon="9.76564"><ele>202</ele></trkpt>
<trkpt lat="49.49962" lon="9.76242"><ele>201</ele></trkpt>
<trkpt lat="49.49974" lon="9.76198"><ele>202</ele></trkpt>
<trkpt lat="49.50054" lon="9.76057"><ele>207</ele></trkpt>
<trkpt lat="49.50101" lon="9.75987"><ele>207</ele></trkpt>
<trkpt lat="49.50202" lon="9.75858"><ele>207</ele></trkpt>
<trkpt lat="49.50246" lon="9.75794"><ele>208</ele></trkpt>
<trkpt lat="49.50266" lon="9.75775"><ele>209</ele></trkpt>
<trkpt lat="49.50283" lon="9.75747"><ele>210</ele></trkpt>
<trkpt lat="49.50336" lon="9.75625"><ele>214</ele></trkpt>
<trkpt lat="49.50353" lon="9.75573"><ele>215</ele></trkpt>
<trkpt lat="49.50373" lon="9.75485"><ele>216</ele></trkpt>
<trkpt lat="49.50401" lon="9.75404"><ele>218</ele></trkpt>
<trkpt lat="49.50425" lon="9.75364"><ele>217</ele></trkpt>
<trkpt lat="49.50449" lon="9.75340"><ele>217</ele></trkpt>
<trkpt lat="49.50470" lon="9.75325"><ele>217</ele></trkpt>
<trkpt lat="49.50511" lon="9.75309"><ele>216</ele></trkpt>
<trkpt lat="49.50558" lon="9.75308"><ele>216</ele></trkpt>
<trkpt lat="49.50625" lon="9.75324"><ele>217</ele></trkpt>
<trkpt lat="49.50733" lon="9.75340"><ele>218</ele></trkpt>
<trkpt lat="49.50816" lon="9.75340"><ele>218</ele></trkpt>
<trkpt lat="49.50896" lon="9.75322"><ele>215</ele></trkpt>
<trkpt lat="49.51047" lon="9.75262"><ele>212</ele></trkpt>
<trkpt lat="49.51114" lon="9.75244"><ele>212</ele></trkpt>
<trkpt lat="49.51236" lon="9.75225"><ele>212</ele></trkpt>
<trkpt lat="49.51239" lon="9.75210"><ele>211</ele></trkpt>
<trkpt lat="49.51239" lon="9.75147"><ele>207</ele></trkpt>
<trkpt lat="49.51256" lon="9.75121"><ele>206</ele></trkpt>
<trkpt lat="49.51281" lon="9.75105"><ele>204</ele></trkpt>
<trkpt lat="49.51301" lon="9.75035"><ele>200</ele></trkpt>
<trkpt lat="49.51302" lon="9.75013"><ele>199</ele></trkpt>
<trkpt lat="49.51305" lon="9.75008"><ele>199</ele></trkpt>
<trkpt lat="49.51327" lon="9.74990"><ele>198</ele></trkpt>
<trkpt lat="49.51350" lon="9.74980"><ele>198</ele></trkpt>
<trkpt lat="49.51374" lon="9.74974"><ele>198</ele></trkpt>
<trkpt lat="49.51385" lon="9.74966"><ele>198</ele></trkpt>
<trkpt lat="49.51454" lon="9.74949"><ele>199</ele></trkpt>
<trkpt lat="49.51501" lon="9.74928"><ele>200</ele></trkpt>
<trkpt lat="49.51483" lon="9.74862"><ele>197</ele></trkpt>
<trkpt lat="49.51510" lon="9.74822"><ele>197</ele></trkpt>
<trkpt lat="49.51538" lon="9.74791"><ele>197</ele></trkpt>
<trkpt lat="49.51536" lon="9.74755"><ele>196</ele></trkpt>
<trkpt lat="49.51541" lon="9.74722"><ele>196</ele></trkpt>
<trkpt lat="49.51554" lon="9.74674"><ele>195</ele></trkpt>
<trkpt lat="49.51568" lon="9.74651"><ele>195</ele></trkpt>
<trkpt lat="49.51612" lon="9.74629"><ele>195</ele></trkpt>
<trkpt lat="49.51651" lon="9.74626"><ele>195</ele></trkpt>
<trkpt lat="49.51765" lon="9.74591"><ele>194</ele></trkpt>
<trkpt lat="49.51937" lon="9.74569"><ele>193</ele></trkpt>
<trkpt lat="49.51991" lon="9.74555"><ele>193</ele></trkpt>
<trkpt lat="49.52047" lon="9.74530"><ele>193</ele></trkpt>
<trkpt lat="49.52149" lon="9.74468"><ele>193</ele></trkpt>
<trkpt lat="49.52188" lon="9.74466"><ele>193</ele></trkpt>
<trkpt lat="49.52219" lon="9.74457"><ele>193</ele></trkpt>
<trkpt lat="49.52231" lon="9.74461"><ele>193</ele></trkpt>
<trkpt lat="49.52244" lon="9.74482"><ele>193</ele></trkpt>
<trkpt lat="49.52254" lon="9.74535"><ele>193</ele></trkpt>
<trkpt lat="49.52264" lon="9.74547"><ele>193</ele></trkpt>
<trkpt lat="49.52273" lon="9.74551"><ele>194</ele></trkpt>
<trkpt lat="49.52506" lon="9.74457"><ele>195</ele></trkpt>
<trkpt lat="49.52474" lon="9.74229"><ele>193</ele></trkpt>
<trkpt lat="49.52676" lon="9.74122"><ele>195</ele></trkpt>
<trkpt lat="49.52673" lon="9.73802"><ele>192</ele></trkpt>
<trkpt lat="49.52674" lon="9.73761"><ele>192</ele></trkpt>
<trkpt lat="49.52677" lon="9.73739"><ele>192</ele></trkpt>
<trkpt lat="49.52703" lon="9.73649"><ele>192</ele></trkpt>
<trkpt lat="49.52726" lon="9.73589"><ele>192</ele></trkpt>
<trkpt lat="49.52729" lon="9.73562"><ele>192</ele></trkpt>
<trkpt lat="49.52714" lon="9.73503"><ele>196</ele></trkpt>
<trkpt lat="49.52765" lon="9.73479"><ele>198</ele></trkpt>
<trkpt lat="49.52859" lon="9.73451"><ele>199</ele></trkpt>
<trkpt lat="49.53171" lon="9.73410"><ele>194</ele></trkpt>
<trkpt lat="49.53286" lon="9.73421"><ele>192</ele></trkpt>
<trkpt lat="49.53313" lon="9.73419"><ele>192</ele></trkpt>
<trkpt lat="49.53433" lon="9.73391"><ele>191</ele></trkpt>
<trkpt lat="49.53555" lon="9.73392"><ele>191</ele></trkpt>
<trkpt lat="49.53597" lon="9.73405"><ele>191</ele></trkpt>
<trkpt lat="49.53645" lon="9.73368"><ele>191</ele></trkpt>
<trkpt lat="49.53687" lon="9.73350"><ele>191</ele></trkpt>
<trkpt lat="49.53813" lon="9.73273"><ele>191</ele></trkpt>
<trkpt lat="49.53996" lon="9.73182"><ele>191</ele></trkpt>
<trkpt lat="49.54013" lon="9.73178"><ele>191</ele></trkpt>
<trkpt lat="49.54129" lon="9.73181"><ele>190</ele></trkpt>
<trkpt lat="49.54139" lon="9.73175"><ele>190</ele></trkpt>
<trkpt lat="49.54257" lon="9.73038"><ele>190</ele></trkpt>
<trkpt lat="49.54318" lon="9.72989"><ele>190</ele></trkpt>
<trkpt lat="49.54372" lon="9.72960"><ele>190</ele></trkpt>
<trkpt lat="49.54396" lon="9.72941"><ele>190</ele></trkpt>
<trkpt lat="49.54343" lon="9.72828"><ele>190</ele></trkpt>
<trkpt lat="49.54322" lon="9.72760"><ele>190</ele></trkpt>
<trkpt lat="49.54326" lon="9.72739"><ele>190</ele></trkpt>
<trkpt lat="49.54354" lon="9.72703"><ele>190</ele></trkpt>
<trkpt lat="49.54414" lon="9.72648"><ele>192</ele></trkpt>
<trkpt lat="49.54544" lon="9.72554"><ele>193</ele></trkpt>
<trkpt lat="49.54561" lon="9.72547"><ele>193</ele></trkpt>
<trkpt lat="49.54783" lon="9.72384"><ele>192</ele></trkpt>
<trkpt lat="49.54857" lon="9.72336"><ele>190</ele></trkpt>
<trkpt lat="49.54932" lon="9.72251"><ele>186</ele></trkpt>
<trkpt lat="49.55171" lon="9.72062"><ele>184</ele></trkpt>
<trkpt lat="49.55287" lon="9.71977"><ele>185</ele></trkpt>
<trkpt lat="49.55366" lon="9.71923"><ele>186</ele></trkpt>
<trkpt lat="49.55465" lon="9.71869"><ele>188</ele></trkpt>
<trkpt lat="49.55532" lon="9.71852"><ele>189</ele></trkpt>
<trkpt lat="49.55524" lon="9.71801"><ele>189</ele></trkpt>
<trkpt lat="49.55524" lon="9.71792"><ele>190</ele></trkpt>
<trkpt lat="49.55530" lon="9.71781"><ele>190</ele></trkpt>
<trkpt lat="49.55536" lon="9.71779"><ele>191</ele></trkpt>
<trkpt lat="49.55549" lon="9.71785"><ele>190</ele></trkpt>
<trkpt lat="49.55561" lon="9.71785"><ele>191</ele></trkpt>
<trkpt lat="49.55766" lon="9.71672"><ele>199</ele></trkpt>
<trkpt lat="49.55839" lon="9.71618"><ele>197</ele></trkpt>
<trkpt lat="49.55844" lon="9.71605"><ele>197</ele></trkpt>
<trkpt lat="49.55835" lon="9.71569"><ele>199</ele></trkpt>
<trkpt lat="49.55835" lon="9.71531"><ele>200</ele></trkpt>
<trkpt lat="49.55850" lon="9.71461"><ele>202</ele></trkpt>
<trkpt lat="49.55861" lon="9.71431"><ele>200</ele></trkpt>
<trkpt lat="49.55927" lon="9.71310"><ele>201</ele></trkpt>
<trkpt lat="49.55972" lon="9.71233"><ele>202</ele></trkpt>
<trkpt lat="49.56004" lon="9.71198"><ele>202</ele></trkpt>
<trkpt lat="49.56108" lon="9.71122"><ele>200</ele></trkpt>
<trkpt lat="49.56118" lon="9.71102"><ele>201</ele></trkpt>
<trkpt lat="49.56267" lon="9.70957"><ele>197</ele></trkpt>
<trkpt lat="49.56277" lon="9.70942"><ele>197</ele></trkpt>
<trkpt lat="49.56279" lon="9.70929"><ele>198</ele></trkpt>
<trkpt lat="49.56294" lon="9.70932"><ele>197</ele></trkpt>
<trkpt lat="49.56301" lon="9.70919"><ele>197</ele></trkpt>
<trkpt lat="49.56459" lon="9.70765"><ele>195</ele></trkpt>
<trkpt lat="49.56727" lon="9.70514"><ele>191</ele></trkpt>
<trkpt lat="49.56940" lon="9.70372"><ele>189</ele></trkpt>
<trkpt lat="49.56991" lon="9.70330"><ele>189</ele></trkpt>
<trkpt lat="49.56985" lon="9.70302"><ele>189</ele></trkpt>
<trkpt lat="49.57031" lon="9.70282"><ele>189</ele></trkpt>
<trkpt lat="49.57098" lon="9.70299"><ele>189</ele></trkpt>
<trkpt lat="49.57154" lon="9.70271"><ele>190</ele></trkpt>
<trkpt lat="49.57200" lon="9.70262"><ele>190</ele></trkpt>
<trkpt lat="49.57311" lon="9.70294"><ele>190</ele></trkpt>
<trkpt lat="49.57326" lon="9.70294"><ele>190</ele></trkpt>
<trkpt lat="49.57514" lon="9.70163"><ele>189</ele></trkpt>
<trkpt lat="49.57832" lon="9.69919"><ele>194</ele></trkpt>
<trkpt lat="49.57866" lon="9.70047"><ele>190</ele></trkpt>
<trkpt lat="49.57899" lon="9.70222"><ele>184</ele></trkpt>
<trkpt lat="49.57945" lon="9.70205"><ele>184</ele></trkpt>
<trkpt lat="49.58082" lon="9.70050"><ele>184</ele></trkpt>
<trkpt lat="49.58220" lon="9.69923"><ele>183</ele></trkpt>
<trkpt lat="49.58248" lon="9.69905"><ele>182</ele></trkpt>
<trkpt lat="49.58279" lon="9.69891"><ele>182</ele></trkpt>
<trkpt lat="49.58413" lon="9.69810"><ele>183</ele></trkpt>
<trkpt lat="49.58660" lon="9.69613"><ele>183</ele></trkpt>
<trkpt lat="49.59002" lon="9.69355"><ele>182</ele></trkpt>
<trkpt lat="49.59238" lon="9.69103"><ele>181</ele></trkpt>
<trkpt lat="49.59242" lon="9.69085"><ele>181</ele></trkpt>
<trkpt lat="49.59238" lon="9.69067"><ele>181</ele></trkpt>
<trkpt lat="49.59207" lon="9.68991"><ele>181</ele></trkpt>
<trkpt lat="49.59208" lon="9.68971"><ele>182</ele></trkpt>
<trkpt lat="49.59213" lon="9.68960"><ele>182</ele></trkpt>
<trkpt lat="49.59269" lon="9.68891"><ele>183</ele></trkpt>
<trkpt lat="49.59484" lon="9.68723"><ele>181</ele></trkpt>
<trkpt lat="49.59551" lon="9.68681"><ele>180</ele></trkpt>
<trkpt lat="49.59653" lon="9.68627"><ele>180</ele></trkpt>
<trkpt lat="49.59673" lon="9.68617"><ele>181</ele></trkpt>
<trkpt lat="49.59686" lon="9.68616"><ele>181</ele></trkpt>
<trkpt lat="49.59686" lon="9.68589"><ele>182</ele></trkpt>
<trkpt lat="49.59695" lon="9.68562"><ele>184</ele></trkpt>
<trkpt lat="49.59907" lon="9.68332"><ele>184</ele></trkpt>
<trkpt lat="49.59916" lon="9.68313"><ele>184</ele></trkpt>
<trkpt lat="49.59949" lon="9.68280"><ele>184</ele></trkpt>
<trkpt lat="49.59974" lon="9.68260"><ele>184</ele></trkpt>
<trkpt lat="49.60049" lon="9.68220"><ele>184</ele></trkpt>
<trkpt lat="49.60094" lon="9.68156"><ele>186</ele></trkpt>
<trkpt lat="49.60115" lon="9.68134"><ele>186</ele></trkpt>
<trkpt lat="49.60413" lon="9.67876"><ele>182</ele></trkpt>
<trkpt lat="49.60500" lon="9.67785"><ele>182</ele></trkpt>
<trkpt lat="49.60558" lon="9.67738"><ele>183</ele></trkpt>
<trkpt lat="49.60624" lon="9.67716"><ele>181</ele></trkpt>
<trkpt lat="49.60757" lon="9.67700"><ele>181</ele></trkpt>
<trkpt lat="49.60823" lon="9.67700"><ele>180</ele></trkpt>
<trkpt lat="49.60919" lon="9.67680"><ele>179</ele></trkpt>
<trkpt lat="49.60943" lon="9.67681"><ele>179</ele></trkpt>
<trkpt lat="49.60963" lon="9.67668"><ele>179</ele></trkpt>
<trkpt lat="49.60994" lon="9.67657"><ele>178</ele></trkpt>
<trkpt lat="49.61065" lon="9.67647"><ele>178</ele></trkpt>
<trkpt lat="49.61098" lon="9.67627"><ele>178</ele></trkpt>
<trkpt lat="49.61110" lon="9.67613"><ele>178</ele></trkpt>
<trkpt lat="49.61232" lon="9.67402"><ele>178</ele></trkpt>
<trkpt lat="49.61250" lon="9.67368"><ele>178</ele></trkpt>
<trkpt lat="49.61311" lon="9.67291"><ele>177</ele></trkpt>
<trkpt lat="49.61374" lon="9.67201"><ele>177</ele></trkpt>
<trkpt lat="49.61421" lon="9.67115"><ele>177</ele></trkpt>
<trkpt lat="49.61536" lon="9.66888"><ele>177</ele></trkpt>
<trkpt lat="49.61557" lon="9.66859"><ele>177</ele></trkpt>
<trkpt lat="49.61687" lon="9.66711"><ele>177</ele></trkpt>
<trkpt lat="49.61708" lon="9.66664"><ele>177</ele></trkpt>
<trkpt lat="49.61718" lon="9.66634"><ele>177</ele></trkpt>
<trkpt lat="49.61782" lon="9.66607"><ele>177</ele></trkpt>
<trkpt lat="49.61857" lon="9.66586"><ele>177</ele></trkpt>
<trkpt lat="49.61868" lon="9.66569"><ele>177</ele></trkpt>
<trkpt lat="49.61940" lon="9.66549"><ele>177</ele></trkpt>
<trkpt lat="49.62003" lon="9.66514"><ele>177</ele></trkpt>
<trkpt lat="49.62049" lon="9.66495"><ele>178</ele></trkpt>
<trkpt lat="49.62067" lon="9.66561"><ele>177</ele></trkpt>
<trkpt lat="49.62137" lon="9.66558"><ele>177</ele></trkpt>
<trkpt lat="49.62260" lon="9.66589"><ele>177</ele></trkpt>
<trkpt lat="49.62332" lon="9.66578"><ele>177</ele></trkpt>
<trkpt lat="49.62338" lon="9.66567"><ele>177</ele></trkpt>
<trkpt lat="49.62377" lon="9.66531"><ele>177</ele></trkpt>
<trkpt lat="49.62391" lon="9.66513"><ele>177</ele></trkpt>
<trkpt lat="49.62418" lon="9.66467"><ele>176</ele></trkpt>
<trkpt lat="49.62425" lon="9.66446"><ele>176</ele></trkpt>
<trkpt lat="49.62427" lon="9.66419"><ele>177</ele></trkpt>
<trkpt lat="49.62424" lon="9.66323"><ele>177</ele></trkpt>
<trkpt lat="49.62557" lon="9.66258"><ele>177</ele></trkpt>
<trkpt lat="49.62558" lon="9.66265"><ele>177</ele></trkpt>
<trkpt lat="49.62733" lon="9.66171"><ele>177</ele></trkpt>
<trkpt lat="49.62806" lon="9.66136"><ele>177</ele></trkpt>
<trkpt lat="49.62827" lon="9.66121"><ele>177</ele></trkpt>
<trkpt lat="49.62862" lon="9.66088"><ele>177</ele></trkpt>
<trkpt lat="49.62923" lon="9.65963"><ele>178</ele></trkpt>
<trkpt lat="49.62935" lon="9.65955"><ele>178</ele></trkpt>
<trkpt lat="49.62950" lon="9.65961"><ele>177</ele></trkpt>
<trkpt lat="49.62961" lon="9.65940"><ele>177</ele></trkpt>
<trkpt lat="49.62966" lon="9.65901"><ele>178</ele></trkpt>
<trkpt lat="49.63168" lon="9.65768"><ele>175</ele></trkpt>
<trkpt lat="49.63264" lon="9.65698"><ele>175</ele></trkpt>
<trkpt lat="49.63386" lon="9.65625"><ele>174</ele></trkpt>
<trkpt lat="49.63544" lon="9.65567"><ele>174</ele></trkpt>
<trkpt lat="49.63661" lon="9.65507"><ele>173</ele></trkpt>
<trkpt lat="49.63733" lon="9.65456"><ele>173</ele></trkpt>
<trkpt lat="49.63788" lon="9.65402"><ele>173</ele></trkpt>
<trkpt lat="49.63912" lon="9.65256"><ele>173</ele></trkpt>
<trkpt lat="49.64012" lon="9.65127"><ele>173</ele></trkpt>
<trkpt lat="49.64087" lon="9.65058"><ele>174</ele></trkpt>
<trkpt lat="49.64239" lon="9.64952"><ele>174</ele></trkpt>
<trkpt lat="49.64372" lon="9.64839"><ele>176</ele></trkpt>
<trkpt lat="49.64485" lon="9.64724"><ele>175</ele></trkpt>
<trkpt lat="49.64600" lon="9.64597"><ele>172</ele></trkpt>
<trkpt lat="49.64753" lon="9.64417"><ele>173</ele></trkpt>
<trkpt lat="49.64828" lon="9.64346"><ele>173</ele></trkpt>
<trkpt lat="49.64901" lon="9.64291"><ele>172</ele></trkpt>
<trkpt lat="49.65045" lon="9.64204"><ele>171</ele></trkpt>
<trkpt lat="49.65195" lon="9.64131"><ele>171</ele></trkpt>
<trkpt lat="49.65213" lon="9.64133"><ele>170</ele></trkpt>
<trkpt lat="49.65369" lon="9.64054"><ele>170</ele></trkpt>
<trkpt lat="49.65514" lon="9.63933"><ele>170</ele></trkpt>
<trkpt lat="49.65651" lon="9.63802"><ele>171</ele></trkpt>
<trkpt lat="49.65736" lon="9.63868"><ele>170</ele></trkpt>
<trkpt lat="49.65908" lon="9.63891"><ele>170</ele></trkpt>
<trkpt lat="49.65962" lon="9.63920"><ele>169</ele></trkpt>
<trkpt lat="49.65964" lon="9.63894"><ele>170</ele></trkpt>
<trkpt lat="49.65961" lon="9.63861"><ele>172</ele></trkpt>
<trkpt lat="49.66025" lon="9.63828"><ele>170</ele></trkpt>
<trkpt lat="49.66082" lon="9.63809"><ele>170</ele></trkpt>
<trkpt lat="49.66107" lon="9.63790"><ele>170</ele></trkpt>
<trkpt lat="49.66115" lon="9.63778"><ele>171</ele></trkpt>
<trkpt lat="49.66186" lon="9.63761"><ele>171</ele></trkpt>
<trkpt lat="49.66208" lon="9.63751"><ele>170</ele></trkpt>
<trkpt lat="49.66266" lon="9.63696"><ele>170</ele></trkpt>
<trkpt lat="49.66368" lon="9.63550"><ele>172</ele></trkpt>
<trkpt lat="49.66385" lon="9.63511"><ele>173</ele></trkpt>
<trkpt lat="49.66398" lon="9.63514"><ele>172</ele></trkpt>
<trkpt lat="49.66405" lon="9.63501"><ele>173</ele></trkpt>
<trkpt lat="49.66422" lon="9.63486"><ele>172</ele></trkpt>
<trkpt lat="49.66465" lon="9.63464"><ele>170</ele></trkpt>
<trkpt lat="49.66489" lon="9.63459"><ele>169</ele></trkpt>
<trkpt lat="49.66548" lon="9.63458"><ele>169</ele></trkpt>
<trkpt lat="49.66591" lon="9.63435"><ele>169</ele></trkpt>
<trkpt lat="49.66620" lon="9.63402"><ele>168</ele></trkpt>
<trkpt lat="49.66650" lon="9.63355"><ele>168</ele></trkpt>
<trkpt lat="49.66647" lon="9.63326"><ele>169</ele></trkpt>
<trkpt lat="49.66661" lon="9.63326"><ele>168</ele></trkpt>
<trkpt lat="49.66699" lon="9.63274"><ele>169</ele></trkpt>
<trkpt lat="49.66742" lon="9.63259"><ele>170</ele></trkpt>
<trkpt lat="49.66780" lon="9.63256"><ele>169</ele></trkpt>
<trkpt lat="49.66858" lon="9.63267"><ele>168</ele></trkpt>
<trkpt lat="49.66899" lon="9.63265"><ele>167</ele></trkpt>
<trkpt lat="49.66983" lon="9.63234"><ele>168</ele></trkpt>
<trkpt lat="49.67076" lon="9.63213"><ele>167</ele></trkpt>
<trkpt lat="49.67121" lon="9.63198"><ele>168</ele></trkpt>
<trkpt lat="49.67162" lon="9.63176"><ele>168</ele></trkpt>
<trkpt lat="49.67191" lon="9.63153"><ele>168</ele></trkpt>
<trkpt lat="49.67220" lon="9.63122"><ele>168</ele></trkpt>
<trkpt lat="49.67265" lon="9.63056"><ele>167</ele></trkpt>
<trkpt lat="49.67340" lon="9.62972"><ele>167</ele></trkpt>
<trkpt lat="49.67363" lon="9.62932"><ele>167</ele></trkpt>
<trkpt lat="49.67390" lon="9.62913"><ele>167</ele></trkpt>
<trkpt lat="49.67422" lon="9.62905"><ele>167</ele></trkpt>
<trkpt lat="49.67454" lon="9.62907"><ele>167</ele></trkpt>
<trkpt lat="49.67487" lon="9.62899"><ele>167</ele></trkpt>
<trkpt lat="49.67601" lon="9.62841"><ele>167</ele></trkpt>
<trkpt lat="49.67712" lon="9.62815"><ele>168</ele></trkpt>
<trkpt lat="49.67809" lon="9.62812"><ele>168</ele></trkpt>
<trkpt lat="49.68012" lon="9.62793"><ele>169</ele></trkpt>
<trkpt lat="49.68057" lon="9.62796"><ele>169</ele></trkpt>
<trkpt lat="49.68100" lon="9.62805"><ele>168</ele></trkpt>
<trkpt lat="49.68152" lon="9.62797"><ele>168</ele></trkpt>
<trkpt lat="49.68234" lon="9.62769"><ele>167</ele></trkpt>
<trkpt lat="49.68286" lon="9.62729"><ele>166</ele></trkpt>
<trkpt lat="49.68307" lon="9.62696"><ele>167</ele></trkpt>
<trkpt lat="49.68317" lon="9.62671"><ele>166</ele></trkpt>
<trkpt lat="49.68333" lon="9.62612"><ele>167</ele></trkpt>
<trkpt lat="49.68370" lon="9.62416"><ele>168</ele></trkpt>
<trkpt lat="49.68382" lon="9.62364"><ele>168</ele></trkpt>
<trkpt lat="49.68387" lon="9.62357"><ele>168</ele></trkpt>
<trkpt lat="49.68428" lon="9.62340"><ele>167</ele></trkpt>
<trkpt lat="49.68502" lon="9.62330"><ele>167</ele></trkpt>
<trkpt lat="49.68543" lon="9.62334"><ele>167</ele></trkpt>
<trkpt lat="49.68581" lon="9.62345"><ele>167</ele></trkpt>
<trkpt lat="49.68612" lon="9.62362"><ele>167</ele></trkpt>
<trkpt lat="49.68693" lon="9.62429"><ele>168</ele></trkpt>
<trkpt lat="49.68809" lon="9.62568"><ele>166</ele></trkpt>
<trkpt lat="49.68861" lon="9.62617"><ele>167</ele></trkpt>
<trkpt lat="49.68908" lon="9.62652"><ele>166</ele></trkpt>
<trkpt lat="49.68956" lon="9.62679"><ele>167</ele></trkpt>
<trkpt lat="49.69090" lon="9.62712"><ele>166</ele></trkpt>
<trkpt lat="49.69275" lon="9.62725"><ele>166</ele></trkpt>
<trkpt lat="49.69351" lon="9.62705"><ele>166</ele></trkpt>
<trkpt lat="49.69498" lon="9.62662"><ele>168</ele></trkpt>
<trkpt lat="49.69582" lon="9.62612"><ele>166</ele></trkpt>
<trkpt lat="49.69641" lon="9.62561"><ele>165</ele></trkpt>
<trkpt lat="49.69690" lon="9.62510"><ele>167</ele></trkpt>
<trkpt lat="49.69745" lon="9.62426"><ele>166</ele></trkpt>
<trkpt lat="49.69787" lon="9.62340"><ele>167</ele></trkpt>
<trkpt lat="49.69815" lon="9.62269"><ele>166</ele></trkpt>
<trkpt lat="49.69874" lon="9.62045"><ele>165</ele></trkpt>
<trkpt lat="49.69921" lon="9.61847"><ele>165</ele></trkpt>
<trkpt lat="49.69950" lon="9.61766"><ele>164</ele></trkpt>
<trkpt lat="49.69971" lon="9.61722"><ele>164</ele></trkpt>
<trkpt lat="49.70032" lon="9.61617"><ele>165</ele></trkpt>
<trkpt lat="49.70172" lon="9.61443"><ele>166</ele></trkpt>
<trkpt lat="49.70182" lon="9.61437"><ele>166</ele></trkpt>
<trkpt lat="49.70221" lon="9.61343"><ele>168</ele></trkpt>
<trkpt lat="49.70275" lon="9.61248"><ele>168</ele></trkpt>
<trkpt lat="49.70366" lon="9.61065"><ele>165</ele></trkpt>
<trkpt lat="49.70364" lon="9.61027"><ele>166</ele></trkpt>
<trkpt lat="49.70334" lon="9.60949"><ele>169</ele></trkpt>
<trkpt lat="49.70325" lon="9.60841"><ele>166</ele></trkpt>
<trkpt lat="49.70310" lon="9.60762"><ele>166</ele></trkpt>
<trkpt lat="49.70287" lon="9.60688"><ele>166</ele></trkpt>
<trkpt lat="49.70274" lon="9.60655"><ele>164</ele></trkpt>
<trkpt lat="49.70195" lon="9.60725"><ele>167</ele></trkpt>
<trkpt lat="49.70150" lon="9.60663"><ele>165</ele></trkpt>
<trkpt lat="49.70130" lon="9.60642"><ele>165</ele></trkpt>
<trkpt lat="49.70076" lon="9.60600"><ele>164</ele></trkpt>
<trkpt lat="49.70042" lon="9.60566"><ele>164</ele></trkpt>
<trkpt lat="49.70000" lon="9.60497"><ele>163</ele></trkpt>
<trkpt lat="49.69843" lon="9.60182"><ele>162</ele></trkpt>
<trkpt lat="49.69761" lon="9.60046"><ele>165</ele></trkpt>
<trkpt lat="49.69709" lon="9.59924"><ele>163</ele></trkpt>
<trkpt lat="49.69687" lon="9.59896"><ele>163</ele></trkpt>
<trkpt lat="49.69640" lon="9.59874"><ele>163</ele></trkpt>
<trkpt lat="49.69619" lon="9.59872"><ele>163</ele></trkpt>
<trkpt lat="49.69602" lon="9.59877"><ele>163</ele></trkpt>
<trkpt lat="49.69500" lon="9.59958"><ele>164</ele></trkpt>
<trkpt lat="49.69489" lon="9.59971"><ele>164</ele></trkpt>
<trkpt lat="49.69479" lon="9.59988"><ele>164</ele></trkpt>
<trkpt lat="49.69407" lon="9.60044"><ele>164</ele></trkpt>
<trkpt lat="49.69287" lon="9.60081"><ele>166</ele></trkpt>
<trkpt lat="49.69269" lon="9.60083"><ele>167</ele></trkpt>
<trkpt lat="49.69116" lon="9.60049"><ele>168</ele></trkpt>
<trkpt lat="49.69063" lon="9.60034"><ele>167</ele></trkpt>
<trkpt lat="49.69034" lon="9.60021"><ele>165</ele></trkpt>
<trkpt lat="49.69001" lon="9.59999"><ele>163</ele></trkpt>
<trkpt lat="49.68975" lon="9.59961"><ele>161</ele></trkpt>
<trkpt lat="49.68905" lon="9.59899"><ele>162</ele></trkpt>
<trkpt lat="49.68905" lon="9.59886"><ele>162</ele></trkpt>
<trkpt lat="49.68888" lon="9.59836"><ele>161</ele></trkpt>
<trkpt lat="49.68844" lon="9.59726"><ele>164</ele></trkpt>
<trkpt lat="49.68834" lon="9.59689"><ele>164</ele></trkpt>
<trkpt lat="49.68829" lon="9.59646"><ele>164</ele></trkpt>
<trkpt lat="49.68820" lon="9.59402"><ele>163</ele></trkpt>
<trkpt lat="49.68823" lon="9.59333"><ele>164</ele></trkpt>
<trkpt lat="49.68832" lon="9.59263"><ele>162</ele></trkpt>
<trkpt lat="49.68856" lon="9.59174"><ele>162</ele></trkpt>
<trkpt lat="49.68878" lon="9.59114"><ele>162</ele></trkpt>
<trkpt lat="49.68932" lon="9.59008"><ele>160</ele></trkpt>
<trkpt lat="49.68952" lon="9.58952"><ele>160</ele></trkpt>
<trkpt lat="49.68969" lon="9.58879"><ele>160</ele></trkpt>
<trkpt lat="49.68982" lon="9.58799"><ele>161</ele></trkpt>
<trkpt lat="49.68999" lon="9.58717"><ele>161</ele></trkpt>
<trkpt lat="49.69019" lon="9.58657"><ele>161</ele></trkpt>
<trkpt lat="49.69083" lon="9.58504"><ele>161</ele></trkpt>
<trkpt lat="49.69119" lon="9.58426"><ele>161</ele></trkpt>
<trkpt lat="49.69211" lon="9.58283"><ele>160</ele></trkpt>
<trkpt lat="49.69312" lon="9.58140"><ele>160</ele></trkpt>
<trkpt lat="49.69497" lon="9.58011"><ele>161</ele></trkpt>
<trkpt lat="49.69581" lon="9.57929"><ele>167</ele></trkpt>
<trkpt lat="49.69659" lon="9.57864"><ele>166</ele></trkpt>
<trkpt lat="49.69674" lon="9.57840"><ele>166</ele></trkpt>
<trkpt lat="49.69586" lon="9.57719"><ele>177</ele></trkpt>
<trkpt lat="49.69525" lon="9.57619"><ele>185</ele></trkpt>
<trkpt lat="49.69604" lon="9.57535"><ele>190</ele></trkpt>
<trkpt lat="49.69680" lon="9.57482"><ele>191</ele></trkpt>
<trkpt lat="49.69722" lon="9.57458"><ele>191</ele></trkpt>
<trkpt lat="49.69761" lon="9.57444"><ele>189</ele></trkpt>
<trkpt lat="49.69896" lon="9.57384"><ele>182</ele></trkpt>
<trkpt lat="49.70024" lon="9.57307"><ele>168</ele></trkpt>
<trkpt lat="49.70061" lon="9.57274"><ele>166</ele></trkpt>
<trkpt lat="49.70086" lon="9.57240"><ele>165</ele></trkpt>
<trkpt lat="49.70108" lon="9.57183"><ele>166</ele></trkpt>
<trkpt lat="49.70129" lon="9.57108"><ele>164</ele></trkpt>
<trkpt lat="49.70134" lon="9.57040"><ele>161</ele></trkpt>
<trkpt lat="49.70131" lon="9.56997"><ele>160</ele></trkpt>
<trkpt lat="49.70109" lon="9.56877"><ele>158</ele></trkpt>
<trkpt lat="49.69998" lon="9.56618"><ele>158</ele></trkpt>
<trkpt lat="49.69915" lon="9.56459"><ele>156</ele></trkpt>
<trkpt lat="49.69817" lon="9.56212"><ele>156</ele></trkpt>
<trkpt lat="49.69757" lon="9.56041"><ele>155</ele></trkpt>
<trkpt lat="49.69730" lon="9.55948"><ele>156</ele></trkpt>
<trkpt lat="49.69672" lon="9.55645"><ele>157</ele></trkpt>
<trkpt lat="49.69644" lon="9.55380"><ele>162</ele></trkpt>
<trkpt lat="49.69633" lon="9.55232"><ele>164</ele></trkpt>
<trkpt lat="49.69638" lon="9.55192"><ele>163</ele></trkpt>
<trkpt lat="49.69654" lon="9.55161"><ele>160</ele></trkpt>
<trkpt lat="49.69656" lon="9.55122"><ele>160</ele></trkpt>
<trkpt lat="49.69662" lon="9.55106"><ele>160</ele></trkpt>
<trkpt lat="49.69673" lon="9.55105"><ele>158</ele></trkpt>
<trkpt lat="49.69699" lon="9.55091"><ele>157</ele></trkpt>
<trkpt lat="49.69712" lon="9.55066"><ele>156</ele></trkpt>
<trkpt lat="49.69739" lon="9.54790"><ele>173</ele></trkpt>
<trkpt lat="49.69787" lon="9.54717"><ele>172</ele></trkpt>
<trkpt lat="49.69826" lon="9.54651"><ele>174</ele></trkpt>
<trkpt lat="49.69882" lon="9.54578"><ele>171</ele></trkpt>
<trkpt lat="49.69901" lon="9.54534"><ele>172</ele></trkpt>
<trkpt lat="49.69915" lon="9.54513"><ele>173</ele></trkpt>
<trkpt lat="49.69931" lon="9.54519"><ele>174</ele></trkpt>
<trkpt lat="49.69955" lon="9.54550"><ele>168</ele></trkpt>
<trkpt lat="49.69980" lon="9.54552"><ele>168</ele></trkpt>
<trkpt lat="49.70023" lon="9.54541"><ele>171</ele></trkpt>
<trkpt lat="49.70104" lon="9.54545"><ele>170</ele></trkpt>
<trkpt lat="49.70133" lon="9.54549"><ele>170</ele></trkpt>
<trkpt lat="49.70259" lon="9.54590"><ele>161</ele></trkpt>
<trkpt lat="49.70319" lon="9.54597"><ele>160</ele></trkpt>
<trkpt lat="49.70381" lon="9.54590"><ele>160</ele></trkpt>
<trkpt lat="49.70423" lon="9.54598"><ele>161</ele></trkpt>
<trkpt lat="49.70490" lon="9.54631"><ele>162</ele></trkpt>
<trkpt lat="49.70513" lon="9.54650"><ele>162</ele></trkpt>
<trkpt lat="49.70552" lon="9.54703"><ele>163</ele></trkpt>
<trkpt lat="49.70649" lon="9.54900"><ele>164</ele></trkpt>
<trkpt lat="49.70692" lon="9.54974"><ele>166</ele></trkpt>
<trkpt lat="49.70710" lon="9.54993"><ele>164</ele></trkpt>
<trkpt lat="49.70731" lon="9.54983"><ele>165</ele></trkpt>
<trkpt lat="49.70776" lon="9.54881"><ele>166</ele></trkpt>
<trkpt lat="49.70816" lon="9.54808"><ele>167</ele></trkpt>
<trkpt lat="49.70862" lon="9.54741"><ele>168</ele></trkpt>
<trkpt lat="49.70928" lon="9.54662"><ele>168</ele></trkpt>
<trkpt lat="49.70990" lon="9.54607"><ele>163</ele></trkpt>
<trkpt lat="49.71051" lon="9.54532"><ele>165</ele></trkpt>
<trkpt lat="49.71105" lon="9.54493"><ele>166</ele></trkpt>
<trkpt lat="49.71154" lon="9.54467"><ele>168</ele></trkpt>
<trkpt lat="49.71248" lon="9.54436"><ele>169</ele></trkpt>
<trkpt lat="49.71350" lon="9.54413"><ele>168</ele></trkpt>
<trkpt lat="49.71357" lon="9.54405"><ele>170</ele></trkpt>
<trkpt lat="49.71391" lon="9.54395"><ele>168</ele></trkpt>
<trkpt lat="49.71459" lon="9.54331"><ele>172</ele></trkpt>
<trkpt lat="49.71486" lon="9.54292"><ele>175</ele></trkpt>
<trkpt lat="49.71545" lon="9.54190"><ele>181</ele></trkpt>
<trkpt lat="49.71547" lon="9.54157"><ele>182</ele></trkpt>
<trkpt lat="49.71558" lon="9.54105"><ele>182</ele></trkpt>
<trkpt lat="49.71555" lon="9.54021"><ele>186</ele></trkpt>
<trkpt lat="49.71558" lon="9.53963"><ele>187</ele></trkpt>
<trkpt lat="49.71586" lon="9.53856"><ele>181</ele></trkpt>
<trkpt lat="49.71614" lon="9.53716"><ele>172</ele></trkpt>
<trkpt lat="49.71623" lon="9.53540"><ele>166</ele></trkpt>
<trkpt lat="49.71610" lon="9.53341"><ele>157</ele></trkpt>
<trkpt lat="49.71573" lon="9.53146"><ele>157</ele></trkpt>
<trkpt lat="49.71576" lon="9.52979"><ele>160</ele></trkpt>
<trkpt lat="49.71597" lon="9.52803"><ele>158</ele></trkpt>
<trkpt lat="49.71628" lon="9.52685"><ele>155</ele></trkpt>
<trkpt lat="49.71641" lon="9.52611"><ele>154</ele></trkpt>
<trkpt lat="49.71640" lon="9.52594"><ele>154</ele></trkpt>
<trkpt lat="49.71661" lon="9.52542"><ele>154</ele></trkpt>
<trkpt lat="49.71671" lon="9.52536"><ele>154</ele></trkpt>
<trkpt lat="49.71684" lon="9.52547"><ele>153</ele></trkpt>
<trkpt lat="49.71697" lon="9.52585"><ele>152</ele></trkpt>
<trkpt lat="49.71715" lon="9.52611"><ele>151</ele></trkpt>
<trkpt lat="49.71739" lon="9.52568"><ele>152</ele></trkpt>
<trkpt lat="49.71761" lon="9.52540"><ele>152</ele></trkpt>
<trkpt lat="49.71788" lon="9.52517"><ele>152</ele></trkpt>
<trkpt lat="49.71829" lon="9.52489"><ele>152</ele></trkpt>
<trkpt lat="49.71850" lon="9.52480"><ele>153</ele></trkpt>
<trkpt lat="49.72004" lon="9.52443"><ele>152</ele></trkpt>
<trkpt lat="49.72073" lon="9.52445"><ele>152</ele></trkpt>
<trkpt lat="49.72131" lon="9.52463"><ele>152</ele></trkpt>
<trkpt lat="49.72181" lon="9.52495"><ele>150</ele></trkpt>
<trkpt lat="49.72243" lon="9.52549"><ele>150</ele></trkpt>
<trkpt lat="49.72434" lon="9.52761"><ele>152</ele></trkpt>
<trkpt lat="49.72493" lon="9.52820"><ele>152</ele></trkpt>
<trkpt lat="49.72634" lon="9.52921"><ele>150</ele></trkpt>
<trkpt lat="49.72670" lon="9.52963"><ele>148</ele></trkpt>
<trkpt lat="49.72721" lon="9.52992"><ele>148</ele></trkpt>
<trkpt lat="49.72729" lon="9.53002"><ele>148</ele></trkpt>
<trkpt lat="49.72737" lon="9.53023"><ele>147</ele></trkpt>
<trkpt lat="49.72763" lon="9.52990"><ele>148</ele></trkpt>
<trkpt lat="49.72809" lon="9.52915"><ele>151</ele></trkpt>
<trkpt lat="49.72819" lon="9.52888"><ele>152</ele></trkpt>
<trkpt lat="49.72828" lon="9.52881"><ele>152</ele></trkpt>
<trkpt lat="49.72856" lon="9.52841"><ele>152</ele></trkpt>
<trkpt lat="49.72913" lon="9.52740"><ele>152</ele></trkpt>
<trkpt lat="49.72955" lon="9.52638"><ele>150</ele></trkpt>
<trkpt lat="49.73039" lon="9.52326"><ele>146</ele></trkpt>
<trkpt lat="49.73058" lon="9.52228"><ele>146</ele></trkpt>
<trkpt lat="49.73074" lon="9.52162"><ele>146</ele></trkpt>
<trkpt lat="49.73119" lon="9.52030"><ele>146</ele></trkpt>
<trkpt lat="49.73140" lon="9.51935"><ele>146</ele></trkpt>
<trkpt lat="49.73149" lon="9.51840"><ele>146</ele></trkpt>
<trkpt lat="49.73156" lon="9.51822"><ele>147</ele></trkpt>
<trkpt lat="49.73177" lon="9.51785"><ele>146</ele></trkpt>
<trkpt lat="49.73242" lon="9.51715"><ele>147</ele></trkpt>
<trkpt lat="49.73286" lon="9.51677"><ele>148</ele></trkpt>
<trkpt lat="49.73308" lon="9.51663"><ele>148</ele></trkpt>
<trkpt lat="49.73354" lon="9.51651"><ele>149</ele></trkpt>
<trkpt lat="49.73398" lon="9.51648"><ele>156</ele></trkpt>
<trkpt lat="49.73433" lon="9.51659"><ele>161</ele></trkpt>
<trkpt lat="49.73457" lon="9.51659"><ele>163</ele></trkpt>
<trkpt lat="49.73509" lon="9.51686"><ele>161</ele></trkpt>
<trkpt lat="49.73623" lon="9.51781"><ele>154</ele></trkpt>
<trkpt lat="49.73631" lon="9.51807"><ele>150</ele></trkpt>
<trkpt lat="49.73633" lon="9.51820"><ele>149</ele></trkpt>
<trkpt lat="49.73716" lon="9.51907"><ele>148</ele></trkpt>
<trkpt lat="49.73857" lon="9.52161"><ele>147</ele></trkpt>
<trkpt lat="49.73935" lon="9.52341"><ele>145</ele></trkpt>
<trkpt lat="49.73993" lon="9.52411"><ele>145</ele></trkpt>
<trkpt lat="49.74104" lon="9.52488"><ele>146</ele></trkpt>
<trkpt lat="49.74167" lon="9.52516"><ele>146</ele></trkpt>
<trkpt lat="49.74218" lon="9.52529"><ele>146</ele></trkpt>
<trkpt lat="49.74299" lon="9.52525"><ele>149</ele></trkpt>
<trkpt lat="49.74326" lon="9.52510"><ele>151</ele></trkpt>
<trkpt lat="49.74340" lon="9.52496"><ele>153</ele></trkpt>
<trkpt lat="49.74370" lon="9.52447"><ele>154</ele></trkpt>
<trkpt lat="49.74392" lon="9.52304"><ele>153</ele></trkpt>
<trkpt lat="49.74401" lon="9.52297"><ele>152</ele></trkpt>
<trkpt lat="49.74381" lon="9.52191"><ele>151</ele></trkpt>
<trkpt lat="49.74399" lon="9.52144"><ele>148</ele></trkpt>
<trkpt lat="49.74439" lon="9.52079"><ele>144</ele></trkpt>
<trkpt lat="49.74444" lon="9.52049"><ele>143</ele></trkpt>
<trkpt lat="49.74444" lon="9.52009"><ele>142</ele></trkpt>
<trkpt lat="49.74431" lon="9.51981"><ele>142</ele></trkpt>
<trkpt lat="49.74374" lon="9.51903"><ele>143</ele></trkpt>
<trkpt lat="49.74285" lon="9.51749"><ele>143</ele></trkpt>
<trkpt lat="49.74248" lon="9.51663"><ele>146</ele></trkpt>
<trkpt lat="49.74229" lon="9.51589"><ele>150</ele></trkpt>
<trkpt lat="49.74219" lon="9.51564"><ele>152</ele></trkpt>
<trkpt lat="49.74201" lon="9.51548"><ele>158</ele></trkpt>
<trkpt lat="49.74180" lon="9.51537"><ele>163</ele></trkpt>
<trkpt lat="49.74175" lon="9.51520"><ele>164</ele></trkpt>
<trkpt lat="49.74224" lon="9.51347"><ele>156</ele></trkpt>
<trkpt lat="49.74283" lon="9.51235"><ele>150</ele></trkpt>
<trkpt lat="49.74453" lon="9.51034"><ele>150</ele></trkpt>
<trkpt lat="49.74535" lon="9.50972"><ele>149</ele></trkpt>
<trkpt lat="49.74576" lon="9.50933"><ele>149</ele></trkpt>
<trkpt lat="49.74699" lon="9.50849"><ele>151</ele></trkpt>
<trkpt lat="49.74709" lon="9.50855"><ele>150</ele></trkpt>
<trkpt lat="49.74738" lon="9.50911"><ele>145</ele></trkpt>
<trkpt lat="49.74954" lon="9.51102"><ele>148</ele></trkpt>
<trkpt lat="49.75135" lon="9.51346"><ele>151</ele></trkpt>
<trkpt lat="49.75160" lon="9.51397"><ele>148</ele></trkpt>
<trkpt lat="49.75257" lon="9.51551"><ele>142</ele></trkpt>
<trkpt lat="49.75311" lon="9.51611"><ele>141</ele></trkpt>
<trkpt lat="49.75403" lon="9.51680"><ele>142</ele></trkpt>
<trkpt lat="49.75477" lon="9.51704"><ele>143</ele></trkpt>
<trkpt lat="49.75533" lon="9.51706"><ele>144</ele></trkpt>
<trkpt lat="49.75597" lon="9.51687"><ele>146</ele></trkpt>
<trkpt lat="49.75685" lon="9.51652"><ele>146</ele></trkpt>
<trkpt lat="49.75948" lon="9.51457"><ele>141</ele></trkpt>
<trkpt lat="49.75975" lon="9.51433"><ele>139</ele></trkpt>
<trkpt lat="49.75974" lon="9.51449"><ele>138</ele></trkpt>
<trkpt lat="49.75999" lon="9.51596"><ele>138</ele></trkpt>
<trkpt lat="49.76002" lon="9.51670"><ele>138</ele></trkpt>
<trkpt lat="49.75978" lon="9.51685"><ele>138</ele></trkpt>
    </trkseg>
  </trk>
</gpx>
