<?xml version="1.0" encoding="UTF-8"?>
<gpx version="1.1" creator="Gravel Kompass" xmlns="http://www.topografix.com/GPX/1/1">
  <metadata><name>München – Haltern am See: Von der Isar ins Münsterland – Etappe 9</name></metadata>
  <trk>
    <name>Etappe 9: Bad Neustadt an der Saale – Fulda</name>
    <trkseg>
<trkpt lat="50.32207" lon="10.21809"><ele>238</ele></trkpt>
<trkpt lat="50.32245" lon="10.21887"><ele>237</ele></trkpt>
<trkpt lat="50.32309" lon="10.21816"><ele>238</ele></trkpt>
<trkpt lat="50.32342" lon="10.21887"><ele>234</ele></trkpt>
<trkpt lat="50.32343" lon="10.21907"><ele>234</ele></trkpt>
<trkpt lat="50.32328" lon="10.21967"><ele>231</ele></trkpt>
<trkpt lat="50.32330" lon="10.21990"><ele>230</ele></trkpt>
<trkpt lat="50.32339" lon="10.22026"><ele>230</ele></trkpt>
<trkpt lat="50.32355" lon="10.22026"><ele>230</ele></trkpt>
<trkpt lat="50.32388" lon="10.22049"><ele>231</ele></trkpt>
<trkpt lat="50.32394" lon="10.22049"><ele>230</ele></trkpt>
<trkpt lat="50.32419" lon="10.22017"><ele>229</ele></trkpt>
<trkpt lat="50.32440" lon="10.21969"><ele>228</ele></trkpt>
<trkpt lat="50.32469" lon="10.21833"><ele>228</ele></trkpt>
<trkpt lat="50.32502" lon="10.21743"><ele>229</ele></trkpt>
<trkpt lat="50.32509" lon="10.21716"><ele>229</ele></trkpt>
<trkpt lat="50.32524" lon="10.21595"><ele>229</ele></trkpt>
<trkpt lat="50.32531" lon="10.21288"><ele>232</ele></trkpt>
<trkpt lat="50.32526" lon="10.21238"><ele>233</ele></trkpt>
<trkpt lat="50.32518" lon="10.21216"><ele>232</ele></trkpt>
<trkpt lat="50.32504" lon="10.21194"><ele>234</ele></trkpt>
<trkpt lat="50.32494" lon="10.21187"><ele>234</ele></trkpt>
<trkpt lat="50.32482" lon="10.21186"><ele>235</ele></trkpt>
<trkpt lat="50.32513" lon="10.21118"><ele>233</ele></trkpt>
<trkpt lat="50.32593" lon="10.20963"><ele>232</ele></trkpt>
<trkpt lat="50.32623" lon="10.20919"><ele>232</ele></trkpt>
<trkpt lat="50.32643" lon="10.20880"><ele>232</ele></trkpt>
<trkpt lat="50.32680" lon="10.20767"><ele>233</ele></trkpt>
<trkpt lat="50.32692" lon="10.20719"><ele>233</ele></trkpt>
<trkpt lat="50.32704" lon="10.20649"><ele>233</ele></trkpt>
<trkpt lat="50.32705" lon="10.20625"><ele>233</ele></trkpt>
<trkpt lat="50.32693" lon="10.20544"><ele>233</ele></trkpt>
<trkpt lat="50.32689" lon="10.20402"><ele>234</ele></trkpt>
<trkpt lat="50.32672" lon="10.20298"><ele>234</ele></trkpt>
<trkpt lat="50.32649" lon="10.20219"><ele>235</ele></trkpt>
<trkpt lat="50.32631" lon="10.20170"><ele>235</ele></trkpt>
<trkpt lat="50.32604" lon="10.20113"><ele>236</ele></trkpt>
<trkpt lat="50.32592" lon="10.19866"><ele>239</ele></trkpt>
<trkpt lat="50.32662" lon="10.19770"><ele>239</ele></trkpt>
<trkpt lat="50.32695" lon="10.19691"><ele>240</ele></trkpt>
<trkpt lat="50.32738" lon="10.19547"><ele>241</ele></trkpt>
<trkpt lat="50.32784" lon="10.19334"><ele>243</ele></trkpt>
<trkpt lat="50.32801" lon="10.19205"><ele>243</ele></trkpt>
<trkpt lat="50.32796" lon="10.19012"><ele>244</ele></trkpt>
<trkpt lat="50.32802" lon="10.18851"><ele>245</ele></trkpt>
<trkpt lat="50.32798" lon="10.18838"><ele>245</ele></trkpt>
<trkpt lat="50.32789" lon="10.18575"><ele>249</ele></trkpt>
<trkpt lat="50.32833" lon="10.18564"><ele>247</ele></trkpt>
<trkpt lat="50.32809" lon="10.18424"><ele>248</ele></trkpt>
<trkpt lat="50.32803" lon="10.18318"><ele>248</ele></trkpt>
<trkpt lat="50.32778" lon="10.18214"><ele>248</ele></trkpt>
<trkpt lat="50.32743" lon="10.18120"><ele>248</ele></trkpt>
<trkpt lat="50.32724" lon="10.18046"><ele>250</ele></trkpt>
<trkpt lat="50.32717" lon="10.18026"><ele>250</ele></trkpt>
<trkpt lat="50.32692" lon="10.17987"><ele>250</ele></trkpt>
<trkpt lat="50.32605" lon="10.17816"><ele>255</ele></trkpt>
<trkpt lat="50.32680" lon="10.17707"><ele>252</ele></trkpt>
<trkpt lat="50.32677" lon="10.17700"><ele>252</ele></trkpt>
<trkpt lat="50.32682" lon="10.17693"><ele>252</ele></trkpt>
<trkpt lat="50.32652" lon="10.17596"><ele>254</ele></trkpt>
<trkpt lat="50.32622" lon="10.17432"><ele>256</ele></trkpt>
<trkpt lat="50.32624" lon="10.17284"><ele>257</ele></trkpt>
<trkpt lat="50.32635" lon="10.17196"><ele>258</ele></trkpt>
<trkpt lat="50.32638" lon="10.17139"><ele>258</ele></trkpt>
<trkpt lat="50.32635" lon="10.17114"><ele>258</ele></trkpt>
<trkpt lat="50.32628" lon="10.17094"><ele>257</ele></trkpt>
<trkpt lat="50.32640" lon="10.17052"><ele>258</ele></trkpt>
<trkpt lat="50.32654" lon="10.16791"><ele>260</ele></trkpt>
<trkpt lat="50.32667" lon="10.16738"><ele>261</ele></trkpt>
<trkpt lat="50.32683" lon="10.16705"><ele>262</ele></trkpt>
<trkpt lat="50.32700" lon="10.16679"><ele>262</ele></trkpt>
<trkpt lat="50.32726" lon="10.16650"><ele>263</ele></trkpt>
<trkpt lat="50.32689" lon="10.16580"><ele>262</ele></trkpt>
<trkpt lat="50.32725" lon="10.16527"><ele>263</ele></trkpt>
<trkpt lat="50.32802" lon="10.16376"><ele>266</ele></trkpt>
<trkpt lat="50.32813" lon="10.16337"><ele>266</ele></trkpt>
<trkpt lat="50.32815" lon="10.16302"><ele>266</ele></trkpt>
<trkpt lat="50.32805" lon="10.16239"><ele>268</ele></trkpt>
<trkpt lat="50.32783" lon="10.16182"><ele>271</ele></trkpt>
<trkpt lat="50.32771" lon="10.16131"><ele>274</ele></trkpt>
<trkpt lat="50.32744" lon="10.15964"><ele>281</ele></trkpt>
<trkpt lat="50.32733" lon="10.15948"><ele>282</ele></trkpt>
<trkpt lat="50.32724" lon="10.15943"><ele>282</ele></trkpt>
<trkpt lat="50.32690" lon="10.15932"><ele>281</ele></trkpt>
<trkpt lat="50.32726" lon="10.15810"><ele>285</ele></trkpt>
<trkpt lat="50.32673" lon="10.15616"><ele>288</ele></trkpt>
<trkpt lat="50.32630" lon="10.15369"><ele>294</ele></trkpt>
<trkpt lat="50.32566" lon="10.14782"><ele>317</ele></trkpt>
<trkpt lat="50.32520" lon="10.14529"><ele>321</ele></trkpt>
<trkpt lat="50.32472" lon="10.14368"><ele>324</ele></trkpt>
<trkpt lat="50.32526" lon="10.14331"><ele>323</ele></trkpt>
<trkpt lat="50.32565" lon="10.14036"><ele>329</ele></trkpt>
<trkpt lat="50.32554" lon="10.13655"><ele>334</ele></trkpt>
<trkpt lat="50.32543" lon="10.13609"><ele>335</ele></trkpt>
<trkpt lat="50.32540" lon="10.13467"><ele>336</ele></trkpt>
<trkpt lat="50.32543" lon="10.13421"><ele>337</ele></trkpt>
<trkpt lat="50.32579" lon="10.13358"><ele>339</ele></trkpt>
<trkpt lat="50.32618" lon="10.13308"><ele>341</ele></trkpt>
<trkpt lat="50.32691" lon="10.13186"><ele>347</ele></trkpt>
<trkpt lat="50.32666" lon="10.13043"><ele>349</ele></trkpt>
<trkpt lat="50.32607" lon="10.12761"><ele>366</ele></trkpt>
<trkpt lat="50.32605" lon="10.12676"><ele>369</ele></trkpt>
<trkpt lat="50.32616" lon="10.12547"><ele>372</ele></trkpt>
<trkpt lat="50.32708" lon="10.11817"><ele>366</ele></trkpt>
<trkpt lat="50.32754" lon="10.11767"><ele>367</ele></trkpt>
<trkpt lat="50.32859" lon="10.11129"><ele>385</ele></trkpt>
<trkpt lat="50.33103" lon="10.09727"><ele>439</ele></trkpt>
<trkpt lat="50.33496" lon="10.09692"><ele>456</ele></trkpt>
<trkpt lat="50.34043" lon="10.09431"><ele>459</ele></trkpt>
<trkpt lat="50.34065" lon="10.09433"><ele>460</ele></trkpt>
<trkpt lat="50.34059" lon="10.09412"><ele>460</ele></trkpt>
<trkpt lat="50.34160" lon="10.09048"><ele>457</ele></trkpt>
<trkpt lat="50.34179" lon="10.08965"><ele>458</ele></trkpt>
<trkpt lat="50.34177" lon="10.08896"><ele>458</ele></trkpt>
<trkpt lat="50.34159" lon="10.08825"><ele>459</ele></trkpt>
<trkpt lat="50.34110" lon="10.08705"><ele>466</ele></trkpt>
<trkpt lat="50.34096" lon="10.08631"><ele>471</ele></trkpt>
<trkpt lat="50.34099" lon="10.08602"><ele>472</ele></trkpt>
<trkpt lat="50.34105" lon="10.08576"><ele>474</ele></trkpt>
<trkpt lat="50.34136" lon="10.08508"><ele>478</ele></trkpt>
<trkpt lat="50.34158" lon="10.08377"><ele>481</ele></trkpt>
<trkpt lat="50.34292" lon="10.07953"><ele>485</ele></trkpt>
<trkpt lat="50.34331" lon="10.07799"><ele>484</ele></trkpt>
<trkpt lat="50.34346" lon="10.07720"><ele>484</ele></trkpt>
<trkpt lat="50.34383" lon="10.07586"><ele>485</ele></trkpt>
<trkpt lat="50.34381" lon="10.07445"><ele>486</ele></trkpt>
<trkpt lat="50.34389" lon="10.07407"><ele>488</ele></trkpt>
<trkpt lat="50.34480" lon="10.07362"><ele>497</ele></trkpt>
<trkpt lat="50.34220" lon="10.06965"><ele>504</ele></trkpt>
<trkpt lat="50.34202" lon="10.06680"><ele>502</ele></trkpt>
<trkpt lat="50.34175" lon="10.06133"><ele>492</ele></trkpt>
<trkpt lat="50.34167" lon="10.06004"><ele>491</ele></trkpt>
<trkpt lat="50.34159" lon="10.05758"><ele>490</ele></trkpt>
<trkpt lat="50.34147" lon="10.05671"><ele>490</ele></trkpt>
<trkpt lat="50.34094" lon="10.05423"><ele>484</ele></trkpt>
<trkpt lat="50.34086" lon="10.05372"><ele>484</ele></trkpt>
<trkpt lat="50.34082" lon="10.05323"><ele>484</ele></trkpt>
<trkpt lat="50.34090" lon="10.05170"><ele>476</ele></trkpt>
<trkpt lat="50.34095" lon="10.05139"><ele>474</ele></trkpt>
<trkpt lat="50.34174" lon="10.04866"><ele>455</ele></trkpt>
<trkpt lat="50.34195" lon="10.04772"><ele>450</ele></trkpt>
<trkpt lat="50.34194" lon="10.04677"><ele>444</ele></trkpt>
<trkpt lat="50.34189" lon="10.04643"><ele>441</ele></trkpt>
<trkpt lat="50.34156" lon="10.04543"><ele>430</ele></trkpt>
<trkpt lat="50.34136" lon="10.04466"><ele>425</ele></trkpt>
<trkpt lat="50.34105" lon="10.04359"><ele>420</ele></trkpt>
<trkpt lat="50.34094" lon="10.04319"><ele>416</ele></trkpt>
<trkpt lat="50.34096" lon="10.04301"><ele>414</ele></trkpt>
<trkpt lat="50.34107" lon="10.04280"><ele>411</ele></trkpt>
<trkpt lat="50.34129" lon="10.04259"><ele>408</ele></trkpt>
<trkpt lat="50.34151" lon="10.04245"><ele>405</ele></trkpt>
<trkpt lat="50.34186" lon="10.04246"><ele>401</ele></trkpt>
<trkpt lat="50.34263" lon="10.04288"><ele>388</ele></trkpt>
<trkpt lat="50.34267" lon="10.04214"><ele>382</ele></trkpt>
<trkpt lat="50.34265" lon="10.04162"><ele>377</ele></trkpt>
<trkpt lat="50.34236" lon="10.04107"><ele>373</ele></trkpt>
<trkpt lat="50.34187" lon="10.04048"><ele>363</ele></trkpt>
<trkpt lat="50.34145" lon="10.03956"><ele>362</ele></trkpt>
<trkpt lat="50.34171" lon="10.03922"><ele>366</ele></trkpt>
<trkpt lat="50.34184" lon="10.03914"><ele>368</ele></trkpt>
<trkpt lat="50.34217" lon="10.03908"><ele>373</ele></trkpt>
<trkpt lat="50.34225" lon="10.03902"><ele>374</ele></trkpt>
<trkpt lat="50.34253" lon="10.03862"><ele>378</ele></trkpt>
<trkpt lat="50.34264" lon="10.03831"><ele>382</ele></trkpt>
<trkpt lat="50.34265" lon="10.03791"><ele>388</ele></trkpt>
<trkpt lat="50.34241" lon="10.03723"><ele>399</ele></trkpt>
<trkpt lat="50.34221" lon="10.03696"><ele>400</ele></trkpt>
<trkpt lat="50.34212" lon="10.03668"><ele>405</ele></trkpt>
<trkpt lat="50.34210" lon="10.03641"><ele>408</ele></trkpt>
<trkpt lat="50.34212" lon="10.03613"><ele>410</ele></trkpt>
<trkpt lat="50.34210" lon="10.03519"><ele>421</ele></trkpt>
<trkpt lat="50.34225" lon="10.03454"><ele>427</ele></trkpt>
<trkpt lat="50.34233" lon="10.03369"><ele>435</ele></trkpt>
<trkpt lat="50.34238" lon="10.03345"><ele>437</ele></trkpt>
<trkpt lat="50.34268" lon="10.03269"><ele>443</ele></trkpt>
<trkpt lat="50.34279" lon="10.03220"><ele>446</ele></trkpt>
<trkpt lat="50.34310" lon="10.03130"><ele>454</ele></trkpt>
<trkpt lat="50.34330" lon="10.03115"><ele>456</ele></trkpt>
<trkpt lat="50.34370" lon="10.03095"><ele>460</ele></trkpt>
<trkpt lat="50.34388" lon="10.03080"><ele>462</ele></trkpt>
<trkpt lat="50.34416" lon="10.03037"><ele>466</ele></trkpt>
<trkpt lat="50.34476" lon="10.02927"><ele>475</ele></trkpt>
<trkpt lat="50.34490" lon="10.02914"><ele>477</ele></trkpt>
<trkpt lat="50.34650" lon="10.02834"><ele>492</ele></trkpt>
<trkpt lat="50.34797" lon="10.02745"><ele>506</ele></trkpt>
<trkpt lat="50.34888" lon="10.02666"><ele>516</ele></trkpt>
<trkpt lat="50.35005" lon="10.02625"><ele>517</ele></trkpt>
<trkpt lat="50.35071" lon="10.02613"><ele>519</ele></trkpt>
<trkpt lat="50.35111" lon="10.02587"><ele>521</ele></trkpt>
<trkpt lat="50.35208" lon="10.02548"><ele>526</ele></trkpt>
<trkpt lat="50.35239" lon="10.02526"><ele>527</ele></trkpt>
<trkpt lat="50.35263" lon="10.02499"><ele>528</ele></trkpt>
<trkpt lat="50.35276" lon="10.02473"><ele>528</ele></trkpt>
<trkpt lat="50.35292" lon="10.02406"><ele>530</ele></trkpt>
<trkpt lat="50.35299" lon="10.02307"><ele>534</ele></trkpt>
<trkpt lat="50.35321" lon="10.02204"><ele>537</ele></trkpt>
<trkpt lat="50.35358" lon="10.02097"><ele>540</ele></trkpt>
<trkpt lat="50.35426" lon="10.01946"><ele>543</ele></trkpt>
<trkpt lat="50.35591" lon="10.01699"><ele>549</ele></trkpt>
<trkpt lat="50.35681" lon="10.01609"><ele>552</ele></trkpt>
<trkpt lat="50.35728" lon="10.01584"><ele>554</ele></trkpt>
<trkpt lat="50.35773" lon="10.01568"><ele>556</ele></trkpt>
<trkpt lat="50.35815" lon="10.01569"><ele>556</ele></trkpt>
<trkpt lat="50.35855" lon="10.01586"><ele>555</ele></trkpt>
<trkpt lat="50.36049" lon="10.01767"><ele>547</ele></trkpt>
<trkpt lat="50.36064" lon="10.01740"><ele>546</ele></trkpt>
<trkpt lat="50.36099" lon="10.01572"><ele>539</ele></trkpt>
<trkpt lat="50.36106" lon="10.01517"><ele>535</ele></trkpt>
<trkpt lat="50.36101" lon="10.01393"><ele>529</ele></trkpt>
<trkpt lat="50.36095" lon="10.01355"><ele>528</ele></trkpt>
<trkpt lat="50.36079" lon="10.01321"><ele>525</ele></trkpt>
<trkpt lat="50.36055" lon="10.01287"><ele>523</ele></trkpt>
<trkpt lat="50.35995" lon="10.01220"><ele>519</ele></trkpt>
<trkpt lat="50.35997" lon="10.01201"><ele>518</ele></trkpt>
<trkpt lat="50.36003" lon="10.01193"><ele>516</ele></trkpt>
<trkpt lat="50.36122" lon="10.01261"><ele>520</ele></trkpt>
<trkpt lat="50.36148" lon="10.01263"><ele>521</ele></trkpt>
<trkpt lat="50.36169" lon="10.01177"><ele>521</ele></trkpt>
<trkpt lat="50.36168" lon="10.01166"><ele>521</ele></trkpt>
<trkpt lat="50.36146" lon="10.01129"><ele>522</ele></trkpt>
<trkpt lat="50.36111" lon="10.01055"><ele>523</ele></trkpt>
<trkpt lat="50.36083" lon="10.01008"><ele>523</ele></trkpt>
<trkpt lat="50.35930" lon="10.00781"><ele>526</ele></trkpt>
<trkpt lat="50.35893" lon="10.00707"><ele>531</ele></trkpt>
<trkpt lat="50.35809" lon="10.00592"><ele>541</ele></trkpt>
<trkpt lat="50.35772" lon="10.00549"><ele>544</ele></trkpt>
<trkpt lat="50.35755" lon="10.00531"><ele>545</ele></trkpt>
<trkpt lat="50.35706" lon="10.00495"><ele>545</ele></trkpt>
<trkpt lat="50.35701" lon="10.00486"><ele>545</ele></trkpt>
<trkpt lat="50.35690" lon="10.00460"><ele>545</ele></trkpt>
<trkpt lat="50.35689" lon="10.00449"><ele>545</ele></trkpt>
<trkpt lat="50.35693" lon="10.00432"><ele>546</ele></trkpt>
<trkpt lat="50.35712" lon="10.00404"><ele>550</ele></trkpt>
<trkpt lat="50.35710" lon="10.00392"><ele>550</ele></trkpt>
<trkpt lat="50.35712" lon="10.00369"><ele>552</ele></trkpt>
<trkpt lat="50.35704" lon="10.00313"><ele>554</ele></trkpt>
<trkpt lat="50.35679" lon="10.00299"><ele>552</ele></trkpt>
<trkpt lat="50.35648" lon="10.00312"><ele>550</ele></trkpt>
<trkpt lat="50.35615" lon="10.00309"><ele>548</ele></trkpt>
<trkpt lat="50.35662" lon="10.00286"><ele>551</ele></trkpt>
<trkpt lat="50.35671" lon="10.00277"><ele>552</ele></trkpt>
<trkpt lat="50.35719" lon="10.00203"><ele>557</ele></trkpt>
<trkpt lat="50.35727" lon="10.00179"><ele>558</ele></trkpt>
<trkpt lat="50.35756" lon="9.99891"><ele>571</ele></trkpt>
<trkpt lat="50.35750" lon="9.99824"><ele>572</ele></trkpt>
<trkpt lat="50.35707" lon="9.99520"><ele>582</ele></trkpt>
<trkpt lat="50.35712" lon="9.99404"><ele>584</ele></trkpt>
<trkpt lat="50.35721" lon="9.99375"><ele>586</ele></trkpt>
<trkpt lat="50.35751" lon="9.99325"><ele>588</ele></trkpt>
<trkpt lat="50.35757" lon="9.99298"><ele>588</ele></trkpt>
<trkpt lat="50.35755" lon="9.99286"><ele>588</ele></trkpt>
<trkpt lat="50.35739" lon="9.99225"><ele>587</ele></trkpt>
<trkpt lat="50.35724" lon="9.99198"><ele>587</ele></trkpt>
<trkpt lat="50.35716" lon="9.99192"><ele>586</ele></trkpt>
<trkpt lat="50.35601" lon="9.99168"><ele>591</ele></trkpt>
<trkpt lat="50.35587" lon="9.99150"><ele>592</ele></trkpt>
<trkpt lat="50.35583" lon="9.99128"><ele>592</ele></trkpt>
<trkpt lat="50.35559" lon="9.98324"><ele>607</ele></trkpt>
<trkpt lat="50.35549" lon="9.98293"><ele>606</ele></trkpt>
<trkpt lat="50.35499" lon="9.98202"><ele>610</ele></trkpt>
<trkpt lat="50.35437" lon="9.98021"><ele>616</ele></trkpt>
<trkpt lat="50.35425" lon="9.97993"><ele>618</ele></trkpt>
<trkpt lat="50.35354" lon="9.97878"><ele>613</ele></trkpt>
<trkpt lat="50.35275" lon="9.97739"><ele>606</ele></trkpt>
<trkpt lat="50.35224" lon="9.97661"><ele>600</ele></trkpt>
<trkpt lat="50.35202" lon="9.97565"><ele>596</ele></trkpt>
<trkpt lat="50.35202" lon="9.97524"><ele>596</ele></trkpt>
<trkpt lat="50.35221" lon="9.97392"><ele>598</ele></trkpt>
<trkpt lat="50.35238" lon="9.97335"><ele>598</ele></trkpt>
<trkpt lat="50.35297" lon="9.97228"><ele>601</ele></trkpt>
<trkpt lat="50.35323" lon="9.97171"><ele>601</ele></trkpt>
<trkpt lat="50.35381" lon="9.97016"><ele>600</ele></trkpt>
<trkpt lat="50.35403" lon="9.96933"><ele>598</ele></trkpt>
<trkpt lat="50.35448" lon="9.96724"><ele>596</ele></trkpt>
<trkpt lat="50.35496" lon="9.96562"><ele>598</ele></trkpt>
<trkpt lat="50.35559" lon="9.96374"><ele>598</ele></trkpt>
<trkpt lat="50.35612" lon="9.96278"><ele>598</ele></trkpt>
<trkpt lat="50.35648" lon="9.96243"><ele>598</ele></trkpt>
<trkpt lat="50.35697" lon="9.96219"><ele>596</ele></trkpt>
<trkpt lat="50.35761" lon="9.96172"><ele>593</ele></trkpt>
<trkpt lat="50.35829" lon="9.95999"><ele>596</ele></trkpt>
<trkpt lat="50.35837" lon="9.95929"><ele>596</ele></trkpt>
<trkpt lat="50.35844" lon="9.95843"><ele>597</ele></trkpt>
<trkpt lat="50.35856" lon="9.95772"><ele>603</ele></trkpt>
<trkpt lat="50.35896" lon="9.95592"><ele>610</ele></trkpt>
<trkpt lat="50.35934" lon="9.95504"><ele>610</ele></trkpt>
<trkpt lat="50.35998" lon="9.95336"><ele>608</ele></trkpt>
<trkpt lat="50.36028" lon="9.95274"><ele>606</ele></trkpt>
<trkpt lat="50.36143" lon="9.95115"><ele>606</ele></trkpt>
<trkpt lat="50.36145" lon="9.95096"><ele>606</ele></trkpt>
<trkpt lat="50.36141" lon="9.95049"><ele>606</ele></trkpt>
<trkpt lat="50.36149" lon="9.94980"><ele>610</ele></trkpt>
<trkpt lat="50.36149" lon="9.94940"><ele>612</ele></trkpt>
<trkpt lat="50.36141" lon="9.94871"><ele>616</ele></trkpt>
<trkpt lat="50.36140" lon="9.94828"><ele>618</ele></trkpt>
<trkpt lat="50.36150" lon="9.94704"><ele>624</ele></trkpt>
<trkpt lat="50.36164" lon="9.94610"><ele>630</ele></trkpt>
<trkpt lat="50.36178" lon="9.94356"><ele>640</ele></trkpt>
<trkpt lat="50.36166" lon="9.94289"><ele>640</ele></trkpt>
<trkpt lat="50.36163" lon="9.94242"><ele>641</ele></trkpt>
<trkpt lat="50.36149" lon="9.94149"><ele>642</ele></trkpt>
<trkpt lat="50.36142" lon="9.94048"><ele>644</ele></trkpt>
<trkpt lat="50.36142" lon="9.94004"><ele>646</ele></trkpt>
<trkpt lat="50.36147" lon="9.93952"><ele>647</ele></trkpt>
<trkpt lat="50.36161" lon="9.93889"><ele>649</ele></trkpt>
<trkpt lat="50.36191" lon="9.93804"><ele>651</ele></trkpt>
<trkpt lat="50.36232" lon="9.93568"><ele>650</ele></trkpt>
<trkpt lat="50.36230" lon="9.93498"><ele>653</ele></trkpt>
<trkpt lat="50.36243" lon="9.93349"><ele>656</ele></trkpt>
<trkpt lat="50.36241" lon="9.93345"><ele>656</ele></trkpt>
<trkpt lat="50.36240" lon="9.93250"><ele>659</ele></trkpt>
<trkpt lat="50.36231" lon="9.93242"><ele>658</ele></trkpt>
<trkpt lat="50.36203" lon="9.93272"><ele>657</ele></trkpt>
<trkpt lat="50.36157" lon="9.93312"><ele>653</ele></trkpt>
<trkpt lat="50.36150" lon="9.93290"><ele>656</ele></trkpt>
<trkpt lat="50.36144" lon="9.93256"><ele>658</ele></trkpt>
<trkpt lat="50.36174" lon="9.93236"><ele>661</ele></trkpt>
<trkpt lat="50.36187" lon="9.93220"><ele>662</ele></trkpt>
<trkpt lat="50.36194" lon="9.93203"><ele>663</ele></trkpt>
<trkpt lat="50.36196" lon="9.93183"><ele>664</ele></trkpt>
<trkpt lat="50.36161" lon="9.93052"><ele>668</ele></trkpt>
<trkpt lat="50.36145" lon="9.92966"><ele>670</ele></trkpt>
<trkpt lat="50.36142" lon="9.92931"><ele>670</ele></trkpt>
<trkpt lat="50.36150" lon="9.92913"><ele>669</ele></trkpt>
<trkpt lat="50.36297" lon="9.92739"><ele>655</ele></trkpt>
<trkpt lat="50.36340" lon="9.92679"><ele>650</ele></trkpt>
<trkpt lat="50.36357" lon="9.92638"><ele>648</ele></trkpt>
<trkpt lat="50.36403" lon="9.92449"><ele>640</ele></trkpt>
<trkpt lat="50.36446" lon="9.92247"><ele>628</ele></trkpt>
<trkpt lat="50.36457" lon="9.92183"><ele>624</ele></trkpt>
<trkpt lat="50.36465" lon="9.92126"><ele>622</ele></trkpt>
<trkpt lat="50.36471" lon="9.91970"><ele>622</ele></trkpt>
<trkpt lat="50.36478" lon="9.91954"><ele>623</ele></trkpt>
<trkpt lat="50.36613" lon="9.91788"><ele>630</ele></trkpt>
<trkpt lat="50.36630" lon="9.91760"><ele>632</ele></trkpt>
<trkpt lat="50.36645" lon="9.91719"><ele>633</ele></trkpt>
<trkpt lat="50.36649" lon="9.91686"><ele>634</ele></trkpt>
<trkpt lat="50.36646" lon="9.91515"><ele>643</ele></trkpt>
<trkpt lat="50.36656" lon="9.91420"><ele>646</ele></trkpt>
<trkpt lat="50.36672" lon="9.91331"><ele>648</ele></trkpt>
<trkpt lat="50.36696" lon="9.91247"><ele>646</ele></trkpt>
<trkpt lat="50.36708" lon="9.91191"><ele>643</ele></trkpt>
<trkpt lat="50.36724" lon="9.91143"><ele>640</ele></trkpt>
<trkpt lat="50.36735" lon="9.91127"><ele>638</ele></trkpt>
<trkpt lat="50.36767" lon="9.90959"><ele>628</ele></trkpt>
<trkpt lat="50.36509" lon="9.90986"><ele>622</ele></trkpt>
<trkpt lat="50.36404" lon="9.90939"><ele>621</ele></trkpt>
<trkpt lat="50.36204" lon="9.90761"><ele>623</ele></trkpt>
<trkpt lat="50.36089" lon="9.90754"><ele>625</ele></trkpt>
<trkpt lat="50.36033" lon="9.90594"><ele>626</ele></trkpt>
<trkpt lat="50.36046" lon="9.90423"><ele>624</ele></trkpt>
<trkpt lat="50.36046" lon="9.90267"><ele>624</ele></trkpt>
<trkpt lat="50.36057" lon="9.90238"><ele>621</ele></trkpt>
<trkpt lat="50.36081" lon="9.90199"><ele>614</ele></trkpt>
<trkpt lat="50.36090" lon="9.90159"><ele>612</ele></trkpt>
<trkpt lat="50.36104" lon="9.90000"><ele>603</ele></trkpt>
<trkpt lat="50.36096" lon="9.89976"><ele>603</ele></trkpt>
<trkpt lat="50.36077" lon="9.89939"><ele>604</ele></trkpt>
<trkpt lat="50.36053" lon="9.89907"><ele>605</ele></trkpt>
<trkpt lat="50.35957" lon="9.89841"><ele>610</ele></trkpt>
<trkpt lat="50.35918" lon="9.89825"><ele>611</ele></trkpt>
<trkpt lat="50.35893" lon="9.89809"><ele>611</ele></trkpt>
<trkpt lat="50.35853" lon="9.89762"><ele>611</ele></trkpt>
<trkpt lat="50.35775" lon="9.89686"><ele>610</ele></trkpt>
<trkpt lat="50.35718" lon="9.89623"><ele>607</ele></trkpt>
<trkpt lat="50.35687" lon="9.89599"><ele>607</ele></trkpt>
<trkpt lat="50.35619" lon="9.89573"><ele>609</ele></trkpt>
<trkpt lat="50.35549" lon="9.89562"><ele>613</ele></trkpt>
<trkpt lat="50.35522" lon="9.89550"><ele>613</ele></trkpt>
<trkpt lat="50.35338" lon="9.89387"><ele>601</ele></trkpt>
<trkpt lat="50.35300" lon="9.89369"><ele>597</ele></trkpt>
<trkpt lat="50.35267" lon="9.89366"><ele>598</ele></trkpt>
<trkpt lat="50.35239" lon="9.89370"><ele>598</ele></trkpt>
<trkpt lat="50.35207" lon="9.89394"><ele>600</ele></trkpt>
<trkpt lat="50.35183" lon="9.89423"><ele>603</ele></trkpt>
<trkpt lat="50.35161" lon="9.89459"><ele>607</ele></trkpt>
<trkpt lat="50.35138" lon="9.89524"><ele>612</ele></trkpt>
<trkpt lat="50.35108" lon="9.89468"><ele>606</ele></trkpt>
<trkpt lat="50.35091" lon="9.89462"><ele>604</ele></trkpt>
<trkpt lat="50.35045" lon="9.89458"><ele>601</ele></trkpt>
<trkpt lat="50.35040" lon="9.89453"><ele>600</ele></trkpt>
<trkpt lat="50.35035" lon="9.89434"><ele>598</ele></trkpt>
<trkpt lat="50.35014" lon="9.89418"><ele>592</ele></trkpt>
<trkpt lat="50.35007" lon="9.89388"><ele>586</ele></trkpt>
<trkpt lat="50.34980" lon="9.89330"><ele>577</ele></trkpt>
<trkpt lat="50.34978" lon="9.89320"><ele>576</ele></trkpt>
<trkpt lat="50.35085" lon="9.89116"><ele>559</ele></trkpt>
<trkpt lat="50.35108" lon="9.89079"><ele>554</ele></trkpt>
<trkpt lat="50.35111" lon="9.89069"><ele>553</ele></trkpt>
<trkpt lat="50.35090" lon="9.88980"><ele>539</ele></trkpt>
<trkpt lat="50.35072" lon="9.88885"><ele>523</ele></trkpt>
<trkpt lat="50.35050" lon="9.88793"><ele>509</ele></trkpt>
<trkpt lat="50.35020" lon="9.88624"><ele>484</ele></trkpt>
<trkpt lat="50.34994" lon="9.88533"><ele>476</ele></trkpt>
<trkpt lat="50.34982" lon="9.88472"><ele>468</ele></trkpt>
<trkpt lat="50.34963" lon="9.88419"><ele>463</ele></trkpt>
<trkpt lat="50.34934" lon="9.88321"><ele>455</ele></trkpt>
<trkpt lat="50.34929" lon="9.88258"><ele>451</ele></trkpt>
<trkpt lat="50.34919" lon="9.88254"><ele>451</ele></trkpt>
<trkpt lat="50.34938" lon="9.88189"><ele>446</ele></trkpt>
<trkpt lat="50.34938" lon="9.88176"><ele>445</ele></trkpt>
<trkpt lat="50.34926" lon="9.88122"><ele>442</ele></trkpt>
<trkpt lat="50.34863" lon="9.88054"><ele>442</ele></trkpt>
<trkpt lat="50.34839" lon="9.88032"><ele>440</ele></trkpt>
<trkpt lat="50.34794" lon="9.88005"><ele>440</ele></trkpt>
<trkpt lat="50.34751" lon="9.87994"><ele>442</ele></trkpt>
<trkpt lat="50.34718" lon="9.87994"><ele>444</ele></trkpt>
<trkpt lat="50.34696" lon="9.87998"><ele>444</ele></trkpt>
<trkpt lat="50.34605" lon="9.88032"><ele>443</ele></trkpt>
<trkpt lat="50.34608" lon="9.88043"><ele>444</ele></trkpt>
<trkpt lat="50.34457" lon="9.88130"><ele>444</ele></trkpt>
<trkpt lat="50.34414" lon="9.88141"><ele>444</ele></trkpt>
<trkpt lat="50.34353" lon="9.88132"><ele>443</ele></trkpt>
<trkpt lat="50.34316" lon="9.88114"><ele>442</ele></trkpt>
<trkpt lat="50.34089" lon="9.87956"><ele>442</ele></trkpt>
<trkpt lat="50.34006" lon="9.87912"><ele>442</ele></trkpt>
<trkpt lat="50.34003" lon="9.87904"><ele>441</ele></trkpt>
<trkpt lat="50.34004" lon="9.87846"><ele>433</ele></trkpt>
<trkpt lat="50.33979" lon="9.87836"><ele>433</ele></trkpt>
<trkpt lat="50.33904" lon="9.87823"><ele>431</ele></trkpt>
<trkpt lat="50.33761" lon="9.87830"><ele>428</ele></trkpt>
<trkpt lat="50.33733" lon="9.87827"><ele>427</ele></trkpt>
<trkpt lat="50.33682" lon="9.87806"><ele>428</ele></trkpt>
<trkpt lat="50.33544" lon="9.87730"><ele>423</ele></trkpt>
<trkpt lat="50.33461" lon="9.87675"><ele>422</ele></trkpt>
<trkpt lat="50.33367" lon="9.87603"><ele>421</ele></trkpt>
<trkpt lat="50.33204" lon="9.87495"><ele>418</ele></trkpt>
<trkpt lat="50.33171" lon="9.87463"><ele>416</ele></trkpt>
<trkpt lat="50.33088" lon="9.87342"><ele>415</ele></trkpt>
<trkpt lat="50.32965" lon="9.87211"><ele>410</ele></trkpt>
<trkpt lat="50.32932" lon="9.87170"><ele>409</ele></trkpt>
<trkpt lat="50.32750" lon="9.86905"><ele>409</ele></trkpt>
<trkpt lat="50.32726" lon="9.86876"><ele>408</ele></trkpt>
<trkpt lat="50.32700" lon="9.86851"><ele>408</ele></trkpt>
<trkpt lat="50.32653" lon="9.86823"><ele>408</ele></trkpt>
<trkpt lat="50.32624" lon="9.86814"><ele>408</ele></trkpt>
<trkpt lat="50.32521" lon="9.86805"><ele>408</ele></trkpt>
<trkpt lat="50.32458" lon="9.86783"><ele>409</ele></trkpt>
<trkpt lat="50.32424" lon="9.86763"><ele>408</ele></trkpt>
<trkpt lat="50.32397" lon="9.86742"><ele>407</ele></trkpt>
<trkpt lat="50.32384" lon="9.86725"><ele>406</ele></trkpt>
<trkpt lat="50.32346" lon="9.86693"><ele>406</ele></trkpt>
<trkpt lat="50.32272" lon="9.86620"><ele>404</ele></trkpt>
<trkpt lat="50.32255" lon="9.86614"><ele>405</ele></trkpt>
<trkpt lat="50.32021" lon="9.86400"><ele>404</ele></trkpt>
<trkpt lat="50.31974" lon="9.86348"><ele>403</ele></trkpt>
<trkpt lat="50.31944" lon="9.86303"><ele>403</ele></trkpt>
<trkpt lat="50.31918" lon="9.86248"><ele>402</ele></trkpt>
<trkpt lat="50.31910" lon="9.86224"><ele>401</ele></trkpt>
<trkpt lat="50.31839" lon="9.85891"><ele>397</ele></trkpt>
<trkpt lat="50.31725" lon="9.85506"><ele>393</ele></trkpt>
<trkpt lat="50.31616" lon="9.85058"><ele>386</ele></trkpt>
<trkpt lat="50.31507" lon="9.84677"><ele>381</ele></trkpt>
<trkpt lat="50.31482" lon="9.84578"><ele>377</ele></trkpt>
<trkpt lat="50.31469" lon="9.84521"><ele>376</ele></trkpt>
<trkpt lat="50.31463" lon="9.84437"><ele>374</ele></trkpt>
<trkpt lat="50.31470" lon="9.84345"><ele>376</ele></trkpt>
<trkpt lat="50.31480" lon="9.84289"><ele>376</ele></trkpt>
<trkpt lat="50.31500" lon="9.84221"><ele>376</ele></trkpt>
<trkpt lat="50.31541" lon="9.84100"><ele>372</ele></trkpt>
<trkpt lat="50.31560" lon="9.84028"><ele>373</ele></trkpt>
<trkpt lat="50.31619" lon="9.83734"><ele>370</ele></trkpt>
<trkpt lat="50.31634" lon="9.83676"><ele>369</ele></trkpt>
<trkpt lat="50.31676" lon="9.83544"><ele>366</ele></trkpt>
<trkpt lat="50.31755" lon="9.83365"><ele>364</ele></trkpt>
<trkpt lat="50.31788" lon="9.83281"><ele>362</ele></trkpt>
<trkpt lat="50.31800" lon="9.83237"><ele>362</ele></trkpt>
<trkpt lat="50.31809" lon="9.83183"><ele>361</ele></trkpt>
<trkpt lat="50.31816" lon="9.83079"><ele>358</ele></trkpt>
<trkpt lat="50.31820" lon="9.82668"><ele>356</ele></trkpt>
<trkpt lat="50.31824" lon="9.82626"><ele>356</ele></trkpt>
<trkpt lat="50.31831" lon="9.82585"><ele>354</ele></trkpt>
<trkpt lat="50.31842" lon="9.82547"><ele>353</ele></trkpt>
<trkpt lat="50.31891" lon="9.82407"><ele>352</ele></trkpt>
<trkpt lat="50.31892" lon="9.82398"><ele>352</ele></trkpt>
<trkpt lat="50.31890" lon="9.82358"><ele>352</ele></trkpt>
<trkpt lat="50.31900" lon="9.82330"><ele>350</ele></trkpt>
<trkpt lat="50.31900" lon="9.82288"><ele>350</ele></trkpt>
<trkpt lat="50.31894" lon="9.82244"><ele>350</ele></trkpt>
<trkpt lat="50.31837" lon="9.81979"><ele>349</ele></trkpt>
<trkpt lat="50.31829" lon="9.81917"><ele>349</ele></trkpt>
<trkpt lat="50.31829" lon="9.81862"><ele>347</ele></trkpt>
<trkpt lat="50.31838" lon="9.81786"><ele>348</ele></trkpt>
<trkpt lat="50.31841" lon="9.81707"><ele>346</ele></trkpt>
<trkpt lat="50.31827" lon="9.81658"><ele>350</ele></trkpt>
<trkpt lat="50.31804" lon="9.81514"><ele>349</ele></trkpt>
<trkpt lat="50.31775" lon="9.81418"><ele>348</ele></trkpt>
<trkpt lat="50.31723" lon="9.81349"><ele>358</ele></trkpt>
<trkpt lat="50.31612" lon="9.80958"><ele>359</ele></trkpt>
<trkpt lat="50.31549" lon="9.80759"><ele>360</ele></trkpt>
<trkpt lat="50.31505" lon="9.80663"><ele>360</ele></trkpt>
<trkpt lat="50.31473" lon="9.80620"><ele>362</ele></trkpt>
<trkpt lat="50.31427" lon="9.80588"><ele>368</ele></trkpt>
<trkpt lat="50.31389" lon="9.80479"><ele>367</ele></trkpt>
<trkpt lat="50.31283" lon="9.80261"><ele>368</ele></trkpt>
<trkpt lat="50.31186" lon="9.80104"><ele>374</ele></trkpt>
<trkpt lat="50.30992" lon="9.79842"><ele>382</ele></trkpt>
<trkpt lat="50.30949" lon="9.79805"><ele>386</ele></trkpt>
<trkpt lat="50.30911" lon="9.79793"><ele>387</ele></trkpt>
<trkpt lat="50.30892" lon="9.79793"><ele>388</ele></trkpt>
<trkpt lat="50.30865" lon="9.79808"><ele>390</ele></trkpt>
<trkpt lat="50.30788" lon="9.79887"><ele>397</ele></trkpt>
<trkpt lat="50.30753" lon="9.79894"><ele>398</ele></trkpt>
<trkpt lat="50.30733" lon="9.79879"><ele>396</ele></trkpt>
<trkpt lat="50.30720" lon="9.79847"><ele>396</ele></trkpt>
<trkpt lat="50.30715" lon="9.79820"><ele>396</ele></trkpt>
<trkpt lat="50.30715" lon="9.79699"><ele>393</ele></trkpt>
<trkpt lat="50.30721" lon="9.79644"><ele>390</ele></trkpt>
<trkpt lat="50.30720" lon="9.79570"><ele>386</ele></trkpt>
<trkpt lat="50.30710" lon="9.79514"><ele>384</ele></trkpt>
<trkpt lat="50.30689" lon="9.79462"><ele>384</ele></trkpt>
<trkpt lat="50.30505" lon="9.79065"><ele>385</ele></trkpt>
<trkpt lat="50.30486" lon="9.79050"><ele>387</ele></trkpt>
<trkpt lat="50.30460" lon="9.79052"><ele>389</ele></trkpt>
<trkpt lat="50.30477" lon="9.79040"><ele>387</ele></trkpt>
<trkpt lat="50.30497" lon="9.79037"><ele>384</ele></trkpt>
<trkpt lat="50.30477" lon="9.79040"><ele>387</ele></trkpt>
<trkpt lat="50.30460" lon="9.79052"><ele>389</ele></trkpt>
<trkpt lat="50.30381" lon="9.79066"><ele>385</ele></trkpt>
<trkpt lat="50.30374" lon="9.79066"><ele>384</ele></trkpt>
<trkpt lat="50.30366" lon="9.79057"><ele>382</ele></trkpt>
<trkpt lat="50.30359" lon="9.79039"><ele>380</ele></trkpt>
<trkpt lat="50.30356" lon="9.79012"><ele>376</ele></trkpt>
<trkpt lat="50.30358" lon="9.78997"><ele>374</ele></trkpt>
<trkpt lat="50.30376" lon="9.78940"><ele>369</ele></trkpt>
<trkpt lat="50.30376" lon="9.78925"><ele>368</ele></trkpt>
<trkpt lat="50.30387" lon="9.78904"><ele>366</ele></trkpt>
<trkpt lat="50.30425" lon="9.78805"><ele>358</ele></trkpt>
<trkpt lat="50.30450" lon="9.78766"><ele>353</ele></trkpt>
<trkpt lat="50.30487" lon="9.78725"><ele>346</ele></trkpt>
<trkpt lat="50.30519" lon="9.78722"><ele>340</ele></trkpt>
<trkpt lat="50.30560" lon="9.78750"><ele>334</ele></trkpt>
<trkpt lat="50.30645" lon="9.78744"><ele>323</ele></trkpt>
<trkpt lat="50.30674" lon="9.78734"><ele>320</ele></trkpt>
<trkpt lat="50.30699" lon="9.78710"><ele>316</ele></trkpt>
<trkpt lat="50.30708" lon="9.78696"><ele>315</ele></trkpt>
<trkpt lat="50.30726" lon="9.78712"><ele>314</ele></trkpt>
<trkpt lat="50.30734" lon="9.78712"><ele>314</ele></trkpt>
<trkpt lat="50.30780" lon="9.78684"><ele>312</ele></trkpt>
<trkpt lat="50.30863" lon="9.78686"><ele>312</ele></trkpt>
<trkpt lat="50.30885" lon="9.78699"><ele>312</ele></trkpt>
<trkpt lat="50.30898" lon="9.78702"><ele>312</ele></trkpt>
<trkpt lat="50.30907" lon="9.78715"><ele>313</ele></trkpt>
<trkpt lat="50.30910" lon="9.78728"><ele>313</ele></trkpt>
<trkpt lat="50.30908" lon="9.78753"><ele>312</ele></trkpt>
<trkpt lat="50.30938" lon="9.79023"><ele>316</ele></trkpt>
<trkpt lat="50.30951" lon="9.79114"><ele>318</ele></trkpt>
<trkpt lat="50.30963" lon="9.79277"><ele>318</ele></trkpt>
<trkpt lat="50.31014" lon="9.79266"><ele>320</ele></trkpt>
<trkpt lat="50.31019" lon="9.79257"><ele>320</ele></trkpt>
<trkpt lat="50.31033" lon="9.79250"><ele>321</ele></trkpt>
<trkpt lat="50.31053" lon="9.79232"><ele>323</ele></trkpt>
<trkpt lat="50.31067" lon="9.79212"><ele>324</ele></trkpt>
<trkpt lat="50.31074" lon="9.79193"><ele>326</ele></trkpt>
<trkpt lat="50.31099" lon="9.79235"><ele>326</ele></trkpt>
<trkpt lat="50.31131" lon="9.79280"><ele>327</ele></trkpt>
<trkpt lat="50.31140" lon="9.79299"><ele>326</ele></trkpt>
<trkpt lat="50.31162" lon="9.79311"><ele>328</ele></trkpt>
<trkpt lat="50.31173" lon="9.79258"><ele>334</ele></trkpt>
<trkpt lat="50.31178" lon="9.79245"><ele>336</ele></trkpt>
<trkpt lat="50.31185" lon="9.79239"><ele>337</ele></trkpt>
<trkpt lat="50.31214" lon="9.79260"><ele>340</ele></trkpt>
<trkpt lat="50.31228" lon="9.79264"><ele>342</ele></trkpt>
<trkpt lat="50.31212" lon="9.79247"><ele>340</ele></trkpt>
<trkpt lat="50.31197" lon="9.79219"><ele>341</ele></trkpt>
<trkpt lat="50.31191" lon="9.79183"><ele>342</ele></trkpt>
<trkpt lat="50.31194" lon="9.79167"><ele>342</ele></trkpt>
<trkpt lat="50.31213" lon="9.79117"><ele>341</ele></trkpt>
<trkpt lat="50.31219" lon="9.79121"><ele>343</ele></trkpt>
<trkpt lat="50.31225" lon="9.79100"><ele>342</ele></trkpt>
<trkpt lat="50.31226" lon="9.79076"><ele>340</ele></trkpt>
<trkpt lat="50.31222" lon="9.79057"><ele>340</ele></trkpt>
<trkpt lat="50.31252" lon="9.79041"><ele>339</ele></trkpt>
<trkpt lat="50.31263" lon="9.79030"><ele>340</ele></trkpt>
<trkpt lat="50.31284" lon="9.78996"><ele>341</ele></trkpt>
<trkpt lat="50.31327" lon="9.78955"><ele>345</ele></trkpt>
<trkpt lat="50.31359" lon="9.78897"><ele>346</ele></trkpt>
<trkpt lat="50.31402" lon="9.78810"><ele>350</ele></trkpt>
<trkpt lat="50.31474" lon="9.78728"><ele>358</ele></trkpt>
<trkpt lat="50.31505" lon="9.78713"><ele>360</ele></trkpt>
<trkpt lat="50.31580" lon="9.78689"><ele>368</ele></trkpt>
<trkpt lat="50.31665" lon="9.78731"><ele>374</ele></trkpt>
<trkpt lat="50.31688" lon="9.78732"><ele>376</ele></trkpt>
<trkpt lat="50.31712" lon="9.78717"><ele>379</ele></trkpt>
<trkpt lat="50.31928" lon="9.78531"><ele>398</ele></trkpt>
<trkpt lat="50.31994" lon="9.78447"><ele>402</ele></trkpt>
<trkpt lat="50.31999" lon="9.78434"><ele>402</ele></trkpt>
<trkpt lat="50.32065" lon="9.78339"><ele>410</ele></trkpt>
<trkpt lat="50.32116" lon="9.78247"><ele>415</ele></trkpt>
<trkpt lat="50.32136" lon="9.78196"><ele>417</ele></trkpt>
<trkpt lat="50.32151" lon="9.78144"><ele>420</ele></trkpt>
<trkpt lat="50.32165" lon="9.78077"><ele>423</ele></trkpt>
<trkpt lat="50.32171" lon="9.78027"><ele>424</ele></trkpt>
<trkpt lat="50.32180" lon="9.78001"><ele>425</ele></trkpt>
<trkpt lat="50.32193" lon="9.77978"><ele>427</ele></trkpt>
<trkpt lat="50.32285" lon="9.77844"><ele>433</ele></trkpt>
<trkpt lat="50.32330" lon="9.77766"><ele>438</ele></trkpt>
<trkpt lat="50.32363" lon="9.77680"><ele>441</ele></trkpt>
<trkpt lat="50.32378" lon="9.77593"><ele>445</ele></trkpt>
<trkpt lat="50.32399" lon="9.77544"><ele>446</ele></trkpt>
<trkpt lat="50.32452" lon="9.77339"><ele>455</ele></trkpt>
<trkpt lat="50.32473" lon="9.77243"><ele>460</ele></trkpt>
<trkpt lat="50.32497" lon="9.77161"><ele>463</ele></trkpt>
<trkpt lat="50.32521" lon="9.77095"><ele>466</ele></trkpt>
<trkpt lat="50.32543" lon="9.77058"><ele>468</ele></trkpt>
<trkpt lat="50.32573" lon="9.77020"><ele>470</ele></trkpt>
<trkpt lat="50.32623" lon="9.76974"><ele>475</ele></trkpt>
<trkpt lat="50.32640" lon="9.76978"><ele>476</ele></trkpt>
<trkpt lat="50.32654" lon="9.76990"><ele>476</ele></trkpt>
<trkpt lat="50.32637" lon="9.76911"><ele>480</ele></trkpt>
<trkpt lat="50.32604" lon="9.76805"><ele>484</ele></trkpt>
<trkpt lat="50.32601" lon="9.76757"><ele>486</ele></trkpt>
<trkpt lat="50.32605" lon="9.76731"><ele>487</ele></trkpt>
<trkpt lat="50.32614" lon="9.76711"><ele>489</ele></trkpt>
<trkpt lat="50.32658" lon="9.76674"><ele>494</ele></trkpt>
<trkpt lat="50.32673" lon="9.76653"><ele>496</ele></trkpt>
<trkpt lat="50.32681" lon="9.76628"><ele>499</ele></trkpt>
<trkpt lat="50.32698" lon="9.76556"><ele>500</ele></trkpt>
<trkpt lat="50.32687" lon="9.76535"><ele>499</ele></trkpt>
<trkpt lat="50.32683" lon="9.76516"><ele>499</ele></trkpt>
<trkpt lat="50.32678" lon="9.76348"><ele>496</ele></trkpt>
<trkpt lat="50.32667" lon="9.76308"><ele>496</ele></trkpt>
<trkpt lat="50.32660" lon="9.76297"><ele>495</ele></trkpt>
<trkpt lat="50.32668" lon="9.76257"><ele>495</ele></trkpt>
<trkpt lat="50.32686" lon="9.76198"><ele>495</ele></trkpt>
<trkpt lat="50.32709" lon="9.76160"><ele>494</ele></trkpt>
<trkpt lat="50.32739" lon="9.76138"><ele>493</ele></trkpt>
<trkpt lat="50.32780" lon="9.76124"><ele>492</ele></trkpt>
<trkpt lat="50.32878" lon="9.76165"><ele>493</ele></trkpt>
<trkpt lat="50.33058" lon="9.76204"><ele>495</ele></trkpt>
<trkpt lat="50.33120" lon="9.76209"><ele>494</ele></trkpt>
<trkpt lat="50.33218" lon="9.76199"><ele>493</ele></trkpt>
<trkpt lat="50.33348" lon="9.75953"><ele>510</ele></trkpt>
<trkpt lat="50.33366" lon="9.75881"><ele>515</ele></trkpt>
<trkpt lat="50.33336" lon="9.75853"><ele>517</ele></trkpt>
<trkpt lat="50.33292" lon="9.75740"><ele>520</ele></trkpt>
<trkpt lat="50.33273" lon="9.75673"><ele>519</ele></trkpt>
<trkpt lat="50.33265" lon="9.75595"><ele>519</ele></trkpt>
<trkpt lat="50.33274" lon="9.75481"><ele>522</ele></trkpt>
<trkpt lat="50.33275" lon="9.75429"><ele>524</ele></trkpt>
<trkpt lat="50.33268" lon="9.75277"><ele>528</ele></trkpt>
<trkpt lat="50.33268" lon="9.75215"><ele>527</ele></trkpt>
<trkpt lat="50.33281" lon="9.75153"><ele>527</ele></trkpt>
<trkpt lat="50.33340" lon="9.74957"><ele>526</ele></trkpt>
<trkpt lat="50.33355" lon="9.74774"><ele>526</ele></trkpt>
<trkpt lat="50.33372" lon="9.74710"><ele>526</ele></trkpt>
<trkpt lat="50.33406" lon="9.74642"><ele>524</ele></trkpt>
<trkpt lat="50.33427" lon="9.74620"><ele>524</ele></trkpt>
<trkpt lat="50.33482" lon="9.74604"><ele>524</ele></trkpt>
<trkpt lat="50.33562" lon="9.74602"><ele>525</ele></trkpt>
<trkpt lat="50.33627" lon="9.74622"><ele>526</ele></trkpt>
<trkpt lat="50.33728" lon="9.74370"><ele>507</ele></trkpt>
<trkpt lat="50.33778" lon="9.74239"><ele>501</ele></trkpt>
<trkpt lat="50.33777" lon="9.74224"><ele>500</ele></trkpt>
<trkpt lat="50.33785" lon="9.74219"><ele>500</ele></trkpt>
<trkpt lat="50.33886" lon="9.74232"><ele>510</ele></trkpt>
<trkpt lat="50.33952" lon="9.74333"><ele>517</ele></trkpt>
<trkpt lat="50.33962" lon="9.74338"><ele>518</ele></trkpt>
<trkpt lat="50.34183" lon="9.74321"><ele>529</ele></trkpt>
<trkpt lat="50.34253" lon="9.74355"><ele>532</ele></trkpt>
<trkpt lat="50.34296" lon="9.74368"><ele>532</ele></trkpt>
<trkpt lat="50.34423" lon="9.74387"><ele>537</ele></trkpt>
<trkpt lat="50.34435" lon="9.74387"><ele>537</ele></trkpt>
<trkpt lat="50.34495" lon="9.74358"><ele>536</ele></trkpt>
<trkpt lat="50.34504" lon="9.74348"><ele>535</ele></trkpt>
<trkpt lat="50.34510" lon="9.74331"><ele>534</ele></trkpt>
<trkpt lat="50.34511" lon="9.74304"><ele>533</ele></trkpt>
<trkpt lat="50.34504" lon="9.74251"><ele>532</ele></trkpt>
<trkpt lat="50.34493" lon="9.74201"><ele>530</ele></trkpt>
<trkpt lat="50.34436" lon="9.74033"><ele>524</ele></trkpt>
<trkpt lat="50.34410" lon="9.73969"><ele>522</ele></trkpt>
<trkpt lat="50.34343" lon="9.73846"><ele>517</ele></trkpt>
<trkpt lat="50.34230" lon="9.73519"><ele>502</ele></trkpt>
<trkpt lat="50.34195" lon="9.73402"><ele>498</ele></trkpt>
<trkpt lat="50.34132" lon="9.73229"><ele>494</ele></trkpt>
<trkpt lat="50.34113" lon="9.73194"><ele>494</ele></trkpt>
<trkpt lat="50.34072" lon="9.73141"><ele>493</ele></trkpt>
<trkpt lat="50.34020" lon="9.73090"><ele>490</ele></trkpt>
<trkpt lat="50.33962" lon="9.73094"><ele>494</ele></trkpt>
<trkpt lat="50.33823" lon="9.73057"><ele>503</ele></trkpt>
<trkpt lat="50.33788" lon="9.73055"><ele>506</ele></trkpt>
<trkpt lat="50.33728" lon="9.73057"><ele>510</ele></trkpt>
<trkpt lat="50.33676" lon="9.73081"><ele>513</ele></trkpt>
<trkpt lat="50.33616" lon="9.73077"><ele>512</ele></trkpt>
<trkpt lat="50.33594" lon="9.73088"><ele>511</ele></trkpt>
<trkpt lat="50.33506" lon="9.73192"><ele>510</ele></trkpt>
<trkpt lat="50.33366" lon="9.73305"><ele>496</ele></trkpt>
<trkpt lat="50.33334" lon="9.73349"><ele>491</ele></trkpt>
<trkpt lat="50.33292" lon="9.73359"><ele>484</ele></trkpt>
<trkpt lat="50.33253" lon="9.73349"><ele>478</ele></trkpt>
<trkpt lat="50.33203" lon="9.73378"><ele>471</ele></trkpt>
<trkpt lat="50.33161" lon="9.73397"><ele>465</ele></trkpt>
<trkpt lat="50.33129" lon="9.73401"><ele>462</ele></trkpt>
<trkpt lat="50.33093" lon="9.73386"><ele>458</ele></trkpt>
<trkpt lat="50.33047" lon="9.73335"><ele>453</ele></trkpt>
<trkpt lat="50.33020" lon="9.73296"><ele>450</ele></trkpt>
<trkpt lat="50.32990" lon="9.73182"><ele>448</ele></trkpt>
<trkpt lat="50.32928" lon="9.73059"><ele>452</ele></trkpt>
<trkpt lat="50.32920" lon="9.73035"><ele>452</ele></trkpt>
<trkpt lat="50.32901" lon="9.72935"><ele>458</ele></trkpt>
<trkpt lat="50.32881" lon="9.72797"><ele>464</ele></trkpt>
<trkpt lat="50.32860" lon="9.72731"><ele>466</ele></trkpt>
<trkpt lat="50.32847" lon="9.72703"><ele>466</ele></trkpt>
<trkpt lat="50.32823" lon="9.72665"><ele>466</ele></trkpt>
<trkpt lat="50.32775" lon="9.72621"><ele>466</ele></trkpt>
<trkpt lat="50.32748" lon="9.72562"><ele>466</ele></trkpt>
<trkpt lat="50.32710" lon="9.72516"><ele>466</ele></trkpt>
<trkpt lat="50.32673" lon="9.72483"><ele>466</ele></trkpt>
<trkpt lat="50.32659" lon="9.72438"><ele>465</ele></trkpt>
<trkpt lat="50.32658" lon="9.72417"><ele>465</ele></trkpt>
<trkpt lat="50.32658" lon="9.72378"><ele>465</ele></trkpt>
<trkpt lat="50.32676" lon="9.72342"><ele>462</ele></trkpt>
<trkpt lat="50.32798" lon="9.72013"><ele>449</ele></trkpt>
<trkpt lat="50.32845" lon="9.71883"><ele>441</ele></trkpt>
<trkpt lat="50.32908" lon="9.71691"><ele>430</ele></trkpt>
<trkpt lat="50.32994" lon="9.71504"><ele>419</ele></trkpt>
<trkpt lat="50.33008" lon="9.71461"><ele>416</ele></trkpt>
<trkpt lat="50.33019" lon="9.71419"><ele>414</ele></trkpt>
<trkpt lat="50.33024" lon="9.71370"><ele>412</ele></trkpt>
<trkpt lat="50.33022" lon="9.71339"><ele>410</ele></trkpt>
<trkpt lat="50.33015" lon="9.71299"><ele>408</ele></trkpt>
<trkpt lat="50.32966" lon="9.71080"><ele>396</ele></trkpt>
<trkpt lat="50.32953" lon="9.71041"><ele>394</ele></trkpt>
<trkpt lat="50.32989" lon="9.71062"><ele>390</ele></trkpt>
<trkpt lat="50.33046" lon="9.71139"><ele>384</ele></trkpt>
<trkpt lat="50.33069" lon="9.71157"><ele>380</ele></trkpt>
<trkpt lat="50.33089" lon="9.71165"><ele>376</ele></trkpt>
<trkpt lat="50.33097" lon="9.71164"><ele>375</ele></trkpt>
<trkpt lat="50.33132" lon="9.71143"><ele>369</ele></trkpt>
<trkpt lat="50.33136" lon="9.71156"><ele>369</ele></trkpt>
<trkpt lat="50.33164" lon="9.71195"><ele>367</ele></trkpt>
<trkpt lat="50.33188" lon="9.71214"><ele>365</ele></trkpt>
<trkpt lat="50.33221" lon="9.71220"><ele>361</ele></trkpt>
<trkpt lat="50.33247" lon="9.71219"><ele>360</ele></trkpt>
<trkpt lat="50.33250" lon="9.71225"><ele>360</ele></trkpt>
<trkpt lat="50.33291" lon="9.71193"><ele>356</ele></trkpt>
<trkpt lat="50.33344" lon="9.71131"><ele>346</ele></trkpt>
<trkpt lat="50.33367" lon="9.71197"><ele>346</ele></trkpt>
<trkpt lat="50.33376" lon="9.71178"><ele>344</ele></trkpt>
<trkpt lat="50.33384" lon="9.71112"><ele>340</ele></trkpt>
<trkpt lat="50.33390" lon="9.71097"><ele>338</ele></trkpt>
<trkpt lat="50.33400" lon="9.71085"><ele>337</ele></trkpt>
<trkpt lat="50.33411" lon="9.71077"><ele>336</ele></trkpt>
<trkpt lat="50.33614" lon="9.71004"><ele>323</ele></trkpt>
<trkpt lat="50.33636" lon="9.70954"><ele>321</ele></trkpt>
<trkpt lat="50.33702" lon="9.70836"><ele>320</ele></trkpt>
<trkpt lat="50.33722" lon="9.70812"><ele>321</ele></trkpt>
<trkpt lat="50.33756" lon="9.70993"><ele>321</ele></trkpt>
<trkpt lat="50.33765" lon="9.71015"><ele>321</ele></trkpt>
<trkpt lat="50.33971" lon="9.71319"><ele>323</ele></trkpt>
<trkpt lat="50.34205" lon="9.71540"><ele>326</ele></trkpt>
<trkpt lat="50.34214" lon="9.71541"><ele>327</ele></trkpt>
<trkpt lat="50.34218" lon="9.71534"><ele>327</ele></trkpt>
<trkpt lat="50.34242" lon="9.71528"><ele>328</ele></trkpt>
<trkpt lat="50.34264" lon="9.71484"><ele>328</ele></trkpt>
<trkpt lat="50.34273" lon="9.71453"><ele>328</ele></trkpt>
<trkpt lat="50.34277" lon="9.71401"><ele>328</ele></trkpt>
<trkpt lat="50.34265" lon="9.71359"><ele>330</ele></trkpt>
<trkpt lat="50.34266" lon="9.71331"><ele>331</ele></trkpt>
<trkpt lat="50.34270" lon="9.71327"><ele>332</ele></trkpt>
<trkpt lat="50.34274" lon="9.71360"><ele>332</ele></trkpt>
<trkpt lat="50.34278" lon="9.71369"><ele>332</ele></trkpt>
<trkpt lat="50.34312" lon="9.71377"><ele>332</ele></trkpt>
<trkpt lat="50.34336" lon="9.71400"><ele>332</ele></trkpt>
<trkpt lat="50.34508" lon="9.71511"><ele>340</ele></trkpt>
<trkpt lat="50.34667" lon="9.71697"><ele>346</ele></trkpt>
<trkpt lat="50.34752" lon="9.71784"><ele>348</ele></trkpt>
<trkpt lat="50.34797" lon="9.71811"><ele>348</ele></trkpt>
<trkpt lat="50.34805" lon="9.71808"><ele>349</ele></trkpt>
<trkpt lat="50.34978" lon="9.71934"><ele>350</ele></trkpt>
<trkpt lat="50.35014" lon="9.71947"><ele>350</ele></trkpt>
<trkpt lat="50.35047" lon="9.71950"><ele>351</ele></trkpt>
<trkpt lat="50.35063" lon="9.72014"><ele>349</ele></trkpt>
<trkpt lat="50.35078" lon="9.72122"><ele>352</ele></trkpt>
<trkpt lat="50.35082" lon="9.72138"><ele>353</ele></trkpt>
<trkpt lat="50.35091" lon="9.72151"><ele>354</ele></trkpt>
<trkpt lat="50.35271" lon="9.72274"><ele>364</ele></trkpt>
<trkpt lat="50.35338" lon="9.72361"><ele>370</ele></trkpt>
<trkpt lat="50.35357" lon="9.72380"><ele>370</ele></trkpt>
<trkpt lat="50.35430" lon="9.72421"><ele>373</ele></trkpt>
<trkpt lat="50.35466" lon="9.72459"><ele>376</ele></trkpt>
<trkpt lat="50.35655" lon="9.72624"><ele>387</ele></trkpt>
<trkpt lat="50.35706" lon="9.72678"><ele>390</ele></trkpt>
<trkpt lat="50.35726" lon="9.72706"><ele>390</ele></trkpt>
<trkpt lat="50.35759" lon="9.72785"><ele>395</ele></trkpt>
<trkpt lat="50.35841" lon="9.73017"><ele>408</ele></trkpt>
<trkpt lat="50.35862" lon="9.73066"><ele>411</ele></trkpt>
<trkpt lat="50.35881" lon="9.73093"><ele>413</ele></trkpt>
<trkpt lat="50.35905" lon="9.73115"><ele>414</ele></trkpt>
<trkpt lat="50.35962" lon="9.73150"><ele>419</ele></trkpt>
<trkpt lat="50.35983" lon="9.73172"><ele>421</ele></trkpt>
<trkpt lat="50.36000" lon="9.73201"><ele>423</ele></trkpt>
<trkpt lat="50.36007" lon="9.73207"><ele>424</ele></trkpt>
<trkpt lat="50.36020" lon="9.73201"><ele>425</ele></trkpt>
<trkpt lat="50.36051" lon="9.73166"><ele>427</ele></trkpt>
<trkpt lat="50.36089" lon="9.73150"><ele>433</ele></trkpt>
<trkpt lat="50.36127" lon="9.73144"><ele>438</ele></trkpt>
<trkpt lat="50.36264" lon="9.73136"><ele>454</ele></trkpt>
<trkpt lat="50.36326" lon="9.73122"><ele>463</ele></trkpt>
<trkpt lat="50.36459" lon="9.73084"><ele>479</ele></trkpt>
<trkpt lat="50.36507" lon="9.73088"><ele>486</ele></trkpt>
<trkpt lat="50.36632" lon="9.73160"><ele>500</ele></trkpt>
<trkpt lat="50.36645" lon="9.73178"><ele>502</ele></trkpt>
<trkpt lat="50.36653" lon="9.73210"><ele>503</ele></trkpt>
<trkpt lat="50.36685" lon="9.73206"><ele>505</ele></trkpt>
<trkpt lat="50.36731" lon="9.73192"><ele>511</ele></trkpt>
<trkpt lat="50.36794" lon="9.73167"><ele>517</ele></trkpt>
<trkpt lat="50.36806" lon="9.73157"><ele>518</ele></trkpt>
<trkpt lat="50.36812" lon="9.73142"><ele>518</ele></trkpt>
<trkpt lat="50.36810" lon="9.73113"><ele>517</ele></trkpt>
<trkpt lat="50.36802" lon="9.73082"><ele>517</ele></trkpt>
<trkpt lat="50.36796" lon="9.73026"><ele>517</ele></trkpt>
<trkpt lat="50.36800" lon="9.72972"><ele>518</ele></trkpt>
<trkpt lat="50.36797" lon="9.72957"><ele>519</ele></trkpt>
<trkpt lat="50.36784" lon="9.72924"><ele>520</ele></trkpt>
<trkpt lat="50.36757" lon="9.72888"><ele>523</ele></trkpt>
<trkpt lat="50.36747" lon="9.72866"><ele>523</ele></trkpt>
<trkpt lat="50.36653" lon="9.72533"><ele>525</ele></trkpt>
<trkpt lat="50.36588" lon="9.72191"><ele>516</ele></trkpt>
<trkpt lat="50.36568" lon="9.72071"><ele>510</ele></trkpt>
<trkpt lat="50.36566" lon="9.72007"><ele>506</ele></trkpt>
<trkpt lat="50.36572" lon="9.71966"><ele>505</ele></trkpt>
<trkpt lat="50.36589" lon="9.71901"><ele>501</ele></trkpt>
<trkpt lat="50.36609" lon="9.71871"><ele>500</ele></trkpt>
<trkpt lat="50.36642" lon="9.71834"><ele>499</ele></trkpt>
<trkpt lat="50.36661" lon="9.71822"><ele>498</ele></trkpt>
<trkpt lat="50.36667" lon="9.71872"><ele>498</ele></trkpt>
<trkpt lat="50.36675" lon="9.71897"><ele>498</ele></trkpt>
<trkpt lat="50.36719" lon="9.71975"><ele>497</ele></trkpt>
<trkpt lat="50.36738" lon="9.72023"><ele>498</ele></trkpt>
<trkpt lat="50.36756" lon="9.72085"><ele>499</ele></trkpt>
<trkpt lat="50.36779" lon="9.72205"><ele>501</ele></trkpt>
<trkpt lat="50.36801" lon="9.72267"><ele>501</ele></trkpt>
<trkpt lat="50.36821" lon="9.72313"><ele>500</ele></trkpt>
<trkpt lat="50.36892" lon="9.72416"><ele>495</ele></trkpt>
<trkpt lat="50.36908" lon="9.72459"><ele>494</ele></trkpt>
<trkpt lat="50.36956" lon="9.72614"><ele>490</ele></trkpt>
<trkpt lat="50.36981" lon="9.72670"><ele>489</ele></trkpt>
<trkpt lat="50.37011" lon="9.72722"><ele>488</ele></trkpt>
<trkpt lat="50.37130" lon="9.72720"><ele>472</ele></trkpt>
<trkpt lat="50.37157" lon="9.72730"><ele>469</ele></trkpt>
<trkpt lat="50.37179" lon="9.72748"><ele>468</ele></trkpt>
<trkpt lat="50.37198" lon="9.72757"><ele>468</ele></trkpt>
<trkpt lat="50.37261" lon="9.72754"><ele>466</ele></trkpt>
<trkpt lat="50.37298" lon="9.72748"><ele>465</ele></trkpt>
<trkpt lat="50.37317" lon="9.72738"><ele>464</ele></trkpt>
<trkpt lat="50.37364" lon="9.72704"><ele>461</ele></trkpt>
<trkpt lat="50.37398" lon="9.72674"><ele>459</ele></trkpt>
<trkpt lat="50.37477" lon="9.72588"><ele>452</ele></trkpt>
<trkpt lat="50.37501" lon="9.72575"><ele>450</ele></trkpt>
<trkpt lat="50.37543" lon="9.72574"><ele>448</ele></trkpt>
<trkpt lat="50.37605" lon="9.72582"><ele>446</ele></trkpt>
<trkpt lat="50.37672" lon="9.72600"><ele>444</ele></trkpt>
<trkpt lat="50.37683" lon="9.72609"><ele>444</ele></trkpt>
<trkpt lat="50.37717" lon="9.72509"><ele>436</ele></trkpt>
<trkpt lat="50.37726" lon="9.72463"><ele>434</ele></trkpt>
<trkpt lat="50.37732" lon="9.72413"><ele>431</ele></trkpt>
<trkpt lat="50.37754" lon="9.72160"><ele>428</ele></trkpt>
<trkpt lat="50.38007" lon="9.72213"><ele>429</ele></trkpt>
<trkpt lat="50.38137" lon="9.72335"><ele>425</ele></trkpt>
<trkpt lat="50.38158" lon="9.72346"><ele>424</ele></trkpt>
<trkpt lat="50.38356" lon="9.72331"><ele>420</ele></trkpt>
<trkpt lat="50.38349" lon="9.72369"><ele>419</ele></trkpt>
<trkpt lat="50.38349" lon="9.72402"><ele>418</ele></trkpt>
<trkpt lat="50.38771" lon="9.72424"><ele>418</ele></trkpt>
<trkpt lat="50.39234" lon="9.72433"><ele>414</ele></trkpt>
<trkpt lat="50.39339" lon="9.72465"><ele>408</ele></trkpt>
<trkpt lat="50.39300" lon="9.72648"><ele>398</ele></trkpt>
<trkpt lat="50.39296" lon="9.72735"><ele>398</ele></trkpt>
<trkpt lat="50.39300" lon="9.72746"><ele>398</ele></trkpt>
<trkpt lat="50.39307" lon="9.72749"><ele>398</ele></trkpt>
<trkpt lat="50.39351" lon="9.72748"><ele>399</ele></trkpt>
<trkpt lat="50.39407" lon="9.72740"><ele>398</ele></trkpt>
<trkpt lat="50.39481" lon="9.72744"><ele>397</ele></trkpt>
<trkpt lat="50.39567" lon="9.72779"><ele>396</ele></trkpt>
<trkpt lat="50.39587" lon="9.72783"><ele>395</ele></trkpt>
<trkpt lat="50.39658" lon="9.72778"><ele>395</ele></trkpt>
<trkpt lat="50.39747" lon="9.72760"><ele>392</ele></trkpt>
<trkpt lat="50.39851" lon="9.72775"><ele>392</ele></trkpt>
<trkpt lat="50.39908" lon="9.72776"><ele>391</ele></trkpt>
<trkpt lat="50.39924" lon="9.72773"><ele>391</ele></trkpt>
<trkpt lat="50.39960" lon="9.72754"><ele>390</ele></trkpt>
<trkpt lat="50.40005" lon="9.72717"><ele>388</ele></trkpt>
<trkpt lat="50.40071" lon="9.72705"><ele>388</ele></trkpt>
<trkpt lat="50.40159" lon="9.72708"><ele>386</ele></trkpt>
<trkpt lat="50.40367" lon="9.72736"><ele>383</ele></trkpt>
<trkpt lat="50.40686" lon="9.72960"><ele>379</ele></trkpt>
<trkpt lat="50.40740" lon="9.73004"><ele>376</ele></trkpt>
<trkpt lat="50.40818" lon="9.73050"><ele>375</ele></trkpt>
<trkpt lat="50.40869" lon="9.73103"><ele>374</ele></trkpt>
<trkpt lat="50.40984" lon="9.73194"><ele>372</ele></trkpt>
<trkpt lat="50.41035" lon="9.73124"><ele>372</ele></trkpt>
<trkpt lat="50.41100" lon="9.72971"><ele>383</ele></trkpt>
<trkpt lat="50.41145" lon="9.72998"><ele>381</ele></trkpt>
<trkpt lat="50.41200" lon="9.72989"><ele>380</ele></trkpt>
<trkpt lat="50.41212" lon="9.72992"><ele>380</ele></trkpt>
<trkpt lat="50.41236" lon="9.73017"><ele>378</ele></trkpt>
<trkpt lat="50.41255" lon="9.72982"><ele>380</ele></trkpt>
<trkpt lat="50.41268" lon="9.73009"><ele>380</ele></trkpt>
<trkpt lat="50.41281" lon="9.73059"><ele>382</ele></trkpt>
<trkpt lat="50.41290" lon="9.73058"><ele>383</ele></trkpt>
<trkpt lat="50.41281" lon="9.73059"><ele>382</ele></trkpt>
<trkpt lat="50.41268" lon="9.73009"><ele>380</ele></trkpt>
<trkpt lat="50.41255" lon="9.72982"><ele>380</ele></trkpt>
<trkpt lat="50.41219" lon="9.73049"><ele>377</ele></trkpt>
<trkpt lat="50.41179" lon="9.73143"><ele>375</ele></trkpt>
<trkpt lat="50.41194" lon="9.73161"><ele>374</ele></trkpt>
<trkpt lat="50.41275" lon="9.73239"><ele>374</ele></trkpt>
<trkpt lat="50.41289" lon="9.73262"><ele>374</ele></trkpt>
<trkpt lat="50.41293" lon="9.73294"><ele>375</ele></trkpt>
<trkpt lat="50.41301" lon="9.73312"><ele>375</ele></trkpt>
<trkpt lat="50.41315" lon="9.73313"><ele>375</ele></trkpt>
<trkpt lat="50.41330" lon="9.73301"><ele>376</ele></trkpt>
<trkpt lat="50.41344" lon="9.73297"><ele>377</ele></trkpt>
<trkpt lat="50.41368" lon="9.73312"><ele>377</ele></trkpt>
<trkpt lat="50.41388" lon="9.73304"><ele>380</ele></trkpt>
<trkpt lat="50.41435" lon="9.73308"><ele>386</ele></trkpt>
<trkpt lat="50.41528" lon="9.73354"><ele>392</ele></trkpt>
<trkpt lat="50.41646" lon="9.73420"><ele>396</ele></trkpt>
<trkpt lat="50.41653" lon="9.73421"><ele>396</ele></trkpt>
<trkpt lat="50.41667" lon="9.73407"><ele>397</ele></trkpt>
<trkpt lat="50.41734" lon="9.73243"><ele>400</ele></trkpt>
<trkpt lat="50.41809" lon="9.73333"><ele>395</ele></trkpt>
<trkpt lat="50.41925" lon="9.73408"><ele>391</ele></trkpt>
<trkpt lat="50.41951" lon="9.73429"><ele>390</ele></trkpt>
<trkpt lat="50.42103" lon="9.73521"><ele>389</ele></trkpt>
<trkpt lat="50.42288" lon="9.73639"><ele>390</ele></trkpt>
<trkpt lat="50.42290" lon="9.73624"><ele>389</ele></trkpt>
<trkpt lat="50.42347" lon="9.73639"><ele>388</ele></trkpt>
<trkpt lat="50.42517" lon="9.73667"><ele>385</ele></trkpt>
<trkpt lat="50.42516" lon="9.73638"><ele>386</ele></trkpt>
<trkpt lat="50.42492" lon="9.73539"><ele>386</ele></trkpt>
<trkpt lat="50.42467" lon="9.73446"><ele>384</ele></trkpt>
<trkpt lat="50.42415" lon="9.73272"><ele>380</ele></trkpt>
<trkpt lat="50.42416" lon="9.73248"><ele>380</ele></trkpt>
<trkpt lat="50.42451" lon="9.73165"><ele>378</ele></trkpt>
<trkpt lat="50.42497" lon="9.73079"><ele>378</ele></trkpt>
<trkpt lat="50.42585" lon="9.72956"><ele>372</ele></trkpt>
<trkpt lat="50.42663" lon="9.72837"><ele>366</ele></trkpt>
<trkpt lat="50.42683" lon="9.72801"><ele>363</ele></trkpt>
<trkpt lat="50.42715" lon="9.72766"><ele>362</ele></trkpt>
<trkpt lat="50.42767" lon="9.72722"><ele>358</ele></trkpt>
<trkpt lat="50.42780" lon="9.72707"><ele>358</ele></trkpt>
<trkpt lat="50.42795" lon="9.72679"><ele>356</ele></trkpt>
<trkpt lat="50.42857" lon="9.72607"><ele>353</ele></trkpt>
<trkpt lat="50.42902" lon="9.72540"><ele>351</ele></trkpt>
<trkpt lat="50.42959" lon="9.72469"><ele>347</ele></trkpt>
<trkpt lat="50.43046" lon="9.72345"><ele>349</ele></trkpt>
<trkpt lat="50.43116" lon="9.72426"><ele>347</ele></trkpt>
<trkpt lat="50.43230" lon="9.72170"><ele>361</ele></trkpt>
<trkpt lat="50.43262" lon="9.72107"><ele>364</ele></trkpt>
<trkpt lat="50.43327" lon="9.72668"><ele>367</ele></trkpt>
<trkpt lat="50.43344" lon="9.72669"><ele>369</ele></trkpt>
<trkpt lat="50.43462" lon="9.72645"><ele>382</ele></trkpt>
<trkpt lat="50.43702" lon="9.72527"><ele>388</ele></trkpt>
<trkpt lat="50.43710" lon="9.72594"><ele>386</ele></trkpt>
<trkpt lat="50.43725" lon="9.72661"><ele>384</ele></trkpt>
<trkpt lat="50.43753" lon="9.72758"><ele>378</ele></trkpt>
<trkpt lat="50.43768" lon="9.72795"><ele>374</ele></trkpt>
<trkpt lat="50.43773" lon="9.72836"><ele>371</ele></trkpt>
<trkpt lat="50.43762" lon="9.72934"><ele>363</ele></trkpt>
<trkpt lat="50.43764" lon="9.73015"><ele>358</ele></trkpt>
<trkpt lat="50.43761" lon="9.73043"><ele>356</ele></trkpt>
<trkpt lat="50.43746" lon="9.73096"><ele>352</ele></trkpt>
<trkpt lat="50.43700" lon="9.73202"><ele>346</ele></trkpt>
<trkpt lat="50.43723" lon="9.73205"><ele>344</ele></trkpt>
<trkpt lat="50.43745" lon="9.73201"><ele>342</ele></trkpt>
<trkpt lat="50.43798" lon="9.73161"><ele>337</ele></trkpt>
<trkpt lat="50.43867" lon="9.73123"><ele>332</ele></trkpt>
<trkpt lat="50.43875" lon="9.73071"><ele>335</ele></trkpt>
<trkpt lat="50.43894" lon="9.73104"><ele>331</ele></trkpt>
<trkpt lat="50.43921" lon="9.73133"><ele>325</ele></trkpt>
<trkpt lat="50.43945" lon="9.73174"><ele>321</ele></trkpt>
<trkpt lat="50.43966" lon="9.73107"><ele>325</ele></trkpt>
<trkpt lat="50.44055" lon="9.72936"><ele>339</ele></trkpt>
<trkpt lat="50.44082" lon="9.72899"><ele>342</ele></trkpt>
<trkpt lat="50.44111" lon="9.72878"><ele>343</ele></trkpt>
<trkpt lat="50.44158" lon="9.72862"><ele>342</ele></trkpt>
<trkpt lat="50.44216" lon="9.72850"><ele>340</ele></trkpt>
<trkpt lat="50.44257" lon="9.72832"><ele>338</ele></trkpt>
<trkpt lat="50.44345" lon="9.72784"><ele>339</ele></trkpt>
<trkpt lat="50.44381" lon="9.72752"><ele>340</ele></trkpt>
<trkpt lat="50.44437" lon="9.72697"><ele>342</ele></trkpt>
<trkpt lat="50.44543" lon="9.72603"><ele>338</ele></trkpt>
<trkpt lat="50.44632" lon="9.72513"><ele>336</ele></trkpt>
<trkpt lat="50.44676" lon="9.72462"><ele>335</ele></trkpt>
<trkpt lat="50.44776" lon="9.72315"><ele>331</ele></trkpt>
<trkpt lat="50.44824" lon="9.72271"><ele>328</ele></trkpt>
<trkpt lat="50.45040" lon="9.72111"><ele>324</ele></trkpt>
<trkpt lat="50.45117" lon="9.72072"><ele>318</ele></trkpt>
<trkpt lat="50.45130" lon="9.72059"><ele>317</ele></trkpt>
<trkpt lat="50.45138" lon="9.72043"><ele>315</ele></trkpt>
<trkpt lat="50.45138" lon="9.72026"><ele>314</ele></trkpt>
<trkpt lat="50.45124" lon="9.71974"><ele>312</ele></trkpt>
<trkpt lat="50.45125" lon="9.71961"><ele>312</ele></trkpt>
<trkpt lat="50.45129" lon="9.71953"><ele>312</ele></trkpt>
<trkpt lat="50.45143" lon="9.71954"><ele>312</ele></trkpt>
<trkpt lat="50.45206" lon="9.71981"><ele>315</ele></trkpt>
<trkpt lat="50.45220" lon="9.71979"><ele>317</ele></trkpt>
<trkpt lat="50.45235" lon="9.71969"><ele>318</ele></trkpt>
<trkpt lat="50.45272" lon="9.71931"><ele>317</ele></trkpt>
<trkpt lat="50.45363" lon="9.71799"><ele>315</ele></trkpt>
<trkpt lat="50.45468" lon="9.71633"><ele>312</ele></trkpt>
<trkpt lat="50.45954" lon="9.71200"><ele>300</ele></trkpt>
<trkpt lat="50.46077" lon="9.71098"><ele>297</ele></trkpt>
<trkpt lat="50.46098" lon="9.71074"><ele>297</ele></trkpt>
<trkpt lat="50.46180" lon="9.70964"><ele>296</ele></trkpt>
<trkpt lat="50.46218" lon="9.70902"><ele>296</ele></trkpt>
<trkpt lat="50.46294" lon="9.70809"><ele>296</ele></trkpt>
<trkpt lat="50.46320" lon="9.70759"><ele>296</ele></trkpt>
<trkpt lat="50.46351" lon="9.70708"><ele>295</ele></trkpt>
<trkpt lat="50.46367" lon="9.70690"><ele>294</ele></trkpt>
<trkpt lat="50.46393" lon="9.70676"><ele>293</ele></trkpt>
<trkpt lat="50.46404" lon="9.70665"><ele>293</ele></trkpt>
<trkpt lat="50.46411" lon="9.70650"><ele>292</ele></trkpt>
<trkpt lat="50.46413" lon="9.70629"><ele>292</ele></trkpt>
<trkpt lat="50.46436" lon="9.70630"><ele>291</ele></trkpt>
<trkpt lat="50.46498" lon="9.70659"><ele>291</ele></trkpt>
<trkpt lat="50.46518" lon="9.70656"><ele>291</ele></trkpt>
<trkpt lat="50.46528" lon="9.70650"><ele>291</ele></trkpt>
<trkpt lat="50.46544" lon="9.70631"><ele>290</ele></trkpt>
<trkpt lat="50.46544" lon="9.70579"><ele>290</ele></trkpt>
<trkpt lat="50.46579" lon="9.70373"><ele>290</ele></trkpt>
<trkpt lat="50.46595" lon="9.70317"><ele>289</ele></trkpt>
<trkpt lat="50.46628" lon="9.70235"><ele>290</ele></trkpt>
<trkpt lat="50.46781" lon="9.70308"><ele>294</ele></trkpt>
<trkpt lat="50.46829" lon="9.70090"><ele>293</ele></trkpt>
<trkpt lat="50.46880" lon="9.69942"><ele>294</ele></trkpt>
<trkpt lat="50.47025" lon="9.70085"><ele>309</ele></trkpt>
<trkpt lat="50.47034" lon="9.70108"><ele>310</ele></trkpt>
<trkpt lat="50.47038" lon="9.70134"><ele>310</ele></trkpt>
<trkpt lat="50.47454" lon="9.69672"><ele>324</ele></trkpt>
<trkpt lat="50.47579" lon="9.69543"><ele>328</ele></trkpt>
<trkpt lat="50.47612" lon="9.69530"><ele>329</ele></trkpt>
<trkpt lat="50.47675" lon="9.69466"><ele>332</ele></trkpt>
<trkpt lat="50.47692" lon="9.69455"><ele>333</ele></trkpt>
<trkpt lat="50.47721" lon="9.69405"><ele>334</ele></trkpt>
<trkpt lat="50.47775" lon="9.69355"><ele>337</ele></trkpt>
<trkpt lat="50.47851" lon="9.69300"><ele>340</ele></trkpt>
<trkpt lat="50.47869" lon="9.69290"><ele>341</ele></trkpt>
<trkpt lat="50.47949" lon="9.69261"><ele>337</ele></trkpt>
<trkpt lat="50.47965" lon="9.69250"><ele>336</ele></trkpt>
<trkpt lat="50.48000" lon="9.69215"><ele>331</ele></trkpt>
<trkpt lat="50.48046" lon="9.69182"><ele>326</ele></trkpt>
<trkpt lat="50.48096" lon="9.69160"><ele>324</ele></trkpt>
<trkpt lat="50.48178" lon="9.69150"><ele>319</ele></trkpt>
<trkpt lat="50.48216" lon="9.69140"><ele>316</ele></trkpt>
<trkpt lat="50.48240" lon="9.69125"><ele>314</ele></trkpt>
<trkpt lat="50.48246" lon="9.69129"><ele>314</ele></trkpt>
<trkpt lat="50.48287" lon="9.69295"><ele>312</ele></trkpt>
<trkpt lat="50.48295" lon="9.69293"><ele>311</ele></trkpt>
<trkpt lat="50.48597" lon="9.69028"><ele>306</ele></trkpt>
<trkpt lat="50.48626" lon="9.69054"><ele>304</ele></trkpt>
<trkpt lat="50.48639" lon="9.69060"><ele>304</ele></trkpt>
<trkpt lat="50.48697" lon="9.69071"><ele>302</ele></trkpt>
<trkpt lat="50.48713" lon="9.69080"><ele>302</ele></trkpt>
<trkpt lat="50.48724" lon="9.69103"><ele>303</ele></trkpt>
<trkpt lat="50.48735" lon="9.69147"><ele>301</ele></trkpt>
<trkpt lat="50.48738" lon="9.69168"><ele>302</ele></trkpt>
<trkpt lat="50.48735" lon="9.69203"><ele>303</ele></trkpt>
<trkpt lat="50.48743" lon="9.69225"><ele>302</ele></trkpt>
<trkpt lat="50.48824" lon="9.69181"><ele>300</ele></trkpt>
<trkpt lat="50.48834" lon="9.69168"><ele>303</ele></trkpt>
<trkpt lat="50.48837" lon="9.69149"><ele>303</ele></trkpt>
<trkpt lat="50.48829" lon="9.69081"><ele>303</ele></trkpt>
<trkpt lat="50.48831" lon="9.69063"><ele>304</ele></trkpt>
<trkpt lat="50.48878" lon="9.68984"><ele>304</ele></trkpt>
<trkpt lat="50.48894" lon="9.68952"><ele>304</ele></trkpt>
<trkpt lat="50.48915" lon="9.68878"><ele>303</ele></trkpt>
<trkpt lat="50.48924" lon="9.68816"><ele>304</ele></trkpt>
<trkpt lat="50.48927" lon="9.68717"><ele>304</ele></trkpt>
<trkpt lat="50.48930" lon="9.68698"><ele>304</ele></trkpt>
<trkpt lat="50.48937" lon="9.68682"><ele>303</ele></trkpt>
<trkpt lat="50.48969" lon="9.68648"><ele>302</ele></trkpt>
<trkpt lat="50.49125" lon="9.68603"><ele>300</ele></trkpt>
<trkpt lat="50.49372" lon="9.68562"><ele>289</ele></trkpt>
<trkpt lat="50.49405" lon="9.68567"><ele>284</ele></trkpt>
<trkpt lat="50.49417" lon="9.68579"><ele>283</ele></trkpt>
<trkpt lat="50.49433" lon="9.68625"><ele>280</ele></trkpt>
<trkpt lat="50.49443" lon="9.68637"><ele>280</ele></trkpt>
<trkpt lat="50.49414" lon="9.68711"><ele>276</ele></trkpt>
<trkpt lat="50.49415" lon="9.68728"><ele>276</ele></trkpt>
<trkpt lat="50.49419" lon="9.68738"><ele>275</ele></trkpt>
<trkpt lat="50.49448" lon="9.68754"><ele>276</ele></trkpt>
<trkpt lat="50.49486" lon="9.68788"><ele>275</ele></trkpt>
<trkpt lat="50.49526" lon="9.68791"><ele>274</ele></trkpt>
<trkpt lat="50.49538" lon="9.68798"><ele>274</ele></trkpt>
<trkpt lat="50.49564" lon="9.68851"><ele>274</ele></trkpt>
<trkpt lat="50.49569" lon="9.68896"><ele>273</ele></trkpt>
<trkpt lat="50.49585" lon="9.68903"><ele>273</ele></trkpt>
<trkpt lat="50.49593" lon="9.68901"><ele>273</ele></trkpt>
<trkpt lat="50.49621" lon="9.68868"><ele>273</ele></trkpt>
<trkpt lat="50.49812" lon="9.68587"><ele>270</ele></trkpt>
<trkpt lat="50.49826" lon="9.68548"><ele>270</ele></trkpt>
<trkpt lat="50.49840" lon="9.68492"><ele>271</ele></trkpt>
<trkpt lat="50.49840" lon="9.68487"><ele>270</ele></trkpt>
<trkpt lat="50.49800" lon="9.68462"><ele>274</ele></trkpt>
<trkpt lat="50.49742" lon="9.68409"><ele>278</ele></trkpt>
<trkpt lat="50.49706" lon="9.68370"><ele>281</ele></trkpt>
<trkpt lat="50.49701" lon="9.68356"><ele>282</ele></trkpt>
<trkpt lat="50.49700" lon="9.68335"><ele>283</ele></trkpt>
<trkpt lat="50.49690" lon="9.68279"><ele>285</ele></trkpt>
<trkpt lat="50.49677" lon="9.68237"><ele>287</ele></trkpt>
<trkpt lat="50.49666" lon="9.68147"><ele>287</ele></trkpt>
<trkpt lat="50.49730" lon="9.68108"><ele>284</ele></trkpt>
<trkpt lat="50.49761" lon="9.68105"><ele>282</ele></trkpt>
<trkpt lat="50.49886" lon="9.68034"><ele>281</ele></trkpt>
<trkpt lat="50.49933" lon="9.68089"><ele>279</ele></trkpt>
<trkpt lat="50.50026" lon="9.67997"><ele>276</ele></trkpt>
<trkpt lat="50.50084" lon="9.67951"><ele>273</ele></trkpt>
<trkpt lat="50.50145" lon="9.67925"><ele>268</ele></trkpt>
<trkpt lat="50.50193" lon="9.67923"><ele>267</ele></trkpt>
<trkpt lat="50.50233" lon="9.67930"><ele>267</ele></trkpt>
<trkpt lat="50.50234" lon="9.67920"><ele>267</ele></trkpt>
<trkpt lat="50.50264" lon="9.67861"><ele>266</ele></trkpt>
<trkpt lat="50.50302" lon="9.67811"><ele>266</ele></trkpt>
<trkpt lat="50.50330" lon="9.67769"><ele>265</ele></trkpt>
<trkpt lat="50.50360" lon="9.67736"><ele>265</ele></trkpt>
<trkpt lat="50.50460" lon="9.67592"><ele>264</ele></trkpt>
<trkpt lat="50.50488" lon="9.67565"><ele>265</ele></trkpt>
<trkpt lat="50.50625" lon="9.67460"><ele>264</ele></trkpt>
<trkpt lat="50.50637" lon="9.67460"><ele>263</ele></trkpt>
<trkpt lat="50.50647" lon="9.67470"><ele>263</ele></trkpt>
<trkpt lat="50.50717" lon="9.67586"><ele>263</ele></trkpt>
<trkpt lat="50.50724" lon="9.67592"><ele>263</ele></trkpt>
<trkpt lat="50.50986" lon="9.67342"><ele>262</ele></trkpt>
<trkpt lat="50.51122" lon="9.67440"><ele>260</ele></trkpt>
<trkpt lat="50.51145" lon="9.67368"><ele>260</ele></trkpt>
<trkpt lat="50.51150" lon="9.67364"><ele>260</ele></trkpt>
<trkpt lat="50.51576" lon="9.67687"><ele>261</ele></trkpt>
<trkpt lat="50.51589" lon="9.67687"><ele>260</ele></trkpt>
<trkpt lat="50.51609" lon="9.67702"><ele>259</ele></trkpt>
<trkpt lat="50.51606" lon="9.67719"><ele>260</ele></trkpt>
<trkpt lat="50.51638" lon="9.67727"><ele>260</ele></trkpt>
<trkpt lat="50.51683" lon="9.67755"><ele>260</ele></trkpt>
<trkpt lat="50.51693" lon="9.67758"><ele>259</ele></trkpt>
<trkpt lat="50.51702" lon="9.67752"><ele>259</ele></trkpt>
<trkpt lat="50.51710" lon="9.67733"><ele>258</ele></trkpt>
<trkpt lat="50.51725" lon="9.67656"><ele>258</ele></trkpt>
<trkpt lat="50.51733" lon="9.67653"><ele>257</ele></trkpt>
<trkpt lat="50.52010" lon="9.67745"><ele>256</ele></trkpt>
<trkpt lat="50.52316" lon="9.67840"><ele>256</ele></trkpt>
<trkpt lat="50.52329" lon="9.67860"><ele>256</ele></trkpt>
<trkpt lat="50.52345" lon="9.67952"><ele>258</ele></trkpt>
<trkpt lat="50.52387" lon="9.67924"><ele>258</ele></trkpt>
<trkpt lat="50.52398" lon="9.67975"><ele>258</ele></trkpt>
<trkpt lat="50.52434" lon="9.67964"><ele>258</ele></trkpt>
<trkpt lat="50.52519" lon="9.67954"><ele>257</ele></trkpt>
<trkpt lat="50.52528" lon="9.67946"><ele>257</ele></trkpt>
<trkpt lat="50.52553" lon="9.68200"><ele>265</ele></trkpt>
<trkpt lat="50.52631" lon="9.68183"><ele>265</ele></trkpt>
<trkpt lat="50.52634" lon="9.68190"><ele>266</ele></trkpt>
<trkpt lat="50.52810" lon="9.68246"><ele>267</ele></trkpt>
<trkpt lat="50.52817" lon="9.68275"><ele>267</ele></trkpt>
<trkpt lat="50.52872" lon="9.68268"><ele>267</ele></trkpt>
<trkpt lat="50.52929" lon="9.68248"><ele>267</ele></trkpt>
<trkpt lat="50.52938" lon="9.68253"><ele>267</ele></trkpt>
<trkpt lat="50.52950" lon="9.68270"><ele>267</ele></trkpt>
<trkpt lat="50.52968" lon="9.68341"><ele>267</ele></trkpt>
<trkpt lat="50.53049" lon="9.68329"><ele>267</ele></trkpt>
<trkpt lat="50.53055" lon="9.68341"><ele>267</ele></trkpt>
<trkpt lat="50.53062" lon="9.68372"><ele>267</ele></trkpt>
<trkpt lat="50.53166" lon="9.68302"><ele>265</ele></trkpt>
<trkpt lat="50.53217" lon="9.68273"><ele>265</ele></trkpt>
<trkpt lat="50.53268" lon="9.68249"><ele>264</ele></trkpt>
<trkpt lat="50.53325" lon="9.68231"><ele>264</ele></trkpt>
<trkpt lat="50.53288" lon="9.67954"><ele>264</ele></trkpt>
<trkpt lat="50.53294" lon="9.67941"><ele>264</ele></trkpt>
<trkpt lat="50.53550" lon="9.67905"><ele>264</ele></trkpt>
<trkpt lat="50.53617" lon="9.67885"><ele>264</ele></trkpt>
<trkpt lat="50.53715" lon="9.67868"><ele>264</ele></trkpt>
<trkpt lat="50.53776" lon="9.67869"><ele>264</ele></trkpt>
<trkpt lat="50.53929" lon="9.67906"><ele>264</ele></trkpt>
<trkpt lat="50.53984" lon="9.67907"><ele>264</ele></trkpt>
<trkpt lat="50.54097" lon="9.67892"><ele>263</ele></trkpt>
<trkpt lat="50.54126" lon="9.67880"><ele>262</ele></trkpt>
<trkpt lat="50.54199" lon="9.67836"><ele>262</ele></trkpt>
<trkpt lat="50.54283" lon="9.67817"><ele>260</ele></trkpt>
<trkpt lat="50.54339" lon="9.67811"><ele>259</ele></trkpt>
<trkpt lat="50.54383" lon="9.67816"><ele>259</ele></trkpt>
<trkpt lat="50.54440" lon="9.67809"><ele>260</ele></trkpt>
<trkpt lat="50.54454" lon="9.67814"><ele>260</ele></trkpt>
<trkpt lat="50.54461" lon="9.67830"><ele>261</ele></trkpt>
<trkpt lat="50.54463" lon="9.67844"><ele>261</ele></trkpt>
<trkpt lat="50.54452" lon="9.67907"><ele>261</ele></trkpt>
<trkpt lat="50.54511" lon="9.67932"><ele>263</ele></trkpt>
<trkpt lat="50.54495" lon="9.68002"><ele>265</ele></trkpt>
<trkpt lat="50.54501" lon="9.68041"><ele>266</ele></trkpt>
<trkpt lat="50.54487" lon="9.68114"><ele>268</ele></trkpt>
<trkpt lat="50.54479" lon="9.68183"><ele>268</ele></trkpt>
<trkpt lat="50.54539" lon="9.68217"><ele>270</ele></trkpt>
<trkpt lat="50.54551" lon="9.68233"><ele>270</ele></trkpt>
<trkpt lat="50.54555" lon="9.68252"><ele>271</ele></trkpt>
<trkpt lat="50.54563" lon="9.68256"><ele>272</ele></trkpt>
<trkpt lat="50.54585" lon="9.68303"><ele>273</ele></trkpt>
<trkpt lat="50.54604" lon="9.68326"><ele>274</ele></trkpt>
<trkpt lat="50.54756" lon="9.68435"><ele>275</ele></trkpt>
<trkpt lat="50.54825" lon="9.68511"><ele>275</ele></trkpt>
<trkpt lat="50.54869" lon="9.68576"><ele>274</ele></trkpt>
<trkpt lat="50.54900" lon="9.68604"><ele>274</ele></trkpt>
<trkpt lat="50.54920" lon="9.68613"><ele>274</ele></trkpt>
<trkpt lat="50.54951" lon="9.68618"><ele>273</ele></trkpt>
<trkpt lat="50.55007" lon="9.68613"><ele>271</ele></trkpt>
<trkpt lat="50.55074" lon="9.68569"><ele>272</ele></trkpt>
<trkpt lat="50.55109" lon="9.68533"><ele>273</ele></trkpt>
<trkpt lat="50.55250" lon="9.68350"><ele>274</ele></trkpt>
    </trkseg>
  </trk>
</gpx>
