<?xml version="1.0" encoding="UTF-8"?>
<gpx version="1.1" creator="Gravel Kompass" xmlns="http://www.topografix.com/GPX/1/1">
  <metadata><name>München – Haltern am See: Von der Isar ins Münsterland – Etappe 12</name></metadata>
  <trk>
    <name>Etappe 12: Kassel – Paderborn</name>
    <trkseg>
<trkpt lat="51.31270" lon="9.47975"><ele>172</ele></trkpt>
<trkpt lat="51.31328" lon="9.47962"><ele>172</ele></trkpt>
<trkpt lat="51.31354" lon="9.47950"><ele>173</ele></trkpt>
<trkpt lat="51.31365" lon="9.47753"><ele>173</ele></trkpt>
<trkpt lat="51.31374" lon="9.47734"><ele>174</ele></trkpt>
<trkpt lat="51.31438" lon="9.47545"><ele>178</ele></trkpt>
<trkpt lat="51.31453" lon="9.47527"><ele>178</ele></trkpt>
<trkpt lat="51.31462" lon="9.47495"><ele>178</ele></trkpt>
<trkpt lat="51.31471" lon="9.47035"><ele>176</ele></trkpt>
<trkpt lat="51.31477" lon="9.47008"><ele>176</ele></trkpt>
<trkpt lat="51.31463" lon="9.46984"><ele>175</ele></trkpt>
<trkpt lat="51.31467" lon="9.46747"><ele>173</ele></trkpt>
<trkpt lat="51.31468" lon="9.46732"><ele>173</ele></trkpt>
<trkpt lat="51.31476" lon="9.46727"><ele>173</ele></trkpt>
<trkpt lat="51.31479" lon="9.46704"><ele>173</ele></trkpt>
<trkpt lat="51.31478" lon="9.46681"><ele>173</ele></trkpt>
<trkpt lat="51.31469" lon="9.46672"><ele>172</ele></trkpt>
<trkpt lat="51.31493" lon="9.45410"><ele>182</ele></trkpt>
<trkpt lat="51.31498" lon="9.45359"><ele>184</ele></trkpt>
<trkpt lat="51.31496" lon="9.45159"><ele>181</ele></trkpt>
<trkpt lat="51.31500" lon="9.45152"><ele>181</ele></trkpt>
<trkpt lat="51.31503" lon="9.45066"><ele>182</ele></trkpt>
<trkpt lat="51.31510" lon="9.45028"><ele>181</ele></trkpt>
<trkpt lat="51.31546" lon="9.44601"><ele>187</ele></trkpt>
<trkpt lat="51.31546" lon="9.44577"><ele>188</ele></trkpt>
<trkpt lat="51.31510" lon="9.44296"><ele>193</ele></trkpt>
<trkpt lat="51.31503" lon="9.44047"><ele>195</ele></trkpt>
<trkpt lat="51.31546" lon="9.43728"><ele>196</ele></trkpt>
<trkpt lat="51.31555" lon="9.43693"><ele>197</ele></trkpt>
<trkpt lat="51.31558" lon="9.43665"><ele>197</ele></trkpt>
<trkpt lat="51.31544" lon="9.43325"><ele>206</ele></trkpt>
<trkpt lat="51.31551" lon="9.43247"><ele>208</ele></trkpt>
<trkpt lat="51.31586" lon="9.43072"><ele>212</ele></trkpt>
<trkpt lat="51.31609" lon="9.42997"><ele>214</ele></trkpt>
<trkpt lat="51.31638" lon="9.42943"><ele>218</ele></trkpt>
<trkpt lat="51.31665" lon="9.42913"><ele>219</ele></trkpt>
<trkpt lat="51.31674" lon="9.42907"><ele>219</ele></trkpt>
<trkpt lat="51.31680" lon="9.42909"><ele>220</ele></trkpt>
<trkpt lat="51.31691" lon="9.42890"><ele>221</ele></trkpt>
<trkpt lat="51.31701" lon="9.42835"><ele>219</ele></trkpt>
<trkpt lat="51.31706" lon="9.42678"><ele>222</ele></trkpt>
<trkpt lat="51.31903" lon="9.42555"><ele>227</ele></trkpt>
<trkpt lat="51.31908" lon="9.42548"><ele>228</ele></trkpt>
<trkpt lat="51.31927" lon="9.42572"><ele>226</ele></trkpt>
<trkpt lat="51.31945" lon="9.42603"><ele>226</ele></trkpt>
<trkpt lat="51.31965" lon="9.42648"><ele>224</ele></trkpt>
<trkpt lat="51.31985" lon="9.42679"><ele>223</ele></trkpt>
<trkpt lat="51.32001" lon="9.42692"><ele>223</ele></trkpt>
<trkpt lat="51.32066" lon="9.42725"><ele>222</ele></trkpt>
<trkpt lat="51.32082" lon="9.42740"><ele>222</ele></trkpt>
<trkpt lat="51.32105" lon="9.42768"><ele>222</ele></trkpt>
<trkpt lat="51.32152" lon="9.42843"><ele>221</ele></trkpt>
<trkpt lat="51.32165" lon="9.42860"><ele>221</ele></trkpt>
<trkpt lat="51.32173" lon="9.42865"><ele>221</ele></trkpt>
<trkpt lat="51.32195" lon="9.42861"><ele>221</ele></trkpt>
<trkpt lat="51.32280" lon="9.42820"><ele>221</ele></trkpt>
<trkpt lat="51.32312" lon="9.42809"><ele>222</ele></trkpt>
<trkpt lat="51.32361" lon="9.42799"><ele>224</ele></trkpt>
<trkpt lat="51.32393" lon="9.42802"><ele>228</ele></trkpt>
<trkpt lat="51.32419" lon="9.42884"><ele>231</ele></trkpt>
<trkpt lat="51.32431" lon="9.42955"><ele>234</ele></trkpt>
<trkpt lat="51.32435" lon="9.42966"><ele>235</ele></trkpt>
<trkpt lat="51.32454" lon="9.42991"><ele>238</ele></trkpt>
<trkpt lat="51.32462" lon="9.42997"><ele>238</ele></trkpt>
<trkpt lat="51.32516" lon="9.43013"><ele>238</ele></trkpt>
<trkpt lat="51.32525" lon="9.42888"><ele>242</ele></trkpt>
<trkpt lat="51.32553" lon="9.42561"><ele>251</ele></trkpt>
<trkpt lat="51.32571" lon="9.42486"><ele>253</ele></trkpt>
<trkpt lat="51.32575" lon="9.42459"><ele>254</ele></trkpt>
<trkpt lat="51.32576" lon="9.42287"><ele>259</ele></trkpt>
<trkpt lat="51.32606" lon="9.42023"><ele>270</ele></trkpt>
<trkpt lat="51.32606" lon="9.42003"><ele>270</ele></trkpt>
<trkpt lat="51.32597" lon="9.41907"><ele>275</ele></trkpt>
<trkpt lat="51.32606" lon="9.41868"><ele>278</ele></trkpt>
<trkpt lat="51.32637" lon="9.41771"><ele>284</ele></trkpt>
<trkpt lat="51.32661" lon="9.41678"><ele>290</ele></trkpt>
<trkpt lat="51.32668" lon="9.41639"><ele>293</ele></trkpt>
<trkpt lat="51.32669" lon="9.41613"><ele>295</ele></trkpt>
<trkpt lat="51.32662" lon="9.41551"><ele>298</ele></trkpt>
<trkpt lat="51.32661" lon="9.41392"><ele>309</ele></trkpt>
<trkpt lat="51.32664" lon="9.41344"><ele>312</ele></trkpt>
<trkpt lat="51.32671" lon="9.41313"><ele>313</ele></trkpt>
<trkpt lat="51.32697" lon="9.41239"><ele>316</ele></trkpt>
<trkpt lat="51.32699" lon="9.41221"><ele>316</ele></trkpt>
<trkpt lat="51.32678" lon="9.41122"><ele>316</ele></trkpt>
<trkpt lat="51.32670" lon="9.41072"><ele>318</ele></trkpt>
<trkpt lat="51.32666" lon="9.40921"><ele>326</ele></trkpt>
<trkpt lat="51.32672" lon="9.40899"><ele>327</ele></trkpt>
<trkpt lat="51.32685" lon="9.40887"><ele>328</ele></trkpt>
<trkpt lat="51.32711" lon="9.40874"><ele>327</ele></trkpt>
<trkpt lat="51.32724" lon="9.40856"><ele>328</ele></trkpt>
<trkpt lat="51.32766" lon="9.40610"><ele>334</ele></trkpt>
<trkpt lat="51.32775" lon="9.40605"><ele>334</ele></trkpt>
<trkpt lat="51.32785" lon="9.40607"><ele>335</ele></trkpt>
<trkpt lat="51.32845" lon="9.40667"><ele>336</ele></trkpt>
<trkpt lat="51.32864" lon="9.40671"><ele>338</ele></trkpt>
<trkpt lat="51.32884" lon="9.40665"><ele>341</ele></trkpt>
<trkpt lat="51.32942" lon="9.40675"><ele>345</ele></trkpt>
<trkpt lat="51.33029" lon="9.40649"><ele>352</ele></trkpt>
<trkpt lat="51.33061" lon="9.40634"><ele>354</ele></trkpt>
<trkpt lat="51.33124" lon="9.40592"><ele>359</ele></trkpt>
<trkpt lat="51.33161" lon="9.40553"><ele>362</ele></trkpt>
<trkpt lat="51.33227" lon="9.40456"><ele>369</ele></trkpt>
<trkpt lat="51.33248" lon="9.40436"><ele>372</ele></trkpt>
<trkpt lat="51.33270" lon="9.40421"><ele>373</ele></trkpt>
<trkpt lat="51.33303" lon="9.40410"><ele>374</ele></trkpt>
<trkpt lat="51.33324" lon="9.40397"><ele>375</ele></trkpt>
<trkpt lat="51.33409" lon="9.40314"><ele>379</ele></trkpt>
<trkpt lat="51.33637" lon="9.40022"><ele>384</ele></trkpt>
<trkpt lat="51.33702" lon="9.39945"><ele>388</ele></trkpt>
<trkpt lat="51.33792" lon="9.39864"><ele>388</ele></trkpt>
<trkpt lat="51.33909" lon="9.39777"><ele>390</ele></trkpt>
<trkpt lat="51.33959" lon="9.39705"><ele>390</ele></trkpt>
<trkpt lat="51.34069" lon="9.39565"><ele>394</ele></trkpt>
<trkpt lat="51.34084" lon="9.39534"><ele>394</ele></trkpt>
<trkpt lat="51.34097" lon="9.39487"><ele>393</ele></trkpt>
<trkpt lat="51.34113" lon="9.39445"><ele>393</ele></trkpt>
<trkpt lat="51.34116" lon="9.39424"><ele>393</ele></trkpt>
<trkpt lat="51.34114" lon="9.39373"><ele>395</ele></trkpt>
<trkpt lat="51.34073" lon="9.39141"><ele>403</ele></trkpt>
<trkpt lat="51.34025" lon="9.38958"><ele>404</ele></trkpt>
<trkpt lat="51.33995" lon="9.38871"><ele>404</ele></trkpt>
<trkpt lat="51.33990" lon="9.38729"><ele>408</ele></trkpt>
<trkpt lat="51.33800" lon="9.38746"><ele>428</ele></trkpt>
<trkpt lat="51.33774" lon="9.38740"><ele>431</ele></trkpt>
<trkpt lat="51.33731" lon="9.38712"><ele>436</ele></trkpt>
<trkpt lat="51.33437" lon="9.38549"><ele>468</ele></trkpt>
<trkpt lat="51.33262" lon="9.38378"><ele>480</ele></trkpt>
<trkpt lat="51.33213" lon="9.38335"><ele>482</ele></trkpt>
<trkpt lat="51.33204" lon="9.38334"><ele>482</ele></trkpt>
<trkpt lat="51.33110" lon="9.38236"><ele>482</ele></trkpt>
<trkpt lat="51.33112" lon="9.38195"><ele>480</ele></trkpt>
<trkpt lat="51.33107" lon="9.38174"><ele>480</ele></trkpt>
<trkpt lat="51.33057" lon="9.38072"><ele>472</ele></trkpt>
<trkpt lat="51.33017" lon="9.38012"><ele>468</ele></trkpt>
<trkpt lat="51.32992" lon="9.37997"><ele>466</ele></trkpt>
<trkpt lat="51.32928" lon="9.38002"><ele>468</ele></trkpt>
<trkpt lat="51.32921" lon="9.37985"><ele>469</ele></trkpt>
<trkpt lat="51.32918" lon="9.37962"><ele>470</ele></trkpt>
<trkpt lat="51.32918" lon="9.37942"><ele>471</ele></trkpt>
<trkpt lat="51.32925" lon="9.37897"><ele>470</ele></trkpt>
<trkpt lat="51.32945" lon="9.37857"><ele>471</ele></trkpt>
<trkpt lat="51.32950" lon="9.37838"><ele>473</ele></trkpt>
<trkpt lat="51.32942" lon="9.37750"><ele>480</ele></trkpt>
<trkpt lat="51.32944" lon="9.37718"><ele>481</ele></trkpt>
<trkpt lat="51.32950" lon="9.37705"><ele>481</ele></trkpt>
<trkpt lat="51.32971" lon="9.37664"><ele>481</ele></trkpt>
<trkpt lat="51.32984" lon="9.37654"><ele>480</ele></trkpt>
<trkpt lat="51.32994" lon="9.37655"><ele>479</ele></trkpt>
<trkpt lat="51.33039" lon="9.37683"><ele>472</ele></trkpt>
<trkpt lat="51.33066" lon="9.37532"><ele>472</ele></trkpt>
<trkpt lat="51.33076" lon="9.37500"><ele>472</ele></trkpt>
<trkpt lat="51.33076" lon="9.37471"><ele>474</ele></trkpt>
<trkpt lat="51.33064" lon="9.37416"><ele>476</ele></trkpt>
<trkpt lat="51.33051" lon="9.37375"><ele>476</ele></trkpt>
<trkpt lat="51.33055" lon="9.37344"><ele>474</ele></trkpt>
<trkpt lat="51.33088" lon="9.37324"><ele>472</ele></trkpt>
<trkpt lat="51.33134" lon="9.37306"><ele>474</ele></trkpt>
<trkpt lat="51.33247" lon="9.37207"><ele>468</ele></trkpt>
<trkpt lat="51.33407" lon="9.37081"><ele>465</ele></trkpt>
<trkpt lat="51.33419" lon="9.37068"><ele>465</ele></trkpt>
<trkpt lat="51.33428" lon="9.37045"><ele>465</ele></trkpt>
<trkpt lat="51.33437" lon="9.36965"><ele>464</ele></trkpt>
<trkpt lat="51.33439" lon="9.36910"><ele>464</ele></trkpt>
<trkpt lat="51.33436" lon="9.36886"><ele>465</ele></trkpt>
<trkpt lat="51.33393" lon="9.36722"><ele>467</ele></trkpt>
<trkpt lat="51.33371" lon="9.36672"><ele>468</ele></trkpt>
<trkpt lat="51.33346" lon="9.36564"><ele>466</ele></trkpt>
<trkpt lat="51.33329" lon="9.36513"><ele>466</ele></trkpt>
<trkpt lat="51.33330" lon="9.36432"><ele>466</ele></trkpt>
<trkpt lat="51.33338" lon="9.36294"><ele>466</ele></trkpt>
<trkpt lat="51.33344" lon="9.36262"><ele>467</ele></trkpt>
<trkpt lat="51.33368" lon="9.36198"><ele>468</ele></trkpt>
<trkpt lat="51.33435" lon="9.35991"><ele>460</ele></trkpt>
<trkpt lat="51.33449" lon="9.35933"><ele>456</ele></trkpt>
<trkpt lat="51.33449" lon="9.35915"><ele>456</ele></trkpt>
<trkpt lat="51.33438" lon="9.35854"><ele>455</ele></trkpt>
<trkpt lat="51.33449" lon="9.35620"><ele>456</ele></trkpt>
<trkpt lat="51.33460" lon="9.35558"><ele>456</ele></trkpt>
<trkpt lat="51.33482" lon="9.35479"><ele>452</ele></trkpt>
<trkpt lat="51.33487" lon="9.35444"><ele>451</ele></trkpt>
<trkpt lat="51.33493" lon="9.35330"><ele>449</ele></trkpt>
<trkpt lat="51.33510" lon="9.35374"><ele>446</ele></trkpt>
<trkpt lat="51.33529" lon="9.35399"><ele>444</ele></trkpt>
<trkpt lat="51.33539" lon="9.35404"><ele>442</ele></trkpt>
<trkpt lat="51.33553" lon="9.35403"><ele>441</ele></trkpt>
<trkpt lat="51.33564" lon="9.35395"><ele>440</ele></trkpt>
<trkpt lat="51.33572" lon="9.35379"><ele>439</ele></trkpt>
<trkpt lat="51.33580" lon="9.35346"><ele>437</ele></trkpt>
<trkpt lat="51.33581" lon="9.35321"><ele>436</ele></trkpt>
<trkpt lat="51.33577" lon="9.35171"><ele>429</ele></trkpt>
<trkpt lat="51.33578" lon="9.35040"><ele>422</ele></trkpt>
<trkpt lat="51.33562" lon="9.34869"><ele>414</ele></trkpt>
<trkpt lat="51.33568" lon="9.34834"><ele>411</ele></trkpt>
<trkpt lat="51.33577" lon="9.34816"><ele>409</ele></trkpt>
<trkpt lat="51.33592" lon="9.34801"><ele>407</ele></trkpt>
<trkpt lat="51.33687" lon="9.34757"><ele>398</ele></trkpt>
<trkpt lat="51.33759" lon="9.34717"><ele>390</ele></trkpt>
<trkpt lat="51.33883" lon="9.34618"><ele>378</ele></trkpt>
<trkpt lat="51.34010" lon="9.34541"><ele>367</ele></trkpt>
<trkpt lat="51.34026" lon="9.34522"><ele>365</ele></trkpt>
<trkpt lat="51.34065" lon="9.34450"><ele>361</ele></trkpt>
<trkpt lat="51.34079" lon="9.34430"><ele>360</ele></trkpt>
<trkpt lat="51.34091" lon="9.34421"><ele>358</ele></trkpt>
<trkpt lat="51.34113" lon="9.34413"><ele>356</ele></trkpt>
<trkpt lat="51.34105" lon="9.34339"><ele>355</ele></trkpt>
<trkpt lat="51.34101" lon="9.34230"><ele>348</ele></trkpt>
<trkpt lat="51.34101" lon="9.34207"><ele>347</ele></trkpt>
<trkpt lat="51.34105" lon="9.34197"><ele>346</ele></trkpt>
<trkpt lat="51.34115" lon="9.34200"><ele>346</ele></trkpt>
<trkpt lat="51.34143" lon="9.34196"><ele>345</ele></trkpt>
<trkpt lat="51.34151" lon="9.34183"><ele>344</ele></trkpt>
<trkpt lat="51.34154" lon="9.34173"><ele>344</ele></trkpt>
<trkpt lat="51.34210" lon="9.34090"><ele>339</ele></trkpt>
<trkpt lat="51.34252" lon="9.34040"><ele>337</ele></trkpt>
<trkpt lat="51.34274" lon="9.34007"><ele>335</ele></trkpt>
<trkpt lat="51.34310" lon="9.33971"><ele>334</ele></trkpt>
<trkpt lat="51.34290" lon="9.33892"><ele>332</ele></trkpt>
<trkpt lat="51.34260" lon="9.33732"><ele>332</ele></trkpt>
<trkpt lat="51.34246" lon="9.33588"><ele>334</ele></trkpt>
<trkpt lat="51.34237" lon="9.33531"><ele>335</ele></trkpt>
<trkpt lat="51.34178" lon="9.33257"><ele>334</ele></trkpt>
<trkpt lat="51.34171" lon="9.33207"><ele>334</ele></trkpt>
<trkpt lat="51.34157" lon="9.33041"><ele>336</ele></trkpt>
<trkpt lat="51.34218" lon="9.32813"><ele>335</ele></trkpt>
<trkpt lat="51.34114" lon="9.32744"><ele>333</ele></trkpt>
<trkpt lat="51.34020" lon="9.32771"><ele>337</ele></trkpt>
<trkpt lat="51.33982" lon="9.32476"><ele>334</ele></trkpt>
<trkpt lat="51.34030" lon="9.32335"><ele>330</ele></trkpt>
<trkpt lat="51.34037" lon="9.32291"><ele>330</ele></trkpt>
<trkpt lat="51.34039" lon="9.32137"><ele>324</ele></trkpt>
<trkpt lat="51.34031" lon="9.32078"><ele>322</ele></trkpt>
<trkpt lat="51.34036" lon="9.31975"><ele>324</ele></trkpt>
<trkpt lat="51.33993" lon="9.31640"><ele>318</ele></trkpt>
<trkpt lat="51.33960" lon="9.31427"><ele>309</ele></trkpt>
<trkpt lat="51.33960" lon="9.31367"><ele>305</ele></trkpt>
<trkpt lat="51.33918" lon="9.31223"><ele>298</ele></trkpt>
<trkpt lat="51.33915" lon="9.31179"><ele>297</ele></trkpt>
<trkpt lat="51.33836" lon="9.30841"><ele>296</ele></trkpt>
<trkpt lat="51.33806" lon="9.30766"><ele>296</ele></trkpt>
<trkpt lat="51.33845" lon="9.30747"><ele>294</ele></trkpt>
<trkpt lat="51.33866" lon="9.30719"><ele>294</ele></trkpt>
<trkpt lat="51.33889" lon="9.30677"><ele>296</ele></trkpt>
<trkpt lat="51.33898" lon="9.30700"><ele>295</ele></trkpt>
<trkpt lat="51.33913" lon="9.30725"><ele>296</ele></trkpt>
<trkpt lat="51.33984" lon="9.30789"><ele>295</ele></trkpt>
<trkpt lat="51.34024" lon="9.30839"><ele>296</ele></trkpt>
<trkpt lat="51.34143" lon="9.31027"><ele>299</ele></trkpt>
<trkpt lat="51.34197" lon="9.31143"><ele>298</ele></trkpt>
<trkpt lat="51.34229" lon="9.31190"><ele>297</ele></trkpt>
<trkpt lat="51.34315" lon="9.31259"><ele>295</ele></trkpt>
<trkpt lat="51.34355" lon="9.31277"><ele>294</ele></trkpt>
<trkpt lat="51.34399" lon="9.31274"><ele>293</ele></trkpt>
<trkpt lat="51.34473" lon="9.31254"><ele>290</ele></trkpt>
<trkpt lat="51.34563" lon="9.31236"><ele>287</ele></trkpt>
<trkpt lat="51.35012" lon="9.31185"><ele>280</ele></trkpt>
<trkpt lat="51.35050" lon="9.31183"><ele>279</ele></trkpt>
<trkpt lat="51.35166" lon="9.31196"><ele>277</ele></trkpt>
<trkpt lat="51.35199" lon="9.31194"><ele>277</ele></trkpt>
<trkpt lat="51.35223" lon="9.31189"><ele>276</ele></trkpt>
<trkpt lat="51.35269" lon="9.31166"><ele>275</ele></trkpt>
<trkpt lat="51.35341" lon="9.31108"><ele>274</ele></trkpt>
<trkpt lat="51.35427" lon="9.31030"><ele>274</ele></trkpt>
<trkpt lat="51.35426" lon="9.31013"><ele>274</ele></trkpt>
<trkpt lat="51.35435" lon="9.30984"><ele>276</ele></trkpt>
<trkpt lat="51.35451" lon="9.30971"><ele>278</ele></trkpt>
<trkpt lat="51.35490" lon="9.30969"><ele>282</ele></trkpt>
<trkpt lat="51.35504" lon="9.30959"><ele>283</ele></trkpt>
<trkpt lat="51.35866" lon="9.30587"><ele>294</ele></trkpt>
<trkpt lat="51.36132" lon="9.30410"><ele>274</ele></trkpt>
<trkpt lat="51.36166" lon="9.30383"><ele>276</ele></trkpt>
<trkpt lat="51.36174" lon="9.30367"><ele>278</ele></trkpt>
<trkpt lat="51.36178" lon="9.30345"><ele>279</ele></trkpt>
<trkpt lat="51.36176" lon="9.30238"><ele>284</ele></trkpt>
<trkpt lat="51.36190" lon="9.30201"><ele>288</ele></trkpt>
<trkpt lat="51.36214" lon="9.30207"><ele>291</ele></trkpt>
<trkpt lat="51.36235" lon="9.30223"><ele>293</ele></trkpt>
<trkpt lat="51.36268" lon="9.30236"><ele>296</ele></trkpt>
<trkpt lat="51.36315" lon="9.30236"><ele>298</ele></trkpt>
<trkpt lat="51.36346" lon="9.30220"><ele>299</ele></trkpt>
<trkpt lat="51.36431" lon="9.30164"><ele>298</ele></trkpt>
<trkpt lat="51.36454" lon="9.30145"><ele>296</ele></trkpt>
<trkpt lat="51.36497" lon="9.30096"><ele>292</ele></trkpt>
<trkpt lat="51.36506" lon="9.30075"><ele>290</ele></trkpt>
<trkpt lat="51.36508" lon="9.30058"><ele>290</ele></trkpt>
<trkpt lat="51.36499" lon="9.29967"><ele>285</ele></trkpt>
<trkpt lat="51.36501" lon="9.29949"><ele>284</ele></trkpt>
<trkpt lat="51.36530" lon="9.29856"><ele>283</ele></trkpt>
<trkpt lat="51.36535" lon="9.29832"><ele>282</ele></trkpt>
<trkpt lat="51.36553" lon="9.29827"><ele>282</ele></trkpt>
<trkpt lat="51.36582" lon="9.29798"><ele>281</ele></trkpt>
<trkpt lat="51.36591" lon="9.29801"><ele>280</ele></trkpt>
<trkpt lat="51.36603" lon="9.29822"><ele>280</ele></trkpt>
<trkpt lat="51.36614" lon="9.29568"><ele>278</ele></trkpt>
<trkpt lat="51.36626" lon="9.29501"><ele>276</ele></trkpt>
<trkpt lat="51.36641" lon="9.29440"><ele>273</ele></trkpt>
<trkpt lat="51.36666" lon="9.29401"><ele>272</ele></trkpt>
<trkpt lat="51.36766" lon="9.29269"><ele>277</ele></trkpt>
<trkpt lat="51.36866" lon="9.29433"><ele>272</ele></trkpt>
<trkpt lat="51.36889" lon="9.29475"><ele>270</ele></trkpt>
<trkpt lat="51.36910" lon="9.29526"><ele>268</ele></trkpt>
<trkpt lat="51.36914" lon="9.29517"><ele>268</ele></trkpt>
<trkpt lat="51.36966" lon="9.29457"><ele>271</ele></trkpt>
<trkpt lat="51.37011" lon="9.29410"><ele>274</ele></trkpt>
<trkpt lat="51.37026" lon="9.29404"><ele>274</ele></trkpt>
<trkpt lat="51.37068" lon="9.29401"><ele>272</ele></trkpt>
<trkpt lat="51.37084" lon="9.29394"><ele>270</ele></trkpt>
<trkpt lat="51.37095" lon="9.29376"><ele>268</ele></trkpt>
<trkpt lat="51.37105" lon="9.29305"><ele>264</ele></trkpt>
<trkpt lat="51.37110" lon="9.29291"><ele>264</ele></trkpt>
<trkpt lat="51.37124" lon="9.29270"><ele>264</ele></trkpt>
<trkpt lat="51.37470" lon="9.28871"><ele>286</ele></trkpt>
<trkpt lat="51.38431" lon="9.27978"><ele>265</ele></trkpt>
<trkpt lat="51.38396" lon="9.27902"><ele>269</ele></trkpt>
<trkpt lat="51.38349" lon="9.27783"><ele>277</ele></trkpt>
<trkpt lat="51.38300" lon="9.27686"><ele>278</ele></trkpt>
<trkpt lat="51.38271" lon="9.27583"><ele>281</ele></trkpt>
<trkpt lat="51.38265" lon="9.27536"><ele>281</ele></trkpt>
<trkpt lat="51.38263" lon="9.27419"><ele>279</ele></trkpt>
<trkpt lat="51.38266" lon="9.27342"><ele>282</ele></trkpt>
<trkpt lat="51.38273" lon="9.27298"><ele>284</ele></trkpt>
<trkpt lat="51.38282" lon="9.27263"><ele>285</ele></trkpt>
<trkpt lat="51.38315" lon="9.27161"><ele>286</ele></trkpt>
<trkpt lat="51.38336" lon="9.27118"><ele>286</ele></trkpt>
<trkpt lat="51.38351" lon="9.27096"><ele>286</ele></trkpt>
<trkpt lat="51.38374" lon="9.27079"><ele>288</ele></trkpt>
<trkpt lat="51.38380" lon="9.27066"><ele>288</ele></trkpt>
<trkpt lat="51.38400" lon="9.26955"><ele>286</ele></trkpt>
<trkpt lat="51.38416" lon="9.26918"><ele>284</ele></trkpt>
<trkpt lat="51.38416" lon="9.26887"><ele>283</ele></trkpt>
<trkpt lat="51.38393" lon="9.26834"><ele>286</ele></trkpt>
<trkpt lat="51.38271" lon="9.26416"><ele>299</ele></trkpt>
<trkpt lat="51.38259" lon="9.26409"><ele>300</ele></trkpt>
<trkpt lat="51.38252" lon="9.26398"><ele>300</ele></trkpt>
<trkpt lat="51.38232" lon="9.26335"><ele>302</ele></trkpt>
<trkpt lat="51.38255" lon="9.26304"><ele>305</ele></trkpt>
<trkpt lat="51.38278" lon="9.26293"><ele>307</ele></trkpt>
<trkpt lat="51.38349" lon="9.26320"><ele>311</ele></trkpt>
<trkpt lat="51.38368" lon="9.26314"><ele>313</ele></trkpt>
<trkpt lat="51.38376" lon="9.26295"><ele>315</ele></trkpt>
<trkpt lat="51.38376" lon="9.26280"><ele>316</ele></trkpt>
<trkpt lat="51.38352" lon="9.26168"><ele>321</ele></trkpt>
<trkpt lat="51.38351" lon="9.26147"><ele>322</ele></trkpt>
<trkpt lat="51.38361" lon="9.26120"><ele>322</ele></trkpt>
<trkpt lat="51.38444" lon="9.26051"><ele>321</ele></trkpt>
<trkpt lat="51.38473" lon="9.26018"><ele>321</ele></trkpt>
<trkpt lat="51.38576" lon="9.26025"><ele>316</ele></trkpt>
<trkpt lat="51.38528" lon="9.24521"><ele>343</ele></trkpt>
<trkpt lat="51.38533" lon="9.24513"><ele>343</ele></trkpt>
<trkpt lat="51.38539" lon="9.24446"><ele>344</ele></trkpt>
<trkpt lat="51.38547" lon="9.24391"><ele>344</ele></trkpt>
<trkpt lat="51.38599" lon="9.24194"><ele>350</ele></trkpt>
<trkpt lat="51.38625" lon="9.24023"><ele>356</ele></trkpt>
<trkpt lat="51.38627" lon="9.23965"><ele>358</ele></trkpt>
<trkpt lat="51.38612" lon="9.23740"><ele>360</ele></trkpt>
<trkpt lat="51.38628" lon="9.23545"><ele>362</ele></trkpt>
<trkpt lat="51.38645" lon="9.23389"><ele>361</ele></trkpt>
<trkpt lat="51.38646" lon="9.23369"><ele>361</ele></trkpt>
<trkpt lat="51.38642" lon="9.23329"><ele>361</ele></trkpt>
<trkpt lat="51.38741" lon="9.23303"><ele>358</ele></trkpt>
<trkpt lat="51.38791" lon="9.23275"><ele>356</ele></trkpt>
<trkpt lat="51.38805" lon="9.23272"><ele>355</ele></trkpt>
<trkpt lat="51.38912" lon="9.23295"><ele>350</ele></trkpt>
<trkpt lat="51.38979" lon="9.23304"><ele>347</ele></trkpt>
<trkpt lat="51.39039" lon="9.23299"><ele>344</ele></trkpt>
<trkpt lat="51.39076" lon="9.23288"><ele>342</ele></trkpt>
<trkpt lat="51.39112" lon="9.23284"><ele>340</ele></trkpt>
<trkpt lat="51.39229" lon="9.23252"><ele>333</ele></trkpt>
<trkpt lat="51.39313" lon="9.23241"><ele>331</ele></trkpt>
<trkpt lat="51.39349" lon="9.23230"><ele>330</ele></trkpt>
<trkpt lat="51.39437" lon="9.23188"><ele>334</ele></trkpt>
<trkpt lat="51.39525" lon="9.23174"><ele>335</ele></trkpt>
<trkpt lat="51.39563" lon="9.23172"><ele>336</ele></trkpt>
<trkpt lat="51.39673" lon="9.23197"><ele>338</ele></trkpt>
<trkpt lat="51.39793" lon="9.23196"><ele>342</ele></trkpt>
<trkpt lat="51.39809" lon="9.23204"><ele>342</ele></trkpt>
<trkpt lat="51.39903" lon="9.23280"><ele>340</ele></trkpt>
<trkpt lat="51.39947" lon="9.23296"><ele>340</ele></trkpt>
<trkpt lat="51.39969" lon="9.23294"><ele>338</ele></trkpt>
<trkpt lat="51.40164" lon="9.23242"><ele>338</ele></trkpt>
<trkpt lat="51.40217" lon="9.23223"><ele>338</ele></trkpt>
<trkpt lat="51.40248" lon="9.23192"><ele>337</ele></trkpt>
<trkpt lat="51.40250" lon="9.23174"><ele>336</ele></trkpt>
<trkpt lat="51.40274" lon="9.23116"><ele>334</ele></trkpt>
<trkpt lat="51.40413" lon="9.22696"><ele>330</ele></trkpt>
<trkpt lat="51.40448" lon="9.22576"><ele>329</ele></trkpt>
<trkpt lat="51.40497" lon="9.22376"><ele>326</ele></trkpt>
<trkpt lat="51.40521" lon="9.22252"><ele>324</ele></trkpt>
<trkpt lat="51.40558" lon="9.22135"><ele>322</ele></trkpt>
<trkpt lat="51.40616" lon="9.21977"><ele>320</ele></trkpt>
<trkpt lat="51.40657" lon="9.21879"><ele>319</ele></trkpt>
<trkpt lat="51.40695" lon="9.21810"><ele>318</ele></trkpt>
<trkpt lat="51.40819" lon="9.21643"><ele>314</ele></trkpt>
<trkpt lat="51.40865" lon="9.21565"><ele>312</ele></trkpt>
<trkpt lat="51.40956" lon="9.21359"><ele>310</ele></trkpt>
<trkpt lat="51.40979" lon="9.21272"><ele>311</ele></trkpt>
<trkpt lat="51.40985" lon="9.21235"><ele>312</ele></trkpt>
<trkpt lat="51.41001" lon="9.20789"><ele>313</ele></trkpt>
<trkpt lat="51.41009" lon="9.20651"><ele>313</ele></trkpt>
<trkpt lat="51.41025" lon="9.20413"><ele>314</ele></trkpt>
<trkpt lat="51.41034" lon="9.20345"><ele>314</ele></trkpt>
<trkpt lat="51.41163" lon="9.19800"><ele>310</ele></trkpt>
<trkpt lat="51.41191" lon="9.19718"><ele>309</ele></trkpt>
<trkpt lat="51.41260" lon="9.19550"><ele>306</ele></trkpt>
<trkpt lat="51.41285" lon="9.19481"><ele>305</ele></trkpt>
<trkpt lat="51.41330" lon="9.19321"><ele>303</ele></trkpt>
<trkpt lat="51.41348" lon="9.19278"><ele>302</ele></trkpt>
<trkpt lat="51.41378" lon="9.19227"><ele>300</ele></trkpt>
<trkpt lat="51.41406" lon="9.19161"><ele>298</ele></trkpt>
<trkpt lat="51.41416" lon="9.19120"><ele>298</ele></trkpt>
<trkpt lat="51.41416" lon="9.18981"><ele>295</ele></trkpt>
<trkpt lat="51.41691" lon="9.18895"><ele>292</ele></trkpt>
<trkpt lat="51.41784" lon="9.18853"><ele>292</ele></trkpt>
<trkpt lat="51.41922" lon="9.18840"><ele>294</ele></trkpt>
<trkpt lat="51.41886" lon="9.18436"><ele>291</ele></trkpt>
<trkpt lat="51.41865" lon="9.18077"><ele>290</ele></trkpt>
<trkpt lat="51.41994" lon="9.17100"><ele>296</ele></trkpt>
<trkpt lat="51.42182" lon="9.17270"><ele>295</ele></trkpt>
<trkpt lat="51.42672" lon="9.17676"><ele>282</ele></trkpt>
<trkpt lat="51.42839" lon="9.17788"><ele>277</ele></trkpt>
<trkpt lat="51.42850" lon="9.17789"><ele>277</ele></trkpt>
<trkpt lat="51.42915" lon="9.17700"><ele>274</ele></trkpt>
<trkpt lat="51.42959" lon="9.17755"><ele>272</ele></trkpt>
<trkpt lat="51.42985" lon="9.17857"><ele>270</ele></trkpt>
<trkpt lat="51.42994" lon="9.17871"><ele>270</ele></trkpt>
<trkpt lat="51.43124" lon="9.17914"><ele>277</ele></trkpt>
<trkpt lat="51.43180" lon="9.17880"><ele>277</ele></trkpt>
<trkpt lat="51.43201" lon="9.17878"><ele>277</ele></trkpt>
<trkpt lat="51.45006" lon="9.18375"><ele>240</ele></trkpt>
<trkpt lat="51.45142" lon="9.18385"><ele>233</ele></trkpt>
<trkpt lat="51.45141" lon="9.18400"><ele>232</ele></trkpt>
<trkpt lat="51.45414" lon="9.18445"><ele>229</ele></trkpt>
<trkpt lat="51.45445" lon="9.18257"><ele>227</ele></trkpt>
<trkpt lat="51.45461" lon="9.18240"><ele>229</ele></trkpt>
<trkpt lat="51.45502" lon="9.18141"><ele>237</ele></trkpt>
<trkpt lat="51.45518" lon="9.18108"><ele>240</ele></trkpt>
<trkpt lat="51.45539" lon="9.18076"><ele>242</ele></trkpt>
<trkpt lat="51.45574" lon="9.18078"><ele>244</ele></trkpt>
<trkpt lat="51.45581" lon="9.18072"><ele>245</ele></trkpt>
<trkpt lat="51.45746" lon="9.18092"><ele>251</ele></trkpt>
<trkpt lat="51.46149" lon="9.18126"><ele>235</ele></trkpt>
<trkpt lat="51.46175" lon="9.18110"><ele>234</ele></trkpt>
<trkpt lat="51.46301" lon="9.18003"><ele>229</ele></trkpt>
<trkpt lat="51.46408" lon="9.17878"><ele>225</ele></trkpt>
<trkpt lat="51.46507" lon="9.17749"><ele>225</ele></trkpt>
<trkpt lat="51.46527" lon="9.17995"><ele>227</ele></trkpt>
<trkpt lat="51.46530" lon="9.18144"><ele>227</ele></trkpt>
<trkpt lat="51.46534" lon="9.18149"><ele>227</ele></trkpt>
<trkpt lat="51.46640" lon="9.18148"><ele>229</ele></trkpt>
<trkpt lat="51.46807" lon="9.18050"><ele>236</ele></trkpt>
<trkpt lat="51.46831" lon="9.18026"><ele>239</ele></trkpt>
<trkpt lat="51.46887" lon="9.18001"><ele>242</ele></trkpt>
<trkpt lat="51.46934" lon="9.17976"><ele>239</ele></trkpt>
<trkpt lat="51.47215" lon="9.17808"><ele>218</ele></trkpt>
<trkpt lat="51.47242" lon="9.17774"><ele>216</ele></trkpt>
<trkpt lat="51.47250" lon="9.17745"><ele>215</ele></trkpt>
<trkpt lat="51.47250" lon="9.17173"><ele>207</ele></trkpt>
<trkpt lat="51.47253" lon="9.17094"><ele>205</ele></trkpt>
<trkpt lat="51.47262" lon="9.17047"><ele>203</ele></trkpt>
<trkpt lat="51.47274" lon="9.17018"><ele>201</ele></trkpt>
<trkpt lat="51.47299" lon="9.16971"><ele>198</ele></trkpt>
<trkpt lat="51.47327" lon="9.16942"><ele>195</ele></trkpt>
<trkpt lat="51.47373" lon="9.16913"><ele>192</ele></trkpt>
<trkpt lat="51.47390" lon="9.16907"><ele>190</ele></trkpt>
<trkpt lat="51.47464" lon="9.16896"><ele>184</ele></trkpt>
<trkpt lat="51.47480" lon="9.16883"><ele>182</ele></trkpt>
<trkpt lat="51.47545" lon="9.16804"><ele>182</ele></trkpt>
<trkpt lat="51.47569" lon="9.16788"><ele>182</ele></trkpt>
<trkpt lat="51.47619" lon="9.16889"><ele>180</ele></trkpt>
<trkpt lat="51.47650" lon="9.17015"><ele>179</ele></trkpt>
<trkpt lat="51.47672" lon="9.17094"><ele>179</ele></trkpt>
<trkpt lat="51.47689" lon="9.17191"><ele>179</ele></trkpt>
<trkpt lat="51.47691" lon="9.17196"><ele>179</ele></trkpt>
<trkpt lat="51.47696" lon="9.17195"><ele>179</ele></trkpt>
<trkpt lat="51.47720" lon="9.17170"><ele>180</ele></trkpt>
<trkpt lat="51.47947" lon="9.16849"><ele>178</ele></trkpt>
<trkpt lat="51.48007" lon="9.16772"><ele>178</ele></trkpt>
<trkpt lat="51.48050" lon="9.16754"><ele>176</ele></trkpt>
<trkpt lat="51.48091" lon="9.16746"><ele>174</ele></trkpt>
<trkpt lat="51.48201" lon="9.16759"><ele>168</ele></trkpt>
<trkpt lat="51.48351" lon="9.16738"><ele>164</ele></trkpt>
<trkpt lat="51.48446" lon="9.16733"><ele>165</ele></trkpt>
<trkpt lat="51.48508" lon="9.16714"><ele>163</ele></trkpt>
<trkpt lat="51.48592" lon="9.16696"><ele>159</ele></trkpt>
<trkpt lat="51.48615" lon="9.16681"><ele>159</ele></trkpt>
<trkpt lat="51.48667" lon="9.16630"><ele>160</ele></trkpt>
<trkpt lat="51.48647" lon="9.16574"><ele>160</ele></trkpt>
<trkpt lat="51.48641" lon="9.16516"><ele>159</ele></trkpt>
<trkpt lat="51.48638" lon="9.16500"><ele>159</ele></trkpt>
<trkpt lat="51.48626" lon="9.16474"><ele>160</ele></trkpt>
<trkpt lat="51.48612" lon="9.16454"><ele>160</ele></trkpt>
<trkpt lat="51.48595" lon="9.16440"><ele>160</ele></trkpt>
<trkpt lat="51.48577" lon="9.16433"><ele>160</ele></trkpt>
<trkpt lat="51.48539" lon="9.16429"><ele>162</ele></trkpt>
<trkpt lat="51.48521" lon="9.16420"><ele>160</ele></trkpt>
<trkpt lat="51.48510" lon="9.16405"><ele>159</ele></trkpt>
<trkpt lat="51.48508" lon="9.16391"><ele>158</ele></trkpt>
<trkpt lat="51.48510" lon="9.15872"><ele>161</ele></trkpt>
<trkpt lat="51.48504" lon="9.15821"><ele>161</ele></trkpt>
<trkpt lat="51.48487" lon="9.15760"><ele>162</ele></trkpt>
<trkpt lat="51.48501" lon="9.15743"><ele>160</ele></trkpt>
<trkpt lat="51.48504" lon="9.15734"><ele>160</ele></trkpt>
<trkpt lat="51.48504" lon="9.15705"><ele>160</ele></trkpt>
<trkpt lat="51.48511" lon="9.15701"><ele>160</ele></trkpt>
<trkpt lat="51.48509" lon="9.15654"><ele>160</ele></trkpt>
<trkpt lat="51.48581" lon="9.15552"><ele>162</ele></trkpt>
<trkpt lat="51.48571" lon="9.15530"><ele>160</ele></trkpt>
<trkpt lat="51.48434" lon="9.15120"><ele>160</ele></trkpt>
<trkpt lat="51.48383" lon="9.14999"><ele>160</ele></trkpt>
<trkpt lat="51.48380" lon="9.15034"><ele>160</ele></trkpt>
<trkpt lat="51.48357" lon="9.14984"><ele>159</ele></trkpt>
<trkpt lat="51.48311" lon="9.14925"><ele>159</ele></trkpt>
<trkpt lat="51.48246" lon="9.14805"><ele>160</ele></trkpt>
<trkpt lat="51.48204" lon="9.14721"><ele>160</ele></trkpt>
<trkpt lat="51.48186" lon="9.14648"><ele>161</ele></trkpt>
<trkpt lat="51.48186" lon="9.14636"><ele>161</ele></trkpt>
<trkpt lat="51.48200" lon="9.14609"><ele>161</ele></trkpt>
<trkpt lat="51.48201" lon="9.14586"><ele>161</ele></trkpt>
<trkpt lat="51.48252" lon="9.14523"><ele>161</ele></trkpt>
<trkpt lat="51.48335" lon="9.14461"><ele>162</ele></trkpt>
<trkpt lat="51.48445" lon="9.14412"><ele>166</ele></trkpt>
<trkpt lat="51.48462" lon="9.14429"><ele>165</ele></trkpt>
<trkpt lat="51.48479" lon="9.14408"><ele>167</ele></trkpt>
<trkpt lat="51.48520" lon="9.14380"><ele>170</ele></trkpt>
<trkpt lat="51.48573" lon="9.14374"><ele>176</ele></trkpt>
<trkpt lat="51.48595" lon="9.14357"><ele>180</ele></trkpt>
<trkpt lat="51.48649" lon="9.14295"><ele>188</ele></trkpt>
<trkpt lat="51.48666" lon="9.14280"><ele>189</ele></trkpt>
<trkpt lat="51.48690" lon="9.14266"><ele>196</ele></trkpt>
<trkpt lat="51.48745" lon="9.14252"><ele>200</ele></trkpt>
<trkpt lat="51.48851" lon="9.14261"><ele>208</ele></trkpt>
<trkpt lat="51.48884" lon="9.14250"><ele>209</ele></trkpt>
<trkpt lat="51.48899" lon="9.14237"><ele>210</ele></trkpt>
<trkpt lat="51.48913" lon="9.14217"><ele>210</ele></trkpt>
<trkpt lat="51.48927" lon="9.14183"><ele>210</ele></trkpt>
<trkpt lat="51.48933" lon="9.14180"><ele>210</ele></trkpt>
<trkpt lat="51.48938" lon="9.14192"><ele>210</ele></trkpt>
<trkpt lat="51.48947" lon="9.14192"><ele>210</ele></trkpt>
<trkpt lat="51.48978" lon="9.14153"><ele>210</ele></trkpt>
<trkpt lat="51.49051" lon="9.14113"><ele>208</ele></trkpt>
<trkpt lat="51.49060" lon="9.14125"><ele>208</ele></trkpt>
<trkpt lat="51.49247" lon="9.14114"><ele>193</ele></trkpt>
<trkpt lat="51.49399" lon="9.14125"><ele>186</ele></trkpt>
<trkpt lat="51.49452" lon="9.14113"><ele>185</ele></trkpt>
<trkpt lat="51.49460" lon="9.14124"><ele>185</ele></trkpt>
<trkpt lat="51.49469" lon="9.14115"><ele>185</ele></trkpt>
<trkpt lat="51.49479" lon="9.14123"><ele>186</ele></trkpt>
<trkpt lat="51.49570" lon="9.14151"><ele>186</ele></trkpt>
<trkpt lat="51.49597" lon="9.14162"><ele>186</ele></trkpt>
<trkpt lat="51.49622" lon="9.14179"><ele>187</ele></trkpt>
<trkpt lat="51.49745" lon="9.14302"><ele>190</ele></trkpt>
<trkpt lat="51.49924" lon="9.14431"><ele>195</ele></trkpt>
<trkpt lat="51.49963" lon="9.14455"><ele>195</ele></trkpt>
<trkpt lat="51.49973" lon="9.14456"><ele>195</ele></trkpt>
<trkpt lat="51.50073" lon="9.14414"><ele>197</ele></trkpt>
<trkpt lat="51.50087" lon="9.14391"><ele>197</ele></trkpt>
<trkpt lat="51.50101" lon="9.14344"><ele>198</ele></trkpt>
<trkpt lat="51.50126" lon="9.14354"><ele>199</ele></trkpt>
<trkpt lat="51.50299" lon="9.14173"><ele>204</ele></trkpt>
<trkpt lat="51.50312" lon="9.14166"><ele>204</ele></trkpt>
<trkpt lat="51.50405" lon="9.14069"><ele>205</ele></trkpt>
<trkpt lat="51.50420" lon="9.14047"><ele>206</ele></trkpt>
<trkpt lat="51.50439" lon="9.14000"><ele>206</ele></trkpt>
<trkpt lat="51.50600" lon="9.13800"><ele>210</ele></trkpt>
<trkpt lat="51.50728" lon="9.13655"><ele>213</ele></trkpt>
<trkpt lat="51.50757" lon="9.13721"><ele>212</ele></trkpt>
<trkpt lat="51.50760" lon="9.13733"><ele>214</ele></trkpt>
<trkpt lat="51.50828" lon="9.14685"><ele>218</ele></trkpt>
<trkpt lat="51.51228" lon="9.14759"><ele>212</ele></trkpt>
<trkpt lat="51.51224" lon="9.14596"><ele>211</ele></trkpt>
<trkpt lat="51.51228" lon="9.14145"><ele>207</ele></trkpt>
<trkpt lat="51.51245" lon="9.14098"><ele>207</ele></trkpt>
<trkpt lat="51.51266" lon="9.14021"><ele>209</ele></trkpt>
<trkpt lat="51.51297" lon="9.13954"><ele>207</ele></trkpt>
<trkpt lat="51.51297" lon="9.13946"><ele>206</ele></trkpt>
<trkpt lat="51.51404" lon="9.13825"><ele>208</ele></trkpt>
<trkpt lat="51.51654" lon="9.13961"><ele>210</ele></trkpt>
<trkpt lat="51.52200" lon="9.14039"><ele>223</ele></trkpt>
<trkpt lat="51.52230" lon="9.14029"><ele>223</ele></trkpt>
<trkpt lat="51.52405" lon="9.14000"><ele>226</ele></trkpt>
<trkpt lat="51.52446" lon="9.13990"><ele>227</ele></trkpt>
<trkpt lat="51.52484" lon="9.13971"><ele>227</ele></trkpt>
<trkpt lat="51.52599" lon="9.13900"><ele>231</ele></trkpt>
<trkpt lat="51.52624" lon="9.13880"><ele>232</ele></trkpt>
<trkpt lat="51.52646" lon="9.13857"><ele>232</ele></trkpt>
<trkpt lat="51.52678" lon="9.13814"><ele>234</ele></trkpt>
<trkpt lat="51.52781" lon="9.13667"><ele>236</ele></trkpt>
<trkpt lat="51.52800" lon="9.13651"><ele>237</ele></trkpt>
<trkpt lat="51.52932" lon="9.13573"><ele>240</ele></trkpt>
<trkpt lat="51.52975" lon="9.13560"><ele>241</ele></trkpt>
<trkpt lat="51.53073" lon="9.13543"><ele>242</ele></trkpt>
<trkpt lat="51.53140" lon="9.13536"><ele>241</ele></trkpt>
<trkpt lat="51.53301" lon="9.13438"><ele>238</ele></trkpt>
<trkpt lat="51.53316" lon="9.13432"><ele>238</ele></trkpt>
<trkpt lat="51.53344" lon="9.13432"><ele>238</ele></trkpt>
<trkpt lat="51.53357" lon="9.13436"><ele>238</ele></trkpt>
<trkpt lat="51.53484" lon="9.13531"><ele>238</ele></trkpt>
<trkpt lat="51.53517" lon="9.13548"><ele>237</ele></trkpt>
<trkpt lat="51.53529" lon="9.13626"><ele>235</ele></trkpt>
<trkpt lat="51.53534" lon="9.13636"><ele>235</ele></trkpt>
<trkpt lat="51.53560" lon="9.13668"><ele>233</ele></trkpt>
<trkpt lat="51.53585" lon="9.13717"><ele>233</ele></trkpt>
<trkpt lat="51.53604" lon="9.13780"><ele>232</ele></trkpt>
<trkpt lat="51.53628" lon="9.13844"><ele>230</ele></trkpt>
<trkpt lat="51.53647" lon="9.13883"><ele>229</ele></trkpt>
<trkpt lat="51.53670" lon="9.13914"><ele>229</ele></trkpt>
<trkpt lat="51.54218" lon="9.14441"><ele>220</ele></trkpt>
<trkpt lat="51.54291" lon="9.14550"><ele>216</ele></trkpt>
<trkpt lat="51.54335" lon="9.14593"><ele>213</ele></trkpt>
<trkpt lat="51.54371" lon="9.14654"><ele>211</ele></trkpt>
<trkpt lat="51.54384" lon="9.14667"><ele>210</ele></trkpt>
<trkpt lat="51.54441" lon="9.14706"><ele>207</ele></trkpt>
<trkpt lat="51.54463" lon="9.14728"><ele>206</ele></trkpt>
<trkpt lat="51.54482" lon="9.14754"><ele>206</ele></trkpt>
<trkpt lat="51.54533" lon="9.14855"><ele>203</ele></trkpt>
<trkpt lat="51.54557" lon="9.14915"><ele>202</ele></trkpt>
<trkpt lat="51.54588" lon="9.15070"><ele>200</ele></trkpt>
<trkpt lat="51.54595" lon="9.15089"><ele>200</ele></trkpt>
<trkpt lat="51.54663" lon="9.15193"><ele>198</ele></trkpt>
<trkpt lat="51.54684" lon="9.15233"><ele>198</ele></trkpt>
<trkpt lat="51.54698" lon="9.15275"><ele>197</ele></trkpt>
<trkpt lat="51.54710" lon="9.15331"><ele>196</ele></trkpt>
<trkpt lat="51.54718" lon="9.15344"><ele>196</ele></trkpt>
<trkpt lat="51.54766" lon="9.15381"><ele>195</ele></trkpt>
<trkpt lat="51.54828" lon="9.15467"><ele>193</ele></trkpt>
<trkpt lat="51.54840" lon="9.15466"><ele>193</ele></trkpt>
<trkpt lat="51.54849" lon="9.15532"><ele>193</ele></trkpt>
<trkpt lat="51.54865" lon="9.15596"><ele>192</ele></trkpt>
<trkpt lat="51.54890" lon="9.15660"><ele>192</ele></trkpt>
<trkpt lat="51.54901" lon="9.15678"><ele>192</ele></trkpt>
<trkpt lat="51.54923" lon="9.15703"><ele>192</ele></trkpt>
<trkpt lat="51.54957" lon="9.15635"><ele>192</ele></trkpt>
<trkpt lat="51.55016" lon="9.15600"><ele>192</ele></trkpt>
<trkpt lat="51.55189" lon="9.15554"><ele>187</ele></trkpt>
<trkpt lat="51.55191" lon="9.15598"><ele>187</ele></trkpt>
<trkpt lat="51.55189" lon="9.15662"><ele>187</ele></trkpt>
<trkpt lat="51.55199" lon="9.15682"><ele>187</ele></trkpt>
<trkpt lat="51.55210" lon="9.15721"><ele>186</ele></trkpt>
<trkpt lat="51.55202" lon="9.15788"><ele>186</ele></trkpt>
<trkpt lat="51.55203" lon="9.15819"><ele>186</ele></trkpt>
<trkpt lat="51.55213" lon="9.15881"><ele>186</ele></trkpt>
<trkpt lat="51.55220" lon="9.15901"><ele>186</ele></trkpt>
<trkpt lat="51.55241" lon="9.15937"><ele>185</ele></trkpt>
<trkpt lat="51.55231" lon="9.15976"><ele>186</ele></trkpt>
<trkpt lat="51.55266" lon="9.15983"><ele>186</ele></trkpt>
<trkpt lat="51.55286" lon="9.15993"><ele>186</ele></trkpt>
<trkpt lat="51.55304" lon="9.16006"><ele>186</ele></trkpt>
<trkpt lat="51.55330" lon="9.16043"><ele>187</ele></trkpt>
<trkpt lat="51.55344" lon="9.16066"><ele>188</ele></trkpt>
<trkpt lat="51.55337" lon="9.16081"><ele>188</ele></trkpt>
<trkpt lat="51.55336" lon="9.16096"><ele>188</ele></trkpt>
<trkpt lat="51.55383" lon="9.16279"><ele>189</ele></trkpt>
<trkpt lat="51.55832" lon="9.16904"><ele>186</ele></trkpt>
<trkpt lat="51.56135" lon="9.16945"><ele>198</ele></trkpt>
<trkpt lat="51.56192" lon="9.16948"><ele>201</ele></trkpt>
<trkpt lat="51.56210" lon="9.16944"><ele>202</ele></trkpt>
<trkpt lat="51.56315" lon="9.16896"><ele>202</ele></trkpt>
<trkpt lat="51.56666" lon="9.16708"><ele>199</ele></trkpt>
<trkpt lat="51.56714" lon="9.16704"><ele>200</ele></trkpt>
<trkpt lat="51.56804" lon="9.16735"><ele>202</ele></trkpt>
<trkpt lat="51.56843" lon="9.16736"><ele>202</ele></trkpt>
<trkpt lat="51.56918" lon="9.16723"><ele>203</ele></trkpt>
<trkpt lat="51.56941" lon="9.16715"><ele>203</ele></trkpt>
<trkpt lat="51.56964" lon="9.16696"><ele>203</ele></trkpt>
<trkpt lat="51.56985" lon="9.16673"><ele>203</ele></trkpt>
<trkpt lat="51.57027" lon="9.16653"><ele>204</ele></trkpt>
<trkpt lat="51.57034" lon="9.16670"><ele>204</ele></trkpt>
<trkpt lat="51.57042" lon="9.16678"><ele>204</ele></trkpt>
<trkpt lat="51.57181" lon="9.16762"><ele>212</ele></trkpt>
<trkpt lat="51.57167" lon="9.16836"><ele>210</ele></trkpt>
<trkpt lat="51.57163" lon="9.16883"><ele>209</ele></trkpt>
<trkpt lat="51.57162" lon="9.16933"><ele>208</ele></trkpt>
<trkpt lat="51.57170" lon="9.16932"><ele>208</ele></trkpt>
<trkpt lat="51.57257" lon="9.17042"><ele>212</ele></trkpt>
<trkpt lat="51.57468" lon="9.17328"><ele>214</ele></trkpt>
<trkpt lat="51.57620" lon="9.17473"><ele>213</ele></trkpt>
<trkpt lat="51.57654" lon="9.17491"><ele>212</ele></trkpt>
<trkpt lat="51.57744" lon="9.17500"><ele>204</ele></trkpt>
<trkpt lat="51.57846" lon="9.17480"><ele>200</ele></trkpt>
<trkpt lat="51.57873" lon="9.17479"><ele>201</ele></trkpt>
<trkpt lat="51.58002" lon="9.17479"><ele>203</ele></trkpt>
<trkpt lat="51.58127" lon="9.17489"><ele>206</ele></trkpt>
<trkpt lat="51.58133" lon="9.17486"><ele>206</ele></trkpt>
<trkpt lat="51.58145" lon="9.17467"><ele>206</ele></trkpt>
<trkpt lat="51.58234" lon="9.17321"><ele>214</ele></trkpt>
<trkpt lat="51.58244" lon="9.17311"><ele>210</ele></trkpt>
<trkpt lat="51.58248" lon="9.17313"><ele>209</ele></trkpt>
<trkpt lat="51.58362" lon="9.17467"><ele>205</ele></trkpt>
<trkpt lat="51.58418" lon="9.17552"><ele>205</ele></trkpt>
<trkpt lat="51.58437" lon="9.17571"><ele>206</ele></trkpt>
<trkpt lat="51.58528" lon="9.17598"><ele>207</ele></trkpt>
<trkpt lat="51.58630" lon="9.17607"><ele>216</ele></trkpt>
<trkpt lat="51.58820" lon="9.17661"><ele>231</ele></trkpt>
<trkpt lat="51.58855" lon="9.17685"><ele>234</ele></trkpt>
<trkpt lat="51.59018" lon="9.17819"><ele>239</ele></trkpt>
<trkpt lat="51.59044" lon="9.17855"><ele>240</ele></trkpt>
<trkpt lat="51.59366" lon="9.18395"><ele>249</ele></trkpt>
<trkpt lat="51.59434" lon="9.18502"><ele>249</ele></trkpt>
<trkpt lat="51.59465" lon="9.18541"><ele>250</ele></trkpt>
<trkpt lat="51.59708" lon="9.18686"><ele>250</ele></trkpt>
<trkpt lat="51.59802" lon="9.18737"><ele>251</ele></trkpt>
<trkpt lat="51.60023" lon="9.18767"><ele>256</ele></trkpt>
<trkpt lat="51.60452" lon="9.18436"><ele>248</ele></trkpt>
<trkpt lat="51.60748" lon="9.18471"><ele>241</ele></trkpt>
<trkpt lat="51.60780" lon="9.18494"><ele>239</ele></trkpt>
<trkpt lat="51.60804" lon="9.18486"><ele>237</ele></trkpt>
<trkpt lat="51.60827" lon="9.18488"><ele>236</ele></trkpt>
<trkpt lat="51.60858" lon="9.18500"><ele>237</ele></trkpt>
<trkpt lat="51.60871" lon="9.18513"><ele>238</ele></trkpt>
<trkpt lat="51.60901" lon="9.18558"><ele>238</ele></trkpt>
<trkpt lat="51.60920" lon="9.18612"><ele>238</ele></trkpt>
<trkpt lat="51.60980" lon="9.18714"><ele>240</ele></trkpt>
<trkpt lat="51.60948" lon="9.18753"><ele>241</ele></trkpt>
<trkpt lat="51.60874" lon="9.18880"><ele>245</ele></trkpt>
<trkpt lat="51.60944" lon="9.19646"><ele>248</ele></trkpt>
<trkpt lat="51.61041" lon="9.19599"><ele>247</ele></trkpt>
<trkpt lat="51.61172" lon="9.19525"><ele>246</ele></trkpt>
<trkpt lat="51.61304" lon="9.19430"><ele>248</ele></trkpt>
<trkpt lat="51.61431" lon="9.19405"><ele>254</ele></trkpt>
<trkpt lat="51.61443" lon="9.19410"><ele>255</ele></trkpt>
<trkpt lat="51.61463" lon="9.19435"><ele>256</ele></trkpt>
<trkpt lat="51.61505" lon="9.19506"><ele>260</ele></trkpt>
<trkpt lat="51.61632" lon="9.19844"><ele>264</ele></trkpt>
<trkpt lat="51.61701" lon="9.20269"><ele>263</ele></trkpt>
<trkpt lat="51.61706" lon="9.20558"><ele>261</ele></trkpt>
<trkpt lat="51.61703" lon="9.20563"><ele>260</ele></trkpt>
<trkpt lat="51.61705" lon="9.20572"><ele>260</ele></trkpt>
<trkpt lat="51.61693" lon="9.20721"><ele>257</ele></trkpt>
<trkpt lat="51.61696" lon="9.20736"><ele>256</ele></trkpt>
<trkpt lat="51.61714" lon="9.20781"><ele>256</ele></trkpt>
<trkpt lat="51.61720" lon="9.20861"><ele>252</ele></trkpt>
<trkpt lat="51.61751" lon="9.20860"><ele>248</ele></trkpt>
<trkpt lat="51.61766" lon="9.20881"><ele>246</ele></trkpt>
<trkpt lat="51.61778" lon="9.20924"><ele>244</ele></trkpt>
<trkpt lat="51.61788" lon="9.20983"><ele>244</ele></trkpt>
<trkpt lat="51.61789" lon="9.21009"><ele>245</ele></trkpt>
<trkpt lat="51.61782" lon="9.21263"><ele>244</ele></trkpt>
<trkpt lat="51.61836" lon="9.21438"><ele>250</ele></trkpt>
<trkpt lat="51.61846" lon="9.21478"><ele>250</ele></trkpt>
<trkpt lat="51.61824" lon="9.21541"><ele>251</ele></trkpt>
<trkpt lat="51.61799" lon="9.21600"><ele>251</ele></trkpt>
<trkpt lat="51.61790" lon="9.21633"><ele>250</ele></trkpt>
<trkpt lat="51.61787" lon="9.21663"><ele>251</ele></trkpt>
<trkpt lat="51.61790" lon="9.21729"><ele>252</ele></trkpt>
<trkpt lat="51.61788" lon="9.21754"><ele>251</ele></trkpt>
<trkpt lat="51.61763" lon="9.21861"><ele>252</ele></trkpt>
<trkpt lat="51.61760" lon="9.21919"><ele>252</ele></trkpt>
<trkpt lat="51.61788" lon="9.22575"><ele>252</ele></trkpt>
<trkpt lat="51.61853" lon="9.22968"><ele>241</ele></trkpt>
<trkpt lat="51.62084" lon="9.22794"><ele>241</ele></trkpt>
<trkpt lat="51.62111" lon="9.22781"><ele>241</ele></trkpt>
<trkpt lat="51.62508" lon="9.22688"><ele>256</ele></trkpt>
<trkpt lat="51.62709" lon="9.22729"><ele>244</ele></trkpt>
<trkpt lat="51.62747" lon="9.22700"><ele>238</ele></trkpt>
<trkpt lat="51.62790" lon="9.22623"><ele>234</ele></trkpt>
<trkpt lat="51.62825" lon="9.22574"><ele>237</ele></trkpt>
<trkpt lat="51.62922" lon="9.22420"><ele>238</ele></trkpt>
<trkpt lat="51.62960" lon="9.22368"><ele>239</ele></trkpt>
<trkpt lat="51.62988" lon="9.22350"><ele>240</ele></trkpt>
<trkpt lat="51.63061" lon="9.22313"><ele>240</ele></trkpt>
<trkpt lat="51.63222" lon="9.22242"><ele>246</ele></trkpt>
<trkpt lat="51.63328" lon="9.22203"><ele>250</ele></trkpt>
<trkpt lat="51.63372" lon="9.22179"><ele>251</ele></trkpt>
<trkpt lat="51.63357" lon="9.22153"><ele>254</ele></trkpt>
<trkpt lat="51.63341" lon="9.22137"><ele>256</ele></trkpt>
<trkpt lat="51.63350" lon="9.22111"><ele>258</ele></trkpt>
<trkpt lat="51.63443" lon="9.21979"><ele>268</ele></trkpt>
<trkpt lat="51.63489" lon="9.21925"><ele>273</ele></trkpt>
<trkpt lat="51.63517" lon="9.21861"><ele>278</ele></trkpt>
<trkpt lat="51.63555" lon="9.21794"><ele>285</ele></trkpt>
<trkpt lat="51.63581" lon="9.21717"><ele>290</ele></trkpt>
<trkpt lat="51.63596" lon="9.21648"><ele>292</ele></trkpt>
<trkpt lat="51.63602" lon="9.21592"><ele>294</ele></trkpt>
<trkpt lat="51.63603" lon="9.21462"><ele>296</ele></trkpt>
<trkpt lat="51.63617" lon="9.21402"><ele>296</ele></trkpt>
<trkpt lat="51.63625" lon="9.21312"><ele>296</ele></trkpt>
<trkpt lat="51.63625" lon="9.21135"><ele>291</ele></trkpt>
<trkpt lat="51.63827" lon="9.21248"><ele>298</ele></trkpt>
<trkpt lat="51.64001" lon="9.21059"><ele>303</ele></trkpt>
<trkpt lat="51.63995" lon="9.21021"><ele>304</ele></trkpt>
<trkpt lat="51.63994" lon="9.20919"><ele>302</ele></trkpt>
<trkpt lat="51.63992" lon="9.20877"><ele>302</ele></trkpt>
<trkpt lat="51.63987" lon="9.20835"><ele>302</ele></trkpt>
<trkpt lat="51.63987" lon="9.20794"><ele>301</ele></trkpt>
<trkpt lat="51.63993" lon="9.20686"><ele>304</ele></trkpt>
<trkpt lat="51.64003" lon="9.20622"><ele>307</ele></trkpt>
<trkpt lat="51.64009" lon="9.20608"><ele>308</ele></trkpt>
<trkpt lat="51.64013" lon="9.20558"><ele>308</ele></trkpt>
<trkpt lat="51.64005" lon="9.20278"><ele>308</ele></trkpt>
<trkpt lat="51.64013" lon="9.20157"><ele>306</ele></trkpt>
<trkpt lat="51.64014" lon="9.20021"><ele>301</ele></trkpt>
<trkpt lat="51.63987" lon="9.20003"><ele>300</ele></trkpt>
<trkpt lat="51.63981" lon="9.19980"><ele>299</ele></trkpt>
<trkpt lat="51.63936" lon="9.19456"><ele>279</ele></trkpt>
<trkpt lat="51.63929" lon="9.19312"><ele>273</ele></trkpt>
<trkpt lat="51.64057" lon="9.19196"><ele>270</ele></trkpt>
<trkpt lat="51.64115" lon="9.19157"><ele>268</ele></trkpt>
<trkpt lat="51.64092" lon="9.19031"><ele>261</ele></trkpt>
<trkpt lat="51.64082" lon="9.19025"><ele>260</ele></trkpt>
<trkpt lat="51.64097" lon="9.18947"><ele>258</ele></trkpt>
<trkpt lat="51.64103" lon="9.18874"><ele>255</ele></trkpt>
<trkpt lat="51.64128" lon="9.18722"><ele>250</ele></trkpt>
<trkpt lat="51.64135" lon="9.18700"><ele>249</ele></trkpt>
<trkpt lat="51.64527" lon="9.18758"><ele>262</ele></trkpt>
<trkpt lat="51.64575" lon="9.17807"><ele>237</ele></trkpt>
<trkpt lat="51.64879" lon="9.17849"><ele>244</ele></trkpt>
<trkpt lat="51.65090" lon="9.17884"><ele>245</ele></trkpt>
<trkpt lat="51.65205" lon="9.17969"><ele>246</ele></trkpt>
<trkpt lat="51.65468" lon="9.18072"><ele>242</ele></trkpt>
<trkpt lat="51.65657" lon="9.18214"><ele>243</ele></trkpt>
<trkpt lat="51.65864" lon="9.17673"><ele>244</ele></trkpt>
<trkpt lat="51.66239" lon="9.16574"><ele>242</ele></trkpt>
<trkpt lat="51.66272" lon="9.16529"><ele>237</ele></trkpt>
<trkpt lat="51.66280" lon="9.16512"><ele>234</ele></trkpt>
<trkpt lat="51.66297" lon="9.16440"><ele>228</ele></trkpt>
<trkpt lat="51.66300" lon="9.16413"><ele>226</ele></trkpt>
<trkpt lat="51.66299" lon="9.16367"><ele>224</ele></trkpt>
<trkpt lat="51.66291" lon="9.16235"><ele>215</ele></trkpt>
<trkpt lat="51.66286" lon="9.16066"><ele>204</ele></trkpt>
<trkpt lat="51.66266" lon="9.16000"><ele>200</ele></trkpt>
<trkpt lat="51.66234" lon="9.15863"><ele>188</ele></trkpt>
<trkpt lat="51.66208" lon="9.15765"><ele>179</ele></trkpt>
<trkpt lat="51.66180" lon="9.15684"><ele>171</ele></trkpt>
<trkpt lat="51.66124" lon="9.15566"><ele>159</ele></trkpt>
<trkpt lat="51.66107" lon="9.15510"><ele>154</ele></trkpt>
<trkpt lat="51.66125" lon="9.15488"><ele>152</ele></trkpt>
<trkpt lat="51.66146" lon="9.15437"><ele>151</ele></trkpt>
<trkpt lat="51.66161" lon="9.15414"><ele>152</ele></trkpt>
<trkpt lat="51.66179" lon="9.15401"><ele>150</ele></trkpt>
<trkpt lat="51.66231" lon="9.15376"><ele>151</ele></trkpt>
<trkpt lat="51.66210" lon="9.15293"><ele>150</ele></trkpt>
<trkpt lat="51.66238" lon="9.15267"><ele>150</ele></trkpt>
<trkpt lat="51.66248" lon="9.15250"><ele>152</ele></trkpt>
<trkpt lat="51.66240" lon="9.15235"><ele>152</ele></trkpt>
<trkpt lat="51.66228" lon="9.15137"><ele>151</ele></trkpt>
<trkpt lat="51.66233" lon="9.14937"><ele>158</ele></trkpt>
<trkpt lat="51.66225" lon="9.14871"><ele>155</ele></trkpt>
<trkpt lat="51.66239" lon="9.14866"><ele>156</ele></trkpt>
<trkpt lat="51.66248" lon="9.14856"><ele>157</ele></trkpt>
<trkpt lat="51.66284" lon="9.14791"><ele>162</ele></trkpt>
<trkpt lat="51.66316" lon="9.14760"><ele>165</ele></trkpt>
<trkpt lat="51.66499" lon="9.14660"><ele>178</ele></trkpt>
<trkpt lat="51.66610" lon="9.14609"><ele>187</ele></trkpt>
<trkpt lat="51.66651" lon="9.14584"><ele>189</ele></trkpt>
<trkpt lat="51.66808" lon="9.14452"><ele>204</ele></trkpt>
<trkpt lat="51.66900" lon="9.14416"><ele>209</ele></trkpt>
<trkpt lat="51.67368" lon="9.13528"><ele>227</ele></trkpt>
<trkpt lat="51.67693" lon="9.13211"><ele>216</ele></trkpt>
<trkpt lat="51.67806" lon="9.13032"><ele>219</ele></trkpt>
<trkpt lat="51.67813" lon="9.13017"><ele>218</ele></trkpt>
<trkpt lat="51.67808" lon="9.12929"><ele>220</ele></trkpt>
<trkpt lat="51.67780" lon="9.12753"><ele>223</ele></trkpt>
<trkpt lat="51.67781" lon="9.12727"><ele>224</ele></trkpt>
<trkpt lat="51.67852" lon="9.12624"><ele>229</ele></trkpt>
<trkpt lat="51.68048" lon="9.12204"><ele>242</ele></trkpt>
<trkpt lat="51.68074" lon="9.12179"><ele>241</ele></trkpt>
<trkpt lat="51.68570" lon="9.11787"><ele>234</ele></trkpt>
<trkpt lat="51.68544" lon="9.11299"><ele>245</ele></trkpt>
<trkpt lat="51.68543" lon="9.11205"><ele>246</ele></trkpt>
<trkpt lat="51.68552" lon="9.10977"><ele>248</ele></trkpt>
<trkpt lat="51.69175" lon="9.10889"><ele>250</ele></trkpt>
<trkpt lat="51.69158" lon="9.10521"><ele>250</ele></trkpt>
<trkpt lat="51.69150" lon="9.10464"><ele>250</ele></trkpt>
<trkpt lat="51.68999" lon="9.09984"><ele>232</ele></trkpt>
<trkpt lat="51.68980" lon="9.09876"><ele>225</ele></trkpt>
<trkpt lat="51.68954" lon="9.09584"><ele>214</ele></trkpt>
<trkpt lat="51.68940" lon="9.09477"><ele>212</ele></trkpt>
<trkpt lat="51.68811" lon="9.08747"><ele>210</ele></trkpt>
<trkpt lat="51.68787" lon="9.08626"><ele>211</ele></trkpt>
<trkpt lat="51.68755" lon="9.08523"><ele>212</ele></trkpt>
<trkpt lat="51.68754" lon="9.08503"><ele>212</ele></trkpt>
<trkpt lat="51.68742" lon="9.08496"><ele>212</ele></trkpt>
<trkpt lat="51.68701" lon="9.08444"><ele>212</ele></trkpt>
<trkpt lat="51.68699" lon="9.08269"><ele>214</ele></trkpt>
<trkpt lat="51.68686" lon="9.08122"><ele>218</ele></trkpt>
<trkpt lat="51.68644" lon="9.07543"><ele>231</ele></trkpt>
<trkpt lat="51.68629" lon="9.07391"><ele>237</ele></trkpt>
<trkpt lat="51.68578" lon="9.07030"><ele>251</ele></trkpt>
<trkpt lat="51.68576" lon="9.06876"><ele>253</ele></trkpt>
<trkpt lat="51.68563" lon="9.06790"><ele>254</ele></trkpt>
<trkpt lat="51.68551" lon="9.06674"><ele>256</ele></trkpt>
<trkpt lat="51.68554" lon="9.06440"><ele>262</ele></trkpt>
<trkpt lat="51.68566" lon="9.06289"><ele>266</ele></trkpt>
<trkpt lat="51.68568" lon="9.06112"><ele>272</ele></trkpt>
<trkpt lat="51.68574" lon="9.06033"><ele>274</ele></trkpt>
<trkpt lat="51.68577" lon="9.05912"><ele>277</ele></trkpt>
<trkpt lat="51.68564" lon="9.05855"><ele>278</ele></trkpt>
<trkpt lat="51.68542" lon="9.05715"><ele>280</ele></trkpt>
<trkpt lat="51.68516" lon="9.05585"><ele>281</ele></trkpt>
<trkpt lat="51.68512" lon="9.05471"><ele>284</ele></trkpt>
<trkpt lat="51.68486" lon="9.05350"><ele>282</ele></trkpt>
<trkpt lat="51.68461" lon="9.05131"><ele>276</ele></trkpt>
<trkpt lat="51.68440" lon="9.04984"><ele>270</ele></trkpt>
<trkpt lat="51.68423" lon="9.04572"><ele>264</ele></trkpt>
<trkpt lat="51.68332" lon="9.04319"><ele>274</ele></trkpt>
<trkpt lat="51.68279" lon="9.04188"><ele>282</ele></trkpt>
<trkpt lat="51.68278" lon="9.04164"><ele>282</ele></trkpt>
<trkpt lat="51.68258" lon="9.04099"><ele>281</ele></trkpt>
<trkpt lat="51.68171" lon="9.03767"><ele>303</ele></trkpt>
<trkpt lat="51.68131" lon="9.03662"><ele>306</ele></trkpt>
<trkpt lat="51.68127" lon="9.03578"><ele>299</ele></trkpt>
<trkpt lat="51.68057" lon="9.03400"><ele>287</ele></trkpt>
<trkpt lat="51.68055" lon="9.03379"><ele>286</ele></trkpt>
<trkpt lat="51.68067" lon="9.03311"><ele>282</ele></trkpt>
<trkpt lat="51.68088" lon="9.03237"><ele>278</ele></trkpt>
<trkpt lat="51.68115" lon="9.03060"><ele>268</ele></trkpt>
<trkpt lat="51.68124" lon="9.02972"><ele>259</ele></trkpt>
<trkpt lat="51.68136" lon="9.02906"><ele>254</ele></trkpt>
<trkpt lat="51.68160" lon="9.02820"><ele>252</ele></trkpt>
<trkpt lat="51.68168" lon="9.02754"><ele>250</ele></trkpt>
<trkpt lat="51.68165" lon="9.02732"><ele>249</ele></trkpt>
<trkpt lat="51.68178" lon="9.02725"><ele>250</ele></trkpt>
<trkpt lat="51.68187" lon="9.02706"><ele>251</ele></trkpt>
<trkpt lat="51.68202" lon="9.02621"><ele>252</ele></trkpt>
<trkpt lat="51.68239" lon="9.02317"><ele>259</ele></trkpt>
<trkpt lat="51.68270" lon="9.02198"><ele>262</ele></trkpt>
<trkpt lat="51.68288" lon="9.02145"><ele>264</ele></trkpt>
<trkpt lat="51.68334" lon="9.02035"><ele>266</ele></trkpt>
<trkpt lat="51.68357" lon="9.01990"><ele>267</ele></trkpt>
<trkpt lat="51.68455" lon="9.01898"><ele>271</ele></trkpt>
<trkpt lat="51.68476" lon="9.01881"><ele>272</ele></trkpt>
<trkpt lat="51.68516" lon="9.01861"><ele>274</ele></trkpt>
<trkpt lat="51.68655" lon="9.01849"><ele>278</ele></trkpt>
<trkpt lat="51.68593" lon="9.01828"><ele>272</ele></trkpt>
<trkpt lat="51.68579" lon="9.01815"><ele>271</ele></trkpt>
<trkpt lat="51.68573" lon="9.01802"><ele>269</ele></trkpt>
<trkpt lat="51.68558" lon="9.01721"><ele>268</ele></trkpt>
<trkpt lat="51.68552" lon="9.01702"><ele>268</ele></trkpt>
<trkpt lat="51.68452" lon="9.01592"><ele>269</ele></trkpt>
<trkpt lat="51.68447" lon="9.01583"><ele>270</ele></trkpt>
<trkpt lat="51.68443" lon="9.01566"><ele>272</ele></trkpt>
<trkpt lat="51.68440" lon="9.01529"><ele>272</ele></trkpt>
<trkpt lat="51.68483" lon="9.01521"><ele>274</ele></trkpt>
<trkpt lat="51.68482" lon="9.01505"><ele>274</ele></trkpt>
<trkpt lat="51.68486" lon="9.01496"><ele>274</ele></trkpt>
<trkpt lat="51.68559" lon="9.01440"><ele>282</ele></trkpt>
<trkpt lat="51.68572" lon="9.01423"><ele>282</ele></trkpt>
<trkpt lat="51.68584" lon="9.01394"><ele>284</ele></trkpt>
<trkpt lat="51.68588" lon="9.01340"><ele>286</ele></trkpt>
<trkpt lat="51.68588" lon="9.01280"><ele>288</ele></trkpt>
<trkpt lat="51.68579" lon="9.01132"><ele>292</ele></trkpt>
<trkpt lat="51.68555" lon="9.00993"><ele>298</ele></trkpt>
<trkpt lat="51.68545" lon="9.00837"><ele>308</ele></trkpt>
<trkpt lat="51.68513" lon="9.00682"><ele>315</ele></trkpt>
<trkpt lat="51.68440" lon="9.00400"><ele>330</ele></trkpt>
<trkpt lat="51.68396" lon="9.00076"><ele>349</ele></trkpt>
<trkpt lat="51.68346" lon="9.00081"><ele>348</ele></trkpt>
<trkpt lat="51.68382" lon="8.99900"><ele>360</ele></trkpt>
<trkpt lat="51.68520" lon="8.99677"><ele>377</ele></trkpt>
<trkpt lat="51.68533" lon="8.99667"><ele>378</ele></trkpt>
<trkpt lat="51.68554" lon="8.99659"><ele>378</ele></trkpt>
<trkpt lat="51.68662" lon="8.99668"><ele>384</ele></trkpt>
<trkpt lat="51.68688" lon="8.99653"><ele>384</ele></trkpt>
<trkpt lat="51.68704" lon="8.99633"><ele>384</ele></trkpt>
<trkpt lat="51.68711" lon="8.99619"><ele>385</ele></trkpt>
<trkpt lat="51.68712" lon="8.99292"><ele>384</ele></trkpt>
<trkpt lat="51.68838" lon="8.99179"><ele>388</ele></trkpt>
<trkpt lat="51.68851" lon="8.99187"><ele>388</ele></trkpt>
<trkpt lat="51.68990" lon="8.99365"><ele>388</ele></trkpt>
<trkpt lat="51.69016" lon="8.99393"><ele>389</ele></trkpt>
<trkpt lat="51.69025" lon="8.99396"><ele>389</ele></trkpt>
<trkpt lat="51.69093" lon="8.99285"><ele>382</ele></trkpt>
<trkpt lat="51.69123" lon="8.99209"><ele>376</ele></trkpt>
<trkpt lat="51.69192" lon="8.99104"><ele>370</ele></trkpt>
<trkpt lat="51.69232" lon="8.99031"><ele>366</ele></trkpt>
<trkpt lat="51.69244" lon="8.99004"><ele>364</ele></trkpt>
<trkpt lat="51.69283" lon="8.98862"><ele>358</ele></trkpt>
<trkpt lat="51.69291" lon="8.98840"><ele>356</ele></trkpt>
<trkpt lat="51.69330" lon="8.98797"><ele>352</ele></trkpt>
<trkpt lat="51.69356" lon="8.98752"><ele>349</ele></trkpt>
<trkpt lat="51.69472" lon="8.98476"><ele>340</ele></trkpt>
<trkpt lat="51.69517" lon="8.98330"><ele>338</ele></trkpt>
<trkpt lat="51.69535" lon="8.98228"><ele>336</ele></trkpt>
<trkpt lat="51.69540" lon="8.98172"><ele>334</ele></trkpt>
<trkpt lat="51.69548" lon="8.98122"><ele>333</ele></trkpt>
<trkpt lat="51.69575" lon="8.98024"><ele>332</ele></trkpt>
<trkpt lat="51.69604" lon="8.97953"><ele>330</ele></trkpt>
<trkpt lat="51.69691" lon="8.97785"><ele>325</ele></trkpt>
<trkpt lat="51.69706" lon="8.97774"><ele>325</ele></trkpt>
<trkpt lat="51.69727" lon="8.97778"><ele>326</ele></trkpt>
<trkpt lat="51.69794" lon="8.97871"><ele>326</ele></trkpt>
<trkpt lat="51.69806" lon="8.97883"><ele>327</ele></trkpt>
<trkpt lat="51.69782" lon="8.97659"><ele>324</ele></trkpt>
<trkpt lat="51.69783" lon="8.97575"><ele>322</ele></trkpt>
<trkpt lat="51.69776" lon="8.97552"><ele>320</ele></trkpt>
<trkpt lat="51.69751" lon="8.97536"><ele>322</ele></trkpt>
<trkpt lat="51.69776" lon="8.97494"><ele>320</ele></trkpt>
<trkpt lat="51.69805" lon="8.97426"><ele>319</ele></trkpt>
<trkpt lat="51.69833" lon="8.97334"><ele>319</ele></trkpt>
<trkpt lat="51.69942" lon="8.97052"><ele>316</ele></trkpt>
<trkpt lat="51.69958" lon="8.97020"><ele>316</ele></trkpt>
<trkpt lat="51.69986" lon="8.96986"><ele>316</ele></trkpt>
<trkpt lat="51.70129" lon="8.96905"><ele>315</ele></trkpt>
<trkpt lat="51.70232" lon="8.96893"><ele>314</ele></trkpt>
<trkpt lat="51.70262" lon="8.96781"><ele>320</ele></trkpt>
<trkpt lat="51.70271" lon="8.96723"><ele>322</ele></trkpt>
<trkpt lat="51.70275" lon="8.96658"><ele>324</ele></trkpt>
<trkpt lat="51.70272" lon="8.96578"><ele>328</ele></trkpt>
<trkpt lat="51.70274" lon="8.96539"><ele>330</ele></trkpt>
<trkpt lat="51.70286" lon="8.96485"><ele>334</ele></trkpt>
<trkpt lat="51.70326" lon="8.96404"><ele>338</ele></trkpt>
<trkpt lat="51.70382" lon="8.96194"><ele>339</ele></trkpt>
<trkpt lat="51.70426" lon="8.96091"><ele>340</ele></trkpt>
<trkpt lat="51.70546" lon="8.95789"><ele>338</ele></trkpt>
<trkpt lat="51.70568" lon="8.95758"><ele>339</ele></trkpt>
<trkpt lat="51.70582" lon="8.95745"><ele>340</ele></trkpt>
<trkpt lat="51.70622" lon="8.95728"><ele>339</ele></trkpt>
<trkpt lat="51.71427" lon="8.95509"><ele>303</ele></trkpt>
<trkpt lat="51.71442" lon="8.95476"><ele>304</ele></trkpt>
<trkpt lat="51.71511" lon="8.95351"><ele>307</ele></trkpt>
<trkpt lat="51.71522" lon="8.95338"><ele>308</ele></trkpt>
<trkpt lat="51.71535" lon="8.95328"><ele>309</ele></trkpt>
<trkpt lat="51.71551" lon="8.95325"><ele>311</ele></trkpt>
<trkpt lat="51.71596" lon="8.95343"><ele>316</ele></trkpt>
<trkpt lat="51.71625" lon="8.95341"><ele>317</ele></trkpt>
<trkpt lat="51.71640" lon="8.95329"><ele>317</ele></trkpt>
<trkpt lat="51.71654" lon="8.95298"><ele>316</ele></trkpt>
<trkpt lat="51.71663" lon="8.95271"><ele>315</ele></trkpt>
<trkpt lat="51.71665" lon="8.95243"><ele>314</ele></trkpt>
<trkpt lat="51.71662" lon="8.95167"><ele>313</ele></trkpt>
<trkpt lat="51.71657" lon="8.95131"><ele>311</ele></trkpt>
<trkpt lat="51.71637" lon="8.95082"><ele>310</ele></trkpt>
<trkpt lat="51.71598" lon="8.95043"><ele>306</ele></trkpt>
<trkpt lat="51.71578" lon="8.95005"><ele>302</ele></trkpt>
<trkpt lat="51.71574" lon="8.94990"><ele>301</ele></trkpt>
<trkpt lat="51.71565" lon="8.94864"><ele>300</ele></trkpt>
<trkpt lat="51.71558" lon="8.94819"><ele>300</ele></trkpt>
<trkpt lat="51.71517" lon="8.94647"><ele>296</ele></trkpt>
<trkpt lat="51.71463" lon="8.94496"><ele>291</ele></trkpt>
<trkpt lat="51.71396" lon="8.94102"><ele>282</ele></trkpt>
<trkpt lat="51.71402" lon="8.94029"><ele>280</ele></trkpt>
<trkpt lat="51.71464" lon="8.93653"><ele>277</ele></trkpt>
<trkpt lat="51.71484" lon="8.93573"><ele>275</ele></trkpt>
<trkpt lat="51.71557" lon="8.93324"><ele>266</ele></trkpt>
<trkpt lat="51.71558" lon="8.93264"><ele>264</ele></trkpt>
<trkpt lat="51.71604" lon="8.93230"><ele>264</ele></trkpt>
<trkpt lat="51.71596" lon="8.93174"><ele>263</ele></trkpt>
<trkpt lat="51.71562" lon="8.93124"><ele>262</ele></trkpt>
<trkpt lat="51.71580" lon="8.93059"><ele>261</ele></trkpt>
<trkpt lat="51.71614" lon="8.92974"><ele>261</ele></trkpt>
<trkpt lat="51.71630" lon="8.92920"><ele>260</ele></trkpt>
<trkpt lat="51.71650" lon="8.92895"><ele>261</ele></trkpt>
<trkpt lat="51.71669" lon="8.92883"><ele>262</ele></trkpt>
<trkpt lat="51.71691" lon="8.92877"><ele>263</ele></trkpt>
<trkpt lat="51.71705" lon="8.92714"><ele>263</ele></trkpt>
<trkpt lat="51.71720" lon="8.92712"><ele>264</ele></trkpt>
<trkpt lat="51.71715" lon="8.92547"><ele>266</ele></trkpt>
<trkpt lat="51.71717" lon="8.92458"><ele>265</ele></trkpt>
<trkpt lat="51.71712" lon="8.92452"><ele>265</ele></trkpt>
<trkpt lat="51.71704" lon="8.92338"><ele>263</ele></trkpt>
<trkpt lat="51.71699" lon="8.92129"><ele>260</ele></trkpt>
<trkpt lat="51.71642" lon="8.91893"><ele>259</ele></trkpt>
<trkpt lat="51.71632" lon="8.91829"><ele>259</ele></trkpt>
<trkpt lat="51.71589" lon="8.91192"><ele>260</ele></trkpt>
<trkpt lat="51.71528" lon="8.90964"><ele>256</ele></trkpt>
<trkpt lat="51.71610" lon="8.90858"><ele>264</ele></trkpt>
<trkpt lat="51.71627" lon="8.90852"><ele>266</ele></trkpt>
<trkpt lat="51.71649" lon="8.90859"><ele>268</ele></trkpt>
<trkpt lat="51.71663" lon="8.90876"><ele>270</ele></trkpt>
<trkpt lat="51.71820" lon="8.91198"><ele>284</ele></trkpt>
<trkpt lat="51.71829" lon="8.91208"><ele>284</ele></trkpt>
<trkpt lat="51.71823" lon="8.91148"><ele>287</ele></trkpt>
<trkpt lat="51.71822" lon="8.91091"><ele>290</ele></trkpt>
<trkpt lat="51.71830" lon="8.91039"><ele>293</ele></trkpt>
<trkpt lat="51.71838" lon="8.91006"><ele>295</ele></trkpt>
<trkpt lat="51.71849" lon="8.90973"><ele>298</ele></trkpt>
<trkpt lat="51.71870" lon="8.90944"><ele>301</ele></trkpt>
<trkpt lat="51.71912" lon="8.90910"><ele>305</ele></trkpt>
<trkpt lat="51.71938" lon="8.90877"><ele>308</ele></trkpt>
<trkpt lat="51.71963" lon="8.90822"><ele>311</ele></trkpt>
<trkpt lat="51.71975" lon="8.90778"><ele>314</ele></trkpt>
<trkpt lat="51.71980" lon="8.90749"><ele>315</ele></trkpt>
<trkpt lat="51.71982" lon="8.90706"><ele>317</ele></trkpt>
<trkpt lat="51.71979" lon="8.90665"><ele>320</ele></trkpt>
<trkpt lat="51.71972" lon="8.90623"><ele>321</ele></trkpt>
<trkpt lat="51.71937" lon="8.90488"><ele>328</ele></trkpt>
<trkpt lat="51.71912" lon="8.90442"><ele>331</ele></trkpt>
<trkpt lat="51.71860" lon="8.90375"><ele>337</ele></trkpt>
<trkpt lat="51.71851" lon="8.90347"><ele>339</ele></trkpt>
<trkpt lat="51.71838" lon="8.90349"><ele>338</ele></trkpt>
<trkpt lat="51.71825" lon="8.90342"><ele>338</ele></trkpt>
<trkpt lat="51.71555" lon="8.90044"><ele>329</ele></trkpt>
<trkpt lat="51.71704" lon="8.88787"><ele>323</ele></trkpt>
<trkpt lat="51.72023" lon="8.88913"><ele>328</ele></trkpt>
<trkpt lat="51.72157" lon="8.87735"><ele>324</ele></trkpt>
<trkpt lat="51.72157" lon="8.87706"><ele>322</ele></trkpt>
<trkpt lat="51.72138" lon="8.87547"><ele>320</ele></trkpt>
<trkpt lat="51.72132" lon="8.87467"><ele>317</ele></trkpt>
<trkpt lat="51.72131" lon="8.87329"><ele>311</ele></trkpt>
<trkpt lat="51.72139" lon="8.87120"><ele>303</ele></trkpt>
<trkpt lat="51.72132" lon="8.87105"><ele>303</ele></trkpt>
<trkpt lat="51.72107" lon="8.87108"><ele>303</ele></trkpt>
<trkpt lat="51.72100" lon="8.87093"><ele>302</ele></trkpt>
<trkpt lat="51.72103" lon="8.87030"><ele>300</ele></trkpt>
<trkpt lat="51.72116" lon="8.87020"><ele>300</ele></trkpt>
<trkpt lat="51.72133" lon="8.87017"><ele>300</ele></trkpt>
<trkpt lat="51.72138" lon="8.87011"><ele>299</ele></trkpt>
<trkpt lat="51.72147" lon="8.86962"><ele>298</ele></trkpt>
<trkpt lat="51.72183" lon="8.86050"><ele>273</ele></trkpt>
<trkpt lat="51.71986" lon="8.86069"><ele>271</ele></trkpt>
<trkpt lat="51.71966" lon="8.85462"><ele>260</ele></trkpt>
<trkpt lat="51.71905" lon="8.85135"><ele>257</ele></trkpt>
<trkpt lat="51.71748" lon="8.84704"><ele>257</ele></trkpt>
<trkpt lat="51.71629" lon="8.84217"><ele>256</ele></trkpt>
<trkpt lat="51.71589" lon="8.83959"><ele>256</ele></trkpt>
<trkpt lat="51.71591" lon="8.83943"><ele>256</ele></trkpt>
<trkpt lat="51.71598" lon="8.83934"><ele>256</ele></trkpt>
<trkpt lat="51.72033" lon="8.83821"><ele>244</ele></trkpt>
<trkpt lat="51.72046" lon="8.83817"><ele>244</ele></trkpt>
<trkpt lat="51.72051" lon="8.83809"><ele>243</ele></trkpt>
<trkpt lat="51.72014" lon="8.83527"><ele>239</ele></trkpt>
<trkpt lat="51.71938" lon="8.83100"><ele>233</ele></trkpt>
<trkpt lat="51.71893" lon="8.82906"><ele>231</ele></trkpt>
<trkpt lat="51.71834" lon="8.82686"><ele>230</ele></trkpt>
<trkpt lat="51.71825" lon="8.82671"><ele>230</ele></trkpt>
<trkpt lat="51.71814" lon="8.82661"><ele>231</ele></trkpt>
<trkpt lat="51.71805" lon="8.82642"><ele>232</ele></trkpt>
<trkpt lat="51.71805" lon="8.82613"><ele>232</ele></trkpt>
<trkpt lat="51.72771" lon="8.82361"><ele>196</ele></trkpt>
<trkpt lat="51.72749" lon="8.82169"><ele>190</ele></trkpt>
<trkpt lat="51.72740" lon="8.82142"><ele>189</ele></trkpt>
<trkpt lat="51.72713" lon="8.82087"><ele>185</ele></trkpt>
<trkpt lat="51.72701" lon="8.82046"><ele>182</ele></trkpt>
<trkpt lat="51.72676" lon="8.81266"><ele>178</ele></trkpt>
<trkpt lat="51.72704" lon="8.81241"><ele>176</ele></trkpt>
<trkpt lat="51.72979" lon="8.80958"><ele>164</ele></trkpt>
<trkpt lat="51.72933" lon="8.80911"><ele>164</ele></trkpt>
<trkpt lat="51.72904" lon="8.80896"><ele>166</ele></trkpt>
<trkpt lat="51.72893" lon="8.80886"><ele>167</ele></trkpt>
<trkpt lat="51.72771" lon="8.80702"><ele>170</ele></trkpt>
<trkpt lat="51.72689" lon="8.80561"><ele>170</ele></trkpt>
<trkpt lat="51.72585" lon="8.80395"><ele>168</ele></trkpt>
<trkpt lat="51.72562" lon="8.80318"><ele>166</ele></trkpt>
<trkpt lat="51.72521" lon="8.80261"><ele>166</ele></trkpt>
<trkpt lat="51.72454" lon="8.80196"><ele>166</ele></trkpt>
<trkpt lat="51.72447" lon="8.80197"><ele>166</ele></trkpt>
<trkpt lat="51.72386" lon="8.80098"><ele>166</ele></trkpt>
<trkpt lat="51.72384" lon="8.80050"><ele>164</ele></trkpt>
<trkpt lat="51.72378" lon="8.80037"><ele>164</ele></trkpt>
<trkpt lat="51.72157" lon="8.79674"><ele>157</ele></trkpt>
<trkpt lat="51.72122" lon="8.79622"><ele>154</ele></trkpt>
<trkpt lat="51.72100" lon="8.79607"><ele>153</ele></trkpt>
<trkpt lat="51.72089" lon="8.79589"><ele>152</ele></trkpt>
<trkpt lat="51.72092" lon="8.79573"><ele>153</ele></trkpt>
<trkpt lat="51.72098" lon="8.79559"><ele>154</ele></trkpt>
<trkpt lat="51.72142" lon="8.79504"><ele>149</ele></trkpt>
<trkpt lat="51.72275" lon="8.79294"><ele>146</ele></trkpt>
<trkpt lat="51.72294" lon="8.79252"><ele>144</ele></trkpt>
<trkpt lat="51.72397" lon="8.79092"><ele>141</ele></trkpt>
<trkpt lat="51.72502" lon="8.78909"><ele>137</ele></trkpt>
<trkpt lat="51.72398" lon="8.78593"><ele>134</ele></trkpt>
<trkpt lat="51.72399" lon="8.78578"><ele>133</ele></trkpt>
<trkpt lat="51.72391" lon="8.78568"><ele>133</ele></trkpt>
<trkpt lat="51.72115" lon="8.77738"><ele>129</ele></trkpt>
<trkpt lat="51.72045" lon="8.77510"><ele>128</ele></trkpt>
<trkpt lat="51.71946" lon="8.77151"><ele>128</ele></trkpt>
<trkpt lat="51.71928" lon="8.77078"><ele>128</ele></trkpt>
<trkpt lat="51.71916" lon="8.77062"><ele>128</ele></trkpt>
<trkpt lat="51.71877" lon="8.77038"><ele>129</ele></trkpt>
<trkpt lat="51.71968" lon="8.76679"><ele>120</ele></trkpt>
<trkpt lat="51.71982" lon="8.76658"><ele>121</ele></trkpt>
<trkpt lat="51.71994" lon="8.76654"><ele>120</ele></trkpt>
<trkpt lat="51.72007" lon="8.76585"><ele>120</ele></trkpt>
<trkpt lat="51.72023" lon="8.76462"><ele>118</ele></trkpt>
<trkpt lat="51.71999" lon="8.76464"><ele>119</ele></trkpt>
<trkpt lat="51.71981" lon="8.76457"><ele>120</ele></trkpt>
<trkpt lat="51.71992" lon="8.76370"><ele>120</ele></trkpt>
<trkpt lat="51.71975" lon="8.76294"><ele>120</ele></trkpt>
<trkpt lat="51.71955" lon="8.76233"><ele>120</ele></trkpt>
<trkpt lat="51.71989" lon="8.76210"><ele>118</ele></trkpt>
<trkpt lat="51.72032" lon="8.76175"><ele>117</ele></trkpt>
<trkpt lat="51.72026" lon="8.76155"><ele>116</ele></trkpt>
<trkpt lat="51.72042" lon="8.76144"><ele>116</ele></trkpt>
<trkpt lat="51.72007" lon="8.76007"><ele>116</ele></trkpt>
<trkpt lat="51.71935" lon="8.75828"><ele>117</ele></trkpt>
<trkpt lat="51.71896" lon="8.75847"><ele>119</ele></trkpt>
<trkpt lat="51.71886" lon="8.75773"><ele>120</ele></trkpt>
<trkpt lat="51.71886" lon="8.75756"><ele>120</ele></trkpt>
<trkpt lat="51.71891" lon="8.75753"><ele>120</ele></trkpt>
    </trkseg>
  </trk>
</gpx>
