<?xml version="1.0" encoding="UTF-8"?>
<gpx version="1.1" creator="Gravel Kompass" xmlns="http://www.topografix.com/GPX/1/1">
  <metadata><name>München–Haltern am See: Romantische Straße, Taubertal, Main, Lahn &amp; Ruhr – Etappe 7</name></metadata>
  <trk>
    <name>Etappe 7: Meschede – Haltern am See</name>
    <trkseg>
<trkpt lat="51.34355" lon="8.28617"><ele>280</ele></trkpt>
<trkpt lat="51.34357" lon="8.28650"><ele>282</ele></trkpt>
<trkpt lat="51.34389" lon="8.28646"><ele>278</ele></trkpt>
<trkpt lat="51.34440" lon="8.28658"><ele>274</ele></trkpt>
<trkpt lat="51.34467" lon="8.28660"><ele>272</ele></trkpt>
<trkpt lat="51.34507" lon="8.28651"><ele>267</ele></trkpt>
<trkpt lat="51.34520" lon="8.28768"><ele>269</ele></trkpt>
<trkpt lat="51.34538" lon="8.28853"><ele>270</ele></trkpt>
<trkpt lat="51.34544" lon="8.28828"><ele>268</ele></trkpt>
<trkpt lat="51.34542" lon="8.28784"><ele>266</ele></trkpt>
<trkpt lat="51.34545" lon="8.28760"><ele>265</ele></trkpt>
<trkpt lat="51.34596" lon="8.28650"><ele>262</ele></trkpt>
<trkpt lat="51.34604" lon="8.28626"><ele>261</ele></trkpt>
<trkpt lat="51.34606" lon="8.28461"><ele>260</ele></trkpt>
<trkpt lat="51.34613" lon="8.28455"><ele>260</ele></trkpt>
<trkpt lat="51.34632" lon="8.28456"><ele>260</ele></trkpt>
<trkpt lat="51.34631" lon="8.28438"><ele>260</ele></trkpt>
<trkpt lat="51.34634" lon="8.28408"><ele>259</ele></trkpt>
<trkpt lat="51.34650" lon="8.28371"><ele>259</ele></trkpt>
<trkpt lat="51.34660" lon="8.28360"><ele>259</ele></trkpt>
<trkpt lat="51.34806" lon="8.28272"><ele>259</ele></trkpt>
<trkpt lat="51.34805" lon="8.28230"><ele>260</ele></trkpt>
<trkpt lat="51.34808" lon="8.28218"><ele>259</ele></trkpt>
<trkpt lat="51.34812" lon="8.28225"><ele>259</ele></trkpt>
<trkpt lat="51.34877" lon="8.28185"><ele>260</ele></trkpt>
<trkpt lat="51.34880" lon="8.28134"><ele>259</ele></trkpt>
<trkpt lat="51.34907" lon="8.27966"><ele>260</ele></trkpt>
<trkpt lat="51.34897" lon="8.27966"><ele>260</ele></trkpt>
<trkpt lat="51.34857" lon="8.27950"><ele>259</ele></trkpt>
<trkpt lat="51.34815" lon="8.27948"><ele>260</ele></trkpt>
<trkpt lat="51.34793" lon="8.27943"><ele>260</ele></trkpt>
<trkpt lat="51.34775" lon="8.27932"><ele>260</ele></trkpt>
<trkpt lat="51.34740" lon="8.27894"><ele>259</ele></trkpt>
<trkpt lat="51.34748" lon="8.27876"><ele>259</ele></trkpt>
<trkpt lat="51.34749" lon="8.27863"><ele>259</ele></trkpt>
<trkpt lat="51.34769" lon="8.27842"><ele>257</ele></trkpt>
<trkpt lat="51.34848" lon="8.27662"><ele>258</ele></trkpt>
<trkpt lat="51.34855" lon="8.27617"><ele>258</ele></trkpt>
<trkpt lat="51.34871" lon="8.27567"><ele>259</ele></trkpt>
<trkpt lat="51.34888" lon="8.27496"><ele>257</ele></trkpt>
<trkpt lat="51.34900" lon="8.27424"><ele>257</ele></trkpt>
<trkpt lat="51.34906" lon="8.27317"><ele>256</ele></trkpt>
<trkpt lat="51.34895" lon="8.27315"><ele>256</ele></trkpt>
<trkpt lat="51.34913" lon="8.27100"><ele>257</ele></trkpt>
<trkpt lat="51.34922" lon="8.26949"><ele>257</ele></trkpt>
<trkpt lat="51.34907" lon="8.26587"><ele>256</ele></trkpt>
<trkpt lat="51.34900" lon="8.26340"><ele>256</ele></trkpt>
<trkpt lat="51.34895" lon="8.26295"><ele>256</ele></trkpt>
<trkpt lat="51.34890" lon="8.26178"><ele>255</ele></trkpt>
<trkpt lat="51.34893" lon="8.26125"><ele>256</ele></trkpt>
<trkpt lat="51.34899" lon="8.26103"><ele>256</ele></trkpt>
<trkpt lat="51.34924" lon="8.26067"><ele>256</ele></trkpt>
<trkpt lat="51.34975" lon="8.26061"><ele>257</ele></trkpt>
<trkpt lat="51.34996" lon="8.26054"><ele>257</ele></trkpt>
<trkpt lat="51.35007" lon="8.26044"><ele>257</ele></trkpt>
<trkpt lat="51.35019" lon="8.26015"><ele>257</ele></trkpt>
<trkpt lat="51.35024" lon="8.25982"><ele>256</ele></trkpt>
<trkpt lat="51.35015" lon="8.25705"><ele>258</ele></trkpt>
<trkpt lat="51.35025" lon="8.25685"><ele>258</ele></trkpt>
<trkpt lat="51.35047" lon="8.25612"><ele>258</ele></trkpt>
<trkpt lat="51.35097" lon="8.25486"><ele>258</ele></trkpt>
<trkpt lat="51.35117" lon="8.25405"><ele>259</ele></trkpt>
<trkpt lat="51.35156" lon="8.25292"><ele>260</ele></trkpt>
<trkpt lat="51.35250" lon="8.25054"><ele>256</ele></trkpt>
<trkpt lat="51.35262" lon="8.25038"><ele>256</ele></trkpt>
<trkpt lat="51.35275" lon="8.25039"><ele>256</ele></trkpt>
<trkpt lat="51.35283" lon="8.25021"><ele>256</ele></trkpt>
<trkpt lat="51.35275" lon="8.24989"><ele>255</ele></trkpt>
<trkpt lat="51.35277" lon="8.24965"><ele>255</ele></trkpt>
<trkpt lat="51.35305" lon="8.24916"><ele>254</ele></trkpt>
<trkpt lat="51.35348" lon="8.24786"><ele>254</ele></trkpt>
<trkpt lat="51.35384" lon="8.24675"><ele>254</ele></trkpt>
<trkpt lat="51.35437" lon="8.24476"><ele>256</ele></trkpt>
<trkpt lat="51.35470" lon="8.24318"><ele>257</ele></trkpt>
<trkpt lat="51.35493" lon="8.24174"><ele>256</ele></trkpt>
<trkpt lat="51.35512" lon="8.23984"><ele>256</ele></trkpt>
<trkpt lat="51.35520" lon="8.23853"><ele>258</ele></trkpt>
<trkpt lat="51.35523" lon="8.23766"><ele>259</ele></trkpt>
<trkpt lat="51.35516" lon="8.23630"><ele>261</ele></trkpt>
<trkpt lat="51.35356" lon="8.22125"><ele>278</ele></trkpt>
<trkpt lat="51.35339" lon="8.22020"><ele>274</ele></trkpt>
<trkpt lat="51.35331" lon="8.21894"><ele>271</ele></trkpt>
<trkpt lat="51.35332" lon="8.21841"><ele>269</ele></trkpt>
<trkpt lat="51.35328" lon="8.21816"><ele>268</ele></trkpt>
<trkpt lat="51.35319" lon="8.21609"><ele>267</ele></trkpt>
<trkpt lat="51.35311" lon="8.21609"><ele>266</ele></trkpt>
<trkpt lat="51.35306" lon="8.21602"><ele>266</ele></trkpt>
<trkpt lat="51.35300" lon="8.21429"><ele>264</ele></trkpt>
<trkpt lat="51.35294" lon="8.21340"><ele>265</ele></trkpt>
<trkpt lat="51.35267" lon="8.20757"><ele>264</ele></trkpt>
<trkpt lat="51.35267" lon="8.20704"><ele>262</ele></trkpt>
<trkpt lat="51.35259" lon="8.20686"><ele>262</ele></trkpt>
<trkpt lat="51.35258" lon="8.20665"><ele>262</ele></trkpt>
<trkpt lat="51.35259" lon="8.20646"><ele>261</ele></trkpt>
<trkpt lat="51.35265" lon="8.20639"><ele>261</ele></trkpt>
<trkpt lat="51.35269" lon="8.20625"><ele>261</ele></trkpt>
<trkpt lat="51.35276" lon="8.20554"><ele>260</ele></trkpt>
<trkpt lat="51.35275" lon="8.20532"><ele>260</ele></trkpt>
<trkpt lat="51.35283" lon="8.20264"><ele>271</ele></trkpt>
<trkpt lat="51.35290" lon="8.20216"><ele>272</ele></trkpt>
<trkpt lat="51.35299" lon="8.20175"><ele>273</ele></trkpt>
<trkpt lat="51.35318" lon="8.20116"><ele>277</ele></trkpt>
<trkpt lat="51.35377" lon="8.19969"><ele>280</ele></trkpt>
<trkpt lat="51.35391" lon="8.19946"><ele>282</ele></trkpt>
<trkpt lat="51.35402" lon="8.19915"><ele>281</ele></trkpt>
<trkpt lat="51.35437" lon="8.19847"><ele>282</ele></trkpt>
<trkpt lat="51.35909" lon="8.18801"><ele>266</ele></trkpt>
<trkpt lat="51.35921" lon="8.18765"><ele>266</ele></trkpt>
<trkpt lat="51.35922" lon="8.18749"><ele>266</ele></trkpt>
<trkpt lat="51.35930" lon="8.18742"><ele>266</ele></trkpt>
<trkpt lat="51.35944" lon="8.18720"><ele>270</ele></trkpt>
<trkpt lat="51.35978" lon="8.18647"><ele>263</ele></trkpt>
<trkpt lat="51.36123" lon="8.18302"><ele>253</ele></trkpt>
<trkpt lat="51.36148" lon="8.18225"><ele>250</ele></trkpt>
<trkpt lat="51.36243" lon="8.17982"><ele>243</ele></trkpt>
<trkpt lat="51.36284" lon="8.17904"><ele>243</ele></trkpt>
<trkpt lat="51.36385" lon="8.17653"><ele>238</ele></trkpt>
<trkpt lat="51.36390" lon="8.17657"><ele>238</ele></trkpt>
<trkpt lat="51.36673" lon="8.16952"><ele>232</ele></trkpt>
<trkpt lat="51.36712" lon="8.16888"><ele>231</ele></trkpt>
<trkpt lat="51.36753" lon="8.16849"><ele>232</ele></trkpt>
<trkpt lat="51.36775" lon="8.16836"><ele>232</ele></trkpt>
<trkpt lat="51.36861" lon="8.16805"><ele>230</ele></trkpt>
<trkpt lat="51.36899" lon="8.16801"><ele>232</ele></trkpt>
<trkpt lat="51.36901" lon="8.16787"><ele>231</ele></trkpt>
<trkpt lat="51.36907" lon="8.16780"><ele>231</ele></trkpt>
<trkpt lat="51.37013" lon="8.16767"><ele>231</ele></trkpt>
<trkpt lat="51.37032" lon="8.16772"><ele>230</ele></trkpt>
<trkpt lat="51.37084" lon="8.16774"><ele>229</ele></trkpt>
<trkpt lat="51.37166" lon="8.16769"><ele>231</ele></trkpt>
<trkpt lat="51.37176" lon="8.16784"><ele>234</ele></trkpt>
<trkpt lat="51.37187" lon="8.16819"><ele>232</ele></trkpt>
<trkpt lat="51.37204" lon="8.16856"><ele>234</ele></trkpt>
<trkpt lat="51.37219" lon="8.16913"><ele>233</ele></trkpt>
<trkpt lat="51.37235" lon="8.16985"><ele>232</ele></trkpt>
<trkpt lat="51.37243" lon="8.17056"><ele>231</ele></trkpt>
<trkpt lat="51.37255" lon="8.17104"><ele>232</ele></trkpt>
<trkpt lat="51.37259" lon="8.17171"><ele>232</ele></trkpt>
<trkpt lat="51.37265" lon="8.17227"><ele>235</ele></trkpt>
<trkpt lat="51.37261" lon="8.17295"><ele>233</ele></trkpt>
<trkpt lat="51.37262" lon="8.17392"><ele>229</ele></trkpt>
<trkpt lat="51.37285" lon="8.17477"><ele>233</ele></trkpt>
<trkpt lat="51.37313" lon="8.17534"><ele>234</ele></trkpt>
<trkpt lat="51.37341" lon="8.17544"><ele>237</ele></trkpt>
<trkpt lat="51.37362" lon="8.17541"><ele>239</ele></trkpt>
<trkpt lat="51.37381" lon="8.17568"><ele>238</ele></trkpt>
<trkpt lat="51.37403" lon="8.17581"><ele>238</ele></trkpt>
<trkpt lat="51.37462" lon="8.17597"><ele>238</ele></trkpt>
<trkpt lat="51.37484" lon="8.17592"><ele>237</ele></trkpt>
<trkpt lat="51.37500" lon="8.17579"><ele>237</ele></trkpt>
<trkpt lat="51.37516" lon="8.17560"><ele>237</ele></trkpt>
<trkpt lat="51.37567" lon="8.17479"><ele>234</ele></trkpt>
<trkpt lat="51.37614" lon="8.17391"><ele>232</ele></trkpt>
<trkpt lat="51.37660" lon="8.17249"><ele>231</ele></trkpt>
<trkpt lat="51.37776" lon="8.16937"><ele>226</ele></trkpt>
<trkpt lat="51.37806" lon="8.16922"><ele>226</ele></trkpt>
<trkpt lat="51.37843" lon="8.16915"><ele>226</ele></trkpt>
<trkpt lat="51.37947" lon="8.16953"><ele>226</ele></trkpt>
<trkpt lat="51.37962" lon="8.16950"><ele>227</ele></trkpt>
<trkpt lat="51.37976" lon="8.16937"><ele>228</ele></trkpt>
<trkpt lat="51.37957" lon="8.16894"><ele>224</ele></trkpt>
<trkpt lat="51.37953" lon="8.16876"><ele>223</ele></trkpt>
<trkpt lat="51.37974" lon="8.16769"><ele>225</ele></trkpt>
<trkpt lat="51.37985" lon="8.16620"><ele>225</ele></trkpt>
<trkpt lat="51.37995" lon="8.16564"><ele>225</ele></trkpt>
<trkpt lat="51.38000" lon="8.16517"><ele>225</ele></trkpt>
<trkpt lat="51.38008" lon="8.16266"><ele>232</ele></trkpt>
<trkpt lat="51.38004" lon="8.16220"><ele>235</ele></trkpt>
<trkpt lat="51.37991" lon="8.16176"><ele>237</ele></trkpt>
<trkpt lat="51.38051" lon="8.16105"><ele>234</ele></trkpt>
<trkpt lat="51.38077" lon="8.16053"><ele>232</ele></trkpt>
<trkpt lat="51.38086" lon="8.16019"><ele>230</ele></trkpt>
<trkpt lat="51.38135" lon="8.15697"><ele>242</ele></trkpt>
<trkpt lat="51.38153" lon="8.15619"><ele>248</ele></trkpt>
<trkpt lat="51.38168" lon="8.15579"><ele>248</ele></trkpt>
<trkpt lat="51.38188" lon="8.15550"><ele>250</ele></trkpt>
<trkpt lat="51.38202" lon="8.15538"><ele>252</ele></trkpt>
<trkpt lat="51.38553" lon="8.15324"><ele>266</ele></trkpt>
<trkpt lat="51.38706" lon="8.15224"><ele>262</ele></trkpt>
<trkpt lat="51.39037" lon="8.14870"><ele>247</ele></trkpt>
<trkpt lat="51.39070" lon="8.14830"><ele>246</ele></trkpt>
<trkpt lat="51.39095" lon="8.14792"><ele>245</ele></trkpt>
<trkpt lat="51.39131" lon="8.14722"><ele>242</ele></trkpt>
<trkpt lat="51.39166" lon="8.14639"><ele>240</ele></trkpt>
<trkpt lat="51.39182" lon="8.14585"><ele>238</ele></trkpt>
<trkpt lat="51.39196" lon="8.14520"><ele>236</ele></trkpt>
<trkpt lat="51.39253" lon="8.13994"><ele>223</ele></trkpt>
<trkpt lat="51.39258" lon="8.13926"><ele>222</ele></trkpt>
<trkpt lat="51.39237" lon="8.13794"><ele>219</ele></trkpt>
<trkpt lat="51.39125" lon="8.13180"><ele>210</ele></trkpt>
<trkpt lat="51.39119" lon="8.13182"><ele>210</ele></trkpt>
<trkpt lat="51.39066" lon="8.12997"><ele>210</ele></trkpt>
<trkpt lat="51.38997" lon="8.12895"><ele>208</ele></trkpt>
<trkpt lat="51.38968" lon="8.12838"><ele>208</ele></trkpt>
<trkpt lat="51.38954" lon="8.12804"><ele>208</ele></trkpt>
<trkpt lat="51.38936" lon="8.12736"><ele>207</ele></trkpt>
<trkpt lat="51.38928" lon="8.12659"><ele>208</ele></trkpt>
<trkpt lat="51.38930" lon="8.12586"><ele>207</ele></trkpt>
<trkpt lat="51.38943" lon="8.12520"><ele>206</ele></trkpt>
<trkpt lat="51.39128" lon="8.11942"><ele>204</ele></trkpt>
<trkpt lat="51.39174" lon="8.11829"><ele>205</ele></trkpt>
<trkpt lat="51.39158" lon="8.11724"><ele>206</ele></trkpt>
<trkpt lat="51.39154" lon="8.11712"><ele>206</ele></trkpt>
<trkpt lat="51.39080" lon="8.11601"><ele>216</ele></trkpt>
<trkpt lat="51.39082" lon="8.11580"><ele>217</ele></trkpt>
<trkpt lat="51.39088" lon="8.11563"><ele>217</ele></trkpt>
<trkpt lat="51.39130" lon="8.11458"><ele>220</ele></trkpt>
<trkpt lat="51.39147" lon="8.11388"><ele>223</ele></trkpt>
<trkpt lat="51.39145" lon="8.11314"><ele>226</ele></trkpt>
<trkpt lat="51.39116" lon="8.11101"><ele>232</ele></trkpt>
<trkpt lat="51.39121" lon="8.11087"><ele>232</ele></trkpt>
<trkpt lat="51.39211" lon="8.11051"><ele>218</ele></trkpt>
<trkpt lat="51.39221" lon="8.11041"><ele>218</ele></trkpt>
<trkpt lat="51.39232" lon="8.11014"><ele>216</ele></trkpt>
<trkpt lat="51.39238" lon="8.10967"><ele>215</ele></trkpt>
<trkpt lat="51.39251" lon="8.10958"><ele>213</ele></trkpt>
<trkpt lat="51.39314" lon="8.10940"><ele>210</ele></trkpt>
<trkpt lat="51.39372" lon="8.10929"><ele>207</ele></trkpt>
<trkpt lat="51.39442" lon="8.10977"><ele>203</ele></trkpt>
<trkpt lat="51.39447" lon="8.10945"><ele>204</ele></trkpt>
<trkpt lat="51.39432" lon="8.10917"><ele>206</ele></trkpt>
<trkpt lat="51.39429" lon="8.10895"><ele>206</ele></trkpt>
<trkpt lat="51.39446" lon="8.10811"><ele>205</ele></trkpt>
<trkpt lat="51.39497" lon="8.10462"><ele>201</ele></trkpt>
<trkpt lat="51.39507" lon="8.10448"><ele>201</ele></trkpt>
<trkpt lat="51.39532" lon="8.10440"><ele>201</ele></trkpt>
<trkpt lat="51.39631" lon="8.10347"><ele>204</ele></trkpt>
<trkpt lat="51.39602" lon="8.10175"><ele>203</ele></trkpt>
<trkpt lat="51.39593" lon="8.10103"><ele>202</ele></trkpt>
<trkpt lat="51.39586" lon="8.10002"><ele>204</ele></trkpt>
<trkpt lat="51.39589" lon="8.09844"><ele>204</ele></trkpt>
<trkpt lat="51.39605" lon="8.09717"><ele>210</ele></trkpt>
<trkpt lat="51.39621" lon="8.09630"><ele>202</ele></trkpt>
<trkpt lat="51.39648" lon="8.09531"><ele>202</ele></trkpt>
<trkpt lat="51.39677" lon="8.09458"><ele>202</ele></trkpt>
<trkpt lat="51.39732" lon="8.09345"><ele>203</ele></trkpt>
<trkpt lat="51.39834" lon="8.09152"><ele>203</ele></trkpt>
<trkpt lat="51.40045" lon="8.08886"><ele>202</ele></trkpt>
<trkpt lat="51.40055" lon="8.08875"><ele>203</ele></trkpt>
<trkpt lat="51.40062" lon="8.08873"><ele>204</ele></trkpt>
<trkpt lat="51.40120" lon="8.08796"><ele>203</ele></trkpt>
<trkpt lat="51.40149" lon="8.08752"><ele>203</ele></trkpt>
<trkpt lat="51.40193" lon="8.08665"><ele>203</ele></trkpt>
<trkpt lat="51.40209" lon="8.08645"><ele>203</ele></trkpt>
<trkpt lat="51.40247" lon="8.08608"><ele>202</ele></trkpt>
<trkpt lat="51.40263" lon="8.08604"><ele>203</ele></trkpt>
<trkpt lat="51.40292" lon="8.08575"><ele>203</ele></trkpt>
<trkpt lat="51.40386" lon="8.08432"><ele>204</ele></trkpt>
<trkpt lat="51.40406" lon="8.08412"><ele>204</ele></trkpt>
<trkpt lat="51.40426" lon="8.08417"><ele>204</ele></trkpt>
<trkpt lat="51.40429" lon="8.08413"><ele>205</ele></trkpt>
<trkpt lat="51.40438" lon="8.08402"><ele>206</ele></trkpt>
<trkpt lat="51.40437" lon="8.08368"><ele>206</ele></trkpt>
<trkpt lat="51.40624" lon="8.08140"><ele>204</ele></trkpt>
<trkpt lat="51.40721" lon="8.08000"><ele>202</ele></trkpt>
<trkpt lat="51.40805" lon="8.07892"><ele>200</ele></trkpt>
<trkpt lat="51.40814" lon="8.07875"><ele>200</ele></trkpt>
<trkpt lat="51.40883" lon="8.07797"><ele>201</ele></trkpt>
<trkpt lat="51.40919" lon="8.07740"><ele>200</ele></trkpt>
<trkpt lat="51.40939" lon="8.07685"><ele>199</ele></trkpt>
<trkpt lat="51.40949" lon="8.07639"><ele>199</ele></trkpt>
<trkpt lat="51.40956" lon="8.07574"><ele>198</ele></trkpt>
<trkpt lat="51.40955" lon="8.07491"><ele>199</ele></trkpt>
<trkpt lat="51.40950" lon="8.07429"><ele>198</ele></trkpt>
<trkpt lat="51.40921" lon="8.07128"><ele>197</ele></trkpt>
<trkpt lat="51.40900" lon="8.06991"><ele>196</ele></trkpt>
<trkpt lat="51.40877" lon="8.06884"><ele>196</ele></trkpt>
<trkpt lat="51.40844" lon="8.06781"><ele>196</ele></trkpt>
<trkpt lat="51.40794" lon="8.06667"><ele>198</ele></trkpt>
<trkpt lat="51.40735" lon="8.06568"><ele>197</ele></trkpt>
<trkpt lat="51.40639" lon="8.06433"><ele>196</ele></trkpt>
<trkpt lat="51.40622" lon="8.06425"><ele>195</ele></trkpt>
<trkpt lat="51.40566" lon="8.06366"><ele>194</ele></trkpt>
<trkpt lat="51.40524" lon="8.06334"><ele>194</ele></trkpt>
<trkpt lat="51.40486" lon="8.06313"><ele>195</ele></trkpt>
<trkpt lat="51.40415" lon="8.06289"><ele>194</ele></trkpt>
<trkpt lat="51.40379" lon="8.06286"><ele>194</ele></trkpt>
<trkpt lat="51.40341" lon="8.06294"><ele>194</ele></trkpt>
<trkpt lat="51.40336" lon="8.06287"><ele>195</ele></trkpt>
<trkpt lat="51.40324" lon="8.06284"><ele>196</ele></trkpt>
<trkpt lat="51.40301" lon="8.06287"><ele>197</ele></trkpt>
<trkpt lat="51.40268" lon="8.06300"><ele>198</ele></trkpt>
<trkpt lat="51.40253" lon="8.06300"><ele>199</ele></trkpt>
<trkpt lat="51.40243" lon="8.06307"><ele>200</ele></trkpt>
<trkpt lat="51.40233" lon="8.06304"><ele>202</ele></trkpt>
<trkpt lat="51.40084" lon="8.06339"><ele>225</ele></trkpt>
<trkpt lat="51.40060" lon="8.06334"><ele>226</ele></trkpt>
<trkpt lat="51.40046" lon="8.06326"><ele>227</ele></trkpt>
<trkpt lat="51.40018" lon="8.06303"><ele>230</ele></trkpt>
<trkpt lat="51.39999" lon="8.06281"><ele>229</ele></trkpt>
<trkpt lat="51.39956" lon="8.06285"><ele>231</ele></trkpt>
<trkpt lat="51.39939" lon="8.06289"><ele>231</ele></trkpt>
<trkpt lat="51.39838" lon="8.06341"><ele>226</ele></trkpt>
<trkpt lat="51.39798" lon="8.06348"><ele>220</ele></trkpt>
<trkpt lat="51.39746" lon="8.06402"><ele>212</ele></trkpt>
<trkpt lat="51.39718" lon="8.06417"><ele>208</ele></trkpt>
<trkpt lat="51.39717" lon="8.06348"><ele>205</ele></trkpt>
<trkpt lat="51.39706" lon="8.06231"><ele>194</ele></trkpt>
<trkpt lat="51.39700" lon="8.06211"><ele>192</ele></trkpt>
<trkpt lat="51.39717" lon="8.06184"><ele>190</ele></trkpt>
<trkpt lat="51.39742" lon="8.06169"><ele>189</ele></trkpt>
<trkpt lat="51.39758" lon="8.06152"><ele>188</ele></trkpt>
<trkpt lat="51.39912" lon="8.06037"><ele>184</ele></trkpt>
<trkpt lat="51.39952" lon="8.06002"><ele>182</ele></trkpt>
<trkpt lat="51.39952" lon="8.05983"><ele>181</ele></trkpt>
<trkpt lat="51.39982" lon="8.05773"><ele>180</ele></trkpt>
<trkpt lat="51.40043" lon="8.05762"><ele>180</ele></trkpt>
<trkpt lat="51.40124" lon="8.05729"><ele>180</ele></trkpt>
<trkpt lat="51.40141" lon="8.05843"><ele>178</ele></trkpt>
<trkpt lat="51.40158" lon="8.05837"><ele>179</ele></trkpt>
<trkpt lat="51.40333" lon="8.05716"><ele>179</ele></trkpt>
<trkpt lat="51.40358" lon="8.05711"><ele>188</ele></trkpt>
<trkpt lat="51.40398" lon="8.05689"><ele>178</ele></trkpt>
<trkpt lat="51.40463" lon="8.05665"><ele>176</ele></trkpt>
<trkpt lat="51.40498" lon="8.05644"><ele>176</ele></trkpt>
<trkpt lat="51.40571" lon="8.05586"><ele>175</ele></trkpt>
<trkpt lat="51.40620" lon="8.05547"><ele>175</ele></trkpt>
<trkpt lat="51.40664" lon="8.05504"><ele>175</ele></trkpt>
<trkpt lat="51.40691" lon="8.05472"><ele>177</ele></trkpt>
<trkpt lat="51.40709" lon="8.05442"><ele>175</ele></trkpt>
<trkpt lat="51.40748" lon="8.05393"><ele>175</ele></trkpt>
<trkpt lat="51.40816" lon="8.05311"><ele>175</ele></trkpt>
<trkpt lat="51.40861" lon="8.05267"><ele>176</ele></trkpt>
<trkpt lat="51.40940" lon="8.05208"><ele>176</ele></trkpt>
<trkpt lat="51.41055" lon="8.05161"><ele>175</ele></trkpt>
<trkpt lat="51.41079" lon="8.05162"><ele>176</ele></trkpt>
<trkpt lat="51.41085" lon="8.05158"><ele>176</ele></trkpt>
<trkpt lat="51.41093" lon="8.05149"><ele>176</ele></trkpt>
<trkpt lat="51.41097" lon="8.05129"><ele>176</ele></trkpt>
<trkpt lat="51.41085" lon="8.05101"><ele>176</ele></trkpt>
<trkpt lat="51.41073" lon="8.05116"><ele>177</ele></trkpt>
<trkpt lat="51.41073" lon="8.05128"><ele>177</ele></trkpt>
<trkpt lat="51.41077" lon="8.05137"><ele>177</ele></trkpt>
<trkpt lat="51.41111" lon="8.05190"><ele>178</ele></trkpt>
<trkpt lat="51.41154" lon="8.05284"><ele>178</ele></trkpt>
<trkpt lat="51.41162" lon="8.05281"><ele>178</ele></trkpt>
<trkpt lat="51.41181" lon="8.05300"><ele>178</ele></trkpt>
<trkpt lat="51.41186" lon="8.05298"><ele>178</ele></trkpt>
<trkpt lat="51.41236" lon="8.05233"><ele>176</ele></trkpt>
<trkpt lat="51.41296" lon="8.05140"><ele>175</ele></trkpt>
<trkpt lat="51.41335" lon="8.05100"><ele>175</ele></trkpt>
<trkpt lat="51.41380" lon="8.05033"><ele>175</ele></trkpt>
<trkpt lat="51.41453" lon="8.04896"><ele>174</ele></trkpt>
<trkpt lat="51.41479" lon="8.04853"><ele>175</ele></trkpt>
<trkpt lat="51.41588" lon="8.04635"><ele>175</ele></trkpt>
<trkpt lat="51.41606" lon="8.04591"><ele>175</ele></trkpt>
<trkpt lat="51.41630" lon="8.04514"><ele>174</ele></trkpt>
<trkpt lat="51.41661" lon="8.04447"><ele>175</ele></trkpt>
<trkpt lat="51.41640" lon="8.04424"><ele>174</ele></trkpt>
<trkpt lat="51.41633" lon="8.04410"><ele>174</ele></trkpt>
<trkpt lat="51.41626" lon="8.04389"><ele>173</ele></trkpt>
<trkpt lat="51.41626" lon="8.04372"><ele>173</ele></trkpt>
<trkpt lat="51.41629" lon="8.04361"><ele>174</ele></trkpt>
<trkpt lat="51.41643" lon="8.04344"><ele>174</ele></trkpt>
<trkpt lat="51.41646" lon="8.04334"><ele>174</ele></trkpt>
<trkpt lat="51.41660" lon="8.04234"><ele>173</ele></trkpt>
<trkpt lat="51.41665" lon="8.04168"><ele>174</ele></trkpt>
<trkpt lat="51.41685" lon="8.04028"><ele>173</ele></trkpt>
<trkpt lat="51.41708" lon="8.03904"><ele>172</ele></trkpt>
<trkpt lat="51.41743" lon="8.03752"><ele>173</ele></trkpt>
<trkpt lat="51.41759" lon="8.03709"><ele>172</ele></trkpt>
<trkpt lat="51.41853" lon="8.03506"><ele>172</ele></trkpt>
<trkpt lat="51.41871" lon="8.03437"><ele>171</ele></trkpt>
<trkpt lat="51.41906" lon="8.03389"><ele>172</ele></trkpt>
<trkpt lat="51.41967" lon="8.03261"><ele>172</ele></trkpt>
<trkpt lat="51.41965" lon="8.03207"><ele>171</ele></trkpt>
<trkpt lat="51.41987" lon="8.03112"><ele>172</ele></trkpt>
<trkpt lat="51.41999" lon="8.02976"><ele>169</ele></trkpt>
<trkpt lat="51.41988" lon="8.02853"><ele>168</ele></trkpt>
<trkpt lat="51.41993" lon="8.02793"><ele>169</ele></trkpt>
<trkpt lat="51.41992" lon="8.02735"><ele>169</ele></trkpt>
<trkpt lat="51.41969" lon="8.02631"><ele>169</ele></trkpt>
<trkpt lat="51.41971" lon="8.02569"><ele>168</ele></trkpt>
<trkpt lat="51.41978" lon="8.02536"><ele>168</ele></trkpt>
<trkpt lat="51.41984" lon="8.02520"><ele>168</ele></trkpt>
<trkpt lat="51.41995" lon="8.02506"><ele>168</ele></trkpt>
<trkpt lat="51.42034" lon="8.02466"><ele>168</ele></trkpt>
<trkpt lat="51.42056" lon="8.02425"><ele>168</ele></trkpt>
<trkpt lat="51.42071" lon="8.02371"><ele>167</ele></trkpt>
<trkpt lat="51.42077" lon="8.02313"><ele>167</ele></trkpt>
<trkpt lat="51.42079" lon="8.02306"><ele>167</ele></trkpt>
<trkpt lat="51.42086" lon="8.02302"><ele>167</ele></trkpt>
<trkpt lat="51.42089" lon="8.02303"><ele>167</ele></trkpt>
<trkpt lat="51.42149" lon="8.02407"><ele>168</ele></trkpt>
<trkpt lat="51.42194" lon="8.02405"><ele>168</ele></trkpt>
<trkpt lat="51.42207" lon="8.02392"><ele>168</ele></trkpt>
<trkpt lat="51.42213" lon="8.02394"><ele>168</ele></trkpt>
<trkpt lat="51.42216" lon="8.02404"><ele>168</ele></trkpt>
<trkpt lat="51.42217" lon="8.02488"><ele>169</ele></trkpt>
<trkpt lat="51.42225" lon="8.02504"><ele>169</ele></trkpt>
<trkpt lat="51.42250" lon="8.02513"><ele>169</ele></trkpt>
<trkpt lat="51.42284" lon="8.02505"><ele>168</ele></trkpt>
<trkpt lat="51.42258" lon="8.02371"><ele>166</ele></trkpt>
<trkpt lat="51.42268" lon="8.02300"><ele>168</ele></trkpt>
<trkpt lat="51.42256" lon="8.02188"><ele>168</ele></trkpt>
<trkpt lat="51.42258" lon="8.02135"><ele>168</ele></trkpt>
<trkpt lat="51.42269" lon="8.01946"><ele>168</ele></trkpt>
<trkpt lat="51.42275" lon="8.01878"><ele>168</ele></trkpt>
<trkpt lat="51.42288" lon="8.01796"><ele>168</ele></trkpt>
<trkpt lat="51.42325" lon="8.01600"><ele>168</ele></trkpt>
<trkpt lat="51.42444" lon="8.01010"><ele>167</ele></trkpt>
<trkpt lat="51.42461" lon="8.00946"><ele>166</ele></trkpt>
<trkpt lat="51.42535" lon="8.00739"><ele>167</ele></trkpt>
<trkpt lat="51.42551" lon="8.00698"><ele>166</ele></trkpt>
<trkpt lat="51.42579" lon="8.00644"><ele>166</ele></trkpt>
<trkpt lat="51.42662" lon="8.00527"><ele>166</ele></trkpt>
<trkpt lat="51.42698" lon="8.00485"><ele>165</ele></trkpt>
<trkpt lat="51.42825" lon="8.00364"><ele>165</ele></trkpt>
<trkpt lat="51.42855" lon="8.00325"><ele>165</ele></trkpt>
<trkpt lat="51.42870" lon="8.00292"><ele>164</ele></trkpt>
<trkpt lat="51.42885" lon="8.00237"><ele>165</ele></trkpt>
<trkpt lat="51.42886" lon="8.00219"><ele>165</ele></trkpt>
<trkpt lat="51.42880" lon="8.00202"><ele>164</ele></trkpt>
<trkpt lat="51.42885" lon="8.00176"><ele>164</ele></trkpt>
<trkpt lat="51.42903" lon="8.00178"><ele>164</ele></trkpt>
<trkpt lat="51.42912" lon="8.00196"><ele>164</ele></trkpt>
<trkpt lat="51.42921" lon="8.00203"><ele>164</ele></trkpt>
<trkpt lat="51.43037" lon="8.00270"><ele>165</ele></trkpt>
<trkpt lat="51.43188" lon="7.99904"><ele>165</ele></trkpt>
<trkpt lat="51.43195" lon="7.99867"><ele>165</ele></trkpt>
<trkpt lat="51.43195" lon="7.99824"><ele>165</ele></trkpt>
<trkpt lat="51.43191" lon="7.99796"><ele>165</ele></trkpt>
<trkpt lat="51.43179" lon="7.99756"><ele>165</ele></trkpt>
<trkpt lat="51.43355" lon="7.99536"><ele>164</ele></trkpt>
<trkpt lat="51.43713" lon="7.99050"><ele>162</ele></trkpt>
<trkpt lat="51.43787" lon="7.98889"><ele>161</ele></trkpt>
<trkpt lat="51.43812" lon="7.98841"><ele>161</ele></trkpt>
<trkpt lat="51.43853" lon="7.98786"><ele>161</ele></trkpt>
<trkpt lat="51.43877" lon="7.98768"><ele>160</ele></trkpt>
<trkpt lat="51.43933" lon="7.98782"><ele>160</ele></trkpt>
<trkpt lat="51.43941" lon="7.98772"><ele>160</ele></trkpt>
<trkpt lat="51.43962" lon="7.98653"><ele>161</ele></trkpt>
<trkpt lat="51.43966" lon="7.98613"><ele>160</ele></trkpt>
<trkpt lat="51.43979" lon="7.98560"><ele>162</ele></trkpt>
<trkpt lat="51.44021" lon="7.98252"><ele>164</ele></trkpt>
<trkpt lat="51.44025" lon="7.98155"><ele>162</ele></trkpt>
<trkpt lat="51.44031" lon="7.98110"><ele>161</ele></trkpt>
<trkpt lat="51.44030" lon="7.98043"><ele>160</ele></trkpt>
<trkpt lat="51.44040" lon="7.97922"><ele>166</ele></trkpt>
<trkpt lat="51.44035" lon="7.97856"><ele>162</ele></trkpt>
<trkpt lat="51.44036" lon="7.97756"><ele>163</ele></trkpt>
<trkpt lat="51.44031" lon="7.97667"><ele>161</ele></trkpt>
<trkpt lat="51.44032" lon="7.97571"><ele>163</ele></trkpt>
<trkpt lat="51.44034" lon="7.97559"><ele>164</ele></trkpt>
<trkpt lat="51.44003" lon="7.97308"><ele>159</ele></trkpt>
<trkpt lat="51.43999" lon="7.97179"><ele>160</ele></trkpt>
<trkpt lat="51.43983" lon="7.97119"><ele>158</ele></trkpt>
<trkpt lat="51.43970" lon="7.96919"><ele>158</ele></trkpt>
<trkpt lat="51.43972" lon="7.96910"><ele>158</ele></trkpt>
<trkpt lat="51.43979" lon="7.96898"><ele>159</ele></trkpt>
<trkpt lat="51.43973" lon="7.96830"><ele>158</ele></trkpt>
<trkpt lat="51.43977" lon="7.96710"><ele>158</ele></trkpt>
<trkpt lat="51.43982" lon="7.96654"><ele>158</ele></trkpt>
<trkpt lat="51.43989" lon="7.96614"><ele>159</ele></trkpt>
<trkpt lat="51.44001" lon="7.96579"><ele>158</ele></trkpt>
<trkpt lat="51.44041" lon="7.96497"><ele>158</ele></trkpt>
<trkpt lat="51.44176" lon="7.96197"><ele>158</ele></trkpt>
<trkpt lat="51.44207" lon="7.96139"><ele>159</ele></trkpt>
<trkpt lat="51.44263" lon="7.95979"><ele>156</ele></trkpt>
<trkpt lat="51.44307" lon="7.95896"><ele>155</ele></trkpt>
<trkpt lat="51.44412" lon="7.95726"><ele>155</ele></trkpt>
<trkpt lat="51.44450" lon="7.95672"><ele>155</ele></trkpt>
<trkpt lat="51.44497" lon="7.95614"><ele>155</ele></trkpt>
<trkpt lat="51.44591" lon="7.95513"><ele>154</ele></trkpt>
<trkpt lat="51.44656" lon="7.95466"><ele>154</ele></trkpt>
<trkpt lat="51.44740" lon="7.95429"><ele>154</ele></trkpt>
<trkpt lat="51.44780" lon="7.95404"><ele>154</ele></trkpt>
<trkpt lat="51.44807" lon="7.95374"><ele>154</ele></trkpt>
<trkpt lat="51.44833" lon="7.95355"><ele>155</ele></trkpt>
<trkpt lat="51.44852" lon="7.95345"><ele>155</ele></trkpt>
<trkpt lat="51.44887" lon="7.95337"><ele>155</ele></trkpt>
<trkpt lat="51.44901" lon="7.95327"><ele>155</ele></trkpt>
<trkpt lat="51.44946" lon="7.95271"><ele>155</ele></trkpt>
<trkpt lat="51.44980" lon="7.95239"><ele>155</ele></trkpt>
<trkpt lat="51.45035" lon="7.95222"><ele>155</ele></trkpt>
<trkpt lat="51.45128" lon="7.95227"><ele>155</ele></trkpt>
<trkpt lat="51.45241" lon="7.95252"><ele>154</ele></trkpt>
<trkpt lat="51.45373" lon="7.95361"><ele>156</ele></trkpt>
<trkpt lat="51.45537" lon="7.95399"><ele>156</ele></trkpt>
<trkpt lat="51.45558" lon="7.95399"><ele>155</ele></trkpt>
<trkpt lat="51.45571" lon="7.95409"><ele>157</ele></trkpt>
<trkpt lat="51.45602" lon="7.95422"><ele>155</ele></trkpt>
<trkpt lat="51.45647" lon="7.95467"><ele>158</ele></trkpt>
<trkpt lat="51.45652" lon="7.95477"><ele>159</ele></trkpt>
<trkpt lat="51.45650" lon="7.95487"><ele>162</ele></trkpt>
<trkpt lat="51.45627" lon="7.95565"><ele>154</ele></trkpt>
<trkpt lat="51.45565" lon="7.95730"><ele>153</ele></trkpt>
<trkpt lat="51.45547" lon="7.95751"><ele>156</ele></trkpt>
<trkpt lat="51.45540" lon="7.95799"><ele>155</ele></trkpt>
<trkpt lat="51.45585" lon="7.95833"><ele>155</ele></trkpt>
<trkpt lat="51.45603" lon="7.95756"><ele>154</ele></trkpt>
<trkpt lat="51.45617" lon="7.95714"><ele>154</ele></trkpt>
<trkpt lat="51.45621" lon="7.95664"><ele>152</ele></trkpt>
<trkpt lat="51.45628" lon="7.95644"><ele>152</ele></trkpt>
<trkpt lat="51.45670" lon="7.95541"><ele>158</ele></trkpt>
<trkpt lat="51.45688" lon="7.95508"><ele>161</ele></trkpt>
<trkpt lat="51.45699" lon="7.95492"><ele>156</ele></trkpt>
<trkpt lat="51.45710" lon="7.95493"><ele>156</ele></trkpt>
<trkpt lat="51.45722" lon="7.95484"><ele>154</ele></trkpt>
<trkpt lat="51.45939" lon="7.95597"><ele>152</ele></trkpt>
<trkpt lat="51.46006" lon="7.95627"><ele>152</ele></trkpt>
<trkpt lat="51.46073" lon="7.95643"><ele>152</ele></trkpt>
<trkpt lat="51.46153" lon="7.95653"><ele>152</ele></trkpt>
<trkpt lat="51.46253" lon="7.95648"><ele>152</ele></trkpt>
<trkpt lat="51.46355" lon="7.95621"><ele>152</ele></trkpt>
<trkpt lat="51.46423" lon="7.95589"><ele>152</ele></trkpt>
<trkpt lat="51.46507" lon="7.95531"><ele>152</ele></trkpt>
<trkpt lat="51.46589" lon="7.95448"><ele>151</ele></trkpt>
<trkpt lat="51.46613" lon="7.95433"><ele>153</ele></trkpt>
<trkpt lat="51.46660" lon="7.95380"><ele>154</ele></trkpt>
<trkpt lat="51.46746" lon="7.95244"><ele>153</ele></trkpt>
<trkpt lat="51.46757" lon="7.95230"><ele>153</ele></trkpt>
<trkpt lat="51.46811" lon="7.95111"><ele>152</ele></trkpt>
<trkpt lat="51.46885" lon="7.94920"><ele>152</ele></trkpt>
<trkpt lat="51.46964" lon="7.94625"><ele>152</ele></trkpt>
<trkpt lat="51.46976" lon="7.94555"><ele>150</ele></trkpt>
<trkpt lat="51.46968" lon="7.94516"><ele>150</ele></trkpt>
<trkpt lat="51.46969" lon="7.94498"><ele>150</ele></trkpt>
<trkpt lat="51.47040" lon="7.94262"><ele>150</ele></trkpt>
<trkpt lat="51.47098" lon="7.93999"><ele>151</ele></trkpt>
<trkpt lat="51.47139" lon="7.93835"><ele>149</ele></trkpt>
<trkpt lat="51.47174" lon="7.93714"><ele>150</ele></trkpt>
<trkpt lat="51.47213" lon="7.93600"><ele>150</ele></trkpt>
<trkpt lat="51.47267" lon="7.93460"><ele>150</ele></trkpt>
<trkpt lat="51.47326" lon="7.93320"><ele>149</ele></trkpt>
<trkpt lat="51.47342" lon="7.93259"><ele>150</ele></trkpt>
<trkpt lat="51.47358" lon="7.93226"><ele>150</ele></trkpt>
<trkpt lat="51.47376" lon="7.93202"><ele>152</ele></trkpt>
<trkpt lat="51.47446" lon="7.93130"><ele>152</ele></trkpt>
<trkpt lat="51.47480" lon="7.93117"><ele>152</ele></trkpt>
<trkpt lat="51.47584" lon="7.93007"><ele>149</ele></trkpt>
<trkpt lat="51.47667" lon="7.92944"><ele>149</ele></trkpt>
<trkpt lat="51.47773" lon="7.92881"><ele>148</ele></trkpt>
<trkpt lat="51.47843" lon="7.92846"><ele>148</ele></trkpt>
<trkpt lat="51.47955" lon="7.92809"><ele>147</ele></trkpt>
<trkpt lat="51.48109" lon="7.92740"><ele>146</ele></trkpt>
<trkpt lat="51.48173" lon="7.92727"><ele>148</ele></trkpt>
<trkpt lat="51.48322" lon="7.92736"><ele>149</ele></trkpt>
<trkpt lat="51.48384" lon="7.92726"><ele>148</ele></trkpt>
<trkpt lat="51.48649" lon="7.92505"><ele>148</ele></trkpt>
<trkpt lat="51.48669" lon="7.92494"><ele>148</ele></trkpt>
<trkpt lat="51.48689" lon="7.92491"><ele>149</ele></trkpt>
<trkpt lat="51.48706" lon="7.92495"><ele>150</ele></trkpt>
<trkpt lat="51.48717" lon="7.92504"><ele>151</ele></trkpt>
<trkpt lat="51.48759" lon="7.92483"><ele>149</ele></trkpt>
<trkpt lat="51.48782" lon="7.92477"><ele>149</ele></trkpt>
<trkpt lat="51.48780" lon="7.92401"><ele>146</ele></trkpt>
<trkpt lat="51.48782" lon="7.92363"><ele>147</ele></trkpt>
<trkpt lat="51.48894" lon="7.91976"><ele>145</ele></trkpt>
<trkpt lat="51.48911" lon="7.91906"><ele>145</ele></trkpt>
<trkpt lat="51.48942" lon="7.91600"><ele>148</ele></trkpt>
<trkpt lat="51.49047" lon="7.91599"><ele>147</ele></trkpt>
<trkpt lat="51.49169" lon="7.91590"><ele>147</ele></trkpt>
<trkpt lat="51.49386" lon="7.91588"><ele>146</ele></trkpt>
<trkpt lat="51.49536" lon="7.91555"><ele>145</ele></trkpt>
<trkpt lat="51.49578" lon="7.91542"><ele>145</ele></trkpt>
<trkpt lat="51.49663" lon="7.91483"><ele>146</ele></trkpt>
<trkpt lat="51.49708" lon="7.91429"><ele>146</ele></trkpt>
<trkpt lat="51.49743" lon="7.91375"><ele>146</ele></trkpt>
<trkpt lat="51.49758" lon="7.91344"><ele>146</ele></trkpt>
<trkpt lat="51.49778" lon="7.91285"><ele>146</ele></trkpt>
<trkpt lat="51.49805" lon="7.91191"><ele>147</ele></trkpt>
<trkpt lat="51.49822" lon="7.91117"><ele>146</ele></trkpt>
<trkpt lat="51.49826" lon="7.91069"><ele>146</ele></trkpt>
<trkpt lat="51.49821" lon="7.90976"><ele>144</ele></trkpt>
<trkpt lat="51.49820" lon="7.90874"><ele>144</ele></trkpt>
<trkpt lat="51.49829" lon="7.90740"><ele>146</ele></trkpt>
<trkpt lat="51.49864" lon="7.90509"><ele>146</ele></trkpt>
<trkpt lat="51.49894" lon="7.90363"><ele>146</ele></trkpt>
<trkpt lat="51.49901" lon="7.90317"><ele>147</ele></trkpt>
<trkpt lat="51.49901" lon="7.90274"><ele>146</ele></trkpt>
<trkpt lat="51.49894" lon="7.90231"><ele>147</ele></trkpt>
<trkpt lat="51.49870" lon="7.90171"><ele>146</ele></trkpt>
<trkpt lat="51.49846" lon="7.90098"><ele>146</ele></trkpt>
<trkpt lat="51.49811" lon="7.89965"><ele>147</ele></trkpt>
<trkpt lat="51.49772" lon="7.89867"><ele>147</ele></trkpt>
<trkpt lat="51.49753" lon="7.89751"><ele>147</ele></trkpt>
<trkpt lat="51.49733" lon="7.89652"><ele>146</ele></trkpt>
<trkpt lat="51.49708" lon="7.89619"><ele>147</ele></trkpt>
<trkpt lat="51.49657" lon="7.89533"><ele>147</ele></trkpt>
<trkpt lat="51.49641" lon="7.89498"><ele>147</ele></trkpt>
<trkpt lat="51.49621" lon="7.89435"><ele>147</ele></trkpt>
<trkpt lat="51.49603" lon="7.89331"><ele>146</ele></trkpt>
<trkpt lat="51.49592" lon="7.89288"><ele>146</ele></trkpt>
<trkpt lat="51.49696" lon="7.89204"><ele>143</ele></trkpt>
<trkpt lat="51.49713" lon="7.89195"><ele>142</ele></trkpt>
<trkpt lat="51.49728" lon="7.89193"><ele>142</ele></trkpt>
<trkpt lat="51.49769" lon="7.89201"><ele>142</ele></trkpt>
<trkpt lat="51.49824" lon="7.89201"><ele>143</ele></trkpt>
<trkpt lat="51.49815" lon="7.89174"><ele>142</ele></trkpt>
<trkpt lat="51.49665" lon="7.88504"><ele>140</ele></trkpt>
<trkpt lat="51.49648" lon="7.88403"><ele>140</ele></trkpt>
<trkpt lat="51.49631" lon="7.88361"><ele>138</ele></trkpt>
<trkpt lat="51.49604" lon="7.88237"><ele>138</ele></trkpt>
<trkpt lat="51.49600" lon="7.88216"><ele>139</ele></trkpt>
<trkpt lat="51.49602" lon="7.88207"><ele>139</ele></trkpt>
<trkpt lat="51.49620" lon="7.88160"><ele>139</ele></trkpt>
<trkpt lat="51.49628" lon="7.88107"><ele>140</ele></trkpt>
<trkpt lat="51.49633" lon="7.88103"><ele>140</ele></trkpt>
<trkpt lat="51.49599" lon="7.87940"><ele>140</ele></trkpt>
<trkpt lat="51.49551" lon="7.87736"><ele>140</ele></trkpt>
<trkpt lat="51.49545" lon="7.87728"><ele>140</ele></trkpt>
<trkpt lat="51.49500" lon="7.87696"><ele>140</ele></trkpt>
<trkpt lat="51.49485" lon="7.87669"><ele>140</ele></trkpt>
<trkpt lat="51.49392" lon="7.87247"><ele>140</ele></trkpt>
<trkpt lat="51.49392" lon="7.87207"><ele>140</ele></trkpt>
<trkpt lat="51.49411" lon="7.87149"><ele>140</ele></trkpt>
<trkpt lat="51.49402" lon="7.87139"><ele>140</ele></trkpt>
<trkpt lat="51.49395" lon="7.87122"><ele>140</ele></trkpt>
<trkpt lat="51.49386" lon="7.87089"><ele>140</ele></trkpt>
<trkpt lat="51.49347" lon="7.86908"><ele>140</ele></trkpt>
<trkpt lat="51.49347" lon="7.86891"><ele>140</ele></trkpt>
<trkpt lat="51.49366" lon="7.86778"><ele>140</ele></trkpt>
<trkpt lat="51.49382" lon="7.86747"><ele>142</ele></trkpt>
<trkpt lat="51.49402" lon="7.86720"><ele>142</ele></trkpt>
<trkpt lat="51.49415" lon="7.86688"><ele>142</ele></trkpt>
<trkpt lat="51.49418" lon="7.86665"><ele>143</ele></trkpt>
<trkpt lat="51.49416" lon="7.86602"><ele>144</ele></trkpt>
<trkpt lat="51.49419" lon="7.86587"><ele>145</ele></trkpt>
<trkpt lat="51.49432" lon="7.86563"><ele>147</ele></trkpt>
<trkpt lat="51.49463" lon="7.86529"><ele>148</ele></trkpt>
<trkpt lat="51.49486" lon="7.86455"><ele>152</ele></trkpt>
<trkpt lat="51.49495" lon="7.86437"><ele>152</ele></trkpt>
<trkpt lat="51.49470" lon="7.86378"><ele>152</ele></trkpt>
<trkpt lat="51.49444" lon="7.86334"><ele>151</ele></trkpt>
<trkpt lat="51.49412" lon="7.86297"><ele>150</ele></trkpt>
<trkpt lat="51.49380" lon="7.86275"><ele>148</ele></trkpt>
<trkpt lat="51.49380" lon="7.86242"><ele>148</ele></trkpt>
<trkpt lat="51.49362" lon="7.86092"><ele>153</ele></trkpt>
<trkpt lat="51.49327" lon="7.85737"><ele>151</ele></trkpt>
<trkpt lat="51.49327" lon="7.85680"><ele>149</ele></trkpt>
<trkpt lat="51.49330" lon="7.85620"><ele>146</ele></trkpt>
<trkpt lat="51.49344" lon="7.85531"><ele>143</ele></trkpt>
<trkpt lat="51.49343" lon="7.85517"><ele>142</ele></trkpt>
<trkpt lat="51.49338" lon="7.85505"><ele>141</ele></trkpt>
<trkpt lat="51.49360" lon="7.85361"><ele>139</ele></trkpt>
<trkpt lat="51.49373" lon="7.85203"><ele>144</ele></trkpt>
<trkpt lat="51.49367" lon="7.85203"><ele>141</ele></trkpt>
<trkpt lat="51.49364" lon="7.85192"><ele>140</ele></trkpt>
<trkpt lat="51.49364" lon="7.85111"><ele>140</ele></trkpt>
<trkpt lat="51.49371" lon="7.85090"><ele>141</ele></trkpt>
<trkpt lat="51.49397" lon="7.85065"><ele>141</ele></trkpt>
<trkpt lat="51.49398" lon="7.85044"><ele>140</ele></trkpt>
<trkpt lat="51.49404" lon="7.85037"><ele>140</ele></trkpt>
<trkpt lat="51.49449" lon="7.85032"><ele>142</ele></trkpt>
<trkpt lat="51.49467" lon="7.85022"><ele>142</ele></trkpt>
<trkpt lat="51.49589" lon="7.85008"><ele>144</ele></trkpt>
<trkpt lat="51.49638" lon="7.84955"><ele>146</ele></trkpt>
<trkpt lat="51.49661" lon="7.84919"><ele>146</ele></trkpt>
<trkpt lat="51.49796" lon="7.84952"><ele>148</ele></trkpt>
<trkpt lat="51.49814" lon="7.84943"><ele>149</ele></trkpt>
<trkpt lat="51.49879" lon="7.84956"><ele>151</ele></trkpt>
<trkpt lat="51.49943" lon="7.84740"><ele>154</ele></trkpt>
<trkpt lat="51.49948" lon="7.84694"><ele>156</ele></trkpt>
<trkpt lat="51.49927" lon="7.84516"><ele>162</ele></trkpt>
<trkpt lat="51.49923" lon="7.84288"><ele>166</ele></trkpt>
<trkpt lat="51.49860" lon="7.83866"><ele>172</ele></trkpt>
<trkpt lat="51.49854" lon="7.83849"><ele>172</ele></trkpt>
<trkpt lat="51.49862" lon="7.83839"><ele>173</ele></trkpt>
<trkpt lat="51.49910" lon="7.83826"><ele>174</ele></trkpt>
<trkpt lat="51.50493" lon="7.83216"><ele>200</ele></trkpt>
<trkpt lat="51.50546" lon="7.83179"><ele>202</ele></trkpt>
<trkpt lat="51.50560" lon="7.83164"><ele>202</ele></trkpt>
<trkpt lat="51.51100" lon="7.82876"><ele>218</ele></trkpt>
<trkpt lat="51.51169" lon="7.82857"><ele>220</ele></trkpt>
<trkpt lat="51.51272" lon="7.82831"><ele>221</ele></trkpt>
<trkpt lat="51.51348" lon="7.82823"><ele>219</ele></trkpt>
<trkpt lat="51.51510" lon="7.82817"><ele>217</ele></trkpt>
<trkpt lat="51.51566" lon="7.82797"><ele>216</ele></trkpt>
<trkpt lat="51.51680" lon="7.82743"><ele>211</ele></trkpt>
<trkpt lat="51.51828" lon="7.82702"><ele>205</ele></trkpt>
<trkpt lat="51.52423" lon="7.83188"><ele>172</ele></trkpt>
<trkpt lat="51.52459" lon="7.83139"><ele>170</ele></trkpt>
<trkpt lat="51.52494" lon="7.83101"><ele>170</ele></trkpt>
<trkpt lat="51.52508" lon="7.83086"><ele>169</ele></trkpt>
<trkpt lat="51.52522" lon="7.83079"><ele>168</ele></trkpt>
<trkpt lat="51.52536" lon="7.83075"><ele>167</ele></trkpt>
<trkpt lat="51.52599" lon="7.83098"><ele>164</ele></trkpt>
<trkpt lat="51.52656" lon="7.83105"><ele>160</ele></trkpt>
<trkpt lat="51.52676" lon="7.83098"><ele>160</ele></trkpt>
<trkpt lat="51.52777" lon="7.83008"><ele>155</ele></trkpt>
<trkpt lat="51.52808" lon="7.82973"><ele>154</ele></trkpt>
<trkpt lat="51.52822" lon="7.82951"><ele>153</ele></trkpt>
<trkpt lat="51.52916" lon="7.82744"><ele>147</ele></trkpt>
<trkpt lat="51.53031" lon="7.82667"><ele>145</ele></trkpt>
<trkpt lat="51.53096" lon="7.82610"><ele>147</ele></trkpt>
<trkpt lat="51.53191" lon="7.82535"><ele>146</ele></trkpt>
<trkpt lat="51.53283" lon="7.82489"><ele>142</ele></trkpt>
<trkpt lat="51.53305" lon="7.82471"><ele>144</ele></trkpt>
<trkpt lat="51.53313" lon="7.82456"><ele>143</ele></trkpt>
<trkpt lat="51.53322" lon="7.82430"><ele>142</ele></trkpt>
<trkpt lat="51.53328" lon="7.82344"><ele>139</ele></trkpt>
<trkpt lat="51.53338" lon="7.82315"><ele>137</ele></trkpt>
<trkpt lat="51.53353" lon="7.82294"><ele>135</ele></trkpt>
<trkpt lat="51.53391" lon="7.82273"><ele>133</ele></trkpt>
<trkpt lat="51.53453" lon="7.82261"><ele>133</ele></trkpt>
<trkpt lat="51.53481" lon="7.82243"><ele>134</ele></trkpt>
<trkpt lat="51.53504" lon="7.82213"><ele>136</ele></trkpt>
<trkpt lat="51.53540" lon="7.82153"><ele>137</ele></trkpt>
<trkpt lat="51.53564" lon="7.82128"><ele>136</ele></trkpt>
<trkpt lat="51.53592" lon="7.82110"><ele>135</ele></trkpt>
<trkpt lat="51.53701" lon="7.82074"><ele>130</ele></trkpt>
<trkpt lat="51.53731" lon="7.82053"><ele>128</ele></trkpt>
<trkpt lat="51.53882" lon="7.81861"><ele>116</ele></trkpt>
<trkpt lat="51.53929" lon="7.81817"><ele>113</ele></trkpt>
<trkpt lat="51.54052" lon="7.81726"><ele>109</ele></trkpt>
<trkpt lat="51.54283" lon="7.81596"><ele>104</ele></trkpt>
<trkpt lat="51.54289" lon="7.81304"><ele>104</ele></trkpt>
<trkpt lat="51.54302" lon="7.81155"><ele>103</ele></trkpt>
<trkpt lat="51.54310" lon="7.81098"><ele>102</ele></trkpt>
<trkpt lat="51.54322" lon="7.81047"><ele>103</ele></trkpt>
<trkpt lat="51.54355" lon="7.80924"><ele>101</ele></trkpt>
<trkpt lat="51.54370" lon="7.80809"><ele>100</ele></trkpt>
<trkpt lat="51.54371" lon="7.80757"><ele>99</ele></trkpt>
<trkpt lat="51.54355" lon="7.80685"><ele>98</ele></trkpt>
<trkpt lat="51.54391" lon="7.80651"><ele>97</ele></trkpt>
<trkpt lat="51.54413" lon="7.80638"><ele>96</ele></trkpt>
<trkpt lat="51.54343" lon="7.80556"><ele>98</ele></trkpt>
<trkpt lat="51.54306" lon="7.80534"><ele>99</ele></trkpt>
<trkpt lat="51.54284" lon="7.80272"><ele>96</ele></trkpt>
<trkpt lat="51.54269" lon="7.80127"><ele>100</ele></trkpt>
<trkpt lat="51.54268" lon="7.79945"><ele>103</ele></trkpt>
<trkpt lat="51.54237" lon="7.79382"><ele>103</ele></trkpt>
<trkpt lat="51.54116" lon="7.78780"><ele>99</ele></trkpt>
<trkpt lat="51.54092" lon="7.78618"><ele>101</ele></trkpt>
<trkpt lat="51.54076" lon="7.78330"><ele>102</ele></trkpt>
<trkpt lat="51.54073" lon="7.78205"><ele>102</ele></trkpt>
<trkpt lat="51.54073" lon="7.78060"><ele>102</ele></trkpt>
<trkpt lat="51.54086" lon="7.77947"><ele>101</ele></trkpt>
<trkpt lat="51.54076" lon="7.77784"><ele>99</ele></trkpt>
<trkpt lat="51.54070" lon="7.77743"><ele>99</ele></trkpt>
<trkpt lat="51.54070" lon="7.77706"><ele>98</ele></trkpt>
<trkpt lat="51.54099" lon="7.77569"><ele>96</ele></trkpt>
<trkpt lat="51.54108" lon="7.77487"><ele>95</ele></trkpt>
<trkpt lat="51.54156" lon="7.77457"><ele>92</ele></trkpt>
<trkpt lat="51.54182" lon="7.77445"><ele>89</ele></trkpt>
<trkpt lat="51.54182" lon="7.77377"><ele>90</ele></trkpt>
<trkpt lat="51.54188" lon="7.77347"><ele>90</ele></trkpt>
<trkpt lat="51.54232" lon="7.77307"><ele>90</ele></trkpt>
<trkpt lat="51.54420" lon="7.77108"><ele>92</ele></trkpt>
<trkpt lat="51.54438" lon="7.77075"><ele>92</ele></trkpt>
<trkpt lat="51.54494" lon="7.76893"><ele>88</ele></trkpt>
<trkpt lat="51.54494" lon="7.76840"><ele>86</ele></trkpt>
<trkpt lat="51.54491" lon="7.76804"><ele>86</ele></trkpt>
<trkpt lat="51.54472" lon="7.76721"><ele>86</ele></trkpt>
<trkpt lat="51.54473" lon="7.76711"><ele>86</ele></trkpt>
<trkpt lat="51.54499" lon="7.76684"><ele>85</ele></trkpt>
<trkpt lat="51.54496" lon="7.76589"><ele>85</ele></trkpt>
<trkpt lat="51.54499" lon="7.76570"><ele>85</ele></trkpt>
<trkpt lat="51.54509" lon="7.76558"><ele>85</ele></trkpt>
<trkpt lat="51.54709" lon="7.76436"><ele>84</ele></trkpt>
<trkpt lat="51.54814" lon="7.76359"><ele>83</ele></trkpt>
<trkpt lat="51.54833" lon="7.76329"><ele>83</ele></trkpt>
<trkpt lat="51.54841" lon="7.76309"><ele>83</ele></trkpt>
<trkpt lat="51.54843" lon="7.76258"><ele>83</ele></trkpt>
<trkpt lat="51.54848" lon="7.76215"><ele>84</ele></trkpt>
<trkpt lat="51.54884" lon="7.76214"><ele>83</ele></trkpt>
<trkpt lat="51.54908" lon="7.76255"><ele>83</ele></trkpt>
<trkpt lat="51.54954" lon="7.76195"><ele>84</ele></trkpt>
<trkpt lat="51.54997" lon="7.76152"><ele>88</ele></trkpt>
<trkpt lat="51.55016" lon="7.76140"><ele>89</ele></trkpt>
<trkpt lat="51.55070" lon="7.76146"><ele>89</ele></trkpt>
<trkpt lat="51.55438" lon="7.76041"><ele>88</ele></trkpt>
<trkpt lat="51.55732" lon="7.75949"><ele>84</ele></trkpt>
<trkpt lat="51.55774" lon="7.75940"><ele>84</ele></trkpt>
<trkpt lat="51.55811" lon="7.75455"><ele>80</ele></trkpt>
<trkpt lat="51.55811" lon="7.75403"><ele>80</ele></trkpt>
<trkpt lat="51.55843" lon="7.75372"><ele>80</ele></trkpt>
<trkpt lat="51.55866" lon="7.75329"><ele>80</ele></trkpt>
<trkpt lat="51.56232" lon="7.74511"><ele>76</ele></trkpt>
<trkpt lat="51.56528" lon="7.74000"><ele>74</ele></trkpt>
<trkpt lat="51.56552" lon="7.73961"><ele>73</ele></trkpt>
<trkpt lat="51.56587" lon="7.73920"><ele>74</ele></trkpt>
<trkpt lat="51.56757" lon="7.73733"><ele>74</ele></trkpt>
<trkpt lat="51.56767" lon="7.73712"><ele>74</ele></trkpt>
<trkpt lat="51.56785" lon="7.73650"><ele>74</ele></trkpt>
<trkpt lat="51.56796" lon="7.73644"><ele>74</ele></trkpt>
<trkpt lat="51.56838" lon="7.73638"><ele>74</ele></trkpt>
<trkpt lat="51.56858" lon="7.73625"><ele>74</ele></trkpt>
<trkpt lat="51.57047" lon="7.73414"><ele>75</ele></trkpt>
<trkpt lat="51.57077" lon="7.73371"><ele>75</ele></trkpt>
<trkpt lat="51.57074" lon="7.72983"><ele>72</ele></trkpt>
<trkpt lat="51.57368" lon="7.73003"><ele>68</ele></trkpt>
<trkpt lat="51.57404" lon="7.72988"><ele>67</ele></trkpt>
<trkpt lat="51.57532" lon="7.72915"><ele>63</ele></trkpt>
<trkpt lat="51.57541" lon="7.72915"><ele>63</ele></trkpt>
<trkpt lat="51.57568" lon="7.72900"><ele>62</ele></trkpt>
<trkpt lat="51.57572" lon="7.72892"><ele>62</ele></trkpt>
<trkpt lat="51.57592" lon="7.72878"><ele>62</ele></trkpt>
<trkpt lat="51.57671" lon="7.72846"><ele>62</ele></trkpt>
<trkpt lat="51.57721" lon="7.72833"><ele>62</ele></trkpt>
<trkpt lat="51.57732" lon="7.72839"><ele>62</ele></trkpt>
<trkpt lat="51.57773" lon="7.72832"><ele>63</ele></trkpt>
<trkpt lat="51.57782" lon="7.72840"><ele>63</ele></trkpt>
<trkpt lat="51.57949" lon="7.72895"><ele>66</ele></trkpt>
<trkpt lat="51.57965" lon="7.72890"><ele>66</ele></trkpt>
<trkpt lat="51.57989" lon="7.72864"><ele>67</ele></trkpt>
<trkpt lat="51.58046" lon="7.72743"><ele>68</ele></trkpt>
<trkpt lat="51.58138" lon="7.72583"><ele>68</ele></trkpt>
<trkpt lat="51.58132" lon="7.72580"><ele>68</ele></trkpt>
<trkpt lat="51.58128" lon="7.72565"><ele>68</ele></trkpt>
<trkpt lat="51.58121" lon="7.72559"><ele>68</ele></trkpt>
<trkpt lat="51.58126" lon="7.72539"><ele>68</ele></trkpt>
<trkpt lat="51.58134" lon="7.72532"><ele>68</ele></trkpt>
<trkpt lat="51.58140" lon="7.72531"><ele>68</ele></trkpt>
<trkpt lat="51.58138" lon="7.72521"><ele>68</ele></trkpt>
<trkpt lat="51.58086" lon="7.72409"><ele>68</ele></trkpt>
<trkpt lat="51.58047" lon="7.72336"><ele>66</ele></trkpt>
<trkpt lat="51.58083" lon="7.72233"><ele>64</ele></trkpt>
<trkpt lat="51.58097" lon="7.72088"><ele>64</ele></trkpt>
<trkpt lat="51.58145" lon="7.71929"><ele>68</ele></trkpt>
<trkpt lat="51.58281" lon="7.71294"><ele>69</ele></trkpt>
<trkpt lat="51.58300" lon="7.71220"><ele>68</ele></trkpt>
<trkpt lat="51.58298" lon="7.71209"><ele>68</ele></trkpt>
<trkpt lat="51.58310" lon="7.71177"><ele>69</ele></trkpt>
<trkpt lat="51.58318" lon="7.71060"><ele>68</ele></trkpt>
<trkpt lat="51.58354" lon="7.70817"><ele>69</ele></trkpt>
<trkpt lat="51.58364" lon="7.70822"><ele>68</ele></trkpt>
<trkpt lat="51.58366" lon="7.70805"><ele>68</ele></trkpt>
<trkpt lat="51.58376" lon="7.70802"><ele>68</ele></trkpt>
<trkpt lat="51.58424" lon="7.70492"><ele>68</ele></trkpt>
<trkpt lat="51.58443" lon="7.70339"><ele>66</ele></trkpt>
<trkpt lat="51.58449" lon="7.70205"><ele>67</ele></trkpt>
<trkpt lat="51.58769" lon="7.70230"><ele>62</ele></trkpt>
<trkpt lat="51.58786" lon="7.70235"><ele>62</ele></trkpt>
<trkpt lat="51.58791" lon="7.70221"><ele>62</ele></trkpt>
<trkpt lat="51.58880" lon="7.69657"><ele>60</ele></trkpt>
<trkpt lat="51.58892" lon="7.69556"><ele>60</ele></trkpt>
<trkpt lat="51.58901" lon="7.69469"><ele>60</ele></trkpt>
<trkpt lat="51.58914" lon="7.69044"><ele>60</ele></trkpt>
<trkpt lat="51.58927" lon="7.68866"><ele>59</ele></trkpt>
<trkpt lat="51.58987" lon="7.68484"><ele>59</ele></trkpt>
<trkpt lat="51.58994" lon="7.68469"><ele>59</ele></trkpt>
<trkpt lat="51.59005" lon="7.68400"><ele>61</ele></trkpt>
<trkpt lat="51.59008" lon="7.68313"><ele>60</ele></trkpt>
<trkpt lat="51.59067" lon="7.68318"><ele>60</ele></trkpt>
<trkpt lat="51.59101" lon="7.68309"><ele>61</ele></trkpt>
<trkpt lat="51.59126" lon="7.68299"><ele>60</ele></trkpt>
<trkpt lat="51.59177" lon="7.68265"><ele>60</ele></trkpt>
<trkpt lat="51.59760" lon="7.67710"><ele>63</ele></trkpt>
<trkpt lat="51.59860" lon="7.67612"><ele>61</ele></trkpt>
<trkpt lat="51.59912" lon="7.67556"><ele>62</ele></trkpt>
<trkpt lat="51.59959" lon="7.67477"><ele>63</ele></trkpt>
<trkpt lat="51.59980" lon="7.67421"><ele>64</ele></trkpt>
<trkpt lat="51.60000" lon="7.67337"><ele>62</ele></trkpt>
<trkpt lat="51.60022" lon="7.67211"><ele>62</ele></trkpt>
<trkpt lat="51.60041" lon="7.67120"><ele>63</ele></trkpt>
<trkpt lat="51.60059" lon="7.67061"><ele>62</ele></trkpt>
<trkpt lat="51.60083" lon="7.67005"><ele>62</ele></trkpt>
<trkpt lat="51.60274" lon="7.66684"><ele>67</ele></trkpt>
<trkpt lat="51.60323" lon="7.66608"><ele>67</ele></trkpt>
<trkpt lat="51.60624" lon="7.66214"><ele>71</ele></trkpt>
<trkpt lat="51.60680" lon="7.66171"><ele>71</ele></trkpt>
<trkpt lat="51.60709" lon="7.66154"><ele>70</ele></trkpt>
<trkpt lat="51.60753" lon="7.66144"><ele>70</ele></trkpt>
<trkpt lat="51.60796" lon="7.66146"><ele>70</ele></trkpt>
<trkpt lat="51.60882" lon="7.66168"><ele>72</ele></trkpt>
<trkpt lat="51.60891" lon="7.66163"><ele>72</ele></trkpt>
<trkpt lat="51.60909" lon="7.66174"><ele>71</ele></trkpt>
<trkpt lat="51.60971" lon="7.66233"><ele>71</ele></trkpt>
<trkpt lat="51.61017" lon="7.66290"><ele>72</ele></trkpt>
<trkpt lat="51.61058" lon="7.66279"><ele>71</ele></trkpt>
<trkpt lat="51.61086" lon="7.66265"><ele>70</ele></trkpt>
<trkpt lat="51.61092" lon="7.66258"><ele>70</ele></trkpt>
<trkpt lat="51.61094" lon="7.66244"><ele>70</ele></trkpt>
<trkpt lat="51.61068" lon="7.66037"><ele>68</ele></trkpt>
<trkpt lat="51.61194" lon="7.66035"><ele>68</ele></trkpt>
<trkpt lat="51.61193" lon="7.65840"><ele>65</ele></trkpt>
<trkpt lat="51.61181" lon="7.65367"><ele>60</ele></trkpt>
<trkpt lat="51.61185" lon="7.65142"><ele>58</ele></trkpt>
<trkpt lat="51.61189" lon="7.65102"><ele>58</ele></trkpt>
<trkpt lat="51.61196" lon="7.65085"><ele>58</ele></trkpt>
<trkpt lat="51.61192" lon="7.65071"><ele>57</ele></trkpt>
<trkpt lat="51.61192" lon="7.65004"><ele>56</ele></trkpt>
<trkpt lat="51.61226" lon="7.64666"><ele>52</ele></trkpt>
<trkpt lat="51.61181" lon="7.64650"><ele>51</ele></trkpt>
<trkpt lat="51.61163" lon="7.64637"><ele>51</ele></trkpt>
<trkpt lat="51.61140" lon="7.64600"><ele>50</ele></trkpt>
<trkpt lat="51.61121" lon="7.64555"><ele>50</ele></trkpt>
<trkpt lat="51.61115" lon="7.64533"><ele>50</ele></trkpt>
<trkpt lat="51.61133" lon="7.64534"><ele>50</ele></trkpt>
<trkpt lat="51.61131" lon="7.64529"><ele>50</ele></trkpt>
<trkpt lat="51.61104" lon="7.64450"><ele>50</ele></trkpt>
<trkpt lat="51.61069" lon="7.64380"><ele>49</ele></trkpt>
<trkpt lat="51.61030" lon="7.64252"><ele>49</ele></trkpt>
<trkpt lat="51.60982" lon="7.64114"><ele>49</ele></trkpt>
<trkpt lat="51.60963" lon="7.64063"><ele>49</ele></trkpt>
<trkpt lat="51.60901" lon="7.63937"><ele>50</ele></trkpt>
<trkpt lat="51.60851" lon="7.63782"><ele>51</ele></trkpt>
<trkpt lat="51.60842" lon="7.63788"><ele>51</ele></trkpt>
<trkpt lat="51.60839" lon="7.63772"><ele>52</ele></trkpt>
<trkpt lat="51.60845" lon="7.63768"><ele>52</ele></trkpt>
<trkpt lat="51.60829" lon="7.63724"><ele>52</ele></trkpt>
<trkpt lat="51.60758" lon="7.63581"><ele>53</ele></trkpt>
<trkpt lat="51.60708" lon="7.63425"><ele>54</ele></trkpt>
<trkpt lat="51.60690" lon="7.63380"><ele>54</ele></trkpt>
<trkpt lat="51.60687" lon="7.63362"><ele>54</ele></trkpt>
<trkpt lat="51.60685" lon="7.63269"><ele>54</ele></trkpt>
<trkpt lat="51.60686" lon="7.62988"><ele>56</ele></trkpt>
<trkpt lat="51.60671" lon="7.62987"><ele>56</ele></trkpt>
<trkpt lat="51.60724" lon="7.62396"><ele>57</ele></trkpt>
<trkpt lat="51.60751" lon="7.62227"><ele>58</ele></trkpt>
<trkpt lat="51.60766" lon="7.62172"><ele>57</ele></trkpt>
<trkpt lat="51.60864" lon="7.62038"><ele>57</ele></trkpt>
<trkpt lat="51.60876" lon="7.62011"><ele>56</ele></trkpt>
<trkpt lat="51.60879" lon="7.61994"><ele>56</ele></trkpt>
<trkpt lat="51.60881" lon="7.61947"><ele>56</ele></trkpt>
<trkpt lat="51.60878" lon="7.61849"><ele>56</ele></trkpt>
<trkpt lat="51.60884" lon="7.61848"><ele>56</ele></trkpt>
<trkpt lat="51.60884" lon="7.61801"><ele>55</ele></trkpt>
<trkpt lat="51.60871" lon="7.61620"><ele>54</ele></trkpt>
<trkpt lat="51.60872" lon="7.61556"><ele>54</ele></trkpt>
<trkpt lat="51.60883" lon="7.61468"><ele>53</ele></trkpt>
<trkpt lat="51.60892" lon="7.61337"><ele>54</ele></trkpt>
<trkpt lat="51.60907" lon="7.61195"><ele>54</ele></trkpt>
<trkpt lat="51.60947" lon="7.60914"><ele>53</ele></trkpt>
<trkpt lat="51.60950" lon="7.60862"><ele>52</ele></trkpt>
<trkpt lat="51.61000" lon="7.60873"><ele>54</ele></trkpt>
<trkpt lat="51.61104" lon="7.60882"><ele>54</ele></trkpt>
<trkpt lat="51.61112" lon="7.60756"><ele>53</ele></trkpt>
<trkpt lat="51.61118" lon="7.60300"><ele>47</ele></trkpt>
<trkpt lat="51.61115" lon="7.60294"><ele>47</ele></trkpt>
<trkpt lat="51.61116" lon="7.60248"><ele>46</ele></trkpt>
<trkpt lat="51.61105" lon="7.60234"><ele>46</ele></trkpt>
<trkpt lat="51.61115" lon="7.60199"><ele>47</ele></trkpt>
<trkpt lat="51.61121" lon="7.60188"><ele>46</ele></trkpt>
<trkpt lat="51.61124" lon="7.60126"><ele>47</ele></trkpt>
<trkpt lat="51.61126" lon="7.59547"><ele>53</ele></trkpt>
<trkpt lat="51.61128" lon="7.59530"><ele>53</ele></trkpt>
<trkpt lat="51.61137" lon="7.59513"><ele>53</ele></trkpt>
<trkpt lat="51.61123" lon="7.59476"><ele>53</ele></trkpt>
<trkpt lat="51.61100" lon="7.59332"><ele>53</ele></trkpt>
<trkpt lat="51.61082" lon="7.59268"><ele>53</ele></trkpt>
<trkpt lat="51.61004" lon="7.59115"><ele>52</ele></trkpt>
<trkpt lat="51.60973" lon="7.59028"><ele>52</ele></trkpt>
<trkpt lat="51.60988" lon="7.59015"><ele>53</ele></trkpt>
<trkpt lat="51.61034" lon="7.59008"><ele>54</ele></trkpt>
<trkpt lat="51.61050" lon="7.58764"><ele>57</ele></trkpt>
<trkpt lat="51.61063" lon="7.58728"><ele>58</ele></trkpt>
<trkpt lat="51.61100" lon="7.58663"><ele>60</ele></trkpt>
<trkpt lat="51.61115" lon="7.58545"><ele>61</ele></trkpt>
<trkpt lat="51.61114" lon="7.58492"><ele>62</ele></trkpt>
<trkpt lat="51.61100" lon="7.58387"><ele>64</ele></trkpt>
<trkpt lat="51.61071" lon="7.58240"><ele>63</ele></trkpt>
<trkpt lat="51.61070" lon="7.58224"><ele>63</ele></trkpt>
<trkpt lat="51.61101" lon="7.57907"><ele>65</ele></trkpt>
<trkpt lat="51.61104" lon="7.57888"><ele>65</ele></trkpt>
<trkpt lat="51.61118" lon="7.57847"><ele>64</ele></trkpt>
<trkpt lat="51.61070" lon="7.57793"><ele>64</ele></trkpt>
<trkpt lat="51.61033" lon="7.57774"><ele>62</ele></trkpt>
<trkpt lat="51.61053" lon="7.57699"><ele>63</ele></trkpt>
<trkpt lat="51.61070" lon="7.57645"><ele>62</ele></trkpt>
<trkpt lat="51.61150" lon="7.57505"><ele>58</ele></trkpt>
<trkpt lat="51.61215" lon="7.57357"><ele>55</ele></trkpt>
<trkpt lat="51.61053" lon="7.57131"><ele>56</ele></trkpt>
<trkpt lat="51.61085" lon="7.57052"><ele>57</ele></trkpt>
<trkpt lat="51.61107" lon="7.56983"><ele>57</ele></trkpt>
<trkpt lat="51.61103" lon="7.56974"><ele>57</ele></trkpt>
<trkpt lat="51.61103" lon="7.56966"><ele>57</ele></trkpt>
<trkpt lat="51.61118" lon="7.56872"><ele>58</ele></trkpt>
<trkpt lat="51.61166" lon="7.56630"><ele>58</ele></trkpt>
<trkpt lat="51.61179" lon="7.56518"><ele>58</ele></trkpt>
<trkpt lat="51.61204" lon="7.56174"><ele>57</ele></trkpt>
<trkpt lat="51.61204" lon="7.56024"><ele>57</ele></trkpt>
<trkpt lat="51.61186" lon="7.55495"><ele>59</ele></trkpt>
<trkpt lat="51.61159" lon="7.55062"><ele>51</ele></trkpt>
<trkpt lat="51.61150" lon="7.54981"><ele>50</ele></trkpt>
<trkpt lat="51.61136" lon="7.54910"><ele>50</ele></trkpt>
<trkpt lat="51.61113" lon="7.54831"><ele>49</ele></trkpt>
<trkpt lat="51.61003" lon="7.54525"><ele>48</ele></trkpt>
<trkpt lat="51.60994" lon="7.54502"><ele>48</ele></trkpt>
<trkpt lat="51.60973" lon="7.54471"><ele>48</ele></trkpt>
<trkpt lat="51.60966" lon="7.54431"><ele>48</ele></trkpt>
<trkpt lat="51.60954" lon="7.54424"><ele>48</ele></trkpt>
<trkpt lat="51.60950" lon="7.54387"><ele>48</ele></trkpt>
<trkpt lat="51.60942" lon="7.54352"><ele>48</ele></trkpt>
<trkpt lat="51.60902" lon="7.54226"><ele>47</ele></trkpt>
<trkpt lat="51.60870" lon="7.54106"><ele>48</ele></trkpt>
<trkpt lat="51.60838" lon="7.53944"><ele>48</ele></trkpt>
<trkpt lat="51.60837" lon="7.53918"><ele>49</ele></trkpt>
<trkpt lat="51.60845" lon="7.53794"><ele>49</ele></trkpt>
<trkpt lat="51.60850" lon="7.53757"><ele>49</ele></trkpt>
<trkpt lat="51.60874" lon="7.53663"><ele>49</ele></trkpt>
<trkpt lat="51.60925" lon="7.53522"><ele>48</ele></trkpt>
<trkpt lat="51.60936" lon="7.53484"><ele>48</ele></trkpt>
<trkpt lat="51.60948" lon="7.53412"><ele>48</ele></trkpt>
<trkpt lat="51.60950" lon="7.53364"><ele>48</ele></trkpt>
<trkpt lat="51.60945" lon="7.53278"><ele>48</ele></trkpt>
<trkpt lat="51.60950" lon="7.53273"><ele>48</ele></trkpt>
<trkpt lat="51.60916" lon="7.53036"><ele>52</ele></trkpt>
<trkpt lat="51.60907" lon="7.52943"><ele>53</ele></trkpt>
<trkpt lat="51.60956" lon="7.52953"><ele>52</ele></trkpt>
<trkpt lat="51.61011" lon="7.52973"><ele>52</ele></trkpt>
<trkpt lat="51.61017" lon="7.52924"><ele>50</ele></trkpt>
<trkpt lat="51.61037" lon="7.52928"><ele>50</ele></trkpt>
<trkpt lat="51.61054" lon="7.52924"><ele>51</ele></trkpt>
<trkpt lat="51.61074" lon="7.52911"><ele>50</ele></trkpt>
<trkpt lat="51.61121" lon="7.52863"><ele>51</ele></trkpt>
<trkpt lat="51.61393" lon="7.52719"><ele>51</ele></trkpt>
<trkpt lat="51.61433" lon="7.52670"><ele>54</ele></trkpt>
<trkpt lat="51.61435" lon="7.52652"><ele>55</ele></trkpt>
<trkpt lat="51.61572" lon="7.52687"><ele>54</ele></trkpt>
<trkpt lat="51.61572" lon="7.52798"><ele>53</ele></trkpt>
<trkpt lat="51.61583" lon="7.52804"><ele>53</ele></trkpt>
<trkpt lat="51.61624" lon="7.52800"><ele>54</ele></trkpt>
<trkpt lat="51.61583" lon="7.52804"><ele>53</ele></trkpt>
<trkpt lat="51.61572" lon="7.52798"><ele>53</ele></trkpt>
<trkpt lat="51.61558" lon="7.52806"><ele>53</ele></trkpt>
<trkpt lat="51.61479" lon="7.52808"><ele>52</ele></trkpt>
<trkpt lat="51.61478" lon="7.52795"><ele>51</ele></trkpt>
<trkpt lat="51.61496" lon="7.52763"><ele>52</ele></trkpt>
<trkpt lat="51.61503" lon="7.52693"><ele>49</ele></trkpt>
<trkpt lat="51.61498" lon="7.52677"><ele>49</ele></trkpt>
<trkpt lat="51.61502" lon="7.52640"><ele>48</ele></trkpt>
<trkpt lat="51.61506" lon="7.52630"><ele>48</ele></trkpt>
<trkpt lat="51.61512" lon="7.52577"><ele>48</ele></trkpt>
<trkpt lat="51.61515" lon="7.52573"><ele>49</ele></trkpt>
<trkpt lat="51.61523" lon="7.52505"><ele>51</ele></trkpt>
<trkpt lat="51.61532" lon="7.52461"><ele>49</ele></trkpt>
<trkpt lat="51.61540" lon="7.52429"><ele>48</ele></trkpt>
<trkpt lat="51.61550" lon="7.52405"><ele>50</ele></trkpt>
<trkpt lat="51.61506" lon="7.52375"><ele>50</ele></trkpt>
<trkpt lat="51.61517" lon="7.52266"><ele>50</ele></trkpt>
<trkpt lat="51.61450" lon="7.52267"><ele>50</ele></trkpt>
<trkpt lat="51.61421" lon="7.52277"><ele>51</ele></trkpt>
<trkpt lat="51.61363" lon="7.52284"><ele>51</ele></trkpt>
<trkpt lat="51.61331" lon="7.52286"><ele>51</ele></trkpt>
<trkpt lat="51.61324" lon="7.52282"><ele>51</ele></trkpt>
<trkpt lat="51.61295" lon="7.52014"><ele>50</ele></trkpt>
<trkpt lat="51.61266" lon="7.51650"><ele>50</ele></trkpt>
<trkpt lat="51.61197" lon="7.51439"><ele>51</ele></trkpt>
<trkpt lat="51.61244" lon="7.51318"><ele>51</ele></trkpt>
<trkpt lat="51.61302" lon="7.51116"><ele>52</ele></trkpt>
<trkpt lat="51.61335" lon="7.50993"><ele>52</ele></trkpt>
<trkpt lat="51.61390" lon="7.50862"><ele>53</ele></trkpt>
<trkpt lat="51.61433" lon="7.50735"><ele>52</ele></trkpt>
<trkpt lat="51.61440" lon="7.50699"><ele>52</ele></trkpt>
<trkpt lat="51.61495" lon="7.50264"><ele>51</ele></trkpt>
<trkpt lat="51.61503" lon="7.50101"><ele>51</ele></trkpt>
<trkpt lat="51.61508" lon="7.50102"><ele>51</ele></trkpt>
<trkpt lat="51.61547" lon="7.49125"><ele>50</ele></trkpt>
<trkpt lat="51.61534" lon="7.49132"><ele>51</ele></trkpt>
<trkpt lat="51.61557" lon="7.48557"><ele>51</ele></trkpt>
<trkpt lat="51.61566" lon="7.48239"><ele>52</ele></trkpt>
<trkpt lat="51.61518" lon="7.47669"><ele>54</ele></trkpt>
<trkpt lat="51.61514" lon="7.47645"><ele>53</ele></trkpt>
<trkpt lat="51.61502" lon="7.47622"><ele>53</ele></trkpt>
<trkpt lat="51.61507" lon="7.47615"><ele>53</ele></trkpt>
<trkpt lat="51.61487" lon="7.47591"><ele>52</ele></trkpt>
<trkpt lat="51.61518" lon="7.47468"><ele>51</ele></trkpt>
<trkpt lat="51.61550" lon="7.47300"><ele>48</ele></trkpt>
<trkpt lat="51.61564" lon="7.47187"><ele>50</ele></trkpt>
<trkpt lat="51.61565" lon="7.47100"><ele>50</ele></trkpt>
<trkpt lat="51.61549" lon="7.46768"><ele>50</ele></trkpt>
<trkpt lat="51.61548" lon="7.46699"><ele>50</ele></trkpt>
<trkpt lat="51.61557" lon="7.46612"><ele>50</ele></trkpt>
<trkpt lat="51.61577" lon="7.46532"><ele>50</ele></trkpt>
<trkpt lat="51.61643" lon="7.46328"><ele>52</ele></trkpt>
<trkpt lat="51.61657" lon="7.46292"><ele>52</ele></trkpt>
<trkpt lat="51.61660" lon="7.46275"><ele>52</ele></trkpt>
<trkpt lat="51.61892" lon="7.45556"><ele>53</ele></trkpt>
<trkpt lat="51.61964" lon="7.45353"><ele>53</ele></trkpt>
<trkpt lat="51.61953" lon="7.45340"><ele>53</ele></trkpt>
<trkpt lat="51.61951" lon="7.45326"><ele>53</ele></trkpt>
<trkpt lat="51.61973" lon="7.45213"><ele>54</ele></trkpt>
<trkpt lat="51.61988" lon="7.45162"><ele>55</ele></trkpt>
<trkpt lat="51.61997" lon="7.45139"><ele>56</ele></trkpt>
<trkpt lat="51.62013" lon="7.45123"><ele>56</ele></trkpt>
<trkpt lat="51.62013" lon="7.45107"><ele>56</ele></trkpt>
<trkpt lat="51.62009" lon="7.45104"><ele>56</ele></trkpt>
<trkpt lat="51.62013" lon="7.45073"><ele>57</ele></trkpt>
<trkpt lat="51.62044" lon="7.45037"><ele>57</ele></trkpt>
<trkpt lat="51.62125" lon="7.44928"><ele>57</ele></trkpt>
<trkpt lat="51.62199" lon="7.44799"><ele>58</ele></trkpt>
<trkpt lat="51.62249" lon="7.44679"><ele>57</ele></trkpt>
<trkpt lat="51.62289" lon="7.44563"><ele>56</ele></trkpt>
<trkpt lat="51.62508" lon="7.43748"><ele>56</ele></trkpt>
<trkpt lat="51.62695" lon="7.43153"><ele>57</ele></trkpt>
<trkpt lat="51.62823" lon="7.42806"><ele>57</ele></trkpt>
<trkpt lat="51.62839" lon="7.42765"><ele>57</ele></trkpt>
<trkpt lat="51.62849" lon="7.42749"><ele>58</ele></trkpt>
<trkpt lat="51.62911" lon="7.42537"><ele>58</ele></trkpt>
<trkpt lat="51.62998" lon="7.42311"><ele>57</ele></trkpt>
<trkpt lat="51.63056" lon="7.42148"><ele>56</ele></trkpt>
<trkpt lat="51.63106" lon="7.41997"><ele>56</ele></trkpt>
<trkpt lat="51.63144" lon="7.41857"><ele>56</ele></trkpt>
<trkpt lat="51.63181" lon="7.41702"><ele>55</ele></trkpt>
<trkpt lat="51.63234" lon="7.41441"><ele>58</ele></trkpt>
<trkpt lat="51.63280" lon="7.41280"><ele>58</ele></trkpt>
<trkpt lat="51.63319" lon="7.41029"><ele>56</ele></trkpt>
<trkpt lat="51.63510" lon="7.40100"><ele>57</ele></trkpt>
<trkpt lat="51.63521" lon="7.40090"><ele>58</ele></trkpt>
<trkpt lat="51.63523" lon="7.40078"><ele>58</ele></trkpt>
<trkpt lat="51.63531" lon="7.40063"><ele>58</ele></trkpt>
<trkpt lat="51.63538" lon="7.40058"><ele>58</ele></trkpt>
<trkpt lat="51.63638" lon="7.40064"><ele>58</ele></trkpt>
<trkpt lat="51.63669" lon="7.39986"><ele>58</ele></trkpt>
<trkpt lat="51.63687" lon="7.39914"><ele>57</ele></trkpt>
<trkpt lat="51.63700" lon="7.39839"><ele>57</ele></trkpt>
<trkpt lat="51.64021" lon="7.39883"><ele>51</ele></trkpt>
<trkpt lat="51.64654" lon="7.39712"><ele>51</ele></trkpt>
<trkpt lat="51.64699" lon="7.39635"><ele>51</ele></trkpt>
<trkpt lat="51.64909" lon="7.39259"><ele>50</ele></trkpt>
<trkpt lat="51.64964" lon="7.39350"><ele>50</ele></trkpt>
<trkpt lat="51.65100" lon="7.39337"><ele>51</ele></trkpt>
<trkpt lat="51.65110" lon="7.39329"><ele>51</ele></trkpt>
<trkpt lat="51.65289" lon="7.39142"><ele>50</ele></trkpt>
<trkpt lat="51.65322" lon="7.39094"><ele>50</ele></trkpt>
<trkpt lat="51.65337" lon="7.39043"><ele>50</ele></trkpt>
<trkpt lat="51.65344" lon="7.39003"><ele>50</ele></trkpt>
<trkpt lat="51.65363" lon="7.38859"><ele>51</ele></trkpt>
<trkpt lat="51.65385" lon="7.38743"><ele>51</ele></trkpt>
<trkpt lat="51.65412" lon="7.38626"><ele>51</ele></trkpt>
<trkpt lat="51.65437" lon="7.38552"><ele>51</ele></trkpt>
<trkpt lat="51.65463" lon="7.38497"><ele>51</ele></trkpt>
<trkpt lat="51.65499" lon="7.38444"><ele>51</ele></trkpt>
<trkpt lat="51.65573" lon="7.38362"><ele>50</ele></trkpt>
<trkpt lat="51.65733" lon="7.38131"><ele>50</ele></trkpt>
<trkpt lat="51.65821" lon="7.37986"><ele>50</ele></trkpt>
<trkpt lat="51.65886" lon="7.37781"><ele>50</ele></trkpt>
<trkpt lat="51.65892" lon="7.37770"><ele>50</ele></trkpt>
<trkpt lat="51.66031" lon="7.37832"><ele>49</ele></trkpt>
<trkpt lat="51.66058" lon="7.37783"><ele>50</ele></trkpt>
<trkpt lat="51.66083" lon="7.37750"><ele>49</ele></trkpt>
<trkpt lat="51.66053" lon="7.37681"><ele>50</ele></trkpt>
<trkpt lat="51.66020" lon="7.37489"><ele>50</ele></trkpt>
<trkpt lat="51.66011" lon="7.37461"><ele>49</ele></trkpt>
<trkpt lat="51.65858" lon="7.37237"><ele>54</ele></trkpt>
<trkpt lat="51.65835" lon="7.37208"><ele>55</ele></trkpt>
<trkpt lat="51.65791" lon="7.37128"><ele>56</ele></trkpt>
<trkpt lat="51.65790" lon="7.37121"><ele>56</ele></trkpt>
<trkpt lat="51.65795" lon="7.37108"><ele>56</ele></trkpt>
<trkpt lat="51.65792" lon="7.37045"><ele>57</ele></trkpt>
<trkpt lat="51.65779" lon="7.36965"><ele>57</ele></trkpt>
<trkpt lat="51.65767" lon="7.36909"><ele>57</ele></trkpt>
<trkpt lat="51.65748" lon="7.36790"><ele>58</ele></trkpt>
<trkpt lat="51.65747" lon="7.36764"><ele>58</ele></trkpt>
<trkpt lat="51.65723" lon="7.36616"><ele>58</ele></trkpt>
<trkpt lat="51.65720" lon="7.36557"><ele>59</ele></trkpt>
<trkpt lat="51.65719" lon="7.36434"><ele>62</ele></trkpt>
<trkpt lat="51.65715" lon="7.36419"><ele>62</ele></trkpt>
<trkpt lat="51.65710" lon="7.36413"><ele>62</ele></trkpt>
<trkpt lat="51.65718" lon="7.36369"><ele>62</ele></trkpt>
<trkpt lat="51.65719" lon="7.36337"><ele>58</ele></trkpt>
<trkpt lat="51.65719" lon="7.36211"><ele>59</ele></trkpt>
<trkpt lat="51.65714" lon="7.36163"><ele>60</ele></trkpt>
<trkpt lat="51.65709" lon="7.36145"><ele>59</ele></trkpt>
<trkpt lat="51.65692" lon="7.36114"><ele>60</ele></trkpt>
<trkpt lat="51.65635" lon="7.36050"><ele>57</ele></trkpt>
<trkpt lat="51.65617" lon="7.36017"><ele>56</ele></trkpt>
<trkpt lat="51.65621" lon="7.36011"><ele>56</ele></trkpt>
<trkpt lat="51.65612" lon="7.35974"><ele>55</ele></trkpt>
<trkpt lat="51.65582" lon="7.35725"><ele>53</ele></trkpt>
<trkpt lat="51.65588" lon="7.35688"><ele>53</ele></trkpt>
<trkpt lat="51.65604" lon="7.35643"><ele>53</ele></trkpt>
<trkpt lat="51.65619" lon="7.35657"><ele>53</ele></trkpt>
<trkpt lat="51.65633" lon="7.35655"><ele>52</ele></trkpt>
<trkpt lat="51.65637" lon="7.35649"><ele>52</ele></trkpt>
<trkpt lat="51.65645" lon="7.35626"><ele>52</ele></trkpt>
<trkpt lat="51.65647" lon="7.35583"><ele>52</ele></trkpt>
<trkpt lat="51.65640" lon="7.35545"><ele>50</ele></trkpt>
<trkpt lat="51.65632" lon="7.35528"><ele>51</ele></trkpt>
<trkpt lat="51.65603" lon="7.35490"><ele>50</ele></trkpt>
<trkpt lat="51.65598" lon="7.35478"><ele>50</ele></trkpt>
<trkpt lat="51.65597" lon="7.35448"><ele>52</ele></trkpt>
<trkpt lat="51.65607" lon="7.35364"><ele>50</ele></trkpt>
<trkpt lat="51.65610" lon="7.35247"><ele>51</ele></trkpt>
<trkpt lat="51.65598" lon="7.35246"><ele>51</ele></trkpt>
<trkpt lat="51.65599" lon="7.35192"><ele>51</ele></trkpt>
<trkpt lat="51.65595" lon="7.35142"><ele>51</ele></trkpt>
<trkpt lat="51.65580" lon="7.35066"><ele>51</ele></trkpt>
<trkpt lat="51.65553" lon="7.34856"><ele>51</ele></trkpt>
<trkpt lat="51.65523" lon="7.34565"><ele>51</ele></trkpt>
<trkpt lat="51.65528" lon="7.34560"><ele>51</ele></trkpt>
<trkpt lat="51.65529" lon="7.34550"><ele>51</ele></trkpt>
<trkpt lat="51.65684" lon="7.34526"><ele>51</ele></trkpt>
<trkpt lat="51.65898" lon="7.34574"><ele>53</ele></trkpt>
<trkpt lat="51.66182" lon="7.34605"><ele>54</ele></trkpt>
<trkpt lat="51.66194" lon="7.34567"><ele>54</ele></trkpt>
<trkpt lat="51.66232" lon="7.34519"><ele>54</ele></trkpt>
<trkpt lat="51.66256" lon="7.34483"><ele>54</ele></trkpt>
<trkpt lat="51.66314" lon="7.34357"><ele>54</ele></trkpt>
<trkpt lat="51.66368" lon="7.34316"><ele>53</ele></trkpt>
<trkpt lat="51.66456" lon="7.34160"><ele>53</ele></trkpt>
<trkpt lat="51.66467" lon="7.34148"><ele>52</ele></trkpt>
<trkpt lat="51.66500" lon="7.34135"><ele>51</ele></trkpt>
<trkpt lat="51.66749" lon="7.34072"><ele>50</ele></trkpt>
<trkpt lat="51.66846" lon="7.33642"><ele>52</ele></trkpt>
<trkpt lat="51.66880" lon="7.33520"><ele>53</ele></trkpt>
<trkpt lat="51.66996" lon="7.33290"><ele>53</ele></trkpt>
<trkpt lat="51.67014" lon="7.33263"><ele>54</ele></trkpt>
<trkpt lat="51.67058" lon="7.33230"><ele>54</ele></trkpt>
<trkpt lat="51.67085" lon="7.33162"><ele>53</ele></trkpt>
<trkpt lat="51.67097" lon="7.33023"><ele>53</ele></trkpt>
<trkpt lat="51.67096" lon="7.32909"><ele>54</ele></trkpt>
<trkpt lat="51.67084" lon="7.32705"><ele>57</ele></trkpt>
<trkpt lat="51.67141" lon="7.32657"><ele>57</ele></trkpt>
<trkpt lat="51.67137" lon="7.32632"><ele>57</ele></trkpt>
<trkpt lat="51.67142" lon="7.32622"><ele>57</ele></trkpt>
<trkpt lat="51.67184" lon="7.32617"><ele>56</ele></trkpt>
<trkpt lat="51.67212" lon="7.32607"><ele>56</ele></trkpt>
<trkpt lat="51.67222" lon="7.32597"><ele>56</ele></trkpt>
<trkpt lat="51.67227" lon="7.32581"><ele>56</ele></trkpt>
<trkpt lat="51.67216" lon="7.32446"><ele>57</ele></trkpt>
<trkpt lat="51.67203" lon="7.32344"><ele>58</ele></trkpt>
<trkpt lat="51.67195" lon="7.32156"><ele>59</ele></trkpt>
<trkpt lat="51.67162" lon="7.31991"><ele>62</ele></trkpt>
<trkpt lat="51.67143" lon="7.31810"><ele>64</ele></trkpt>
<trkpt lat="51.67137" lon="7.31779"><ele>64</ele></trkpt>
<trkpt lat="51.67082" lon="7.31597"><ele>62</ele></trkpt>
<trkpt lat="51.67063" lon="7.31510"><ele>61</ele></trkpt>
<trkpt lat="51.67046" lon="7.31484"><ele>60</ele></trkpt>
<trkpt lat="51.66994" lon="7.31441"><ele>58</ele></trkpt>
<trkpt lat="51.66965" lon="7.31411"><ele>58</ele></trkpt>
<trkpt lat="51.66869" lon="7.31259"><ele>60</ele></trkpt>
<trkpt lat="51.66844" lon="7.31212"><ele>61</ele></trkpt>
<trkpt lat="51.66825" lon="7.31144"><ele>62</ele></trkpt>
<trkpt lat="51.66788" lon="7.31053"><ele>62</ele></trkpt>
<trkpt lat="51.66762" lon="7.30955"><ele>63</ele></trkpt>
<trkpt lat="51.66743" lon="7.30859"><ele>64</ele></trkpt>
<trkpt lat="51.66727" lon="7.30659"><ele>65</ele></trkpt>
<trkpt lat="51.66718" lon="7.30625"><ele>66</ele></trkpt>
<trkpt lat="51.66654" lon="7.30559"><ele>66</ele></trkpt>
<trkpt lat="51.66703" lon="7.30409"><ele>68</ele></trkpt>
<trkpt lat="51.66717" lon="7.30379"><ele>68</ele></trkpt>
<trkpt lat="51.67248" lon="7.29468"><ele>73</ele></trkpt>
<trkpt lat="51.67274" lon="7.29433"><ele>73</ele></trkpt>
<trkpt lat="51.67294" lon="7.29415"><ele>72</ele></trkpt>
<trkpt lat="51.67405" lon="7.29333"><ele>68</ele></trkpt>
<trkpt lat="51.67445" lon="7.29274"><ele>70</ele></trkpt>
<trkpt lat="51.67497" lon="7.29177"><ele>72</ele></trkpt>
<trkpt lat="51.67552" lon="7.29070"><ele>74</ele></trkpt>
<trkpt lat="51.67586" lon="7.28982"><ele>76</ele></trkpt>
<trkpt lat="51.67630" lon="7.28906"><ele>77</ele></trkpt>
<trkpt lat="51.67648" lon="7.28869"><ele>77</ele></trkpt>
<trkpt lat="51.67680" lon="7.28745"><ele>74</ele></trkpt>
<trkpt lat="51.67712" lon="7.28690"><ele>70</ele></trkpt>
<trkpt lat="51.67771" lon="7.28622"><ele>66</ele></trkpt>
<trkpt lat="51.67792" lon="7.28584"><ele>66</ele></trkpt>
<trkpt lat="51.67828" lon="7.28501"><ele>63</ele></trkpt>
<trkpt lat="51.67847" lon="7.28473"><ele>62</ele></trkpt>
<trkpt lat="51.67887" lon="7.28426"><ele>61</ele></trkpt>
<trkpt lat="51.67905" lon="7.28394"><ele>61</ele></trkpt>
<trkpt lat="51.67922" lon="7.28339"><ele>60</ele></trkpt>
<trkpt lat="51.67926" lon="7.28299"><ele>60</ele></trkpt>
<trkpt lat="51.67925" lon="7.28245"><ele>61</ele></trkpt>
<trkpt lat="51.67928" lon="7.28204"><ele>62</ele></trkpt>
<trkpt lat="51.67942" lon="7.28121"><ele>62</ele></trkpt>
<trkpt lat="51.67958" lon="7.28050"><ele>63</ele></trkpt>
<trkpt lat="51.67980" lon="7.27980"><ele>64</ele></trkpt>
<trkpt lat="51.68144" lon="7.27629"><ele>64</ele></trkpt>
<trkpt lat="51.68269" lon="7.27426"><ele>69</ele></trkpt>
<trkpt lat="51.68368" lon="7.27339"><ele>74</ele></trkpt>
<trkpt lat="51.68535" lon="7.27206"><ele>70</ele></trkpt>
<trkpt lat="51.68570" lon="7.27182"><ele>70</ele></trkpt>
<trkpt lat="51.68643" lon="7.27146"><ele>71</ele></trkpt>
<trkpt lat="51.68891" lon="7.27110"><ele>73</ele></trkpt>
<trkpt lat="51.69130" lon="7.26936"><ele>68</ele></trkpt>
<trkpt lat="51.69365" lon="7.26604"><ele>58</ele></trkpt>
<trkpt lat="51.69460" lon="7.26466"><ele>56</ele></trkpt>
<trkpt lat="51.69589" lon="7.26293"><ele>53</ele></trkpt>
<trkpt lat="51.69495" lon="7.26053"><ele>55</ele></trkpt>
<trkpt lat="51.69036" lon="7.24687"><ele>66</ele></trkpt>
<trkpt lat="51.69151" lon="7.24615"><ele>70</ele></trkpt>
<trkpt lat="51.69239" lon="7.24507"><ele>76</ele></trkpt>
<trkpt lat="51.69254" lon="7.24428"><ele>78</ele></trkpt>
<trkpt lat="51.69257" lon="7.24393"><ele>79</ele></trkpt>
<trkpt lat="51.69252" lon="7.24336"><ele>80</ele></trkpt>
<trkpt lat="51.69280" lon="7.24221"><ele>83</ele></trkpt>
<trkpt lat="51.69294" lon="7.24118"><ele>87</ele></trkpt>
<trkpt lat="51.69303" lon="7.23998"><ele>90</ele></trkpt>
<trkpt lat="51.69310" lon="7.23961"><ele>91</ele></trkpt>
<trkpt lat="51.69331" lon="7.23885"><ele>93</ele></trkpt>
<trkpt lat="51.69360" lon="7.23800"><ele>95</ele></trkpt>
<trkpt lat="51.69373" lon="7.23771"><ele>96</ele></trkpt>
<trkpt lat="51.69492" lon="7.23574"><ele>104</ele></trkpt>
<trkpt lat="51.69503" lon="7.23461"><ele>106</ele></trkpt>
<trkpt lat="51.69510" lon="7.23420"><ele>107</ele></trkpt>
<trkpt lat="51.69747" lon="7.23040"><ele>92</ele></trkpt>
<trkpt lat="51.69761" lon="7.23026"><ele>91</ele></trkpt>
<trkpt lat="51.69799" lon="7.23015"><ele>90</ele></trkpt>
<trkpt lat="51.69806" lon="7.23008"><ele>89</ele></trkpt>
<trkpt lat="51.69821" lon="7.22832"><ele>92</ele></trkpt>
<trkpt lat="51.68976" lon="7.22636"><ele>107</ele></trkpt>
<trkpt lat="51.68965" lon="7.22283"><ele>108</ele></trkpt>
<trkpt lat="51.68948" lon="7.21915"><ele>92</ele></trkpt>
<trkpt lat="51.69280" lon="7.21750"><ele>99</ele></trkpt>
<trkpt lat="51.69480" lon="7.21636"><ele>109</ele></trkpt>
<trkpt lat="51.69518" lon="7.21567"><ele>106</ele></trkpt>
<trkpt lat="51.69570" lon="7.21455"><ele>106</ele></trkpt>
<trkpt lat="51.69768" lon="7.21069"><ele>120</ele></trkpt>
<trkpt lat="51.69894" lon="7.20816"><ele>124</ele></trkpt>
<trkpt lat="51.70008" lon="7.20576"><ele>119</ele></trkpt>
<trkpt lat="51.70074" lon="7.20454"><ele>110</ele></trkpt>
<trkpt lat="51.70213" lon="7.20177"><ele>96</ele></trkpt>
<trkpt lat="51.70233" lon="7.20134"><ele>96</ele></trkpt>
<trkpt lat="51.70268" lon="7.20037"><ele>96</ele></trkpt>
<trkpt lat="51.70287" lon="7.19996"><ele>98</ele></trkpt>
<trkpt lat="51.70358" lon="7.19906"><ele>106</ele></trkpt>
<trkpt lat="51.70613" lon="7.19550"><ele>96</ele></trkpt>
<trkpt lat="51.70755" lon="7.19454"><ele>93</ele></trkpt>
<trkpt lat="51.70761" lon="7.19443"><ele>93</ele></trkpt>
<trkpt lat="51.70802" lon="7.19438"><ele>93</ele></trkpt>
<trkpt lat="51.70857" lon="7.19405"><ele>93</ele></trkpt>
<trkpt lat="51.71021" lon="7.19261"><ele>87</ele></trkpt>
<trkpt lat="51.71084" lon="7.19223"><ele>86</ele></trkpt>
<trkpt lat="51.71200" lon="7.19182"><ele>84</ele></trkpt>
<trkpt lat="51.72122" lon="7.18873"><ele>60</ele></trkpt>
<trkpt lat="51.72145" lon="7.18868"><ele>60</ele></trkpt>
<trkpt lat="51.72163" lon="7.18871"><ele>60</ele></trkpt>
<trkpt lat="51.72178" lon="7.18865"><ele>59</ele></trkpt>
<trkpt lat="51.72193" lon="7.18849"><ele>59</ele></trkpt>
<trkpt lat="51.72740" lon="7.18660"><ele>45</ele></trkpt>
<trkpt lat="51.72748" lon="7.18666"><ele>45</ele></trkpt>
<trkpt lat="51.72766" lon="7.18661"><ele>44</ele></trkpt>
<trkpt lat="51.72773" lon="7.18648"><ele>44</ele></trkpt>
<trkpt lat="51.72772" lon="7.18638"><ele>45</ele></trkpt>
<trkpt lat="51.72860" lon="7.18616"><ele>44</ele></trkpt>
<trkpt lat="51.72911" lon="7.18615"><ele>43</ele></trkpt>
<trkpt lat="51.72943" lon="7.18620"><ele>42</ele></trkpt>
<trkpt lat="51.73003" lon="7.18640"><ele>42</ele></trkpt>
<trkpt lat="51.73302" lon="7.18778"><ele>39</ele></trkpt>
<trkpt lat="51.73328" lon="7.18793"><ele>39</ele></trkpt>
<trkpt lat="51.73361" lon="7.18830"><ele>39</ele></trkpt>
<trkpt lat="51.73368" lon="7.18814"><ele>39</ele></trkpt>
<trkpt lat="51.73378" lon="7.18808"><ele>39</ele></trkpt>
<trkpt lat="51.73837" lon="7.18752"><ele>40</ele></trkpt>
<trkpt lat="51.73849" lon="7.18761"><ele>39</ele></trkpt>
<trkpt lat="51.73856" lon="7.18753"><ele>39</ele></trkpt>
<trkpt lat="51.73877" lon="7.18751"><ele>39</ele></trkpt>
<trkpt lat="51.73891" lon="7.18764"><ele>39</ele></trkpt>
<trkpt lat="51.73922" lon="7.18739"><ele>39</ele></trkpt>
<trkpt lat="51.73962" lon="7.18741"><ele>39</ele></trkpt>
<trkpt lat="51.73966" lon="7.18747"><ele>39</ele></trkpt>
<trkpt lat="51.73971" lon="7.18743"><ele>39</ele></trkpt>
<trkpt lat="51.73972" lon="7.18736"><ele>40</ele></trkpt>
<trkpt lat="51.74102" lon="7.18720"><ele>39</ele></trkpt>
<trkpt lat="51.74111" lon="7.18714"><ele>39</ele></trkpt>
<trkpt lat="51.74136" lon="7.18680"><ele>39</ele></trkpt>
<trkpt lat="51.74133" lon="7.18672"><ele>40</ele></trkpt>
<trkpt lat="51.74149" lon="7.18632"><ele>40</ele></trkpt>
<trkpt lat="51.74160" lon="7.18638"><ele>40</ele></trkpt>
<trkpt lat="51.74170" lon="7.18601"><ele>40</ele></trkpt>
<trkpt lat="51.74206" lon="7.18534"><ele>40</ele></trkpt>
<trkpt lat="51.74325" lon="7.18351"><ele>42</ele></trkpt>
<trkpt lat="51.74330" lon="7.18360"><ele>42</ele></trkpt>
    </trkseg>
  </trk>
</gpx>
