<?xml version="1.0" encoding="UTF-8"?>
<gpx version="1.1" creator="Gravel Kompass" xmlns="http://www.topografix.com/GPX/1/1">
  <metadata><name>München – Haltern am See: Von der Isar ins Münsterland – Etappe 1</name></metadata>
  <trk>
    <name>Etappe 1: München – Ingolstadt</name>
    <trkseg>
<trkpt lat="48.14500" lon="11.55950"><ele>517</ele></trkpt>
<trkpt lat="48.14502" lon="11.55950"><ele>517</ele></trkpt>
<trkpt lat="48.14503" lon="11.55958"><ele>517</ele></trkpt>
<trkpt lat="48.14662" lon="11.55917"><ele>516</ele></trkpt>
<trkpt lat="48.14673" lon="11.55910"><ele>516</ele></trkpt>
<trkpt lat="48.14683" lon="11.55897"><ele>516</ele></trkpt>
<trkpt lat="48.14689" lon="11.55904"><ele>516</ele></trkpt>
<trkpt lat="48.14737" lon="11.55916"><ele>516</ele></trkpt>
<trkpt lat="48.14766" lon="11.55911"><ele>516</ele></trkpt>
<trkpt lat="48.14773" lon="11.55845"><ele>516</ele></trkpt>
<trkpt lat="48.14776" lon="11.55828"><ele>516</ele></trkpt>
<trkpt lat="48.14782" lon="11.55817"><ele>517</ele></trkpt>
<trkpt lat="48.14830" lon="11.55488"><ele>518</ele></trkpt>
<trkpt lat="48.15151" lon="11.53876"><ele>519</ele></trkpt>
<trkpt lat="48.15181" lon="11.53733"><ele>518</ele></trkpt>
<trkpt lat="48.15185" lon="11.53729"><ele>518</ele></trkpt>
<trkpt lat="48.15635" lon="11.53759"><ele>517</ele></trkpt>
<trkpt lat="48.15715" lon="11.53753"><ele>517</ele></trkpt>
<trkpt lat="48.15769" lon="11.53756"><ele>517</ele></trkpt>
<trkpt lat="48.16003" lon="11.53773"><ele>515</ele></trkpt>
<trkpt lat="48.16240" lon="11.53798"><ele>514</ele></trkpt>
<trkpt lat="48.16593" lon="11.53823"><ele>513</ele></trkpt>
<trkpt lat="48.16646" lon="11.53775"><ele>516</ele></trkpt>
<trkpt lat="48.16664" lon="11.53757"><ele>514</ele></trkpt>
<trkpt lat="48.16676" lon="11.53737"><ele>513</ele></trkpt>
<trkpt lat="48.16745" lon="11.53668"><ele>513</ele></trkpt>
<trkpt lat="48.16808" lon="11.53593"><ele>513</ele></trkpt>
<trkpt lat="48.17209" lon="11.52954"><ele>510</ele></trkpt>
<trkpt lat="48.17256" lon="11.52866"><ele>510</ele></trkpt>
<trkpt lat="48.17464" lon="11.52456"><ele>508</ele></trkpt>
<trkpt lat="48.17510" lon="11.52378"><ele>508</ele></trkpt>
<trkpt lat="48.17571" lon="11.52256"><ele>507</ele></trkpt>
<trkpt lat="48.17579" lon="11.52249"><ele>507</ele></trkpt>
<trkpt lat="48.17598" lon="11.52214"><ele>508</ele></trkpt>
<trkpt lat="48.17607" lon="11.52187"><ele>507</ele></trkpt>
<trkpt lat="48.17628" lon="11.52139"><ele>508</ele></trkpt>
<trkpt lat="48.17640" lon="11.52129"><ele>508</ele></trkpt>
<trkpt lat="48.17697" lon="11.51997"><ele>508</ele></trkpt>
<trkpt lat="48.17851" lon="11.51685"><ele>507</ele></trkpt>
<trkpt lat="48.18020" lon="11.51329"><ele>506</ele></trkpt>
<trkpt lat="48.18105" lon="11.51184"><ele>506</ele></trkpt>
<trkpt lat="48.18129" lon="11.51161"><ele>506</ele></trkpt>
<trkpt lat="48.18233" lon="11.50980"><ele>505</ele></trkpt>
<trkpt lat="48.18290" lon="11.50871"><ele>504</ele></trkpt>
<trkpt lat="48.18361" lon="11.50714"><ele>505</ele></trkpt>
<trkpt lat="48.18532" lon="11.50466"><ele>505</ele></trkpt>
<trkpt lat="48.18568" lon="11.50436"><ele>505</ele></trkpt>
<trkpt lat="48.18596" lon="11.50424"><ele>505</ele></trkpt>
<trkpt lat="48.18819" lon="11.50352"><ele>504</ele></trkpt>
<trkpt lat="48.19111" lon="11.50263"><ele>502</ele></trkpt>
<trkpt lat="48.19209" lon="11.50221"><ele>503</ele></trkpt>
<trkpt lat="48.19235" lon="11.50219"><ele>502</ele></trkpt>
<trkpt lat="48.19305" lon="11.50233"><ele>503</ele></trkpt>
<trkpt lat="48.19316" lon="11.50128"><ele>504</ele></trkpt>
<trkpt lat="48.19333" lon="11.50016"><ele>504</ele></trkpt>
<trkpt lat="48.19374" lon="11.49775"><ele>508</ele></trkpt>
<trkpt lat="48.19391" lon="11.49694"><ele>507</ele></trkpt>
<trkpt lat="48.19418" lon="11.49627"><ele>508</ele></trkpt>
<trkpt lat="48.19437" lon="11.49592"><ele>507</ele></trkpt>
<trkpt lat="48.19463" lon="11.49556"><ele>508</ele></trkpt>
<trkpt lat="48.19481" lon="11.49539"><ele>508</ele></trkpt>
<trkpt lat="48.19528" lon="11.49508"><ele>508</ele></trkpt>
<trkpt lat="48.19555" lon="11.49500"><ele>508</ele></trkpt>
<trkpt lat="48.19628" lon="11.49492"><ele>509</ele></trkpt>
<trkpt lat="48.19763" lon="11.49485"><ele>510</ele></trkpt>
<trkpt lat="48.19838" lon="11.49457"><ele>510</ele></trkpt>
<trkpt lat="48.19901" lon="11.49412"><ele>510</ele></trkpt>
<trkpt lat="48.19909" lon="11.49438"><ele>509</ele></trkpt>
<trkpt lat="48.19968" lon="11.49369"><ele>504</ele></trkpt>
<trkpt lat="48.19973" lon="11.49349"><ele>504</ele></trkpt>
<trkpt lat="48.19969" lon="11.49345"><ele>506</ele></trkpt>
<trkpt lat="48.19947" lon="11.49294"><ele>504</ele></trkpt>
<trkpt lat="48.19987" lon="11.49264"><ele>504</ele></trkpt>
<trkpt lat="48.20069" lon="11.49180"><ele>500</ele></trkpt>
<trkpt lat="48.20074" lon="11.49169"><ele>500</ele></trkpt>
<trkpt lat="48.20069" lon="11.49150"><ele>499</ele></trkpt>
<trkpt lat="48.20030" lon="11.48800"><ele>500</ele></trkpt>
<trkpt lat="48.20020" lon="11.48606"><ele>500</ele></trkpt>
<trkpt lat="48.20022" lon="11.48545"><ele>500</ele></trkpt>
<trkpt lat="48.20117" lon="11.48417"><ele>500</ele></trkpt>
<trkpt lat="48.20221" lon="11.48313"><ele>499</ele></trkpt>
<trkpt lat="48.20246" lon="11.48299"><ele>499</ele></trkpt>
<trkpt lat="48.20314" lon="11.48290"><ele>499</ele></trkpt>
<trkpt lat="48.20319" lon="11.48285"><ele>499</ele></trkpt>
<trkpt lat="48.20406" lon="11.48276"><ele>499</ele></trkpt>
<trkpt lat="48.20638" lon="11.48264"><ele>497</ele></trkpt>
<trkpt lat="48.20647" lon="11.48256"><ele>497</ele></trkpt>
<trkpt lat="48.20743" lon="11.48115"><ele>497</ele></trkpt>
<trkpt lat="48.20774" lon="11.48157"><ele>497</ele></trkpt>
<trkpt lat="48.20834" lon="11.48209"><ele>497</ele></trkpt>
<trkpt lat="48.20865" lon="11.48229"><ele>498</ele></trkpt>
<trkpt lat="48.20978" lon="11.48252"><ele>498</ele></trkpt>
<trkpt lat="48.20987" lon="11.48301"><ele>496</ele></trkpt>
<trkpt lat="48.21016" lon="11.48372"><ele>497</ele></trkpt>
<trkpt lat="48.21021" lon="11.48400"><ele>498</ele></trkpt>
<trkpt lat="48.21030" lon="11.48475"><ele>500</ele></trkpt>
<trkpt lat="48.21037" lon="11.48484"><ele>500</ele></trkpt>
<trkpt lat="48.21151" lon="11.48484"><ele>496</ele></trkpt>
<trkpt lat="48.21207" lon="11.48479"><ele>495</ele></trkpt>
<trkpt lat="48.21257" lon="11.48454"><ele>494</ele></trkpt>
<trkpt lat="48.21269" lon="11.48488"><ele>495</ele></trkpt>
<trkpt lat="48.21275" lon="11.48489"><ele>495</ele></trkpt>
<trkpt lat="48.21299" lon="11.48466"><ele>494</ele></trkpt>
<trkpt lat="48.21328" lon="11.48429"><ele>494</ele></trkpt>
<trkpt lat="48.21597" lon="11.48128"><ele>494</ele></trkpt>
<trkpt lat="48.21653" lon="11.48069"><ele>493</ele></trkpt>
<trkpt lat="48.21667" lon="11.48059"><ele>493</ele></trkpt>
<trkpt lat="48.21672" lon="11.48052"><ele>493</ele></trkpt>
<trkpt lat="48.21671" lon="11.48043"><ele>493</ele></trkpt>
<trkpt lat="48.21674" lon="11.48040"><ele>493</ele></trkpt>
<trkpt lat="48.21686" lon="11.48030"><ele>493</ele></trkpt>
<trkpt lat="48.21929" lon="11.47754"><ele>492</ele></trkpt>
<trkpt lat="48.22043" lon="11.47604"><ele>492</ele></trkpt>
<trkpt lat="48.22073" lon="11.47560"><ele>492</ele></trkpt>
<trkpt lat="48.22165" lon="11.47407"><ele>492</ele></trkpt>
<trkpt lat="48.22204" lon="11.47363"><ele>492</ele></trkpt>
<trkpt lat="48.22222" lon="11.47325"><ele>492</ele></trkpt>
<trkpt lat="48.22231" lon="11.47320"><ele>492</ele></trkpt>
<trkpt lat="48.22236" lon="11.47301"><ele>492</ele></trkpt>
<trkpt lat="48.22265" lon="11.47248"><ele>492</ele></trkpt>
<trkpt lat="48.22335" lon="11.47140"><ele>491</ele></trkpt>
<trkpt lat="48.22611" lon="11.46689"><ele>490</ele></trkpt>
<trkpt lat="48.22840" lon="11.46327"><ele>489</ele></trkpt>
<trkpt lat="48.22837" lon="11.46317"><ele>489</ele></trkpt>
<trkpt lat="48.22855" lon="11.46287"><ele>489</ele></trkpt>
<trkpt lat="48.22856" lon="11.46277"><ele>489</ele></trkpt>
<trkpt lat="48.22943" lon="11.46136"><ele>488</ele></trkpt>
<trkpt lat="48.23006" lon="11.46071"><ele>488</ele></trkpt>
<trkpt lat="48.23046" lon="11.46064"><ele>488</ele></trkpt>
<trkpt lat="48.23055" lon="11.46056"><ele>488</ele></trkpt>
<trkpt lat="48.23230" lon="11.46004"><ele>487</ele></trkpt>
<trkpt lat="48.23387" lon="11.45950"><ele>486</ele></trkpt>
<trkpt lat="48.23418" lon="11.45925"><ele>486</ele></trkpt>
<trkpt lat="48.23465" lon="11.45866"><ele>486</ele></trkpt>
<trkpt lat="48.23530" lon="11.45811"><ele>486</ele></trkpt>
<trkpt lat="48.23866" lon="11.45588"><ele>484</ele></trkpt>
<trkpt lat="48.24117" lon="11.45440"><ele>484</ele></trkpt>
<trkpt lat="48.24163" lon="11.45421"><ele>484</ele></trkpt>
<trkpt lat="48.24197" lon="11.45416"><ele>484</ele></trkpt>
<trkpt lat="48.24240" lon="11.45418"><ele>484</ele></trkpt>
<trkpt lat="48.24307" lon="11.45433"><ele>484</ele></trkpt>
<trkpt lat="48.24335" lon="11.45431"><ele>485</ele></trkpt>
<trkpt lat="48.24359" lon="11.45421"><ele>488</ele></trkpt>
<trkpt lat="48.24382" lon="11.45398"><ele>484</ele></trkpt>
<trkpt lat="48.24640" lon="11.45089"><ele>482</ele></trkpt>
<trkpt lat="48.24651" lon="11.45080"><ele>482</ele></trkpt>
<trkpt lat="48.25042" lon="11.44602"><ele>481</ele></trkpt>
<trkpt lat="48.25082" lon="11.44558"><ele>481</ele></trkpt>
<trkpt lat="48.25090" lon="11.44557"><ele>480</ele></trkpt>
<trkpt lat="48.25123" lon="11.44567"><ele>480</ele></trkpt>
<trkpt lat="48.25142" lon="11.44558"><ele>481</ele></trkpt>
<trkpt lat="48.25247" lon="11.44540"><ele>480</ele></trkpt>
<trkpt lat="48.25273" lon="11.44541"><ele>480</ele></trkpt>
<trkpt lat="48.25331" lon="11.44558"><ele>481</ele></trkpt>
<trkpt lat="48.25353" lon="11.44558"><ele>480</ele></trkpt>
<trkpt lat="48.25449" lon="11.44542"><ele>480</ele></trkpt>
<trkpt lat="48.25508" lon="11.44526"><ele>480</ele></trkpt>
<trkpt lat="48.25532" lon="11.44532"><ele>480</ele></trkpt>
<trkpt lat="48.25554" lon="11.44567"><ele>480</ele></trkpt>
<trkpt lat="48.25727" lon="11.44542"><ele>478</ele></trkpt>
<trkpt lat="48.25764" lon="11.44544"><ele>479</ele></trkpt>
<trkpt lat="48.25780" lon="11.44321"><ele>479</ele></trkpt>
<trkpt lat="48.26060" lon="11.44245"><ele>476</ele></trkpt>
<trkpt lat="48.26090" lon="11.44293"><ele>476</ele></trkpt>
<trkpt lat="48.26099" lon="11.44323"><ele>476</ele></trkpt>
<trkpt lat="48.26131" lon="11.44280"><ele>476</ele></trkpt>
<trkpt lat="48.26133" lon="11.44273"><ele>477</ele></trkpt>
<trkpt lat="48.26190" lon="11.44258"><ele>479</ele></trkpt>
<trkpt lat="48.26236" lon="11.44246"><ele>478</ele></trkpt>
<trkpt lat="48.26366" lon="11.44229"><ele>479</ele></trkpt>
<trkpt lat="48.26479" lon="11.44231"><ele>478</ele></trkpt>
<trkpt lat="48.26543" lon="11.44243"><ele>478</ele></trkpt>
<trkpt lat="48.26545" lon="11.44211"><ele>478</ele></trkpt>
<trkpt lat="48.26548" lon="11.44205"><ele>478</ele></trkpt>
<trkpt lat="48.26591" lon="11.44209"><ele>478</ele></trkpt>
<trkpt lat="48.26695" lon="11.44238"><ele>477</ele></trkpt>
<trkpt lat="48.26752" lon="11.44237"><ele>476</ele></trkpt>
<trkpt lat="48.26805" lon="11.44243"><ele>477</ele></trkpt>
<trkpt lat="48.26903" lon="11.44204"><ele>477</ele></trkpt>
<trkpt lat="48.26908" lon="11.44198"><ele>477</ele></trkpt>
<trkpt lat="48.26933" lon="11.44155"><ele>477</ele></trkpt>
<trkpt lat="48.26904" lon="11.44081"><ele>478</ele></trkpt>
<trkpt lat="48.26894" lon="11.44027"><ele>478</ele></trkpt>
<trkpt lat="48.26889" lon="11.43979"><ele>478</ele></trkpt>
<trkpt lat="48.27005" lon="11.43973"><ele>478</ele></trkpt>
<trkpt lat="48.27018" lon="11.43977"><ele>478</ele></trkpt>
<trkpt lat="48.27038" lon="11.43949"><ele>478</ele></trkpt>
<trkpt lat="48.27062" lon="11.43939"><ele>478</ele></trkpt>
<trkpt lat="48.27136" lon="11.43925"><ele>481</ele></trkpt>
<trkpt lat="48.27169" lon="11.43911"><ele>484</ele></trkpt>
<trkpt lat="48.27210" lon="11.43883"><ele>488</ele></trkpt>
<trkpt lat="48.27234" lon="11.43878"><ele>488</ele></trkpt>
<trkpt lat="48.27283" lon="11.43851"><ele>489</ele></trkpt>
<trkpt lat="48.27364" lon="11.43816"><ele>490</ele></trkpt>
<trkpt lat="48.27411" lon="11.43781"><ele>492</ele></trkpt>
<trkpt lat="48.27459" lon="11.43771"><ele>494</ele></trkpt>
<trkpt lat="48.27625" lon="11.43750"><ele>498</ele></trkpt>
<trkpt lat="48.27636" lon="11.43750"><ele>498</ele></trkpt>
<trkpt lat="48.27647" lon="11.43758"><ele>498</ele></trkpt>
<trkpt lat="48.27665" lon="11.43805"><ele>497</ele></trkpt>
<trkpt lat="48.27672" lon="11.43847"><ele>496</ele></trkpt>
<trkpt lat="48.27675" lon="11.43904"><ele>495</ele></trkpt>
<trkpt lat="48.27664" lon="11.44029"><ele>494</ele></trkpt>
<trkpt lat="48.27667" lon="11.44056"><ele>495</ele></trkpt>
<trkpt lat="48.27677" lon="11.44078"><ele>495</ele></trkpt>
<trkpt lat="48.27695" lon="11.44090"><ele>496</ele></trkpt>
<trkpt lat="48.27728" lon="11.44102"><ele>497</ele></trkpt>
<trkpt lat="48.27769" lon="11.44105"><ele>501</ele></trkpt>
<trkpt lat="48.27804" lon="11.44101"><ele>504</ele></trkpt>
<trkpt lat="48.27943" lon="11.44051"><ele>512</ele></trkpt>
<trkpt lat="48.28085" lon="11.44035"><ele>504</ele></trkpt>
<trkpt lat="48.28424" lon="11.44028"><ele>494</ele></trkpt>
<trkpt lat="48.28664" lon="11.44033"><ele>480</ele></trkpt>
<trkpt lat="48.28727" lon="11.44022"><ele>479</ele></trkpt>
<trkpt lat="48.28788" lon="11.43676"><ele>481</ele></trkpt>
<trkpt lat="48.28888" lon="11.43378"><ele>483</ele></trkpt>
<trkpt lat="48.28999" lon="11.43440"><ele>488</ele></trkpt>
<trkpt lat="48.29097" lon="11.43468"><ele>496</ele></trkpt>
<trkpt lat="48.29104" lon="11.43483"><ele>497</ele></trkpt>
<trkpt lat="48.29145" lon="11.43520"><ele>498</ele></trkpt>
<trkpt lat="48.29240" lon="11.43580"><ele>504</ele></trkpt>
<trkpt lat="48.29300" lon="11.43608"><ele>509</ele></trkpt>
<trkpt lat="48.29728" lon="11.43587"><ele>509</ele></trkpt>
<trkpt lat="48.29857" lon="11.43600"><ele>509</ele></trkpt>
<trkpt lat="48.29954" lon="11.43634"><ele>504</ele></trkpt>
<trkpt lat="48.30032" lon="11.43646"><ele>498</ele></trkpt>
<trkpt lat="48.30213" lon="11.43642"><ele>488</ele></trkpt>
<trkpt lat="48.30613" lon="11.43647"><ele>496</ele></trkpt>
<trkpt lat="48.30934" lon="11.43596"><ele>497</ele></trkpt>
<trkpt lat="48.30982" lon="11.43594"><ele>498</ele></trkpt>
<trkpt lat="48.31017" lon="11.43603"><ele>498</ele></trkpt>
<trkpt lat="48.31043" lon="11.43624"><ele>499</ele></trkpt>
<trkpt lat="48.31061" lon="11.43624"><ele>500</ele></trkpt>
<trkpt lat="48.31068" lon="11.43619"><ele>500</ele></trkpt>
<trkpt lat="48.31078" lon="11.43605"><ele>500</ele></trkpt>
<trkpt lat="48.31083" lon="11.43566"><ele>500</ele></trkpt>
<trkpt lat="48.31090" lon="11.43551"><ele>500</ele></trkpt>
<trkpt lat="48.31161" lon="11.43544"><ele>502</ele></trkpt>
<trkpt lat="48.31205" lon="11.43529"><ele>503</ele></trkpt>
<trkpt lat="48.31263" lon="11.43496"><ele>507</ele></trkpt>
<trkpt lat="48.31348" lon="11.43431"><ele>514</ele></trkpt>
<trkpt lat="48.31435" lon="11.43348"><ele>520</ele></trkpt>
<trkpt lat="48.31473" lon="11.43303"><ele>523</ele></trkpt>
<trkpt lat="48.31545" lon="11.43199"><ele>528</ele></trkpt>
<trkpt lat="48.31585" lon="11.43132"><ele>526</ele></trkpt>
<trkpt lat="48.31622" lon="11.43103"><ele>523</ele></trkpt>
<trkpt lat="48.31655" lon="11.43086"><ele>520</ele></trkpt>
<trkpt lat="48.31995" lon="11.43085"><ele>510</ele></trkpt>
<trkpt lat="48.32143" lon="11.43107"><ele>500</ele></trkpt>
<trkpt lat="48.32236" lon="11.43100"><ele>496</ele></trkpt>
<trkpt lat="48.32266" lon="11.43111"><ele>496</ele></trkpt>
<trkpt lat="48.32286" lon="11.43124"><ele>496</ele></trkpt>
<trkpt lat="48.32284" lon="11.43056"><ele>495</ele></trkpt>
<trkpt lat="48.32268" lon="11.42977"><ele>494</ele></trkpt>
<trkpt lat="48.32276" lon="11.42967"><ele>494</ele></trkpt>
<trkpt lat="48.32285" lon="11.42962"><ele>494</ele></trkpt>
<trkpt lat="48.32348" lon="11.42971"><ele>494</ele></trkpt>
<trkpt lat="48.32390" lon="11.42965"><ele>496</ele></trkpt>
<trkpt lat="48.32414" lon="11.42917"><ele>498</ele></trkpt>
<trkpt lat="48.32480" lon="11.42876"><ele>505</ele></trkpt>
<trkpt lat="48.32530" lon="11.42835"><ele>505</ele></trkpt>
<trkpt lat="48.32561" lon="11.42823"><ele>501</ele></trkpt>
<trkpt lat="48.32676" lon="11.42692"><ele>490</ele></trkpt>
<trkpt lat="48.32716" lon="11.42606"><ele>489</ele></trkpt>
<trkpt lat="48.32739" lon="11.42629"><ele>490</ele></trkpt>
<trkpt lat="48.32771" lon="11.42679"><ele>490</ele></trkpt>
<trkpt lat="48.32793" lon="11.42746"><ele>491</ele></trkpt>
<trkpt lat="48.32826" lon="11.42815"><ele>491</ele></trkpt>
<trkpt lat="48.32884" lon="11.42922"><ele>489</ele></trkpt>
<trkpt lat="48.32911" lon="11.42986"><ele>490</ele></trkpt>
<trkpt lat="48.32948" lon="11.43057"><ele>490</ele></trkpt>
<trkpt lat="48.32983" lon="11.43069"><ele>489</ele></trkpt>
<trkpt lat="48.33002" lon="11.43067"><ele>487</ele></trkpt>
<trkpt lat="48.33082" lon="11.43040"><ele>483</ele></trkpt>
<trkpt lat="48.33094" lon="11.43022"><ele>482</ele></trkpt>
<trkpt lat="48.33108" lon="11.42984"><ele>483</ele></trkpt>
<trkpt lat="48.33112" lon="11.42980"><ele>483</ele></trkpt>
<trkpt lat="48.33181" lon="11.42940"><ele>484</ele></trkpt>
<trkpt lat="48.33263" lon="11.42929"><ele>486</ele></trkpt>
<trkpt lat="48.33376" lon="11.42884"><ele>486</ele></trkpt>
<trkpt lat="48.33470" lon="11.42857"><ele>485</ele></trkpt>
<trkpt lat="48.33469" lon="11.42810"><ele>484</ele></trkpt>
<trkpt lat="48.33477" lon="11.42610"><ele>482</ele></trkpt>
<trkpt lat="48.33548" lon="11.42599"><ele>481</ele></trkpt>
<trkpt lat="48.33631" lon="11.42577"><ele>484</ele></trkpt>
<trkpt lat="48.33652" lon="11.42442"><ele>484</ele></trkpt>
<trkpt lat="48.33674" lon="11.42332"><ele>486</ele></trkpt>
<trkpt lat="48.33683" lon="11.42307"><ele>486</ele></trkpt>
<trkpt lat="48.33688" lon="11.42307"><ele>486</ele></trkpt>
<trkpt lat="48.33716" lon="11.42326"><ele>488</ele></trkpt>
<trkpt lat="48.33756" lon="11.42359"><ele>489</ele></trkpt>
<trkpt lat="48.33771" lon="11.42361"><ele>490</ele></trkpt>
<trkpt lat="48.33789" lon="11.42356"><ele>490</ele></trkpt>
<trkpt lat="48.33817" lon="11.42341"><ele>492</ele></trkpt>
<trkpt lat="48.33843" lon="11.42345"><ele>493</ele></trkpt>
<trkpt lat="48.33899" lon="11.42182"><ele>496</ele></trkpt>
<trkpt lat="48.33986" lon="11.42040"><ele>500</ele></trkpt>
<trkpt lat="48.34102" lon="11.41785"><ele>501</ele></trkpt>
<trkpt lat="48.34146" lon="11.41715"><ele>500</ele></trkpt>
<trkpt lat="48.34271" lon="11.41545"><ele>493</ele></trkpt>
<trkpt lat="48.34293" lon="11.41506"><ele>491</ele></trkpt>
<trkpt lat="48.34315" lon="11.41453"><ele>489</ele></trkpt>
<trkpt lat="48.34329" lon="11.41404"><ele>488</ele></trkpt>
<trkpt lat="48.34343" lon="11.41319"><ele>485</ele></trkpt>
<trkpt lat="48.34342" lon="11.41228"><ele>484</ele></trkpt>
<trkpt lat="48.34327" lon="11.41107"><ele>483</ele></trkpt>
<trkpt lat="48.34326" lon="11.41071"><ele>482</ele></trkpt>
<trkpt lat="48.34332" lon="11.41002"><ele>481</ele></trkpt>
<trkpt lat="48.34338" lon="11.40975"><ele>480</ele></trkpt>
<trkpt lat="48.34364" lon="11.40896"><ele>478</ele></trkpt>
<trkpt lat="48.34397" lon="11.40831"><ele>476</ele></trkpt>
<trkpt lat="48.34432" lon="11.40778"><ele>476</ele></trkpt>
<trkpt lat="48.34484" lon="11.40727"><ele>476</ele></trkpt>
<trkpt lat="48.34655" lon="11.40613"><ele>482</ele></trkpt>
<trkpt lat="48.34705" lon="11.40568"><ele>484</ele></trkpt>
<trkpt lat="48.34743" lon="11.40515"><ele>484</ele></trkpt>
<trkpt lat="48.34764" lon="11.40485"><ele>484</ele></trkpt>
<trkpt lat="48.34793" lon="11.40425"><ele>485</ele></trkpt>
<trkpt lat="48.34861" lon="11.40250"><ele>485</ele></trkpt>
<trkpt lat="48.34948" lon="11.40004"><ele>482</ele></trkpt>
<trkpt lat="48.34984" lon="11.39919"><ele>484</ele></trkpt>
<trkpt lat="48.35049" lon="11.39813"><ele>487</ele></trkpt>
<trkpt lat="48.35114" lon="11.39730"><ele>488</ele></trkpt>
<trkpt lat="48.35160" lon="11.39685"><ele>489</ele></trkpt>
<trkpt lat="48.35209" lon="11.39650"><ele>490</ele></trkpt>
<trkpt lat="48.35251" lon="11.39612"><ele>490</ele></trkpt>
<trkpt lat="48.35318" lon="11.39506"><ele>491</ele></trkpt>
<trkpt lat="48.35362" lon="11.39466"><ele>491</ele></trkpt>
<trkpt lat="48.35386" lon="11.39426"><ele>491</ele></trkpt>
<trkpt lat="48.35410" lon="11.39357"><ele>491</ele></trkpt>
<trkpt lat="48.35421" lon="11.39316"><ele>491</ele></trkpt>
<trkpt lat="48.35487" lon="11.39387"><ele>492</ele></trkpt>
<trkpt lat="48.35486" lon="11.39396"><ele>492</ele></trkpt>
<trkpt lat="48.35489" lon="11.39407"><ele>492</ele></trkpt>
<trkpt lat="48.35500" lon="11.39413"><ele>492</ele></trkpt>
<trkpt lat="48.35506" lon="11.39409"><ele>492</ele></trkpt>
<trkpt lat="48.35510" lon="11.39400"><ele>492</ele></trkpt>
<trkpt lat="48.35506" lon="11.39382"><ele>492</ele></trkpt>
<trkpt lat="48.35507" lon="11.39358"><ele>492</ele></trkpt>
<trkpt lat="48.35523" lon="11.39287"><ele>490</ele></trkpt>
<trkpt lat="48.35522" lon="11.39203"><ele>488</ele></trkpt>
<trkpt lat="48.35550" lon="11.39197"><ele>489</ele></trkpt>
<trkpt lat="48.35649" lon="11.39196"><ele>492</ele></trkpt>
<trkpt lat="48.35699" lon="11.39187"><ele>490</ele></trkpt>
<trkpt lat="48.35759" lon="11.39185"><ele>486</ele></trkpt>
<trkpt lat="48.35781" lon="11.39180"><ele>484</ele></trkpt>
<trkpt lat="48.35804" lon="11.39167"><ele>481</ele></trkpt>
<trkpt lat="48.35826" lon="11.39142"><ele>480</ele></trkpt>
<trkpt lat="48.35838" lon="11.39075"><ele>478</ele></trkpt>
<trkpt lat="48.35896" lon="11.38895"><ele>472</ele></trkpt>
<trkpt lat="48.35910" lon="11.38836"><ele>472</ele></trkpt>
<trkpt lat="48.35909" lon="11.38817"><ele>472</ele></trkpt>
<trkpt lat="48.35900" lon="11.38772"><ele>472</ele></trkpt>
<trkpt lat="48.35976" lon="11.38732"><ele>470</ele></trkpt>
<trkpt lat="48.36060" lon="11.38709"><ele>468</ele></trkpt>
<trkpt lat="48.36099" lon="11.38913"><ele>469</ele></trkpt>
<trkpt lat="48.36211" lon="11.39167"><ele>468</ele></trkpt>
<trkpt lat="48.36210" lon="11.39172"><ele>468</ele></trkpt>
<trkpt lat="48.36228" lon="11.39212"><ele>468</ele></trkpt>
<trkpt lat="48.36295" lon="11.39357"><ele>468</ele></trkpt>
<trkpt lat="48.36322" lon="11.39409"><ele>468</ele></trkpt>
<trkpt lat="48.36377" lon="11.39489"><ele>468</ele></trkpt>
<trkpt lat="48.36402" lon="11.39541"><ele>468</ele></trkpt>
<trkpt lat="48.36421" lon="11.39597"><ele>468</ele></trkpt>
<trkpt lat="48.36442" lon="11.39706"><ele>468</ele></trkpt>
<trkpt lat="48.36446" lon="11.39705"><ele>468</ele></trkpt>
<trkpt lat="48.36462" lon="11.39778"><ele>468</ele></trkpt>
<trkpt lat="48.36486" lon="11.39827"><ele>467</ele></trkpt>
<trkpt lat="48.36652" lon="11.40045"><ele>466</ele></trkpt>
<trkpt lat="48.36692" lon="11.40103"><ele>466</ele></trkpt>
<trkpt lat="48.36712" lon="11.40140"><ele>466</ele></trkpt>
<trkpt lat="48.36783" lon="11.40354"><ele>466</ele></trkpt>
<trkpt lat="48.36820" lon="11.40317"><ele>465</ele></trkpt>
<trkpt lat="48.36877" lon="11.40245"><ele>464</ele></trkpt>
<trkpt lat="48.36906" lon="11.40269"><ele>464</ele></trkpt>
<trkpt lat="48.36918" lon="11.40274"><ele>464</ele></trkpt>
<trkpt lat="48.36945" lon="11.40272"><ele>464</ele></trkpt>
<trkpt lat="48.37013" lon="11.40221"><ele>463</ele></trkpt>
<trkpt lat="48.37024" lon="11.40217"><ele>464</ele></trkpt>
<trkpt lat="48.37039" lon="11.40218"><ele>464</ele></trkpt>
<trkpt lat="48.37060" lon="11.40232"><ele>463</ele></trkpt>
<trkpt lat="48.37098" lon="11.40341"><ele>463</ele></trkpt>
<trkpt lat="48.37105" lon="11.40355"><ele>463</ele></trkpt>
<trkpt lat="48.37128" lon="11.40380"><ele>463</ele></trkpt>
<trkpt lat="48.37139" lon="11.40398"><ele>464</ele></trkpt>
<trkpt lat="48.37151" lon="11.40443"><ele>463</ele></trkpt>
<trkpt lat="48.37164" lon="11.40474"><ele>463</ele></trkpt>
<trkpt lat="48.37185" lon="11.40565"><ele>463</ele></trkpt>
<trkpt lat="48.37284" lon="11.40841"><ele>462</ele></trkpt>
<trkpt lat="48.37395" lon="11.40752"><ele>463</ele></trkpt>
<trkpt lat="48.37403" lon="11.40755"><ele>462</ele></trkpt>
<trkpt lat="48.37414" lon="11.40778"><ele>463</ele></trkpt>
<trkpt lat="48.37436" lon="11.40779"><ele>463</ele></trkpt>
<trkpt lat="48.37457" lon="11.40798"><ele>462</ele></trkpt>
<trkpt lat="48.37531" lon="11.40953"><ele>463</ele></trkpt>
<trkpt lat="48.37614" lon="11.41083"><ele>463</ele></trkpt>
<trkpt lat="48.37690" lon="11.41186"><ele>463</ele></trkpt>
<trkpt lat="48.37703" lon="11.41209"><ele>462</ele></trkpt>
<trkpt lat="48.37709" lon="11.41254"><ele>463</ele></trkpt>
<trkpt lat="48.37724" lon="11.41258"><ele>463</ele></trkpt>
<trkpt lat="48.37732" lon="11.41273"><ele>463</ele></trkpt>
<trkpt lat="48.37742" lon="11.41311"><ele>463</ele></trkpt>
<trkpt lat="48.37748" lon="11.41322"><ele>464</ele></trkpt>
<trkpt lat="48.37781" lon="11.41316"><ele>465</ele></trkpt>
<trkpt lat="48.37793" lon="11.41302"><ele>466</ele></trkpt>
<trkpt lat="48.37812" lon="11.41267"><ele>467</ele></trkpt>
<trkpt lat="48.37887" lon="11.41215"><ele>468</ele></trkpt>
<trkpt lat="48.37930" lon="11.41180"><ele>469</ele></trkpt>
<trkpt lat="48.38042" lon="11.41343"><ele>472</ele></trkpt>
<trkpt lat="48.38070" lon="11.41310"><ele>473</ele></trkpt>
<trkpt lat="48.38108" lon="11.41282"><ele>475</ele></trkpt>
<trkpt lat="48.38179" lon="11.41497"><ele>473</ele></trkpt>
<trkpt lat="48.38328" lon="11.41486"><ele>483</ele></trkpt>
<trkpt lat="48.38371" lon="11.41487"><ele>486</ele></trkpt>
<trkpt lat="48.38455" lon="11.41497"><ele>492</ele></trkpt>
<trkpt lat="48.38510" lon="11.41516"><ele>495</ele></trkpt>
<trkpt lat="48.38589" lon="11.41561"><ele>490</ele></trkpt>
<trkpt lat="48.38731" lon="11.41675"><ele>480</ele></trkpt>
<trkpt lat="48.38707" lon="11.41765"><ele>477</ele></trkpt>
<trkpt lat="48.38621" lon="11.42027"><ele>473</ele></trkpt>
<trkpt lat="48.38582" lon="11.42133"><ele>474</ele></trkpt>
<trkpt lat="48.38662" lon="11.42125"><ele>479</ele></trkpt>
<trkpt lat="48.38703" lon="11.42142"><ele>481</ele></trkpt>
<trkpt lat="48.38729" lon="11.42159"><ele>483</ele></trkpt>
<trkpt lat="48.38898" lon="11.42300"><ele>495</ele></trkpt>
<trkpt lat="48.38958" lon="11.42339"><ele>494</ele></trkpt>
<trkpt lat="48.39086" lon="11.42397"><ele>497</ele></trkpt>
<trkpt lat="48.39134" lon="11.42434"><ele>495</ele></trkpt>
<trkpt lat="48.39156" lon="11.42463"><ele>493</ele></trkpt>
<trkpt lat="48.39196" lon="11.42536"><ele>486</ele></trkpt>
<trkpt lat="48.39218" lon="11.42559"><ele>483</ele></trkpt>
<trkpt lat="48.39329" lon="11.42620"><ele>474</ele></trkpt>
<trkpt lat="48.39384" lon="11.42635"><ele>470</ele></trkpt>
<trkpt lat="48.39467" lon="11.42638"><ele>471</ele></trkpt>
<trkpt lat="48.39471" lon="11.42750"><ele>474</ele></trkpt>
<trkpt lat="48.39490" lon="11.42749"><ele>476</ele></trkpt>
<trkpt lat="48.39510" lon="11.42738"><ele>477</ele></trkpt>
<trkpt lat="48.39546" lon="11.42752"><ele>479</ele></trkpt>
<trkpt lat="48.39600" lon="11.42739"><ele>481</ele></trkpt>
<trkpt lat="48.39624" lon="11.42742"><ele>482</ele></trkpt>
<trkpt lat="48.39642" lon="11.42749"><ele>483</ele></trkpt>
<trkpt lat="48.39649" lon="11.42757"><ele>484</ele></trkpt>
<trkpt lat="48.39659" lon="11.42784"><ele>484</ele></trkpt>
<trkpt lat="48.39710" lon="11.42764"><ele>488</ele></trkpt>
<trkpt lat="48.39752" lon="11.42757"><ele>491</ele></trkpt>
<trkpt lat="48.39887" lon="11.42753"><ele>496</ele></trkpt>
<trkpt lat="48.39958" lon="11.42747"><ele>494</ele></trkpt>
<trkpt lat="48.40266" lon="11.42690"><ele>498</ele></trkpt>
<trkpt lat="48.40328" lon="11.42685"><ele>497</ele></trkpt>
<trkpt lat="48.40331" lon="11.42681"><ele>496</ele></trkpt>
<trkpt lat="48.40328" lon="11.42571"><ele>494</ele></trkpt>
<trkpt lat="48.40332" lon="11.42566"><ele>493</ele></trkpt>
<trkpt lat="48.40414" lon="11.42555"><ele>500</ele></trkpt>
<trkpt lat="48.40483" lon="11.42539"><ele>504</ele></trkpt>
<trkpt lat="48.40497" lon="11.42549"><ele>504</ele></trkpt>
<trkpt lat="48.40532" lon="11.42600"><ele>501</ele></trkpt>
<trkpt lat="48.40537" lon="11.42603"><ele>501</ele></trkpt>
<trkpt lat="48.40542" lon="11.42602"><ele>501</ele></trkpt>
<trkpt lat="48.40585" lon="11.42557"><ele>501</ele></trkpt>
<trkpt lat="48.40598" lon="11.42549"><ele>501</ele></trkpt>
<trkpt lat="48.40668" lon="11.42596"><ele>498</ele></trkpt>
<trkpt lat="48.40697" lon="11.42601"><ele>499</ele></trkpt>
<trkpt lat="48.40739" lon="11.42621"><ele>503</ele></trkpt>
<trkpt lat="48.40736" lon="11.42939"><ele>504</ele></trkpt>
<trkpt lat="48.40739" lon="11.42953"><ele>503</ele></trkpt>
<trkpt lat="48.40749" lon="11.42958"><ele>503</ele></trkpt>
<trkpt lat="48.40793" lon="11.42964"><ele>500</ele></trkpt>
<trkpt lat="48.41025" lon="11.42980"><ele>487</ele></trkpt>
<trkpt lat="48.41034" lon="11.43205"><ele>485</ele></trkpt>
<trkpt lat="48.41023" lon="11.43335"><ele>483</ele></trkpt>
<trkpt lat="48.41019" lon="11.43450"><ele>483</ele></trkpt>
<trkpt lat="48.41007" lon="11.43574"><ele>482</ele></trkpt>
<trkpt lat="48.40955" lon="11.43906"><ele>479</ele></trkpt>
<trkpt lat="48.40963" lon="11.43930"><ele>478</ele></trkpt>
<trkpt lat="48.40992" lon="11.43946"><ele>478</ele></trkpt>
<trkpt lat="48.41075" lon="11.43974"><ele>482</ele></trkpt>
<trkpt lat="48.41106" lon="11.43959"><ele>482</ele></trkpt>
<trkpt lat="48.41113" lon="11.43964"><ele>482</ele></trkpt>
<trkpt lat="48.41150" lon="11.44020"><ele>482</ele></trkpt>
<trkpt lat="48.41195" lon="11.44152"><ele>486</ele></trkpt>
<trkpt lat="48.41217" lon="11.44180"><ele>488</ele></trkpt>
<trkpt lat="48.41228" lon="11.44184"><ele>488</ele></trkpt>
<trkpt lat="48.41240" lon="11.44178"><ele>488</ele></trkpt>
<trkpt lat="48.41253" lon="11.44159"><ele>488</ele></trkpt>
<trkpt lat="48.41268" lon="11.44123"><ele>491</ele></trkpt>
<trkpt lat="48.41307" lon="11.44048"><ele>494</ele></trkpt>
<trkpt lat="48.41331" lon="11.44021"><ele>494</ele></trkpt>
<trkpt lat="48.41351" lon="11.44010"><ele>496</ele></trkpt>
<trkpt lat="48.41410" lon="11.44005"><ele>498</ele></trkpt>
<trkpt lat="48.41424" lon="11.44008"><ele>498</ele></trkpt>
<trkpt lat="48.41449" lon="11.44004"><ele>498</ele></trkpt>
<trkpt lat="48.41463" lon="11.44009"><ele>497</ele></trkpt>
<trkpt lat="48.41504" lon="11.44040"><ele>496</ele></trkpt>
<trkpt lat="48.41517" lon="11.44046"><ele>496</ele></trkpt>
<trkpt lat="48.41579" lon="11.44043"><ele>496</ele></trkpt>
<trkpt lat="48.41658" lon="11.44030"><ele>494</ele></trkpt>
<trkpt lat="48.41685" lon="11.44019"><ele>492</ele></trkpt>
<trkpt lat="48.41703" lon="11.44002"><ele>492</ele></trkpt>
<trkpt lat="48.41748" lon="11.43985"><ele>489</ele></trkpt>
<trkpt lat="48.41779" lon="11.43954"><ele>487</ele></trkpt>
<trkpt lat="48.41803" lon="11.43919"><ele>484</ele></trkpt>
<trkpt lat="48.41825" lon="11.43906"><ele>482</ele></trkpt>
<trkpt lat="48.41890" lon="11.43884"><ele>480</ele></trkpt>
<trkpt lat="48.41920" lon="11.43883"><ele>479</ele></trkpt>
<trkpt lat="48.41931" lon="11.43885"><ele>480</ele></trkpt>
<trkpt lat="48.41963" lon="11.43915"><ele>484</ele></trkpt>
<trkpt lat="48.41995" lon="11.43935"><ele>486</ele></trkpt>
<trkpt lat="48.42041" lon="11.43958"><ele>490</ele></trkpt>
<trkpt lat="48.42078" lon="11.43970"><ele>492</ele></trkpt>
<trkpt lat="48.42160" lon="11.44054"><ele>500</ele></trkpt>
<trkpt lat="48.42204" lon="11.44057"><ele>498</ele></trkpt>
<trkpt lat="48.42233" lon="11.44076"><ele>495</ele></trkpt>
<trkpt lat="48.42259" lon="11.44106"><ele>492</ele></trkpt>
<trkpt lat="48.42280" lon="11.44155"><ele>489</ele></trkpt>
<trkpt lat="48.42291" lon="11.44170"><ele>488</ele></trkpt>
<trkpt lat="48.42321" lon="11.44197"><ele>489</ele></trkpt>
<trkpt lat="48.42355" lon="11.44218"><ele>492</ele></trkpt>
<trkpt lat="48.42414" lon="11.44236"><ele>497</ele></trkpt>
<trkpt lat="48.42610" lon="11.44244"><ele>503</ele></trkpt>
<trkpt lat="48.42619" lon="11.44258"><ele>502</ele></trkpt>
<trkpt lat="48.42624" lon="11.44275"><ele>502</ele></trkpt>
<trkpt lat="48.42633" lon="11.44342"><ele>501</ele></trkpt>
<trkpt lat="48.42646" lon="11.44370"><ele>500</ele></trkpt>
<trkpt lat="48.42655" lon="11.44379"><ele>500</ele></trkpt>
<trkpt lat="48.42637" lon="11.44423"><ele>501</ele></trkpt>
<trkpt lat="48.42595" lon="11.44442"><ele>500</ele></trkpt>
<trkpt lat="48.42579" lon="11.44453"><ele>499</ele></trkpt>
<trkpt lat="48.42490" lon="11.44581"><ele>492</ele></trkpt>
<trkpt lat="48.42479" lon="11.44604"><ele>491</ele></trkpt>
<trkpt lat="48.42460" lon="11.44706"><ele>490</ele></trkpt>
<trkpt lat="48.42436" lon="11.44788"><ele>492</ele></trkpt>
<trkpt lat="48.42397" lon="11.44895"><ele>496</ele></trkpt>
<trkpt lat="48.42375" lon="11.44927"><ele>496</ele></trkpt>
<trkpt lat="48.42378" lon="11.44957"><ele>496</ele></trkpt>
<trkpt lat="48.42396" lon="11.45049"><ele>498</ele></trkpt>
<trkpt lat="48.42403" lon="11.45076"><ele>498</ele></trkpt>
<trkpt lat="48.42424" lon="11.45120"><ele>498</ele></trkpt>
<trkpt lat="48.42439" lon="11.45188"><ele>495</ele></trkpt>
<trkpt lat="48.42441" lon="11.45270"><ele>494</ele></trkpt>
<trkpt lat="48.42433" lon="11.45348"><ele>494</ele></trkpt>
<trkpt lat="48.42446" lon="11.45480"><ele>496</ele></trkpt>
<trkpt lat="48.42443" lon="11.45545"><ele>497</ele></trkpt>
<trkpt lat="48.42449" lon="11.45567"><ele>498</ele></trkpt>
<trkpt lat="48.42465" lon="11.45603"><ele>500</ele></trkpt>
<trkpt lat="48.42484" lon="11.45636"><ele>502</ele></trkpt>
<trkpt lat="48.42517" lon="11.45673"><ele>506</ele></trkpt>
<trkpt lat="48.42544" lon="11.45686"><ele>509</ele></trkpt>
<trkpt lat="48.42562" lon="11.45685"><ele>510</ele></trkpt>
<trkpt lat="48.42614" lon="11.45658"><ele>508</ele></trkpt>
<trkpt lat="48.42620" lon="11.45658"><ele>508</ele></trkpt>
<trkpt lat="48.42633" lon="11.45670"><ele>506</ele></trkpt>
<trkpt lat="48.42643" lon="11.45687"><ele>504</ele></trkpt>
<trkpt lat="48.42656" lon="11.45716"><ele>502</ele></trkpt>
<trkpt lat="48.42649" lon="11.45855"><ele>492</ele></trkpt>
<trkpt lat="48.42651" lon="11.45965"><ele>489</ele></trkpt>
<trkpt lat="48.42615" lon="11.46250"><ele>483</ele></trkpt>
<trkpt lat="48.42584" lon="11.46378"><ele>481</ele></trkpt>
<trkpt lat="48.42553" lon="11.46473"><ele>479</ele></trkpt>
<trkpt lat="48.42694" lon="11.46527"><ele>496</ele></trkpt>
<trkpt lat="48.42726" lon="11.46556"><ele>501</ele></trkpt>
<trkpt lat="48.42738" lon="11.46561"><ele>503</ele></trkpt>
<trkpt lat="48.42780" lon="11.46567"><ele>504</ele></trkpt>
<trkpt lat="48.42838" lon="11.46594"><ele>502</ele></trkpt>
<trkpt lat="48.42882" lon="11.46644"><ele>500</ele></trkpt>
<trkpt lat="48.42908" lon="11.46702"><ele>499</ele></trkpt>
<trkpt lat="48.42946" lon="11.46801"><ele>494</ele></trkpt>
<trkpt lat="48.42976" lon="11.46767"><ele>494</ele></trkpt>
<trkpt lat="48.43028" lon="11.46690"><ele>492</ele></trkpt>
<trkpt lat="48.43064" lon="11.46649"><ele>490</ele></trkpt>
<trkpt lat="48.43100" lon="11.46622"><ele>489</ele></trkpt>
<trkpt lat="48.43131" lon="11.46614"><ele>489</ele></trkpt>
<trkpt lat="48.43134" lon="11.46604"><ele>488</ele></trkpt>
<trkpt lat="48.43112" lon="11.46549"><ele>484</ele></trkpt>
<trkpt lat="48.43048" lon="11.46346"><ele>478</ele></trkpt>
<trkpt lat="48.43299" lon="11.46060"><ele>460</ele></trkpt>
<trkpt lat="48.43337" lon="11.46102"><ele>460</ele></trkpt>
<trkpt lat="48.43382" lon="11.46134"><ele>459</ele></trkpt>
<trkpt lat="48.43431" lon="11.46223"><ele>460</ele></trkpt>
<trkpt lat="48.43496" lon="11.46372"><ele>460</ele></trkpt>
<trkpt lat="48.43495" lon="11.46403"><ele>461</ele></trkpt>
<trkpt lat="48.43519" lon="11.46438"><ele>460</ele></trkpt>
<trkpt lat="48.43558" lon="11.46523"><ele>462</ele></trkpt>
<trkpt lat="48.43588" lon="11.46598"><ele>460</ele></trkpt>
<trkpt lat="48.43610" lon="11.46687"><ele>459</ele></trkpt>
<trkpt lat="48.43623" lon="11.46724"><ele>459</ele></trkpt>
<trkpt lat="48.43666" lon="11.46820"><ele>459</ele></trkpt>
<trkpt lat="48.43701" lon="11.46851"><ele>458</ele></trkpt>
<trkpt lat="48.43745" lon="11.46964"><ele>458</ele></trkpt>
<trkpt lat="48.43771" lon="11.47021"><ele>458</ele></trkpt>
<trkpt lat="48.43913" lon="11.47272"><ele>456</ele></trkpt>
<trkpt lat="48.43970" lon="11.47377"><ele>456</ele></trkpt>
<trkpt lat="48.43990" lon="11.47421"><ele>456</ele></trkpt>
<trkpt lat="48.43994" lon="11.47439"><ele>456</ele></trkpt>
<trkpt lat="48.43996" lon="11.47474"><ele>457</ele></trkpt>
<trkpt lat="48.44022" lon="11.47526"><ele>457</ele></trkpt>
<trkpt lat="48.44030" lon="11.47550"><ele>457</ele></trkpt>
<trkpt lat="48.44040" lon="11.47613"><ele>457</ele></trkpt>
<trkpt lat="48.44052" lon="11.47666"><ele>456</ele></trkpt>
<trkpt lat="48.44076" lon="11.47741"><ele>456</ele></trkpt>
<trkpt lat="48.44119" lon="11.47839"><ele>456</ele></trkpt>
<trkpt lat="48.44141" lon="11.47906"><ele>456</ele></trkpt>
<trkpt lat="48.44185" lon="11.48126"><ele>458</ele></trkpt>
<trkpt lat="48.44256" lon="11.48373"><ele>460</ele></trkpt>
<trkpt lat="48.44272" lon="11.48460"><ele>460</ele></trkpt>
<trkpt lat="48.44276" lon="11.48498"><ele>460</ele></trkpt>
<trkpt lat="48.44282" lon="11.48514"><ele>460</ele></trkpt>
<trkpt lat="48.44284" lon="11.48534"><ele>460</ele></trkpt>
<trkpt lat="48.44293" lon="11.48559"><ele>460</ele></trkpt>
<trkpt lat="48.44321" lon="11.48605"><ele>461</ele></trkpt>
<trkpt lat="48.44436" lon="11.48765"><ele>459</ele></trkpt>
<trkpt lat="48.44483" lon="11.48809"><ele>459</ele></trkpt>
<trkpt lat="48.44564" lon="11.48869"><ele>456</ele></trkpt>
<trkpt lat="48.44590" lon="11.48894"><ele>456</ele></trkpt>
<trkpt lat="48.44724" lon="11.49056"><ele>457</ele></trkpt>
<trkpt lat="48.44799" lon="11.49118"><ele>456</ele></trkpt>
<trkpt lat="48.44822" lon="11.49142"><ele>457</ele></trkpt>
<trkpt lat="48.44848" lon="11.49174"><ele>456</ele></trkpt>
<trkpt lat="48.44897" lon="11.49250"><ele>456</ele></trkpt>
<trkpt lat="48.44918" lon="11.49274"><ele>456</ele></trkpt>
<trkpt lat="48.44959" lon="11.49305"><ele>454</ele></trkpt>
<trkpt lat="48.45018" lon="11.49324"><ele>454</ele></trkpt>
<trkpt lat="48.45024" lon="11.49334"><ele>454</ele></trkpt>
<trkpt lat="48.45031" lon="11.49369"><ele>454</ele></trkpt>
<trkpt lat="48.45039" lon="11.49390"><ele>455</ele></trkpt>
<trkpt lat="48.45056" lon="11.49420"><ele>457</ele></trkpt>
<trkpt lat="48.45096" lon="11.49470"><ele>460</ele></trkpt>
<trkpt lat="48.45120" lon="11.49493"><ele>460</ele></trkpt>
<trkpt lat="48.45149" lon="11.49509"><ele>460</ele></trkpt>
<trkpt lat="48.45203" lon="11.49495"><ele>456</ele></trkpt>
<trkpt lat="48.45226" lon="11.49499"><ele>455</ele></trkpt>
<trkpt lat="48.45350" lon="11.49564"><ele>452</ele></trkpt>
<trkpt lat="48.45373" lon="11.49583"><ele>452</ele></trkpt>
<trkpt lat="48.45473" lon="11.49699"><ele>453</ele></trkpt>
<trkpt lat="48.45510" lon="11.49744"><ele>452</ele></trkpt>
<trkpt lat="48.45538" lon="11.49786"><ele>452</ele></trkpt>
<trkpt lat="48.45638" lon="11.49959"><ele>453</ele></trkpt>
<trkpt lat="48.45687" lon="11.50070"><ele>452</ele></trkpt>
<trkpt lat="48.45714" lon="11.50154"><ele>452</ele></trkpt>
<trkpt lat="48.45724" lon="11.50206"><ele>452</ele></trkpt>
<trkpt lat="48.45745" lon="11.50256"><ele>451</ele></trkpt>
<trkpt lat="48.45763" lon="11.50282"><ele>451</ele></trkpt>
<trkpt lat="48.45794" lon="11.50336"><ele>453</ele></trkpt>
<trkpt lat="48.45810" lon="11.50357"><ele>456</ele></trkpt>
<trkpt lat="48.45970" lon="11.50493"><ele>455</ele></trkpt>
<trkpt lat="48.46160" lon="11.50642"><ele>455</ele></trkpt>
<trkpt lat="48.46261" lon="11.50745"><ele>457</ele></trkpt>
<trkpt lat="48.46303" lon="11.50783"><ele>456</ele></trkpt>
<trkpt lat="48.46394" lon="11.50831"><ele>454</ele></trkpt>
<trkpt lat="48.46440" lon="11.50875"><ele>453</ele></trkpt>
<trkpt lat="48.46460" lon="11.50764"><ele>450</ele></trkpt>
<trkpt lat="48.46468" lon="11.50760"><ele>449</ele></trkpt>
<trkpt lat="48.46487" lon="11.50705"><ele>448</ele></trkpt>
<trkpt lat="48.46503" lon="11.50680"><ele>446</ele></trkpt>
<trkpt lat="48.46520" lon="11.50632"><ele>445</ele></trkpt>
<trkpt lat="48.46523" lon="11.50608"><ele>445</ele></trkpt>
<trkpt lat="48.46560" lon="11.50579"><ele>444</ele></trkpt>
<trkpt lat="48.46564" lon="11.50579"><ele>444</ele></trkpt>
<trkpt lat="48.46576" lon="11.50591"><ele>443</ele></trkpt>
<trkpt lat="48.46612" lon="11.50646"><ele>444</ele></trkpt>
<trkpt lat="48.46619" lon="11.50652"><ele>444</ele></trkpt>
<trkpt lat="48.46637" lon="11.50594"><ele>444</ele></trkpt>
<trkpt lat="48.46894" lon="11.50702"><ele>443</ele></trkpt>
<trkpt lat="48.46901" lon="11.50701"><ele>443</ele></trkpt>
<trkpt lat="48.46914" lon="11.50663"><ele>443</ele></trkpt>
<trkpt lat="48.46924" lon="11.50657"><ele>443</ele></trkpt>
<trkpt lat="48.46948" lon="11.50666"><ele>443</ele></trkpt>
<trkpt lat="48.46964" lon="11.50687"><ele>443</ele></trkpt>
<trkpt lat="48.46984" lon="11.50692"><ele>443</ele></trkpt>
<trkpt lat="48.46990" lon="11.50692"><ele>443</ele></trkpt>
<trkpt lat="48.47008" lon="11.50678"><ele>443</ele></trkpt>
<trkpt lat="48.47022" lon="11.50677"><ele>442</ele></trkpt>
<trkpt lat="48.47029" lon="11.50685"><ele>442</ele></trkpt>
<trkpt lat="48.47032" lon="11.50713"><ele>443</ele></trkpt>
<trkpt lat="48.47025" lon="11.50789"><ele>443</ele></trkpt>
<trkpt lat="48.47140" lon="11.50814"><ele>443</ele></trkpt>
<trkpt lat="48.47135" lon="11.50875"><ele>444</ele></trkpt>
<trkpt lat="48.47165" lon="11.50892"><ele>445</ele></trkpt>
<trkpt lat="48.47177" lon="11.50930"><ele>448</ele></trkpt>
<trkpt lat="48.47257" lon="11.50920"><ele>447</ele></trkpt>
<trkpt lat="48.47285" lon="11.50907"><ele>447</ele></trkpt>
<trkpt lat="48.47482" lon="11.50939"><ele>450</ele></trkpt>
<trkpt lat="48.47558" lon="11.50944"><ele>449</ele></trkpt>
<trkpt lat="48.47554" lon="11.50934"><ele>448</ele></trkpt>
<trkpt lat="48.47553" lon="11.50924"><ele>448</ele></trkpt>
<trkpt lat="48.47563" lon="11.50724"><ele>441</ele></trkpt>
<trkpt lat="48.47566" lon="11.50715"><ele>441</ele></trkpt>
<trkpt lat="48.47578" lon="11.50704"><ele>441</ele></trkpt>
<trkpt lat="48.47622" lon="11.50674"><ele>440</ele></trkpt>
<trkpt lat="48.47666" lon="11.50626"><ele>440</ele></trkpt>
<trkpt lat="48.47680" lon="11.50606"><ele>440</ele></trkpt>
<trkpt lat="48.47747" lon="11.50394"><ele>444</ele></trkpt>
<trkpt lat="48.47771" lon="11.50407"><ele>444</ele></trkpt>
<trkpt lat="48.47786" lon="11.50409"><ele>444</ele></trkpt>
<trkpt lat="48.47827" lon="11.50402"><ele>445</ele></trkpt>
<trkpt lat="48.47842" lon="11.50395"><ele>445</ele></trkpt>
<trkpt lat="48.47870" lon="11.50373"><ele>445</ele></trkpt>
<trkpt lat="48.47911" lon="11.50307"><ele>446</ele></trkpt>
<trkpt lat="48.47923" lon="11.50297"><ele>446</ele></trkpt>
<trkpt lat="48.47940" lon="11.50291"><ele>446</ele></trkpt>
<trkpt lat="48.48017" lon="11.50301"><ele>444</ele></trkpt>
<trkpt lat="48.48224" lon="11.50240"><ele>446</ele></trkpt>
<trkpt lat="48.48258" lon="11.50235"><ele>446</ele></trkpt>
<trkpt lat="48.48351" lon="11.50242"><ele>446</ele></trkpt>
<trkpt lat="48.48377" lon="11.50237"><ele>445</ele></trkpt>
<trkpt lat="48.48527" lon="11.50186"><ele>444</ele></trkpt>
<trkpt lat="48.48556" lon="11.50164"><ele>444</ele></trkpt>
<trkpt lat="48.48579" lon="11.50134"><ele>442</ele></trkpt>
<trkpt lat="48.48587" lon="11.50133"><ele>442</ele></trkpt>
<trkpt lat="48.48592" lon="11.50138"><ele>442</ele></trkpt>
<trkpt lat="48.48609" lon="11.50171"><ele>440</ele></trkpt>
<trkpt lat="48.48616" lon="11.50177"><ele>440</ele></trkpt>
<trkpt lat="48.48623" lon="11.50180"><ele>440</ele></trkpt>
<trkpt lat="48.48665" lon="11.50175"><ele>442</ele></trkpt>
<trkpt lat="48.48673" lon="11.50186"><ele>442</ele></trkpt>
<trkpt lat="48.48665" lon="11.50206"><ele>441</ele></trkpt>
<trkpt lat="48.48665" lon="11.50222"><ele>441</ele></trkpt>
<trkpt lat="48.48670" lon="11.50251"><ele>441</ele></trkpt>
<trkpt lat="48.48687" lon="11.50315"><ele>439</ele></trkpt>
<trkpt lat="48.48764" lon="11.50313"><ele>439</ele></trkpt>
<trkpt lat="48.48817" lon="11.50323"><ele>439</ele></trkpt>
<trkpt lat="48.48891" lon="11.50305"><ele>441</ele></trkpt>
<trkpt lat="48.48921" lon="11.50311"><ele>442</ele></trkpt>
<trkpt lat="48.48993" lon="11.50339"><ele>444</ele></trkpt>
<trkpt lat="48.49122" lon="11.50461"><ele>439</ele></trkpt>
<trkpt lat="48.49178" lon="11.50489"><ele>441</ele></trkpt>
<trkpt lat="48.49255" lon="11.50510"><ele>440</ele></trkpt>
<trkpt lat="48.49376" lon="11.50518"><ele>437</ele></trkpt>
<trkpt lat="48.49488" lon="11.50552"><ele>438</ele></trkpt>
<trkpt lat="48.49530" lon="11.50551"><ele>437</ele></trkpt>
<trkpt lat="48.49571" lon="11.50544"><ele>438</ele></trkpt>
<trkpt lat="48.49695" lon="11.50541"><ele>437</ele></trkpt>
<trkpt lat="48.49859" lon="11.50506"><ele>436</ele></trkpt>
<trkpt lat="48.49911" lon="11.50503"><ele>435</ele></trkpt>
<trkpt lat="48.49980" lon="11.50508"><ele>434</ele></trkpt>
<trkpt lat="48.50020" lon="11.50496"><ele>434</ele></trkpt>
<trkpt lat="48.50028" lon="11.50497"><ele>434</ele></trkpt>
<trkpt lat="48.50037" lon="11.50477"><ele>434</ele></trkpt>
<trkpt lat="48.50046" lon="11.50470"><ele>434</ele></trkpt>
<trkpt lat="48.50108" lon="11.50469"><ele>435</ele></trkpt>
<trkpt lat="48.50196" lon="11.50446"><ele>434</ele></trkpt>
<trkpt lat="48.50265" lon="11.50452"><ele>433</ele></trkpt>
<trkpt lat="48.50301" lon="11.50447"><ele>433</ele></trkpt>
<trkpt lat="48.50410" lon="11.50400"><ele>434</ele></trkpt>
<trkpt lat="48.50491" lon="11.50350"><ele>434</ele></trkpt>
<trkpt lat="48.50537" lon="11.50315"><ele>434</ele></trkpt>
<trkpt lat="48.50564" lon="11.50301"><ele>435</ele></trkpt>
<trkpt lat="48.50580" lon="11.50294"><ele>435</ele></trkpt>
<trkpt lat="48.50617" lon="11.50290"><ele>434</ele></trkpt>
<trkpt lat="48.50655" lon="11.50296"><ele>435</ele></trkpt>
<trkpt lat="48.50858" lon="11.50383"><ele>431</ele></trkpt>
<trkpt lat="48.50903" lon="11.50395"><ele>432</ele></trkpt>
<trkpt lat="48.50940" lon="11.50397"><ele>431</ele></trkpt>
<trkpt lat="48.50970" lon="11.50393"><ele>431</ele></trkpt>
<trkpt lat="48.51003" lon="11.50379"><ele>430</ele></trkpt>
<trkpt lat="48.51111" lon="11.50318"><ele>432</ele></trkpt>
<trkpt lat="48.51141" lon="11.50309"><ele>432</ele></trkpt>
<trkpt lat="48.51251" lon="11.50302"><ele>434</ele></trkpt>
<trkpt lat="48.51394" lon="11.50330"><ele>430</ele></trkpt>
<trkpt lat="48.51435" lon="11.50348"><ele>430</ele></trkpt>
<trkpt lat="48.51574" lon="11.50395"><ele>429</ele></trkpt>
<trkpt lat="48.51703" lon="11.50402"><ele>429</ele></trkpt>
<trkpt lat="48.51774" lon="11.50415"><ele>428</ele></trkpt>
<trkpt lat="48.51849" lon="11.50438"><ele>428</ele></trkpt>
<trkpt lat="48.52142" lon="11.50561"><ele>427</ele></trkpt>
<trkpt lat="48.52267" lon="11.50633"><ele>426</ele></trkpt>
<trkpt lat="48.52307" lon="11.50641"><ele>426</ele></trkpt>
<trkpt lat="48.52358" lon="11.50634"><ele>425</ele></trkpt>
<trkpt lat="48.52407" lon="11.50601"><ele>425</ele></trkpt>
<trkpt lat="48.52434" lon="11.50568"><ele>426</ele></trkpt>
<trkpt lat="48.52443" lon="11.50550"><ele>426</ele></trkpt>
<trkpt lat="48.52457" lon="11.50498"><ele>426</ele></trkpt>
<trkpt lat="48.52457" lon="11.50463"><ele>426</ele></trkpt>
<trkpt lat="48.52532" lon="11.50441"><ele>426</ele></trkpt>
<trkpt lat="48.52545" lon="11.50427"><ele>425</ele></trkpt>
<trkpt lat="48.52626" lon="11.50458"><ele>425</ele></trkpt>
<trkpt lat="48.52647" lon="11.50477"><ele>425</ele></trkpt>
<trkpt lat="48.52665" lon="11.50501"><ele>425</ele></trkpt>
<trkpt lat="48.52698" lon="11.50504"><ele>426</ele></trkpt>
<trkpt lat="48.52703" lon="11.50499"><ele>426</ele></trkpt>
<trkpt lat="48.52698" lon="11.50504"><ele>426</ele></trkpt>
<trkpt lat="48.52665" lon="11.50501"><ele>425</ele></trkpt>
<trkpt lat="48.52647" lon="11.50477"><ele>425</ele></trkpt>
<trkpt lat="48.52626" lon="11.50458"><ele>425</ele></trkpt>
<trkpt lat="48.52629" lon="11.50404"><ele>425</ele></trkpt>
<trkpt lat="48.52680" lon="11.50367"><ele>425</ele></trkpt>
<trkpt lat="48.52736" lon="11.50289"><ele>426</ele></trkpt>
<trkpt lat="48.52786" lon="11.50228"><ele>428</ele></trkpt>
<trkpt lat="48.52789" lon="11.50235"><ele>428</ele></trkpt>
<trkpt lat="48.52798" lon="11.50225"><ele>428</ele></trkpt>
<trkpt lat="48.52789" lon="11.50206"><ele>428</ele></trkpt>
<trkpt lat="48.52928" lon="11.50009"><ele>444</ele></trkpt>
<trkpt lat="48.52931" lon="11.49988"><ele>444</ele></trkpt>
<trkpt lat="48.52909" lon="11.49917"><ele>447</ele></trkpt>
<trkpt lat="48.52958" lon="11.49785"><ele>446</ele></trkpt>
<trkpt lat="48.53009" lon="11.49664"><ele>444</ele></trkpt>
<trkpt lat="48.53038" lon="11.49607"><ele>444</ele></trkpt>
<trkpt lat="48.53070" lon="11.49553"><ele>443</ele></trkpt>
<trkpt lat="48.53081" lon="11.49536"><ele>443</ele></trkpt>
<trkpt lat="48.53141" lon="11.49570"><ele>437</ele></trkpt>
<trkpt lat="48.53182" lon="11.49604"><ele>434</ele></trkpt>
<trkpt lat="48.53210" lon="11.49639"><ele>433</ele></trkpt>
<trkpt lat="48.53281" lon="11.49551"><ele>434</ele></trkpt>
<trkpt lat="48.53300" lon="11.49515"><ele>434</ele></trkpt>
<trkpt lat="48.53315" lon="11.49453"><ele>435</ele></trkpt>
<trkpt lat="48.53333" lon="11.49330"><ele>435</ele></trkpt>
<trkpt lat="48.53353" lon="11.49095"><ele>442</ele></trkpt>
<trkpt lat="48.53358" lon="11.48986"><ele>443</ele></trkpt>
<trkpt lat="48.53375" lon="11.48914"><ele>443</ele></trkpt>
<trkpt lat="48.53389" lon="11.48808"><ele>445</ele></trkpt>
<trkpt lat="48.53399" lon="11.48766"><ele>441</ele></trkpt>
<trkpt lat="48.53487" lon="11.48813"><ele>438</ele></trkpt>
<trkpt lat="48.53519" lon="11.48726"><ele>438</ele></trkpt>
<trkpt lat="48.53538" lon="11.48688"><ele>438</ele></trkpt>
<trkpt lat="48.53563" lon="11.48647"><ele>438</ele></trkpt>
<trkpt lat="48.53574" lon="11.48620"><ele>439</ele></trkpt>
<trkpt lat="48.53627" lon="11.48543"><ele>439</ele></trkpt>
<trkpt lat="48.53633" lon="11.48543"><ele>439</ele></trkpt>
<trkpt lat="48.53711" lon="11.48472"><ele>440</ele></trkpt>
<trkpt lat="48.53770" lon="11.48435"><ele>441</ele></trkpt>
<trkpt lat="48.53870" lon="11.48381"><ele>442</ele></trkpt>
<trkpt lat="48.53943" lon="11.48350"><ele>443</ele></trkpt>
<trkpt lat="48.53945" lon="11.48362"><ele>443</ele></trkpt>
<trkpt lat="48.53983" lon="11.48348"><ele>444</ele></trkpt>
<trkpt lat="48.53986" lon="11.48364"><ele>444</ele></trkpt>
<trkpt lat="48.53992" lon="11.48375"><ele>445</ele></trkpt>
<trkpt lat="48.54038" lon="11.48404"><ele>446</ele></trkpt>
<trkpt lat="48.54078" lon="11.48447"><ele>448</ele></trkpt>
<trkpt lat="48.54140" lon="11.48470"><ele>451</ele></trkpt>
<trkpt lat="48.54201" lon="11.48511"><ele>455</ele></trkpt>
<trkpt lat="48.54250" lon="11.48529"><ele>460</ele></trkpt>
<trkpt lat="48.54304" lon="11.48527"><ele>464</ele></trkpt>
<trkpt lat="48.54328" lon="11.48532"><ele>466</ele></trkpt>
<trkpt lat="48.54337" lon="11.48507"><ele>468</ele></trkpt>
<trkpt lat="48.54340" lon="11.48488"><ele>470</ele></trkpt>
<trkpt lat="48.54362" lon="11.48435"><ele>475</ele></trkpt>
<trkpt lat="48.54379" lon="11.48318"><ele>488</ele></trkpt>
<trkpt lat="48.54400" lon="11.48284"><ele>488</ele></trkpt>
<trkpt lat="48.54464" lon="11.48236"><ele>485</ele></trkpt>
<trkpt lat="48.54499" lon="11.48201"><ele>487</ele></trkpt>
<trkpt lat="48.54534" lon="11.48159"><ele>490</ele></trkpt>
<trkpt lat="48.54557" lon="11.48118"><ele>490</ele></trkpt>
<trkpt lat="48.54579" lon="11.48053"><ele>489</ele></trkpt>
<trkpt lat="48.54601" lon="11.47946"><ele>488</ele></trkpt>
<trkpt lat="48.54610" lon="11.47922"><ele>487</ele></trkpt>
<trkpt lat="48.54666" lon="11.47921"><ele>492</ele></trkpt>
<trkpt lat="48.54693" lon="11.47906"><ele>494</ele></trkpt>
<trkpt lat="48.54714" lon="11.47907"><ele>494</ele></trkpt>
<trkpt lat="48.54762" lon="11.47872"><ele>494</ele></trkpt>
<trkpt lat="48.54785" lon="11.47840"><ele>495</ele></trkpt>
<trkpt lat="48.54835" lon="11.47746"><ele>491</ele></trkpt>
<trkpt lat="48.54844" lon="11.47719"><ele>491</ele></trkpt>
<trkpt lat="48.54877" lon="11.47659"><ele>492</ele></trkpt>
<trkpt lat="48.55024" lon="11.47487"><ele>496</ele></trkpt>
<trkpt lat="48.55160" lon="11.47255"><ele>508</ele></trkpt>
<trkpt lat="48.55188" lon="11.47222"><ele>510</ele></trkpt>
<trkpt lat="48.55197" lon="11.47091"><ele>511</ele></trkpt>
<trkpt lat="48.55193" lon="11.47008"><ele>511</ele></trkpt>
<trkpt lat="48.55149" lon="11.46800"><ele>509</ele></trkpt>
<trkpt lat="48.55144" lon="11.46763"><ele>510</ele></trkpt>
<trkpt lat="48.55147" lon="11.46644"><ele>505</ele></trkpt>
<trkpt lat="48.55166" lon="11.46527"><ele>507</ele></trkpt>
<trkpt lat="48.55170" lon="11.46474"><ele>506</ele></trkpt>
<trkpt lat="48.55166" lon="11.46347"><ele>505</ele></trkpt>
<trkpt lat="48.55160" lon="11.46284"><ele>504</ele></trkpt>
<trkpt lat="48.55162" lon="11.46248"><ele>504</ele></trkpt>
<trkpt lat="48.55176" lon="11.46186"><ele>504</ele></trkpt>
<trkpt lat="48.55187" lon="11.46109"><ele>505</ele></trkpt>
<trkpt lat="48.55193" lon="11.46010"><ele>506</ele></trkpt>
<trkpt lat="48.55201" lon="11.45964"><ele>504</ele></trkpt>
<trkpt lat="48.55232" lon="11.45840"><ele>506</ele></trkpt>
<trkpt lat="48.55283" lon="11.45845"><ele>504</ele></trkpt>
<trkpt lat="48.55349" lon="11.45841"><ele>498</ele></trkpt>
<trkpt lat="48.55412" lon="11.45873"><ele>498</ele></trkpt>
<trkpt lat="48.55526" lon="11.45867"><ele>494</ele></trkpt>
<trkpt lat="48.55573" lon="11.45848"><ele>491</ele></trkpt>
<trkpt lat="48.55633" lon="11.45839"><ele>484</ele></trkpt>
<trkpt lat="48.55659" lon="11.45830"><ele>482</ele></trkpt>
<trkpt lat="48.55685" lon="11.45814"><ele>482</ele></trkpt>
<trkpt lat="48.55700" lon="11.45789"><ele>482</ele></trkpt>
<trkpt lat="48.55721" lon="11.45729"><ele>484</ele></trkpt>
<trkpt lat="48.55741" lon="11.45692"><ele>484</ele></trkpt>
<trkpt lat="48.55759" lon="11.45668"><ele>484</ele></trkpt>
<trkpt lat="48.55782" lon="11.45656"><ele>482</ele></trkpt>
<trkpt lat="48.55803" lon="11.45656"><ele>481</ele></trkpt>
<trkpt lat="48.55857" lon="11.45673"><ele>480</ele></trkpt>
<trkpt lat="48.55895" lon="11.45696"><ele>479</ele></trkpt>
<trkpt lat="48.55923" lon="11.45674"><ele>482</ele></trkpt>
<trkpt lat="48.55982" lon="11.45606"><ele>488</ele></trkpt>
<trkpt lat="48.56025" lon="11.45541"><ele>490</ele></trkpt>
<trkpt lat="48.56139" lon="11.45482"><ele>482</ele></trkpt>
<trkpt lat="48.56182" lon="11.45470"><ele>482</ele></trkpt>
<trkpt lat="48.56204" lon="11.45458"><ele>482</ele></trkpt>
<trkpt lat="48.56238" lon="11.45421"><ele>484</ele></trkpt>
<trkpt lat="48.56281" lon="11.45397"><ele>486</ele></trkpt>
<trkpt lat="48.56366" lon="11.45394"><ele>488</ele></trkpt>
<trkpt lat="48.56401" lon="11.45400"><ele>488</ele></trkpt>
<trkpt lat="48.56422" lon="11.45411"><ele>489</ele></trkpt>
<trkpt lat="48.56513" lon="11.45495"><ele>490</ele></trkpt>
<trkpt lat="48.56532" lon="11.45522"><ele>491</ele></trkpt>
<trkpt lat="48.56592" lon="11.45631"><ele>494</ele></trkpt>
<trkpt lat="48.56599" lon="11.45634"><ele>494</ele></trkpt>
<trkpt lat="48.56638" lon="11.45603"><ele>496</ele></trkpt>
<trkpt lat="48.56661" lon="11.45593"><ele>496</ele></trkpt>
<trkpt lat="48.56672" lon="11.45594"><ele>496</ele></trkpt>
<trkpt lat="48.56717" lon="11.45669"><ele>492</ele></trkpt>
<trkpt lat="48.56769" lon="11.45745"><ele>487</ele></trkpt>
<trkpt lat="48.56777" lon="11.45751"><ele>486</ele></trkpt>
<trkpt lat="48.56795" lon="11.45738"><ele>487</ele></trkpt>
<trkpt lat="48.56846" lon="11.45732"><ele>489</ele></trkpt>
<trkpt lat="48.56891" lon="11.45752"><ele>490</ele></trkpt>
<trkpt lat="48.56938" lon="11.45754"><ele>492</ele></trkpt>
<trkpt lat="48.56999" lon="11.45785"><ele>496</ele></trkpt>
<trkpt lat="48.57012" lon="11.45782"><ele>497</ele></trkpt>
<trkpt lat="48.57086" lon="11.45798"><ele>492</ele></trkpt>
<trkpt lat="48.57136" lon="11.45788"><ele>493</ele></trkpt>
<trkpt lat="48.57332" lon="11.45844"><ele>492</ele></trkpt>
<trkpt lat="48.57358" lon="11.45871"><ele>490</ele></trkpt>
<trkpt lat="48.57358" lon="11.45900"><ele>492</ele></trkpt>
<trkpt lat="48.57352" lon="11.45929"><ele>493</ele></trkpt>
<trkpt lat="48.57344" lon="11.45949"><ele>494</ele></trkpt>
<trkpt lat="48.57337" lon="11.45988"><ele>494</ele></trkpt>
<trkpt lat="48.57324" lon="11.46026"><ele>493</ele></trkpt>
<trkpt lat="48.57311" lon="11.46134"><ele>493</ele></trkpt>
<trkpt lat="48.57317" lon="11.46195"><ele>492</ele></trkpt>
<trkpt lat="48.57337" lon="11.46288"><ele>492</ele></trkpt>
<trkpt lat="48.57349" lon="11.46312"><ele>492</ele></trkpt>
<trkpt lat="48.57377" lon="11.46345"><ele>489</ele></trkpt>
<trkpt lat="48.57381" lon="11.46373"><ele>487</ele></trkpt>
<trkpt lat="48.57376" lon="11.46404"><ele>485</ele></trkpt>
<trkpt lat="48.57367" lon="11.46417"><ele>484</ele></trkpt>
<trkpt lat="48.57332" lon="11.46434"><ele>481</ele></trkpt>
<trkpt lat="48.57397" lon="11.46450"><ele>477</ele></trkpt>
<trkpt lat="48.57439" lon="11.46472"><ele>472</ele></trkpt>
<trkpt lat="48.57445" lon="11.46482"><ele>472</ele></trkpt>
<trkpt lat="48.57450" lon="11.46484"><ele>471</ele></trkpt>
<trkpt lat="48.57536" lon="11.46483"><ele>469</ele></trkpt>
<trkpt lat="48.57563" lon="11.46492"><ele>470</ele></trkpt>
<trkpt lat="48.57586" lon="11.46505"><ele>470</ele></trkpt>
<trkpt lat="48.57643" lon="11.46548"><ele>472</ele></trkpt>
<trkpt lat="48.57742" lon="11.46671"><ele>466</ele></trkpt>
<trkpt lat="48.57762" lon="11.46701"><ele>466</ele></trkpt>
<trkpt lat="48.57792" lon="11.46765"><ele>466</ele></trkpt>
<trkpt lat="48.57804" lon="11.46819"><ele>467</ele></trkpt>
<trkpt lat="48.57807" lon="11.46864"><ele>467</ele></trkpt>
<trkpt lat="48.57817" lon="11.46931"><ele>464</ele></trkpt>
<trkpt lat="48.57829" lon="11.46974"><ele>462</ele></trkpt>
<trkpt lat="48.57863" lon="11.47045"><ele>459</ele></trkpt>
<trkpt lat="48.57867" lon="11.47064"><ele>459</ele></trkpt>
<trkpt lat="48.57865" lon="11.47175"><ele>455</ele></trkpt>
<trkpt lat="48.57872" lon="11.47226"><ele>453</ele></trkpt>
<trkpt lat="48.57884" lon="11.47263"><ele>451</ele></trkpt>
<trkpt lat="48.57918" lon="11.47343"><ele>446</ele></trkpt>
<trkpt lat="48.57952" lon="11.47397"><ele>442</ele></trkpt>
<trkpt lat="48.57969" lon="11.47408"><ele>442</ele></trkpt>
<trkpt lat="48.57999" lon="11.47409"><ele>441</ele></trkpt>
<trkpt lat="48.58064" lon="11.47432"><ele>440</ele></trkpt>
<trkpt lat="48.58114" lon="11.47430"><ele>442</ele></trkpt>
<trkpt lat="48.58170" lon="11.47448"><ele>445</ele></trkpt>
<trkpt lat="48.58308" lon="11.47532"><ele>454</ele></trkpt>
<trkpt lat="48.58358" lon="11.47544"><ele>452</ele></trkpt>
<trkpt lat="48.58374" lon="11.47529"><ele>451</ele></trkpt>
<trkpt lat="48.58388" lon="11.47492"><ele>449</ele></trkpt>
<trkpt lat="48.58445" lon="11.47500"><ele>446</ele></trkpt>
<trkpt lat="48.58475" lon="11.47499"><ele>445</ele></trkpt>
<trkpt lat="48.58604" lon="11.47280"><ele>448</ele></trkpt>
<trkpt lat="48.58621" lon="11.47264"><ele>448</ele></trkpt>
<trkpt lat="48.58655" lon="11.47249"><ele>450</ele></trkpt>
<trkpt lat="48.58728" lon="11.47230"><ele>450</ele></trkpt>
<trkpt lat="48.58813" lon="11.47225"><ele>450</ele></trkpt>
<trkpt lat="48.58877" lon="11.47215"><ele>449</ele></trkpt>
<trkpt lat="48.58903" lon="11.47222"><ele>448</ele></trkpt>
<trkpt lat="48.58980" lon="11.47288"><ele>444</ele></trkpt>
<trkpt lat="48.59035" lon="11.47288"><ele>441</ele></trkpt>
<trkpt lat="48.59074" lon="11.47280"><ele>439</ele></trkpt>
<trkpt lat="48.59112" lon="11.47241"><ele>439</ele></trkpt>
<trkpt lat="48.59142" lon="11.47234"><ele>439</ele></trkpt>
<trkpt lat="48.59231" lon="11.47244"><ele>432</ele></trkpt>
<trkpt lat="48.59429" lon="11.47235"><ele>419</ele></trkpt>
<trkpt lat="48.59493" lon="11.47265"><ele>418</ele></trkpt>
<trkpt lat="48.59536" lon="11.47118"><ele>417</ele></trkpt>
<trkpt lat="48.59574" lon="11.47010"><ele>416</ele></trkpt>
<trkpt lat="48.59590" lon="11.46981"><ele>416</ele></trkpt>
<trkpt lat="48.59608" lon="11.46959"><ele>417</ele></trkpt>
<trkpt lat="48.59631" lon="11.46999"><ele>418</ele></trkpt>
<trkpt lat="48.59710" lon="11.47064"><ele>419</ele></trkpt>
<trkpt lat="48.59724" lon="11.47063"><ele>420</ele></trkpt>
<trkpt lat="48.59833" lon="11.47080"><ele>427</ele></trkpt>
<trkpt lat="48.59891" lon="11.47092"><ele>432</ele></trkpt>
<trkpt lat="48.60232" lon="11.47252"><ele>440</ele></trkpt>
<trkpt lat="48.60243" lon="11.47240"><ele>440</ele></trkpt>
<trkpt lat="48.60255" lon="11.47190"><ele>439</ele></trkpt>
<trkpt lat="48.60277" lon="11.47129"><ele>438</ele></trkpt>
<trkpt lat="48.60298" lon="11.47087"><ele>438</ele></trkpt>
<trkpt lat="48.60341" lon="11.47019"><ele>438</ele></trkpt>
<trkpt lat="48.60385" lon="11.47059"><ele>437</ele></trkpt>
<trkpt lat="48.60469" lon="11.47147"><ele>431</ele></trkpt>
<trkpt lat="48.60501" lon="11.47186"><ele>428</ele></trkpt>
<trkpt lat="48.60531" lon="11.47239"><ele>424</ele></trkpt>
<trkpt lat="48.60580" lon="11.47305"><ele>422</ele></trkpt>
<trkpt lat="48.60585" lon="11.47337"><ele>420</ele></trkpt>
<trkpt lat="48.60610" lon="11.47380"><ele>418</ele></trkpt>
<trkpt lat="48.60713" lon="11.47480"><ele>415</ele></trkpt>
<trkpt lat="48.60725" lon="11.47486"><ele>415</ele></trkpt>
<trkpt lat="48.60718" lon="11.47510"><ele>414</ele></trkpt>
<trkpt lat="48.60715" lon="11.47533"><ele>414</ele></trkpt>
<trkpt lat="48.60724" lon="11.47689"><ele>416</ele></trkpt>
<trkpt lat="48.60759" lon="11.47664"><ele>418</ele></trkpt>
<trkpt lat="48.60771" lon="11.47660"><ele>418</ele></trkpt>
<trkpt lat="48.60799" lon="11.47623"><ele>421</ele></trkpt>
<trkpt lat="48.60817" lon="11.47616"><ele>423</ele></trkpt>
<trkpt lat="48.60834" lon="11.47617"><ele>425</ele></trkpt>
<trkpt lat="48.60872" lon="11.47645"><ele>429</ele></trkpt>
<trkpt lat="48.60918" lon="11.47673"><ele>432</ele></trkpt>
<trkpt lat="48.61068" lon="11.47742"><ele>436</ele></trkpt>
<trkpt lat="48.61175" lon="11.47759"><ele>433</ele></trkpt>
<trkpt lat="48.61206" lon="11.47758"><ele>432</ele></trkpt>
<trkpt lat="48.61222" lon="11.47766"><ele>432</ele></trkpt>
<trkpt lat="48.61393" lon="11.47793"><ele>426</ele></trkpt>
<trkpt lat="48.61876" lon="11.47752"><ele>401</ele></trkpt>
<trkpt lat="48.61962" lon="11.47732"><ele>400</ele></trkpt>
<trkpt lat="48.62030" lon="11.47727"><ele>400</ele></trkpt>
<trkpt lat="48.62049" lon="11.47722"><ele>400</ele></trkpt>
<trkpt lat="48.62068" lon="11.47711"><ele>400</ele></trkpt>
<trkpt lat="48.62099" lon="11.47670"><ele>399</ele></trkpt>
<trkpt lat="48.62168" lon="11.47560"><ele>399</ele></trkpt>
<trkpt lat="48.62193" lon="11.47530"><ele>399</ele></trkpt>
<trkpt lat="48.62217" lon="11.47513"><ele>398</ele></trkpt>
<trkpt lat="48.62353" lon="11.47469"><ele>396</ele></trkpt>
<trkpt lat="48.62318" lon="11.47330"><ele>394</ele></trkpt>
<trkpt lat="48.62317" lon="11.47312"><ele>394</ele></trkpt>
<trkpt lat="48.62429" lon="11.47214"><ele>393</ele></trkpt>
<trkpt lat="48.62502" lon="11.47178"><ele>393</ele></trkpt>
<trkpt lat="48.62520" lon="11.47172"><ele>392</ele></trkpt>
<trkpt lat="48.62611" lon="11.47188"><ele>392</ele></trkpt>
<trkpt lat="48.62693" lon="11.47219"><ele>391</ele></trkpt>
<trkpt lat="48.62736" lon="11.47218"><ele>391</ele></trkpt>
<trkpt lat="48.62824" lon="11.47242"><ele>392</ele></trkpt>
<trkpt lat="48.62878" lon="11.47269"><ele>392</ele></trkpt>
<trkpt lat="48.62947" lon="11.47317"><ele>391</ele></trkpt>
<trkpt lat="48.62944" lon="11.47327"><ele>391</ele></trkpt>
<trkpt lat="48.62949" lon="11.47354"><ele>391</ele></trkpt>
<trkpt lat="48.63070" lon="11.47238"><ele>389</ele></trkpt>
<trkpt lat="48.63134" lon="11.47181"><ele>387</ele></trkpt>
<trkpt lat="48.63174" lon="11.47151"><ele>387</ele></trkpt>
<trkpt lat="48.63200" lon="11.47138"><ele>386</ele></trkpt>
<trkpt lat="48.63600" lon="11.46946"><ele>383</ele></trkpt>
<trkpt lat="48.64040" lon="11.46823"><ele>380</ele></trkpt>
<trkpt lat="48.64099" lon="11.46802"><ele>380</ele></trkpt>
<trkpt lat="48.64223" lon="11.46743"><ele>380</ele></trkpt>
<trkpt lat="48.64494" lon="11.46600"><ele>380</ele></trkpt>
<trkpt lat="48.64508" lon="11.46598"><ele>380</ele></trkpt>
<trkpt lat="48.64521" lon="11.46602"><ele>380</ele></trkpt>
<trkpt lat="48.64538" lon="11.46618"><ele>379</ele></trkpt>
<trkpt lat="48.64555" lon="11.46646"><ele>379</ele></trkpt>
<trkpt lat="48.64650" lon="11.46875"><ele>378</ele></trkpt>
<trkpt lat="48.64671" lon="11.46916"><ele>378</ele></trkpt>
<trkpt lat="48.64681" lon="11.46926"><ele>378</ele></trkpt>
<trkpt lat="48.64720" lon="11.46901"><ele>378</ele></trkpt>
<trkpt lat="48.64771" lon="11.46811"><ele>378</ele></trkpt>
<trkpt lat="48.64856" lon="11.46680"><ele>378</ele></trkpt>
<trkpt lat="48.64884" lon="11.46657"><ele>378</ele></trkpt>
<trkpt lat="48.64948" lon="11.46632"><ele>378</ele></trkpt>
<trkpt lat="48.64963" lon="11.46617"><ele>378</ele></trkpt>
<trkpt lat="48.64979" lon="11.46589"><ele>378</ele></trkpt>
<trkpt lat="48.65131" lon="11.46597"><ele>380</ele></trkpt>
<trkpt lat="48.65144" lon="11.46601"><ele>380</ele></trkpt>
<trkpt lat="48.65166" lon="11.46620"><ele>380</ele></trkpt>
<trkpt lat="48.65216" lon="11.46681"><ele>380</ele></trkpt>
<trkpt lat="48.65248" lon="11.46706"><ele>380</ele></trkpt>
<trkpt lat="48.65282" lon="11.46721"><ele>379</ele></trkpt>
<trkpt lat="48.65302" lon="11.46723"><ele>379</ele></trkpt>
<trkpt lat="48.65370" lon="11.46717"><ele>379</ele></trkpt>
<trkpt lat="48.65380" lon="11.46721"><ele>379</ele></trkpt>
<trkpt lat="48.65434" lon="11.46763"><ele>379</ele></trkpt>
<trkpt lat="48.65455" lon="11.46771"><ele>380</ele></trkpt>
<trkpt lat="48.65494" lon="11.46765"><ele>381</ele></trkpt>
<trkpt lat="48.65559" lon="11.46745"><ele>384</ele></trkpt>
<trkpt lat="48.65667" lon="11.46692"><ele>383</ele></trkpt>
<trkpt lat="48.65773" lon="11.46667"><ele>381</ele></trkpt>
<trkpt lat="48.65842" lon="11.46663"><ele>380</ele></trkpt>
<trkpt lat="48.65875" lon="11.46667"><ele>380</ele></trkpt>
<trkpt lat="48.65890" lon="11.46672"><ele>380</ele></trkpt>
<trkpt lat="48.65930" lon="11.46702"><ele>380</ele></trkpt>
<trkpt lat="48.65939" lon="11.46703"><ele>380</ele></trkpt>
<trkpt lat="48.65947" lon="11.46666"><ele>380</ele></trkpt>
<trkpt lat="48.66017" lon="11.46631"><ele>380</ele></trkpt>
<trkpt lat="48.66181" lon="11.46563"><ele>378</ele></trkpt>
<trkpt lat="48.66193" lon="11.46562"><ele>378</ele></trkpt>
<trkpt lat="48.66208" lon="11.46494"><ele>378</ele></trkpt>
<trkpt lat="48.66213" lon="11.46480"><ele>377</ele></trkpt>
<trkpt lat="48.66259" lon="11.46481"><ele>376</ele></trkpt>
<trkpt lat="48.66318" lon="11.46443"><ele>376</ele></trkpt>
<trkpt lat="48.66370" lon="11.46398"><ele>375</ele></trkpt>
<trkpt lat="48.66428" lon="11.46324"><ele>376</ele></trkpt>
<trkpt lat="48.66468" lon="11.46292"><ele>377</ele></trkpt>
<trkpt lat="48.66513" lon="11.46278"><ele>381</ele></trkpt>
<trkpt lat="48.66545" lon="11.46282"><ele>380</ele></trkpt>
<trkpt lat="48.66593" lon="11.46301"><ele>380</ele></trkpt>
<trkpt lat="48.66627" lon="11.46328"><ele>377</ele></trkpt>
<trkpt lat="48.66646" lon="11.46349"><ele>376</ele></trkpt>
<trkpt lat="48.66654" lon="11.46335"><ele>376</ele></trkpt>
<trkpt lat="48.66660" lon="11.46331"><ele>376</ele></trkpt>
<trkpt lat="48.66636" lon="11.46285"><ele>375</ele></trkpt>
<trkpt lat="48.66635" lon="11.46270"><ele>375</ele></trkpt>
<trkpt lat="48.66646" lon="11.46246"><ele>375</ele></trkpt>
<trkpt lat="48.66702" lon="11.46208"><ele>375</ele></trkpt>
<trkpt lat="48.66773" lon="11.46170"><ele>375</ele></trkpt>
<trkpt lat="48.66868" lon="11.46141"><ele>374</ele></trkpt>
<trkpt lat="48.67172" lon="11.46068"><ele>374</ele></trkpt>
<trkpt lat="48.67256" lon="11.46070"><ele>374</ele></trkpt>
<trkpt lat="48.67266" lon="11.46067"><ele>374</ele></trkpt>
<trkpt lat="48.67273" lon="11.46058"><ele>374</ele></trkpt>
<trkpt lat="48.67287" lon="11.46055"><ele>374</ele></trkpt>
<trkpt lat="48.67294" lon="11.46059"><ele>374</ele></trkpt>
<trkpt lat="48.67306" lon="11.46078"><ele>373</ele></trkpt>
<trkpt lat="48.67285" lon="11.46108"><ele>374</ele></trkpt>
<trkpt lat="48.67271" lon="11.46151"><ele>375</ele></trkpt>
<trkpt lat="48.67520" lon="11.46098"><ele>374</ele></trkpt>
<trkpt lat="48.67820" lon="11.46015"><ele>372</ele></trkpt>
<trkpt lat="48.67936" lon="11.45995"><ele>372</ele></trkpt>
<trkpt lat="48.67955" lon="11.46002"><ele>373</ele></trkpt>
<trkpt lat="48.67979" lon="11.45996"><ele>373</ele></trkpt>
<trkpt lat="48.68050" lon="11.46009"><ele>376</ele></trkpt>
<trkpt lat="48.68087" lon="11.46001"><ele>377</ele></trkpt>
<trkpt lat="48.68159" lon="11.45951"><ele>372</ele></trkpt>
<trkpt lat="48.68224" lon="11.45936"><ele>372</ele></trkpt>
<trkpt lat="48.68230" lon="11.45937"><ele>372</ele></trkpt>
<trkpt lat="48.68240" lon="11.45950"><ele>372</ele></trkpt>
<trkpt lat="48.68244" lon="11.45965"><ele>372</ele></trkpt>
<trkpt lat="48.68224" lon="11.46169"><ele>372</ele></trkpt>
<trkpt lat="48.68311" lon="11.46154"><ele>373</ele></trkpt>
<trkpt lat="48.68695" lon="11.46109"><ele>372</ele></trkpt>
<trkpt lat="48.69206" lon="11.46092"><ele>370</ele></trkpt>
<trkpt lat="48.69391" lon="11.46058"><ele>370</ele></trkpt>
<trkpt lat="48.69437" lon="11.46044"><ele>370</ele></trkpt>
<trkpt lat="48.69567" lon="11.45997"><ele>370</ele></trkpt>
<trkpt lat="48.69642" lon="11.45978"><ele>370</ele></trkpt>
<trkpt lat="48.69664" lon="11.45977"><ele>370</ele></trkpt>
<trkpt lat="48.69671" lon="11.45822"><ele>370</ele></trkpt>
<trkpt lat="48.69683" lon="11.45793"><ele>370</ele></trkpt>
<trkpt lat="48.69768" lon="11.45707"><ele>370</ele></trkpt>
<trkpt lat="48.69834" lon="11.45679"><ele>369</ele></trkpt>
<trkpt lat="48.69921" lon="11.45628"><ele>370</ele></trkpt>
<trkpt lat="48.69993" lon="11.45610"><ele>370</ele></trkpt>
<trkpt lat="48.70227" lon="11.45572"><ele>368</ele></trkpt>
<trkpt lat="48.70294" lon="11.45567"><ele>367</ele></trkpt>
<trkpt lat="48.70450" lon="11.45593"><ele>369</ele></trkpt>
<trkpt lat="48.70692" lon="11.45654"><ele>369</ele></trkpt>
<trkpt lat="48.70755" lon="11.45657"><ele>369</ele></trkpt>
<trkpt lat="48.70933" lon="11.45653"><ele>370</ele></trkpt>
<trkpt lat="48.70991" lon="11.45645"><ele>369</ele></trkpt>
<trkpt lat="48.71063" lon="11.45607"><ele>369</ele></trkpt>
<trkpt lat="48.71027" lon="11.45466"><ele>369</ele></trkpt>
<trkpt lat="48.71008" lon="11.45300"><ele>369</ele></trkpt>
<trkpt lat="48.71250" lon="11.45237"><ele>365</ele></trkpt>
<trkpt lat="48.71317" lon="11.45266"><ele>366</ele></trkpt>
<trkpt lat="48.71347" lon="11.45295"><ele>366</ele></trkpt>
<trkpt lat="48.71422" lon="11.45152"><ele>366</ele></trkpt>
<trkpt lat="48.71429" lon="11.45146"><ele>366</ele></trkpt>
<trkpt lat="48.71445" lon="11.45146"><ele>366</ele></trkpt>
<trkpt lat="48.71490" lon="11.45172"><ele>366</ele></trkpt>
<trkpt lat="48.71622" lon="11.45166"><ele>366</ele></trkpt>
<trkpt lat="48.71658" lon="11.45160"><ele>366</ele></trkpt>
<trkpt lat="48.71684" lon="11.45146"><ele>366</ele></trkpt>
<trkpt lat="48.71772" lon="11.45075"><ele>365</ele></trkpt>
<trkpt lat="48.71797" lon="11.45059"><ele>366</ele></trkpt>
<trkpt lat="48.72133" lon="11.44922"><ele>365</ele></trkpt>
<trkpt lat="48.72142" lon="11.44801"><ele>365</ele></trkpt>
<trkpt lat="48.72143" lon="11.44772"><ele>365</ele></trkpt>
<trkpt lat="48.72135" lon="11.44677"><ele>365</ele></trkpt>
<trkpt lat="48.72143" lon="11.44669"><ele>365</ele></trkpt>
<trkpt lat="48.72295" lon="11.44632"><ele>366</ele></trkpt>
<trkpt lat="48.72349" lon="11.44624"><ele>365</ele></trkpt>
<trkpt lat="48.72391" lon="11.44609"><ele>366</ele></trkpt>
<trkpt lat="48.72397" lon="11.44603"><ele>366</ele></trkpt>
<trkpt lat="48.72399" lon="11.44592"><ele>366</ele></trkpt>
<trkpt lat="48.72520" lon="11.44539"><ele>366</ele></trkpt>
<trkpt lat="48.72537" lon="11.44542"><ele>366</ele></trkpt>
<trkpt lat="48.72583" lon="11.44520"><ele>366</ele></trkpt>
<trkpt lat="48.72680" lon="11.44489"><ele>366</ele></trkpt>
<trkpt lat="48.72732" lon="11.44478"><ele>365</ele></trkpt>
<trkpt lat="48.72778" lon="11.44492"><ele>365</ele></trkpt>
<trkpt lat="48.72810" lon="11.44489"><ele>365</ele></trkpt>
<trkpt lat="48.72841" lon="11.44479"><ele>366</ele></trkpt>
<trkpt lat="48.72932" lon="11.44404"><ele>366</ele></trkpt>
<trkpt lat="48.73004" lon="11.44336"><ele>364</ele></trkpt>
<trkpt lat="48.72982" lon="11.44283"><ele>366</ele></trkpt>
<trkpt lat="48.72975" lon="11.44256"><ele>365</ele></trkpt>
<trkpt lat="48.72981" lon="11.44246"><ele>365</ele></trkpt>
<trkpt lat="48.73013" lon="11.44241"><ele>365</ele></trkpt>
<trkpt lat="48.73057" lon="11.44242"><ele>367</ele></trkpt>
<trkpt lat="48.73103" lon="11.44223"><ele>367</ele></trkpt>
<trkpt lat="48.73149" lon="11.44181"><ele>367</ele></trkpt>
<trkpt lat="48.73597" lon="11.43873"><ele>366</ele></trkpt>
<trkpt lat="48.73869" lon="11.43707"><ele>367</ele></trkpt>
<trkpt lat="48.73978" lon="11.43651"><ele>367</ele></trkpt>
<trkpt lat="48.74205" lon="11.43519"><ele>367</ele></trkpt>
<trkpt lat="48.74338" lon="11.43447"><ele>367</ele></trkpt>
<trkpt lat="48.74447" lon="11.43399"><ele>367</ele></trkpt>
<trkpt lat="48.74712" lon="11.43413"><ele>367</ele></trkpt>
<trkpt lat="48.74771" lon="11.43408"><ele>366</ele></trkpt>
<trkpt lat="48.75022" lon="11.43306"><ele>367</ele></trkpt>
<trkpt lat="48.75053" lon="11.43299"><ele>367</ele></trkpt>
<trkpt lat="48.75122" lon="11.43271"><ele>367</ele></trkpt>
<trkpt lat="48.75143" lon="11.43261"><ele>367</ele></trkpt>
<trkpt lat="48.75162" lon="11.43246"><ele>367</ele></trkpt>
<trkpt lat="48.75472" lon="11.43111"><ele>368</ele></trkpt>
<trkpt lat="48.75505" lon="11.43111"><ele>368</ele></trkpt>
<trkpt lat="48.75538" lon="11.43139"><ele>366</ele></trkpt>
<trkpt lat="48.75627" lon="11.43105"><ele>367</ele></trkpt>
<trkpt lat="48.75672" lon="11.43098"><ele>368</ele></trkpt>
<trkpt lat="48.75706" lon="11.43099"><ele>368</ele></trkpt>
<trkpt lat="48.75840" lon="11.43133"><ele>367</ele></trkpt>
<trkpt lat="48.75879" lon="11.43130"><ele>368</ele></trkpt>
<trkpt lat="48.75913" lon="11.43116"><ele>368</ele></trkpt>
<trkpt lat="48.75956" lon="11.43079"><ele>368</ele></trkpt>
<trkpt lat="48.75965" lon="11.43062"><ele>368</ele></trkpt>
<trkpt lat="48.75980" lon="11.43026"><ele>368</ele></trkpt>
<trkpt lat="48.76005" lon="11.42944"><ele>370</ele></trkpt>
<trkpt lat="48.76012" lon="11.42911"><ele>367</ele></trkpt>
<trkpt lat="48.76079" lon="11.42716"><ele>369</ele></trkpt>
<trkpt lat="48.76085" lon="11.42674"><ele>368</ele></trkpt>
<trkpt lat="48.76098" lon="11.42650"><ele>368</ele></trkpt>
<trkpt lat="48.76143" lon="11.42625"><ele>367</ele></trkpt>
<trkpt lat="48.76160" lon="11.42610"><ele>367</ele></trkpt>
<trkpt lat="48.76187" lon="11.42573"><ele>367</ele></trkpt>
<trkpt lat="48.76211" lon="11.42550"><ele>367</ele></trkpt>
<trkpt lat="48.76338" lon="11.42451"><ele>370</ele></trkpt>
<trkpt lat="48.76358" lon="11.42443"><ele>371</ele></trkpt>
<trkpt lat="48.76391" lon="11.42440"><ele>371</ele></trkpt>
<trkpt lat="48.76424" lon="11.42429"><ele>372</ele></trkpt>
<trkpt lat="48.76461" lon="11.42411"><ele>372</ele></trkpt>
<trkpt lat="48.76489" lon="11.42388"><ele>372</ele></trkpt>
<trkpt lat="48.76528" lon="11.42369"><ele>373</ele></trkpt>
<trkpt lat="48.76542" lon="11.42513"><ele>373</ele></trkpt>
<trkpt lat="48.76545" lon="11.42579"><ele>373</ele></trkpt>
<trkpt lat="48.76579" lon="11.42572"><ele>373</ele></trkpt>
<trkpt lat="48.76650" lon="11.42579"><ele>373</ele></trkpt>
    </trkseg>
  </trk>
</gpx>
