<?xml version="1.0" encoding="UTF-8"?>
<gpx version="1.1" creator="Gravel Kompass" xmlns="http://www.topografix.com/GPX/1/1">
  <metadata><name>München – Haltern am See: Von der Isar ins Münsterland – Etappe 4</name></metadata>
  <trk>
    <name>Etappe 4: Gunzenhausen – Rothenburg ob der Tauber</name>
    <trkseg>
<trkpt lat="49.11499" lon="10.75601"><ele>420</ele></trkpt>
<trkpt lat="49.11482" lon="10.75563"><ele>419</ele></trkpt>
<trkpt lat="49.11463" lon="10.75540"><ele>417</ele></trkpt>
<trkpt lat="49.11445" lon="10.75487"><ele>415</ele></trkpt>
<trkpt lat="49.11448" lon="10.75484"><ele>415</ele></trkpt>
<trkpt lat="49.11431" lon="10.75436"><ele>414</ele></trkpt>
<trkpt lat="49.11445" lon="10.75424"><ele>414</ele></trkpt>
<trkpt lat="49.11432" lon="10.75380"><ele>414</ele></trkpt>
<trkpt lat="49.11434" lon="10.75371"><ele>414</ele></trkpt>
<trkpt lat="49.11415" lon="10.75315"><ele>413</ele></trkpt>
<trkpt lat="49.11411" lon="10.75294"><ele>413</ele></trkpt>
<trkpt lat="49.11414" lon="10.75269"><ele>413</ele></trkpt>
<trkpt lat="49.11427" lon="10.75231"><ele>412</ele></trkpt>
<trkpt lat="49.11442" lon="10.75215"><ele>412</ele></trkpt>
<trkpt lat="49.11472" lon="10.75193"><ele>413</ele></trkpt>
<trkpt lat="49.11483" lon="10.75171"><ele>413</ele></trkpt>
<trkpt lat="49.11488" lon="10.75146"><ele>413</ele></trkpt>
<trkpt lat="49.11488" lon="10.75061"><ele>414</ele></trkpt>
<trkpt lat="49.11508" lon="10.75032"><ele>414</ele></trkpt>
<trkpt lat="49.11687" lon="10.74852"><ele>413</ele></trkpt>
<trkpt lat="49.11695" lon="10.74852"><ele>413</ele></trkpt>
<trkpt lat="49.11714" lon="10.74873"><ele>412</ele></trkpt>
<trkpt lat="49.11722" lon="10.74877"><ele>412</ele></trkpt>
<trkpt lat="49.11778" lon="10.74804"><ele>413</ele></trkpt>
<trkpt lat="49.11837" lon="10.74710"><ele>412</ele></trkpt>
<trkpt lat="49.11835" lon="10.74684"><ele>412</ele></trkpt>
<trkpt lat="49.11827" lon="10.74667"><ele>412</ele></trkpt>
<trkpt lat="49.11624" lon="10.74368"><ele>414</ele></trkpt>
<trkpt lat="49.11558" lon="10.74262"><ele>414</ele></trkpt>
<trkpt lat="49.11549" lon="10.74239"><ele>414</ele></trkpt>
<trkpt lat="49.11546" lon="10.74157"><ele>414</ele></trkpt>
<trkpt lat="49.11532" lon="10.74002"><ele>414</ele></trkpt>
<trkpt lat="49.11479" lon="10.72745"><ele>417</ele></trkpt>
<trkpt lat="49.11474" lon="10.72733"><ele>417</ele></trkpt>
<trkpt lat="49.11460" lon="10.72723"><ele>417</ele></trkpt>
<trkpt lat="49.11414" lon="10.72757"><ele>418</ele></trkpt>
<trkpt lat="49.11234" lon="10.72817"><ele>418</ele></trkpt>
<trkpt lat="49.11211" lon="10.72820"><ele>418</ele></trkpt>
<trkpt lat="49.11201" lon="10.72815"><ele>417</ele></trkpt>
<trkpt lat="49.11186" lon="10.72829"><ele>418</ele></trkpt>
<trkpt lat="49.10997" lon="10.72887"><ele>417</ele></trkpt>
<trkpt lat="49.10988" lon="10.72895"><ele>417</ele></trkpt>
<trkpt lat="49.10972" lon="10.72862"><ele>417</ele></trkpt>
<trkpt lat="49.10941" lon="10.72831"><ele>417</ele></trkpt>
<trkpt lat="49.10924" lon="10.72821"><ele>418</ele></trkpt>
<trkpt lat="49.10909" lon="10.72799"><ele>419</ele></trkpt>
<trkpt lat="49.10903" lon="10.72785"><ele>419</ele></trkpt>
<trkpt lat="49.10916" lon="10.72775"><ele>418</ele></trkpt>
<trkpt lat="49.10926" lon="10.72750"><ele>418</ele></trkpt>
<trkpt lat="49.10921" lon="10.72697"><ele>418</ele></trkpt>
<trkpt lat="49.10915" lon="10.72674"><ele>418</ele></trkpt>
<trkpt lat="49.10880" lon="10.72577"><ele>418</ele></trkpt>
<trkpt lat="49.10787" lon="10.72401"><ele>418</ele></trkpt>
<trkpt lat="49.10621" lon="10.72340"><ele>418</ele></trkpt>
<trkpt lat="49.10607" lon="10.72339"><ele>418</ele></trkpt>
<trkpt lat="49.10565" lon="10.72350"><ele>420</ele></trkpt>
<trkpt lat="49.10538" lon="10.72374"><ele>422</ele></trkpt>
<trkpt lat="49.10508" lon="10.72299"><ele>423</ele></trkpt>
<trkpt lat="49.10494" lon="10.72257"><ele>423</ele></trkpt>
<trkpt lat="49.10484" lon="10.72216"><ele>423</ele></trkpt>
<trkpt lat="49.10476" lon="10.72172"><ele>425</ele></trkpt>
<trkpt lat="49.10470" lon="10.72111"><ele>426</ele></trkpt>
<trkpt lat="49.10475" lon="10.72064"><ele>424</ele></trkpt>
<trkpt lat="49.10495" lon="10.72144"><ele>420</ele></trkpt>
<trkpt lat="49.10476" lon="10.72155"><ele>420</ele></trkpt>
<trkpt lat="49.10432" lon="10.72156"><ele>420</ele></trkpt>
<trkpt lat="49.10415" lon="10.72148"><ele>420</ele></trkpt>
<trkpt lat="49.10405" lon="10.72126"><ele>421</ele></trkpt>
<trkpt lat="49.10403" lon="10.72069"><ele>422</ele></trkpt>
<trkpt lat="49.10382" lon="10.72075"><ele>419</ele></trkpt>
<trkpt lat="49.10374" lon="10.72068"><ele>419</ele></trkpt>
<trkpt lat="49.10326" lon="10.71981"><ele>420</ele></trkpt>
<trkpt lat="49.10204" lon="10.71720"><ele>420</ele></trkpt>
<trkpt lat="49.10185" lon="10.71712"><ele>420</ele></trkpt>
<trkpt lat="49.10152" lon="10.71576"><ele>420</ele></trkpt>
<trkpt lat="49.10186" lon="10.71507"><ele>422</ele></trkpt>
<trkpt lat="49.10174" lon="10.71469"><ele>421</ele></trkpt>
<trkpt lat="49.10165" lon="10.71464"><ele>421</ele></trkpt>
<trkpt lat="49.10105" lon="10.71496"><ele>421</ele></trkpt>
<trkpt lat="49.10042" lon="10.71519"><ele>422</ele></trkpt>
<trkpt lat="49.10032" lon="10.71511"><ele>422</ele></trkpt>
<trkpt lat="49.10005" lon="10.71396"><ele>422</ele></trkpt>
<trkpt lat="49.10006" lon="10.71384"><ele>422</ele></trkpt>
<trkpt lat="49.10001" lon="10.71377"><ele>422</ele></trkpt>
<trkpt lat="49.09981" lon="10.71301"><ele>425</ele></trkpt>
<trkpt lat="49.09954" lon="10.71237"><ele>425</ele></trkpt>
<trkpt lat="49.09943" lon="10.71217"><ele>424</ele></trkpt>
<trkpt lat="49.09898" lon="10.71172"><ele>423</ele></trkpt>
<trkpt lat="49.09857" lon="10.71107"><ele>423</ele></trkpt>
<trkpt lat="49.09688" lon="10.70600"><ele>424</ele></trkpt>
<trkpt lat="49.09682" lon="10.70560"><ele>424</ele></trkpt>
<trkpt lat="49.09680" lon="10.70499"><ele>424</ele></trkpt>
<trkpt lat="49.09674" lon="10.70455"><ele>425</ele></trkpt>
<trkpt lat="49.09637" lon="10.70372"><ele>425</ele></trkpt>
<trkpt lat="49.09615" lon="10.70336"><ele>425</ele></trkpt>
<trkpt lat="49.09565" lon="10.70271"><ele>425</ele></trkpt>
<trkpt lat="49.09529" lon="10.70234"><ele>426</ele></trkpt>
<trkpt lat="49.09451" lon="10.70187"><ele>425</ele></trkpt>
<trkpt lat="49.09401" lon="10.70147"><ele>425</ele></trkpt>
<trkpt lat="49.09382" lon="10.70121"><ele>425</ele></trkpt>
<trkpt lat="49.09342" lon="10.70046"><ele>425</ele></trkpt>
<trkpt lat="49.09322" lon="10.70015"><ele>426</ele></trkpt>
<trkpt lat="49.09301" lon="10.69989"><ele>426</ele></trkpt>
<trkpt lat="49.09256" lon="10.69945"><ele>426</ele></trkpt>
<trkpt lat="49.09221" lon="10.69895"><ele>427</ele></trkpt>
<trkpt lat="49.09196" lon="10.69849"><ele>426</ele></trkpt>
<trkpt lat="49.09155" lon="10.69748"><ele>427</ele></trkpt>
<trkpt lat="49.09147" lon="10.69717"><ele>428</ele></trkpt>
<trkpt lat="49.09086" lon="10.69804"><ele>427</ele></trkpt>
<trkpt lat="49.08997" lon="10.69513"><ele>432</ele></trkpt>
<trkpt lat="49.08991" lon="10.69528"><ele>432</ele></trkpt>
<trkpt lat="49.08975" lon="10.69540"><ele>433</ele></trkpt>
<trkpt lat="49.08626" lon="10.69666"><ele>440</ele></trkpt>
<trkpt lat="49.08521" lon="10.69246"><ele>458</ele></trkpt>
<trkpt lat="49.08402" lon="10.68891"><ele>470</ele></trkpt>
<trkpt lat="49.08188" lon="10.68594"><ele>457</ele></trkpt>
<trkpt lat="49.08164" lon="10.68629"><ele>458</ele></trkpt>
<trkpt lat="49.08049" lon="10.68484"><ele>464</ele></trkpt>
<trkpt lat="49.08045" lon="10.68465"><ele>463</ele></trkpt>
<trkpt lat="49.07994" lon="10.68010"><ele>466</ele></trkpt>
<trkpt lat="49.07991" lon="10.67971"><ele>467</ele></trkpt>
<trkpt lat="49.08006" lon="10.67959"><ele>467</ele></trkpt>
<trkpt lat="49.07987" lon="10.67929"><ele>467</ele></trkpt>
<trkpt lat="49.07944" lon="10.67813"><ele>470</ele></trkpt>
<trkpt lat="49.07915" lon="10.67700"><ele>474</ele></trkpt>
<trkpt lat="49.07861" lon="10.67222"><ele>486</ele></trkpt>
<trkpt lat="49.07800" lon="10.67252"><ele>487</ele></trkpt>
<trkpt lat="49.07251" lon="10.67369"><ele>482</ele></trkpt>
<trkpt lat="49.07107" lon="10.67419"><ele>484</ele></trkpt>
<trkpt lat="49.06959" lon="10.67479"><ele>482</ele></trkpt>
<trkpt lat="49.06838" lon="10.66862"><ele>489</ele></trkpt>
<trkpt lat="49.06831" lon="10.66850"><ele>489</ele></trkpt>
<trkpt lat="49.06823" lon="10.66846"><ele>490</ele></trkpt>
<trkpt lat="49.06810" lon="10.66854"><ele>489</ele></trkpt>
<trkpt lat="49.06760" lon="10.66904"><ele>488</ele></trkpt>
<trkpt lat="49.06735" lon="10.66921"><ele>488</ele></trkpt>
<trkpt lat="49.06707" lon="10.66931"><ele>487</ele></trkpt>
<trkpt lat="49.06568" lon="10.66924"><ele>484</ele></trkpt>
<trkpt lat="49.06551" lon="10.66933"><ele>483</ele></trkpt>
<trkpt lat="49.06428" lon="10.66332"><ele>484</ele></trkpt>
<trkpt lat="49.06385" lon="10.65999"><ele>483</ele></trkpt>
<trkpt lat="49.06380" lon="10.65946"><ele>482</ele></trkpt>
<trkpt lat="49.06380" lon="10.65887"><ele>481</ele></trkpt>
<trkpt lat="49.06399" lon="10.65376"><ele>476</ele></trkpt>
<trkpt lat="49.06312" lon="10.65370"><ele>465</ele></trkpt>
<trkpt lat="49.06184" lon="10.65353"><ele>454</ele></trkpt>
<trkpt lat="49.06111" lon="10.65361"><ele>453</ele></trkpt>
<trkpt lat="49.06113" lon="10.65328"><ele>453</ele></trkpt>
<trkpt lat="49.05907" lon="10.65318"><ele>460</ele></trkpt>
<trkpt lat="49.05876" lon="10.65312"><ele>461</ele></trkpt>
<trkpt lat="49.05776" lon="10.65264"><ele>463</ele></trkpt>
<trkpt lat="49.05733" lon="10.65234"><ele>464</ele></trkpt>
<trkpt lat="49.05676" lon="10.65169"><ele>464</ele></trkpt>
<trkpt lat="49.05654" lon="10.65152"><ele>464</ele></trkpt>
<trkpt lat="49.05624" lon="10.65139"><ele>464</ele></trkpt>
<trkpt lat="49.05592" lon="10.65135"><ele>464</ele></trkpt>
<trkpt lat="49.05565" lon="10.65138"><ele>464</ele></trkpt>
<trkpt lat="49.05548" lon="10.65147"><ele>465</ele></trkpt>
<trkpt lat="49.05515" lon="10.65073"><ele>467</ele></trkpt>
<trkpt lat="49.05490" lon="10.65042"><ele>468</ele></trkpt>
<trkpt lat="49.05457" lon="10.65019"><ele>469</ele></trkpt>
<trkpt lat="49.05410" lon="10.65001"><ele>471</ele></trkpt>
<trkpt lat="49.05383" lon="10.64974"><ele>472</ele></trkpt>
<trkpt lat="49.05299" lon="10.64854"><ele>478</ele></trkpt>
<trkpt lat="49.05269" lon="10.64829"><ele>480</ele></trkpt>
<trkpt lat="49.05240" lon="10.64815"><ele>481</ele></trkpt>
<trkpt lat="49.05160" lon="10.64792"><ele>487</ele></trkpt>
<trkpt lat="49.05104" lon="10.64768"><ele>489</ele></trkpt>
<trkpt lat="49.05057" lon="10.64733"><ele>489</ele></trkpt>
<trkpt lat="49.04958" lon="10.64616"><ele>488</ele></trkpt>
<trkpt lat="49.04911" lon="10.64577"><ele>490</ele></trkpt>
<trkpt lat="49.04867" lon="10.64554"><ele>491</ele></trkpt>
<trkpt lat="49.04817" lon="10.64547"><ele>493</ele></trkpt>
<trkpt lat="49.04765" lon="10.64554"><ele>494</ele></trkpt>
<trkpt lat="49.04659" lon="10.64593"><ele>490</ele></trkpt>
<trkpt lat="49.04547" lon="10.64681"><ele>480</ele></trkpt>
<trkpt lat="49.04524" lon="10.64688"><ele>480</ele></trkpt>
<trkpt lat="49.04500" lon="10.64677"><ele>478</ele></trkpt>
<trkpt lat="49.04457" lon="10.64636"><ele>476</ele></trkpt>
<trkpt lat="49.04468" lon="10.64612"><ele>478</ele></trkpt>
<trkpt lat="49.04470" lon="10.64598"><ele>478</ele></trkpt>
<trkpt lat="49.04468" lon="10.64583"><ele>478</ele></trkpt>
<trkpt lat="49.04371" lon="10.64367"><ele>474</ele></trkpt>
<trkpt lat="49.04272" lon="10.64216"><ele>469</ele></trkpt>
<trkpt lat="49.04204" lon="10.64079"><ele>466</ele></trkpt>
<trkpt lat="49.04188" lon="10.64035"><ele>465</ele></trkpt>
<trkpt lat="49.04178" lon="10.63858"><ele>464</ele></trkpt>
<trkpt lat="49.04198" lon="10.63850"><ele>464</ele></trkpt>
<trkpt lat="49.04124" lon="10.63599"><ele>454</ele></trkpt>
<trkpt lat="49.04116" lon="10.63559"><ele>452</ele></trkpt>
<trkpt lat="49.04106" lon="10.63244"><ele>446</ele></trkpt>
<trkpt lat="49.04092" lon="10.63161"><ele>445</ele></trkpt>
<trkpt lat="49.04049" lon="10.62995"><ele>444</ele></trkpt>
<trkpt lat="49.03972" lon="10.62768"><ele>437</ele></trkpt>
<trkpt lat="49.03930" lon="10.62710"><ele>435</ele></trkpt>
<trkpt lat="49.03911" lon="10.62663"><ele>435</ele></trkpt>
<trkpt lat="49.03898" lon="10.62617"><ele>434</ele></trkpt>
<trkpt lat="49.03796" lon="10.61959"><ele>428</ele></trkpt>
<trkpt lat="49.03768" lon="10.61561"><ele>425</ele></trkpt>
<trkpt lat="49.03755" lon="10.61505"><ele>424</ele></trkpt>
<trkpt lat="49.03758" lon="10.61418"><ele>424</ele></trkpt>
<trkpt lat="49.03773" lon="10.61361"><ele>424</ele></trkpt>
<trkpt lat="49.03819" lon="10.60994"><ele>422</ele></trkpt>
<trkpt lat="49.03833" lon="10.60940"><ele>422</ele></trkpt>
<trkpt lat="49.03845" lon="10.60919"><ele>422</ele></trkpt>
<trkpt lat="49.03861" lon="10.60901"><ele>422</ele></trkpt>
<trkpt lat="49.03958" lon="10.60847"><ele>422</ele></trkpt>
<trkpt lat="49.03993" lon="10.60831"><ele>423</ele></trkpt>
<trkpt lat="49.04062" lon="10.60812"><ele>423</ele></trkpt>
<trkpt lat="49.04068" lon="10.60804"><ele>423</ele></trkpt>
<trkpt lat="49.04070" lon="10.60793"><ele>424</ele></trkpt>
<trkpt lat="49.04063" lon="10.60738"><ele>424</ele></trkpt>
<trkpt lat="49.04066" lon="10.60722"><ele>424</ele></trkpt>
<trkpt lat="49.04081" lon="10.60693"><ele>423</ele></trkpt>
<trkpt lat="49.04084" lon="10.60676"><ele>423</ele></trkpt>
<trkpt lat="49.04079" lon="10.60467"><ele>424</ele></trkpt>
<trkpt lat="49.04100" lon="10.60369"><ele>423</ele></trkpt>
<trkpt lat="49.04112" lon="10.60301"><ele>423</ele></trkpt>
<trkpt lat="49.04114" lon="10.60279"><ele>423</ele></trkpt>
<trkpt lat="49.04109" lon="10.59954"><ele>423</ele></trkpt>
<trkpt lat="49.04094" lon="10.59901"><ele>424</ele></trkpt>
<trkpt lat="49.04111" lon="10.59872"><ele>424</ele></trkpt>
<trkpt lat="49.04119" lon="10.59849"><ele>424</ele></trkpt>
<trkpt lat="49.04121" lon="10.59834"><ele>423</ele></trkpt>
<trkpt lat="49.04114" lon="10.59728"><ele>424</ele></trkpt>
<trkpt lat="49.04117" lon="10.59720"><ele>424</ele></trkpt>
<trkpt lat="49.04117" lon="10.59700"><ele>424</ele></trkpt>
<trkpt lat="49.04123" lon="10.59609"><ele>424</ele></trkpt>
<trkpt lat="49.04130" lon="10.59578"><ele>424</ele></trkpt>
<trkpt lat="49.04155" lon="10.59553"><ele>424</ele></trkpt>
<trkpt lat="49.04161" lon="10.59539"><ele>423</ele></trkpt>
<trkpt lat="49.04166" lon="10.59516"><ele>423</ele></trkpt>
<trkpt lat="49.04183" lon="10.59522"><ele>423</ele></trkpt>
<trkpt lat="49.04280" lon="10.59492"><ele>424</ele></trkpt>
<trkpt lat="49.04270" lon="10.59369"><ele>423</ele></trkpt>
<trkpt lat="49.04305" lon="10.59367"><ele>424</ele></trkpt>
<trkpt lat="49.04305" lon="10.59356"><ele>424</ele></trkpt>
<trkpt lat="49.04305" lon="10.59367"><ele>424</ele></trkpt>
<trkpt lat="49.04397" lon="10.59365"><ele>424</ele></trkpt>
<trkpt lat="49.04387" lon="10.59456"><ele>425</ele></trkpt>
<trkpt lat="49.04416" lon="10.59458"><ele>425</ele></trkpt>
<trkpt lat="49.04443" lon="10.59466"><ele>426</ele></trkpt>
<trkpt lat="49.04519" lon="10.59531"><ele>428</ele></trkpt>
<trkpt lat="49.04594" lon="10.59431"><ele>429</ele></trkpt>
<trkpt lat="49.04694" lon="10.59276"><ele>431</ele></trkpt>
<trkpt lat="49.04700" lon="10.59275"><ele>431</ele></trkpt>
<trkpt lat="49.04796" lon="10.59124"><ele>434</ele></trkpt>
<trkpt lat="49.04818" lon="10.59093"><ele>434</ele></trkpt>
<trkpt lat="49.04836" lon="10.59076"><ele>435</ele></trkpt>
<trkpt lat="49.04937" lon="10.58938"><ele>433</ele></trkpt>
<trkpt lat="49.04971" lon="10.58898"><ele>432</ele></trkpt>
<trkpt lat="49.04996" lon="10.58878"><ele>433</ele></trkpt>
<trkpt lat="49.05004" lon="10.58866"><ele>433</ele></trkpt>
<trkpt lat="49.05053" lon="10.58830"><ele>434</ele></trkpt>
<trkpt lat="49.05098" lon="10.58812"><ele>435</ele></trkpt>
<trkpt lat="49.05118" lon="10.58807"><ele>434</ele></trkpt>
<trkpt lat="49.05175" lon="10.58807"><ele>434</ele></trkpt>
<trkpt lat="49.05182" lon="10.58813"><ele>434</ele></trkpt>
<trkpt lat="49.05193" lon="10.58810"><ele>434</ele></trkpt>
<trkpt lat="49.05210" lon="10.58797"><ele>434</ele></trkpt>
<trkpt lat="49.05229" lon="10.58801"><ele>434</ele></trkpt>
<trkpt lat="49.05322" lon="10.58789"><ele>436</ele></trkpt>
<trkpt lat="49.05351" lon="10.58792"><ele>437</ele></trkpt>
<trkpt lat="49.05385" lon="10.58808"><ele>439</ele></trkpt>
<trkpt lat="49.05422" lon="10.58831"><ele>441</ele></trkpt>
<trkpt lat="49.05517" lon="10.58904"><ele>442</ele></trkpt>
<trkpt lat="49.05555" lon="10.58922"><ele>442</ele></trkpt>
<trkpt lat="49.05579" lon="10.58924"><ele>441</ele></trkpt>
<trkpt lat="49.05676" lon="10.58925"><ele>443</ele></trkpt>
<trkpt lat="49.05743" lon="10.58917"><ele>446</ele></trkpt>
<trkpt lat="49.06076" lon="10.58908"><ele>447</ele></trkpt>
<trkpt lat="49.06163" lon="10.58891"><ele>449</ele></trkpt>
<trkpt lat="49.06220" lon="10.58876"><ele>450</ele></trkpt>
<trkpt lat="49.06271" lon="10.58850"><ele>452</ele></trkpt>
<trkpt lat="49.06408" lon="10.58765"><ele>454</ele></trkpt>
<trkpt lat="49.06435" lon="10.58740"><ele>455</ele></trkpt>
<trkpt lat="49.06526" lon="10.58632"><ele>459</ele></trkpt>
<trkpt lat="49.06564" lon="10.58594"><ele>461</ele></trkpt>
<trkpt lat="49.06601" lon="10.58565"><ele>463</ele></trkpt>
<trkpt lat="49.06743" lon="10.58474"><ele>475</ele></trkpt>
<trkpt lat="49.06804" lon="10.58447"><ele>479</ele></trkpt>
<trkpt lat="49.06857" lon="10.58431"><ele>482</ele></trkpt>
<trkpt lat="49.06910" lon="10.58425"><ele>484</ele></trkpt>
<trkpt lat="49.06929" lon="10.58427"><ele>485</ele></trkpt>
<trkpt lat="49.06979" lon="10.58453"><ele>488</ele></trkpt>
<trkpt lat="49.07010" lon="10.58449"><ele>488</ele></trkpt>
<trkpt lat="49.07058" lon="10.58413"><ele>489</ele></trkpt>
<trkpt lat="49.07075" lon="10.58393"><ele>488</ele></trkpt>
<trkpt lat="49.07138" lon="10.58371"><ele>486</ele></trkpt>
<trkpt lat="49.07144" lon="10.58364"><ele>486</ele></trkpt>
<trkpt lat="49.07243" lon="10.58327"><ele>483</ele></trkpt>
<trkpt lat="49.07325" lon="10.58312"><ele>478</ele></trkpt>
<trkpt lat="49.07525" lon="10.58218"><ele>461</ele></trkpt>
<trkpt lat="49.07586" lon="10.58181"><ele>457</ele></trkpt>
<trkpt lat="49.07723" lon="10.58081"><ele>453</ele></trkpt>
<trkpt lat="49.07726" lon="10.58099"><ele>452</ele></trkpt>
<trkpt lat="49.07719" lon="10.58208"><ele>450</ele></trkpt>
<trkpt lat="49.07722" lon="10.58222"><ele>450</ele></trkpt>
<trkpt lat="49.07730" lon="10.58224"><ele>450</ele></trkpt>
<trkpt lat="49.07866" lon="10.58197"><ele>446</ele></trkpt>
<trkpt lat="49.07904" lon="10.58194"><ele>445</ele></trkpt>
<trkpt lat="49.07907" lon="10.58279"><ele>445</ele></trkpt>
<trkpt lat="49.07926" lon="10.58425"><ele>447</ele></trkpt>
<trkpt lat="49.07934" lon="10.58430"><ele>447</ele></trkpt>
<trkpt lat="49.07946" lon="10.58466"><ele>447</ele></trkpt>
<trkpt lat="49.07961" lon="10.58495"><ele>446</ele></trkpt>
<trkpt lat="49.07981" lon="10.58514"><ele>444</ele></trkpt>
<trkpt lat="49.08031" lon="10.58536"><ele>442</ele></trkpt>
<trkpt lat="49.08160" lon="10.58468"><ele>437</ele></trkpt>
<trkpt lat="49.08192" lon="10.58459"><ele>437</ele></trkpt>
<trkpt lat="49.08564" lon="10.58447"><ele>467</ele></trkpt>
<trkpt lat="49.08581" lon="10.58443"><ele>468</ele></trkpt>
<trkpt lat="49.08605" lon="10.58431"><ele>469</ele></trkpt>
<trkpt lat="49.08707" lon="10.58358"><ele>470</ele></trkpt>
<trkpt lat="49.08755" lon="10.58315"><ele>470</ele></trkpt>
<trkpt lat="49.08850" lon="10.58237"><ele>471</ele></trkpt>
<trkpt lat="49.08922" lon="10.58195"><ele>472</ele></trkpt>
<trkpt lat="49.08979" lon="10.58169"><ele>472</ele></trkpt>
<trkpt lat="49.09035" lon="10.58155"><ele>472</ele></trkpt>
<trkpt lat="49.09075" lon="10.58154"><ele>472</ele></trkpt>
<trkpt lat="49.09142" lon="10.58169"><ele>472</ele></trkpt>
<trkpt lat="49.09136" lon="10.57981"><ele>472</ele></trkpt>
<trkpt lat="49.09138" lon="10.57841"><ele>470</ele></trkpt>
<trkpt lat="49.09217" lon="10.57381"><ele>470</ele></trkpt>
<trkpt lat="49.09226" lon="10.57283"><ele>471</ele></trkpt>
<trkpt lat="49.09229" lon="10.57112"><ele>470</ele></trkpt>
<trkpt lat="49.09498" lon="10.57206"><ele>479</ele></trkpt>
<trkpt lat="49.09530" lon="10.57210"><ele>479</ele></trkpt>
<trkpt lat="49.09583" lon="10.57200"><ele>478</ele></trkpt>
<trkpt lat="49.09592" lon="10.57162"><ele>478</ele></trkpt>
<trkpt lat="49.09784" lon="10.57438"><ele>454</ele></trkpt>
<trkpt lat="49.09840" lon="10.57506"><ele>450</ele></trkpt>
<trkpt lat="49.09967" lon="10.57647"><ele>446</ele></trkpt>
<trkpt lat="49.10128" lon="10.57492"><ele>452</ele></trkpt>
<trkpt lat="49.10154" lon="10.57472"><ele>450</ele></trkpt>
<trkpt lat="49.10239" lon="10.57432"><ele>448</ele></trkpt>
<trkpt lat="49.10326" lon="10.57410"><ele>445</ele></trkpt>
<trkpt lat="49.10370" lon="10.57391"><ele>445</ele></trkpt>
<trkpt lat="49.10406" lon="10.57358"><ele>445</ele></trkpt>
<trkpt lat="49.10576" lon="10.57167"><ele>452</ele></trkpt>
<trkpt lat="49.10692" lon="10.57050"><ele>450</ele></trkpt>
<trkpt lat="49.10862" lon="10.56863"><ele>452</ele></trkpt>
<trkpt lat="49.10943" lon="10.56736"><ele>450</ele></trkpt>
<trkpt lat="49.10980" lon="10.56665"><ele>448</ele></trkpt>
<trkpt lat="49.11139" lon="10.56268"><ele>451</ele></trkpt>
<trkpt lat="49.11189" lon="10.56128"><ele>451</ele></trkpt>
<trkpt lat="49.11218" lon="10.56023"><ele>451</ele></trkpt>
<trkpt lat="49.11248" lon="10.55886"><ele>449</ele></trkpt>
<trkpt lat="49.11261" lon="10.55859"><ele>448</ele></trkpt>
<trkpt lat="49.11318" lon="10.55780"><ele>449</ele></trkpt>
<trkpt lat="49.11358" lon="10.55711"><ele>450</ele></trkpt>
<trkpt lat="49.11372" lon="10.55680"><ele>450</ele></trkpt>
<trkpt lat="49.11443" lon="10.55460"><ele>453</ele></trkpt>
<trkpt lat="49.11518" lon="10.55254"><ele>454</ele></trkpt>
<trkpt lat="49.11539" lon="10.55170"><ele>455</ele></trkpt>
<trkpt lat="49.11566" lon="10.55012"><ele>456</ele></trkpt>
<trkpt lat="49.11577" lon="10.54972"><ele>454</ele></trkpt>
<trkpt lat="49.11609" lon="10.54920"><ele>453</ele></trkpt>
<trkpt lat="49.11632" lon="10.54875"><ele>452</ele></trkpt>
<trkpt lat="49.11638" lon="10.54856"><ele>453</ele></trkpt>
<trkpt lat="49.11733" lon="10.54848"><ele>452</ele></trkpt>
<trkpt lat="49.11868" lon="10.54849"><ele>454</ele></trkpt>
<trkpt lat="49.12003" lon="10.54878"><ele>456</ele></trkpt>
<trkpt lat="49.12088" lon="10.54910"><ele>453</ele></trkpt>
<trkpt lat="49.12148" lon="10.54958"><ele>452</ele></trkpt>
<trkpt lat="49.12217" lon="10.55038"><ele>453</ele></trkpt>
<trkpt lat="49.12240" lon="10.55048"><ele>453</ele></trkpt>
<trkpt lat="49.12315" lon="10.55070"><ele>452</ele></trkpt>
<trkpt lat="49.12336" lon="10.55068"><ele>452</ele></trkpt>
<trkpt lat="49.12363" lon="10.55048"><ele>452</ele></trkpt>
<trkpt lat="49.12466" lon="10.54934"><ele>452</ele></trkpt>
<trkpt lat="49.12528" lon="10.54891"><ele>453</ele></trkpt>
<trkpt lat="49.12622" lon="10.54856"><ele>452</ele></trkpt>
<trkpt lat="49.12686" lon="10.54849"><ele>452</ele></trkpt>
<trkpt lat="49.12731" lon="10.54852"><ele>452</ele></trkpt>
<trkpt lat="49.12797" lon="10.54865"><ele>451</ele></trkpt>
<trkpt lat="49.13042" lon="10.54881"><ele>452</ele></trkpt>
<trkpt lat="49.13038" lon="10.54839"><ele>453</ele></trkpt>
<trkpt lat="49.13072" lon="10.54708"><ele>454</ele></trkpt>
<trkpt lat="49.13078" lon="10.54651"><ele>454</ele></trkpt>
<trkpt lat="49.13093" lon="10.54576"><ele>454</ele></trkpt>
<trkpt lat="49.13089" lon="10.54489"><ele>452</ele></trkpt>
<trkpt lat="49.13103" lon="10.54330"><ele>449</ele></trkpt>
<trkpt lat="49.13102" lon="10.54263"><ele>448</ele></trkpt>
<trkpt lat="49.13094" lon="10.54185"><ele>448</ele></trkpt>
<trkpt lat="49.13070" lon="10.53734"><ele>446</ele></trkpt>
<trkpt lat="49.13153" lon="10.53669"><ele>446</ele></trkpt>
<trkpt lat="49.13167" lon="10.53655"><ele>444</ele></trkpt>
<trkpt lat="49.13186" lon="10.53612"><ele>444</ele></trkpt>
<trkpt lat="49.13201" lon="10.53604"><ele>445</ele></trkpt>
<trkpt lat="49.13244" lon="10.53610"><ele>446</ele></trkpt>
<trkpt lat="49.13260" lon="10.53627"><ele>446</ele></trkpt>
<trkpt lat="49.13280" lon="10.53678"><ele>445</ele></trkpt>
<trkpt lat="49.13292" lon="10.53696"><ele>445</ele></trkpt>
<trkpt lat="49.13305" lon="10.53705"><ele>444</ele></trkpt>
<trkpt lat="49.13327" lon="10.53709"><ele>444</ele></trkpt>
<trkpt lat="49.13350" lon="10.53708"><ele>444</ele></trkpt>
<trkpt lat="49.13389" lon="10.53698"><ele>445</ele></trkpt>
<trkpt lat="49.13445" lon="10.53659"><ele>445</ele></trkpt>
<trkpt lat="49.13470" lon="10.53648"><ele>446</ele></trkpt>
<trkpt lat="49.13627" lon="10.53617"><ele>452</ele></trkpt>
<trkpt lat="49.13590" lon="10.53506"><ele>451</ele></trkpt>
<trkpt lat="49.13579" lon="10.53452"><ele>451</ele></trkpt>
<trkpt lat="49.13574" lon="10.53407"><ele>451</ele></trkpt>
<trkpt lat="49.13576" lon="10.53368"><ele>451</ele></trkpt>
<trkpt lat="49.13587" lon="10.53311"><ele>452</ele></trkpt>
<trkpt lat="49.13635" lon="10.53159"><ele>454</ele></trkpt>
<trkpt lat="49.13663" lon="10.53020"><ele>456</ele></trkpt>
<trkpt lat="49.13672" lon="10.52954"><ele>456</ele></trkpt>
<trkpt lat="49.13770" lon="10.52933"><ele>454</ele></trkpt>
<trkpt lat="49.13809" lon="10.52930"><ele>454</ele></trkpt>
<trkpt lat="49.13815" lon="10.52919"><ele>454</ele></trkpt>
<trkpt lat="49.13818" lon="10.52891"><ele>454</ele></trkpt>
<trkpt lat="49.13825" lon="10.52872"><ele>453</ele></trkpt>
<trkpt lat="49.13850" lon="10.52895"><ele>453</ele></trkpt>
<trkpt lat="49.13866" lon="10.52768"><ele>452</ele></trkpt>
<trkpt lat="49.13888" lon="10.52666"><ele>452</ele></trkpt>
<trkpt lat="49.13896" lon="10.52612"><ele>452</ele></trkpt>
<trkpt lat="49.13909" lon="10.52583"><ele>452</ele></trkpt>
<trkpt lat="49.13901" lon="10.52576"><ele>453</ele></trkpt>
<trkpt lat="49.13758" lon="10.52268"><ele>459</ele></trkpt>
<trkpt lat="49.13744" lon="10.52253"><ele>459</ele></trkpt>
<trkpt lat="49.13720" lon="10.52241"><ele>460</ele></trkpt>
<trkpt lat="49.13727" lon="10.52216"><ele>460</ele></trkpt>
<trkpt lat="49.13746" lon="10.52172"><ele>460</ele></trkpt>
<trkpt lat="49.13775" lon="10.52117"><ele>461</ele></trkpt>
<trkpt lat="49.13865" lon="10.51989"><ele>461</ele></trkpt>
<trkpt lat="49.13942" lon="10.51858"><ele>462</ele></trkpt>
<trkpt lat="49.13974" lon="10.51819"><ele>461</ele></trkpt>
<trkpt lat="49.13995" lon="10.51798"><ele>461</ele></trkpt>
<trkpt lat="49.14057" lon="10.51750"><ele>462</ele></trkpt>
<trkpt lat="49.14095" lon="10.51713"><ele>460</ele></trkpt>
<trkpt lat="49.14122" lon="10.51679"><ele>461</ele></trkpt>
<trkpt lat="49.14134" lon="10.51653"><ele>461</ele></trkpt>
<trkpt lat="49.14137" lon="10.51628"><ele>461</ele></trkpt>
<trkpt lat="49.14136" lon="10.51535"><ele>461</ele></trkpt>
<trkpt lat="49.14153" lon="10.51284"><ele>456</ele></trkpt>
<trkpt lat="49.14152" lon="10.51092"><ele>452</ele></trkpt>
<trkpt lat="49.14156" lon="10.51011"><ele>451</ele></trkpt>
<trkpt lat="49.14170" lon="10.50952"><ele>450</ele></trkpt>
<trkpt lat="49.14216" lon="10.50819"><ele>452</ele></trkpt>
<trkpt lat="49.14229" lon="10.50769"><ele>451</ele></trkpt>
<trkpt lat="49.14269" lon="10.50469"><ele>450</ele></trkpt>
<trkpt lat="49.14283" lon="10.50438"><ele>450</ele></trkpt>
<trkpt lat="49.14297" lon="10.50423"><ele>449</ele></trkpt>
<trkpt lat="49.14309" lon="10.50419"><ele>448</ele></trkpt>
<trkpt lat="49.14363" lon="10.50424"><ele>444</ele></trkpt>
<trkpt lat="49.14385" lon="10.50395"><ele>442</ele></trkpt>
<trkpt lat="49.14412" lon="10.50340"><ele>439</ele></trkpt>
<trkpt lat="49.14416" lon="10.50280"><ele>437</ele></trkpt>
<trkpt lat="49.14424" lon="10.50261"><ele>436</ele></trkpt>
<trkpt lat="49.14438" lon="10.50246"><ele>436</ele></trkpt>
<trkpt lat="49.14462" lon="10.50239"><ele>436</ele></trkpt>
<trkpt lat="49.14454" lon="10.50214"><ele>436</ele></trkpt>
<trkpt lat="49.14448" lon="10.50183"><ele>436</ele></trkpt>
<trkpt lat="49.14446" lon="10.50115"><ele>438</ele></trkpt>
<trkpt lat="49.14437" lon="10.50091"><ele>438</ele></trkpt>
<trkpt lat="49.14411" lon="10.50057"><ele>438</ele></trkpt>
<trkpt lat="49.14430" lon="10.50032"><ele>439</ele></trkpt>
<trkpt lat="49.14455" lon="10.50017"><ele>440</ele></trkpt>
<trkpt lat="49.14527" lon="10.49992"><ele>439</ele></trkpt>
<trkpt lat="49.14539" lon="10.49951"><ele>439</ele></trkpt>
<trkpt lat="49.14582" lon="10.49648"><ele>440</ele></trkpt>
<trkpt lat="49.14587" lon="10.49580"><ele>440</ele></trkpt>
<trkpt lat="49.14586" lon="10.49518"><ele>440</ele></trkpt>
<trkpt lat="49.14568" lon="10.49412"><ele>441</ele></trkpt>
<trkpt lat="49.14560" lon="10.49332"><ele>442</ele></trkpt>
<trkpt lat="49.14560" lon="10.49293"><ele>442</ele></trkpt>
<trkpt lat="49.14567" lon="10.49264"><ele>442</ele></trkpt>
<trkpt lat="49.14578" lon="10.49245"><ele>442</ele></trkpt>
<trkpt lat="49.14595" lon="10.49225"><ele>443</ele></trkpt>
<trkpt lat="49.14614" lon="10.49218"><ele>443</ele></trkpt>
<trkpt lat="49.14631" lon="10.49218"><ele>443</ele></trkpt>
<trkpt lat="49.14719" lon="10.49235"><ele>445</ele></trkpt>
<trkpt lat="49.14862" lon="10.49283"><ele>451</ele></trkpt>
<trkpt lat="49.14910" lon="10.49289"><ele>454</ele></trkpt>
<trkpt lat="49.14990" lon="10.49277"><ele>456</ele></trkpt>
<trkpt lat="49.15134" lon="10.49232"><ele>459</ele></trkpt>
<trkpt lat="49.15230" lon="10.49181"><ele>456</ele></trkpt>
<trkpt lat="49.15342" lon="10.49089"><ele>450</ele></trkpt>
<trkpt lat="49.15514" lon="10.49004"><ele>445</ele></trkpt>
<trkpt lat="49.15528" lon="10.48991"><ele>445</ele></trkpt>
<trkpt lat="49.15538" lon="10.48974"><ele>445</ele></trkpt>
<trkpt lat="49.15546" lon="10.48945"><ele>446</ele></trkpt>
<trkpt lat="49.15547" lon="10.48906"><ele>446</ele></trkpt>
<trkpt lat="49.15519" lon="10.48750"><ele>446</ele></trkpt>
<trkpt lat="49.15518" lon="10.48712"><ele>447</ele></trkpt>
<trkpt lat="49.15526" lon="10.48674"><ele>448</ele></trkpt>
<trkpt lat="49.15502" lon="10.48677"><ele>447</ele></trkpt>
<trkpt lat="49.15490" lon="10.48673"><ele>447</ele></trkpt>
<trkpt lat="49.15482" lon="10.48657"><ele>447</ele></trkpt>
<trkpt lat="49.15460" lon="10.48574"><ele>448</ele></trkpt>
<trkpt lat="49.15441" lon="10.48573"><ele>449</ele></trkpt>
<trkpt lat="49.15275" lon="10.48601"><ele>453</ele></trkpt>
<trkpt lat="49.15225" lon="10.48599"><ele>456</ele></trkpt>
<trkpt lat="49.15204" lon="10.48592"><ele>458</ele></trkpt>
<trkpt lat="49.15210" lon="10.48533"><ele>457</ele></trkpt>
<trkpt lat="49.15184" lon="10.48335"><ele>458</ele></trkpt>
<trkpt lat="49.15184" lon="10.48265"><ele>458</ele></trkpt>
<trkpt lat="49.15178" lon="10.48220"><ele>459</ele></trkpt>
<trkpt lat="49.15120" lon="10.48239"><ele>462</ele></trkpt>
<trkpt lat="49.15066" lon="10.48262"><ele>462</ele></trkpt>
<trkpt lat="49.15059" lon="10.48259"><ele>462</ele></trkpt>
<trkpt lat="49.15042" lon="10.48212"><ele>462</ele></trkpt>
<trkpt lat="49.14975" lon="10.48074"><ele>460</ele></trkpt>
<trkpt lat="49.15001" lon="10.47910"><ele>461</ele></trkpt>
<trkpt lat="49.15021" lon="10.47824"><ele>461</ele></trkpt>
<trkpt lat="49.15016" lon="10.47574"><ele>462</ele></trkpt>
<trkpt lat="49.15006" lon="10.47523"><ele>461</ele></trkpt>
<trkpt lat="49.15017" lon="10.47239"><ele>462</ele></trkpt>
<trkpt lat="49.14973" lon="10.47223"><ele>461</ele></trkpt>
<trkpt lat="49.14983" lon="10.47169"><ele>461</ele></trkpt>
<trkpt lat="49.14990" lon="10.47150"><ele>461</ele></trkpt>
<trkpt lat="49.15005" lon="10.47128"><ele>460</ele></trkpt>
<trkpt lat="49.15219" lon="10.46970"><ele>453</ele></trkpt>
<trkpt lat="49.15248" lon="10.46941"><ele>452</ele></trkpt>
<trkpt lat="49.15270" lon="10.46907"><ele>451</ele></trkpt>
<trkpt lat="49.15292" lon="10.46849"><ele>451</ele></trkpt>
<trkpt lat="49.15369" lon="10.46583"><ele>451</ele></trkpt>
<trkpt lat="49.15378" lon="10.46573"><ele>451</ele></trkpt>
<trkpt lat="49.15436" lon="10.46541"><ele>452</ele></trkpt>
<trkpt lat="49.15520" lon="10.46477"><ele>453</ele></trkpt>
<trkpt lat="49.15542" lon="10.46508"><ele>451</ele></trkpt>
<trkpt lat="49.15557" lon="10.46515"><ele>450</ele></trkpt>
<trkpt lat="49.15572" lon="10.46516"><ele>449</ele></trkpt>
<trkpt lat="49.15591" lon="10.46506"><ele>448</ele></trkpt>
<trkpt lat="49.15613" lon="10.46481"><ele>446</ele></trkpt>
<trkpt lat="49.15646" lon="10.46462"><ele>443</ele></trkpt>
<trkpt lat="49.15664" lon="10.46446"><ele>443</ele></trkpt>
<trkpt lat="49.15682" lon="10.46425"><ele>443</ele></trkpt>
<trkpt lat="49.15701" lon="10.46397"><ele>444</ele></trkpt>
<trkpt lat="49.15767" lon="10.46338"><ele>449</ele></trkpt>
<trkpt lat="49.15868" lon="10.46223"><ele>454</ele></trkpt>
<trkpt lat="49.15903" lon="10.46190"><ele>452</ele></trkpt>
<trkpt lat="49.15920" lon="10.46181"><ele>451</ele></trkpt>
<trkpt lat="49.16040" lon="10.46163"><ele>446</ele></trkpt>
<trkpt lat="49.16096" lon="10.46160"><ele>449</ele></trkpt>
<trkpt lat="49.16132" lon="10.46166"><ele>451</ele></trkpt>
<trkpt lat="49.16215" lon="10.46212"><ele>458</ele></trkpt>
<trkpt lat="49.16339" lon="10.46331"><ele>462</ele></trkpt>
<trkpt lat="49.16428" lon="10.46392"><ele>463</ele></trkpt>
<trkpt lat="49.16488" lon="10.46439"><ele>463</ele></trkpt>
<trkpt lat="49.16731" lon="10.46575"><ele>448</ele></trkpt>
<trkpt lat="49.16756" lon="10.46584"><ele>446</ele></trkpt>
<trkpt lat="49.16780" lon="10.46583"><ele>445</ele></trkpt>
<trkpt lat="49.16801" lon="10.46581"><ele>443</ele></trkpt>
<trkpt lat="49.16845" lon="10.46555"><ele>445</ele></trkpt>
<trkpt lat="49.16901" lon="10.46490"><ele>449</ele></trkpt>
<trkpt lat="49.16935" lon="10.46457"><ele>451</ele></trkpt>
<trkpt lat="49.16958" lon="10.46442"><ele>451</ele></trkpt>
<trkpt lat="49.16989" lon="10.46429"><ele>452</ele></trkpt>
<trkpt lat="49.17057" lon="10.46430"><ele>452</ele></trkpt>
<trkpt lat="49.17126" lon="10.46420"><ele>448</ele></trkpt>
<trkpt lat="49.17163" lon="10.46408"><ele>446</ele></trkpt>
<trkpt lat="49.17188" lon="10.46394"><ele>445</ele></trkpt>
<trkpt lat="49.17271" lon="10.46312"><ele>444</ele></trkpt>
<trkpt lat="49.17368" lon="10.46230"><ele>447</ele></trkpt>
<trkpt lat="49.17475" lon="10.46128"><ele>444</ele></trkpt>
<trkpt lat="49.17555" lon="10.46065"><ele>438</ele></trkpt>
<trkpt lat="49.17595" lon="10.46052"><ele>437</ele></trkpt>
<trkpt lat="49.17625" lon="10.46050"><ele>437</ele></trkpt>
<trkpt lat="49.17672" lon="10.46059"><ele>438</ele></trkpt>
<trkpt lat="49.17701" lon="10.46072"><ele>440</ele></trkpt>
<trkpt lat="49.17719" lon="10.46087"><ele>441</ele></trkpt>
<trkpt lat="49.17744" lon="10.46052"><ele>444</ele></trkpt>
<trkpt lat="49.17792" lon="10.46029"><ele>447</ele></trkpt>
<trkpt lat="49.17801" lon="10.46011"><ele>448</ele></trkpt>
<trkpt lat="49.17816" lon="10.45930"><ele>453</ele></trkpt>
<trkpt lat="49.17834" lon="10.45881"><ele>456</ele></trkpt>
<trkpt lat="49.17875" lon="10.45794"><ele>458</ele></trkpt>
<trkpt lat="49.17919" lon="10.45661"><ele>458</ele></trkpt>
<trkpt lat="49.17958" lon="10.45527"><ele>460</ele></trkpt>
<trkpt lat="49.17995" lon="10.45365"><ele>462</ele></trkpt>
<trkpt lat="49.17954" lon="10.45352"><ele>463</ele></trkpt>
<trkpt lat="49.17932" lon="10.45332"><ele>462</ele></trkpt>
<trkpt lat="49.17910" lon="10.45297"><ele>462</ele></trkpt>
<trkpt lat="49.17884" lon="10.45215"><ele>460</ele></trkpt>
<trkpt lat="49.17898" lon="10.45061"><ele>460</ele></trkpt>
<trkpt lat="49.17896" lon="10.44949"><ele>461</ele></trkpt>
<trkpt lat="49.17947" lon="10.44730"><ele>464</ele></trkpt>
<trkpt lat="49.17954" lon="10.44681"><ele>464</ele></trkpt>
<trkpt lat="49.17957" lon="10.44593"><ele>464</ele></trkpt>
<trkpt lat="49.17967" lon="10.44537"><ele>464</ele></trkpt>
<trkpt lat="49.18021" lon="10.44359"><ele>468</ele></trkpt>
<trkpt lat="49.18032" lon="10.44196"><ele>468</ele></trkpt>
<trkpt lat="49.18051" lon="10.44104"><ele>470</ele></trkpt>
<trkpt lat="49.18069" lon="10.44045"><ele>470</ele></trkpt>
<trkpt lat="49.18079" lon="10.43996"><ele>471</ele></trkpt>
<trkpt lat="49.18090" lon="10.43903"><ele>472</ele></trkpt>
<trkpt lat="49.18104" lon="10.43852"><ele>472</ele></trkpt>
<trkpt lat="49.18156" lon="10.43758"><ele>474</ele></trkpt>
<trkpt lat="49.18173" lon="10.43684"><ele>474</ele></trkpt>
<trkpt lat="49.18225" lon="10.43530"><ele>477</ele></trkpt>
<trkpt lat="49.18251" lon="10.43476"><ele>478</ele></trkpt>
<trkpt lat="49.18262" lon="10.43445"><ele>478</ele></trkpt>
<trkpt lat="49.18281" lon="10.43345"><ele>478</ele></trkpt>
<trkpt lat="49.18295" lon="10.43308"><ele>478</ele></trkpt>
<trkpt lat="49.18363" lon="10.43017"><ele>476</ele></trkpt>
<trkpt lat="49.18416" lon="10.42874"><ele>472</ele></trkpt>
<trkpt lat="49.18436" lon="10.42815"><ele>472</ele></trkpt>
<trkpt lat="49.18468" lon="10.42667"><ele>472</ele></trkpt>
<trkpt lat="49.18478" lon="10.42632"><ele>473</ele></trkpt>
<trkpt lat="49.18500" lon="10.42578"><ele>475</ele></trkpt>
<trkpt lat="49.18483" lon="10.42524"><ele>474</ele></trkpt>
<trkpt lat="49.18477" lon="10.42497"><ele>473</ele></trkpt>
<trkpt lat="49.18470" lon="10.42427"><ele>471</ele></trkpt>
<trkpt lat="49.18452" lon="10.42355"><ele>468</ele></trkpt>
<trkpt lat="49.18452" lon="10.42328"><ele>467</ele></trkpt>
<trkpt lat="49.18465" lon="10.42248"><ele>462</ele></trkpt>
<trkpt lat="49.18481" lon="10.42224"><ele>461</ele></trkpt>
<trkpt lat="49.18495" lon="10.42215"><ele>461</ele></trkpt>
<trkpt lat="49.18579" lon="10.42184"><ele>469</ele></trkpt>
<trkpt lat="49.18630" lon="10.42005"><ele>472</ele></trkpt>
<trkpt lat="49.18670" lon="10.41901"><ele>472</ele></trkpt>
<trkpt lat="49.18686" lon="10.41867"><ele>472</ele></trkpt>
<trkpt lat="49.18716" lon="10.41818"><ele>474</ele></trkpt>
<trkpt lat="49.18743" lon="10.41784"><ele>475</ele></trkpt>
<trkpt lat="49.18773" lon="10.41758"><ele>476</ele></trkpt>
<trkpt lat="49.18963" lon="10.41617"><ele>487</ele></trkpt>
<trkpt lat="49.19014" lon="10.41540"><ele>490</ele></trkpt>
<trkpt lat="49.19033" lon="10.41529"><ele>490</ele></trkpt>
<trkpt lat="49.19078" lon="10.41523"><ele>491</ele></trkpt>
<trkpt lat="49.19093" lon="10.41514"><ele>491</ele></trkpt>
<trkpt lat="49.19152" lon="10.41439"><ele>491</ele></trkpt>
<trkpt lat="49.19202" lon="10.41403"><ele>490</ele></trkpt>
<trkpt lat="49.19241" lon="10.41420"><ele>492</ele></trkpt>
<trkpt lat="49.19314" lon="10.41310"><ele>492</ele></trkpt>
<trkpt lat="49.19352" lon="10.41297"><ele>494</ele></trkpt>
<trkpt lat="49.19375" lon="10.41248"><ele>495</ele></trkpt>
<trkpt lat="49.19394" lon="10.41152"><ele>496</ele></trkpt>
<trkpt lat="49.19428" lon="10.41105"><ele>498</ele></trkpt>
<trkpt lat="49.19439" lon="10.41048"><ele>498</ele></trkpt>
<trkpt lat="49.19496" lon="10.40892"><ele>494</ele></trkpt>
<trkpt lat="49.19567" lon="10.40717"><ele>496</ele></trkpt>
<trkpt lat="49.19581" lon="10.40666"><ele>497</ele></trkpt>
<trkpt lat="49.19587" lon="10.40612"><ele>498</ele></trkpt>
<trkpt lat="49.19590" lon="10.40512"><ele>501</ele></trkpt>
<trkpt lat="49.19575" lon="10.40308"><ele>506</ele></trkpt>
<trkpt lat="49.19578" lon="10.40207"><ele>508</ele></trkpt>
<trkpt lat="49.19588" lon="10.40063"><ele>510</ele></trkpt>
<trkpt lat="49.19553" lon="10.39873"><ele>510</ele></trkpt>
<trkpt lat="49.19541" lon="10.39745"><ele>510</ele></trkpt>
<trkpt lat="49.19418" lon="10.39548"><ele>512</ele></trkpt>
<trkpt lat="49.19392" lon="10.39514"><ele>512</ele></trkpt>
<trkpt lat="49.19356" lon="10.39485"><ele>511</ele></trkpt>
<trkpt lat="49.19279" lon="10.38977"><ele>513</ele></trkpt>
<trkpt lat="49.19271" lon="10.38847"><ele>513</ele></trkpt>
<trkpt lat="49.19320" lon="10.38688"><ele>513</ele></trkpt>
<trkpt lat="49.19344" lon="10.38584"><ele>513</ele></trkpt>
<trkpt lat="49.19355" lon="10.38489"><ele>513</ele></trkpt>
<trkpt lat="49.19254" lon="10.38454"><ele>510</ele></trkpt>
<trkpt lat="49.19242" lon="10.38408"><ele>508</ele></trkpt>
<trkpt lat="49.19217" lon="10.37849"><ele>504</ele></trkpt>
<trkpt lat="49.19178" lon="10.37726"><ele>500</ele></trkpt>
<trkpt lat="49.19176" lon="10.37682"><ele>498</ele></trkpt>
<trkpt lat="49.19192" lon="10.37642"><ele>494</ele></trkpt>
<trkpt lat="49.19239" lon="10.37566"><ele>494</ele></trkpt>
<trkpt lat="49.19307" lon="10.37413"><ele>490</ele></trkpt>
<trkpt lat="49.19350" lon="10.37337"><ele>489</ele></trkpt>
<trkpt lat="49.19432" lon="10.37144"><ele>485</ele></trkpt>
<trkpt lat="49.19438" lon="10.37111"><ele>482</ele></trkpt>
<trkpt lat="49.19438" lon="10.37061"><ele>481</ele></trkpt>
<trkpt lat="49.19433" lon="10.37054"><ele>481</ele></trkpt>
<trkpt lat="49.19420" lon="10.36987"><ele>482</ele></trkpt>
<trkpt lat="49.19434" lon="10.36981"><ele>483</ele></trkpt>
<trkpt lat="49.19450" lon="10.36967"><ele>485</ele></trkpt>
<trkpt lat="49.19472" lon="10.36937"><ele>489</ele></trkpt>
<trkpt lat="49.19554" lon="10.36912"><ele>496</ele></trkpt>
<trkpt lat="49.19586" lon="10.36912"><ele>496</ele></trkpt>
<trkpt lat="49.19618" lon="10.36923"><ele>497</ele></trkpt>
<trkpt lat="49.19632" lon="10.36923"><ele>497</ele></trkpt>
<trkpt lat="49.19861" lon="10.36763"><ele>506</ele></trkpt>
<trkpt lat="49.19906" lon="10.36736"><ele>508</ele></trkpt>
<trkpt lat="49.19934" lon="10.36726"><ele>508</ele></trkpt>
<trkpt lat="49.19962" lon="10.36722"><ele>508</ele></trkpt>
<trkpt lat="49.19994" lon="10.36725"><ele>508</ele></trkpt>
<trkpt lat="49.20097" lon="10.36759"><ele>509</ele></trkpt>
<trkpt lat="49.20132" lon="10.36783"><ele>510</ele></trkpt>
<trkpt lat="49.20182" lon="10.36834"><ele>510</ele></trkpt>
<trkpt lat="49.20240" lon="10.36899"><ele>508</ele></trkpt>
<trkpt lat="49.20376" lon="10.36866"><ele>506</ele></trkpt>
<trkpt lat="49.20443" lon="10.36844"><ele>508</ele></trkpt>
<trkpt lat="49.20583" lon="10.36781"><ele>505</ele></trkpt>
<trkpt lat="49.20642" lon="10.36688"><ele>503</ele></trkpt>
<trkpt lat="49.20658" lon="10.36575"><ele>508</ele></trkpt>
<trkpt lat="49.20666" lon="10.36415"><ele>509</ele></trkpt>
<trkpt lat="49.20849" lon="10.36278"><ele>507</ele></trkpt>
<trkpt lat="49.20863" lon="10.35703"><ele>507</ele></trkpt>
<trkpt lat="49.20862" lon="10.35661"><ele>507</ele></trkpt>
<trkpt lat="49.20830" lon="10.35636"><ele>507</ele></trkpt>
<trkpt lat="49.20811" lon="10.35654"><ele>507</ele></trkpt>
<trkpt lat="49.20753" lon="10.35678"><ele>508</ele></trkpt>
<trkpt lat="49.20679" lon="10.35443"><ele>506</ele></trkpt>
<trkpt lat="49.20667" lon="10.35396"><ele>502</ele></trkpt>
<trkpt lat="49.20667" lon="10.35350"><ele>502</ele></trkpt>
<trkpt lat="49.20675" lon="10.35296"><ele>500</ele></trkpt>
<trkpt lat="49.20721" lon="10.35174"><ele>497</ele></trkpt>
<trkpt lat="49.20732" lon="10.35153"><ele>496</ele></trkpt>
<trkpt lat="49.20758" lon="10.35178"><ele>497</ele></trkpt>
<trkpt lat="49.20759" lon="10.35167"><ele>496</ele></trkpt>
<trkpt lat="49.20753" lon="10.35084"><ele>493</ele></trkpt>
<trkpt lat="49.20733" lon="10.34889"><ele>486</ele></trkpt>
<trkpt lat="49.20727" lon="10.34727"><ele>483</ele></trkpt>
<trkpt lat="49.20712" lon="10.34644"><ele>481</ele></trkpt>
<trkpt lat="49.20720" lon="10.34422"><ele>479</ele></trkpt>
<trkpt lat="49.20712" lon="10.34377"><ele>477</ele></trkpt>
<trkpt lat="49.20692" lon="10.34316"><ele>474</ele></trkpt>
<trkpt lat="49.20651" lon="10.34073"><ele>467</ele></trkpt>
<trkpt lat="49.20661" lon="10.33939"><ele>466</ele></trkpt>
<trkpt lat="49.20661" lon="10.33807"><ele>464</ele></trkpt>
<trkpt lat="49.20669" lon="10.33660"><ele>464</ele></trkpt>
<trkpt lat="49.20669" lon="10.33614"><ele>464</ele></trkpt>
<trkpt lat="49.20662" lon="10.33530"><ele>463</ele></trkpt>
<trkpt lat="49.20666" lon="10.33502"><ele>464</ele></trkpt>
<trkpt lat="49.20674" lon="10.33481"><ele>464</ele></trkpt>
<trkpt lat="49.20721" lon="10.33398"><ele>465</ele></trkpt>
<trkpt lat="49.20727" lon="10.33356"><ele>464</ele></trkpt>
<trkpt lat="49.20724" lon="10.33307"><ele>461</ele></trkpt>
<trkpt lat="49.20672" lon="10.32979"><ele>465</ele></trkpt>
<trkpt lat="49.20668" lon="10.32939"><ele>466</ele></trkpt>
<trkpt lat="49.20671" lon="10.32908"><ele>466</ele></trkpt>
<trkpt lat="49.20758" lon="10.32917"><ele>468</ele></trkpt>
<trkpt lat="49.20745" lon="10.32815"><ele>469</ele></trkpt>
<trkpt lat="49.20720" lon="10.32534"><ele>465</ele></trkpt>
<trkpt lat="49.20702" lon="10.32409"><ele>464</ele></trkpt>
<trkpt lat="49.20687" lon="10.32333"><ele>462</ele></trkpt>
<trkpt lat="49.20630" lon="10.32123"><ele>458</ele></trkpt>
<trkpt lat="49.20605" lon="10.32008"><ele>456</ele></trkpt>
<trkpt lat="49.20580" lon="10.31937"><ele>454</ele></trkpt>
<trkpt lat="49.20577" lon="10.31917"><ele>453</ele></trkpt>
<trkpt lat="49.20577" lon="10.31898"><ele>452</ele></trkpt>
<trkpt lat="49.20588" lon="10.31860"><ele>450</ele></trkpt>
<trkpt lat="49.20636" lon="10.31744"><ele>451</ele></trkpt>
<trkpt lat="49.20652" lon="10.31695"><ele>451</ele></trkpt>
<trkpt lat="49.20782" lon="10.31656"><ele>454</ele></trkpt>
<trkpt lat="49.20842" lon="10.31646"><ele>452</ele></trkpt>
<trkpt lat="49.20948" lon="10.31607"><ele>453</ele></trkpt>
<trkpt lat="49.20963" lon="10.31608"><ele>453</ele></trkpt>
<trkpt lat="49.20998" lon="10.31595"><ele>453</ele></trkpt>
<trkpt lat="49.21057" lon="10.31585"><ele>453</ele></trkpt>
<trkpt lat="49.21204" lon="10.31545"><ele>453</ele></trkpt>
<trkpt lat="49.21215" lon="10.31535"><ele>453</ele></trkpt>
<trkpt lat="49.21227" lon="10.31517"><ele>453</ele></trkpt>
<trkpt lat="49.21445" lon="10.30953"><ele>455</ele></trkpt>
<trkpt lat="49.21593" lon="10.30505"><ele>455</ele></trkpt>
<trkpt lat="49.21637" lon="10.30380"><ele>455</ele></trkpt>
<trkpt lat="49.21712" lon="10.30441"><ele>455</ele></trkpt>
<trkpt lat="49.21732" lon="10.30461"><ele>455</ele></trkpt>
<trkpt lat="49.21769" lon="10.30513"><ele>456</ele></trkpt>
<trkpt lat="49.21784" lon="10.30519"><ele>456</ele></trkpt>
<trkpt lat="49.21830" lon="10.30520"><ele>458</ele></trkpt>
<trkpt lat="49.21846" lon="10.30529"><ele>459</ele></trkpt>
<trkpt lat="49.21879" lon="10.30509"><ele>461</ele></trkpt>
<trkpt lat="49.21899" lon="10.30481"><ele>462</ele></trkpt>
<trkpt lat="49.21908" lon="10.30455"><ele>462</ele></trkpt>
<trkpt lat="49.21921" lon="10.30402"><ele>464</ele></trkpt>
<trkpt lat="49.21936" lon="10.30357"><ele>466</ele></trkpt>
<trkpt lat="49.21957" lon="10.30324"><ele>468</ele></trkpt>
<trkpt lat="49.21976" lon="10.30305"><ele>470</ele></trkpt>
<trkpt lat="49.22035" lon="10.30274"><ele>471</ele></trkpt>
<trkpt lat="49.22054" lon="10.30256"><ele>470</ele></trkpt>
<trkpt lat="49.22097" lon="10.30188"><ele>470</ele></trkpt>
<trkpt lat="49.22115" lon="10.30169"><ele>470</ele></trkpt>
<trkpt lat="49.22144" lon="10.30149"><ele>470</ele></trkpt>
<trkpt lat="49.22324" lon="10.30052"><ele>475</ele></trkpt>
<trkpt lat="49.22417" lon="10.29984"><ele>473</ele></trkpt>
<trkpt lat="49.22451" lon="10.29966"><ele>474</ele></trkpt>
<trkpt lat="49.22484" lon="10.29962"><ele>474</ele></trkpt>
<trkpt lat="49.22588" lon="10.29963"><ele>473</ele></trkpt>
<trkpt lat="49.22622" lon="10.29954"><ele>474</ele></trkpt>
<trkpt lat="49.22644" lon="10.29941"><ele>475</ele></trkpt>
<trkpt lat="49.22667" lon="10.29916"><ele>476</ele></trkpt>
<trkpt lat="49.22746" lon="10.29752"><ele>480</ele></trkpt>
<trkpt lat="49.22760" lon="10.29728"><ele>480</ele></trkpt>
<trkpt lat="49.22780" lon="10.29709"><ele>482</ele></trkpt>
<trkpt lat="49.22803" lon="10.29696"><ele>484</ele></trkpt>
<trkpt lat="49.22903" lon="10.29669"><ele>483</ele></trkpt>
<trkpt lat="49.23060" lon="10.29633"><ele>479</ele></trkpt>
<trkpt lat="49.23143" lon="10.29594"><ele>473</ele></trkpt>
<trkpt lat="49.23175" lon="10.29573"><ele>472</ele></trkpt>
<trkpt lat="49.23445" lon="10.29345"><ele>470</ele></trkpt>
<trkpt lat="49.23552" lon="10.29282"><ele>469</ele></trkpt>
<trkpt lat="49.23776" lon="10.29063"><ele>470</ele></trkpt>
<trkpt lat="49.23800" lon="10.29044"><ele>469</ele></trkpt>
<trkpt lat="49.23851" lon="10.29013"><ele>468</ele></trkpt>
<trkpt lat="49.23923" lon="10.28985"><ele>468</ele></trkpt>
<trkpt lat="49.23949" lon="10.28964"><ele>468</ele></trkpt>
<trkpt lat="49.24013" lon="10.28891"><ele>469</ele></trkpt>
<trkpt lat="49.24089" lon="10.28822"><ele>473</ele></trkpt>
<trkpt lat="49.24152" lon="10.28773"><ele>469</ele></trkpt>
<trkpt lat="49.24207" lon="10.28740"><ele>468</ele></trkpt>
<trkpt lat="49.24391" lon="10.28663"><ele>468</ele></trkpt>
<trkpt lat="49.24595" lon="10.28614"><ele>466</ele></trkpt>
<trkpt lat="49.24629" lon="10.28632"><ele>466</ele></trkpt>
<trkpt lat="49.24652" lon="10.28635"><ele>466</ele></trkpt>
<trkpt lat="49.24655" lon="10.28621"><ele>466</ele></trkpt>
<trkpt lat="49.24661" lon="10.28610"><ele>467</ele></trkpt>
<trkpt lat="49.24713" lon="10.28559"><ele>469</ele></trkpt>
<trkpt lat="49.24718" lon="10.28570"><ele>469</ele></trkpt>
<trkpt lat="49.24794" lon="10.28567"><ele>470</ele></trkpt>
<trkpt lat="49.24934" lon="10.28523"><ele>468</ele></trkpt>
<trkpt lat="49.25023" lon="10.28505"><ele>469</ele></trkpt>
<trkpt lat="49.25087" lon="10.28505"><ele>472</ele></trkpt>
<trkpt lat="49.25188" lon="10.28524"><ele>472</ele></trkpt>
<trkpt lat="49.25303" lon="10.28523"><ele>470</ele></trkpt>
<trkpt lat="49.25312" lon="10.28526"><ele>470</ele></trkpt>
<trkpt lat="49.25349" lon="10.28550"><ele>470</ele></trkpt>
<trkpt lat="49.25359" lon="10.28511"><ele>470</ele></trkpt>
<trkpt lat="49.25375" lon="10.28475"><ele>471</ele></trkpt>
<trkpt lat="49.25442" lon="10.28346"><ele>472</ele></trkpt>
<trkpt lat="49.25455" lon="10.28267"><ele>472</ele></trkpt>
<trkpt lat="49.25521" lon="10.28277"><ele>474</ele></trkpt>
<trkpt lat="49.25584" lon="10.28256"><ele>476</ele></trkpt>
<trkpt lat="49.25605" lon="10.28258"><ele>478</ele></trkpt>
<trkpt lat="49.25639" lon="10.28233"><ele>479</ele></trkpt>
<trkpt lat="49.25693" lon="10.28176"><ele>483</ele></trkpt>
<trkpt lat="49.25726" lon="10.28154"><ele>485</ele></trkpt>
<trkpt lat="49.25816" lon="10.28179"><ele>494</ele></trkpt>
<trkpt lat="49.25855" lon="10.28182"><ele>500</ele></trkpt>
<trkpt lat="49.25880" lon="10.28169"><ele>504</ele></trkpt>
<trkpt lat="49.25912" lon="10.28139"><ele>509</ele></trkpt>
<trkpt lat="49.25918" lon="10.28127"><ele>510</ele></trkpt>
<trkpt lat="49.25923" lon="10.28088"><ele>511</ele></trkpt>
<trkpt lat="49.25932" lon="10.28066"><ele>511</ele></trkpt>
<trkpt lat="49.25975" lon="10.27999"><ele>515</ele></trkpt>
<trkpt lat="49.26050" lon="10.27920"><ele>520</ele></trkpt>
<trkpt lat="49.26083" lon="10.27907"><ele>523</ele></trkpt>
<trkpt lat="49.26117" lon="10.27859"><ele>525</ele></trkpt>
<trkpt lat="49.26223" lon="10.27764"><ele>528</ele></trkpt>
<trkpt lat="49.26273" lon="10.27712"><ele>526</ele></trkpt>
<trkpt lat="49.26291" lon="10.27686"><ele>526</ele></trkpt>
<trkpt lat="49.26404" lon="10.27494"><ele>524</ele></trkpt>
<trkpt lat="49.26440" lon="10.27443"><ele>522</ele></trkpt>
<trkpt lat="49.26566" lon="10.27314"><ele>520</ele></trkpt>
<trkpt lat="49.26628" lon="10.27244"><ele>522</ele></trkpt>
<trkpt lat="49.26724" lon="10.27108"><ele>523</ele></trkpt>
<trkpt lat="49.26786" lon="10.27051"><ele>524</ele></trkpt>
<trkpt lat="49.26935" lon="10.26971"><ele>525</ele></trkpt>
<trkpt lat="49.26963" lon="10.26959"><ele>524</ele></trkpt>
<trkpt lat="49.27004" lon="10.26929"><ele>524</ele></trkpt>
<trkpt lat="49.27144" lon="10.26793"><ele>522</ele></trkpt>
<trkpt lat="49.27354" lon="10.26611"><ele>518</ele></trkpt>
<trkpt lat="49.27421" lon="10.26557"><ele>515</ele></trkpt>
<trkpt lat="49.27471" lon="10.26535"><ele>511</ele></trkpt>
<trkpt lat="49.27501" lon="10.26516"><ele>507</ele></trkpt>
<trkpt lat="49.27521" lon="10.26488"><ele>503</ele></trkpt>
<trkpt lat="49.27565" lon="10.26469"><ele>499</ele></trkpt>
<trkpt lat="49.27619" lon="10.26455"><ele>500</ele></trkpt>
<trkpt lat="49.27629" lon="10.26465"><ele>501</ele></trkpt>
<trkpt lat="49.27663" lon="10.26486"><ele>507</ele></trkpt>
<trkpt lat="49.27682" lon="10.26489"><ele>510</ele></trkpt>
<trkpt lat="49.27797" lon="10.26486"><ele>518</ele></trkpt>
<trkpt lat="49.27940" lon="10.26469"><ele>510</ele></trkpt>
<trkpt lat="49.27979" lon="10.26458"><ele>508</ele></trkpt>
<trkpt lat="49.28190" lon="10.26352"><ele>498</ele></trkpt>
<trkpt lat="49.28203" lon="10.26315"><ele>498</ele></trkpt>
<trkpt lat="49.28222" lon="10.26300"><ele>497</ele></trkpt>
<trkpt lat="49.28243" lon="10.26290"><ele>497</ele></trkpt>
<trkpt lat="49.28223" lon="10.26275"><ele>498</ele></trkpt>
<trkpt lat="49.28218" lon="10.26265"><ele>499</ele></trkpt>
<trkpt lat="49.28146" lon="10.26032"><ele>502</ele></trkpt>
<trkpt lat="49.28127" lon="10.25946"><ele>504</ele></trkpt>
<trkpt lat="49.28134" lon="10.25906"><ele>502</ele></trkpt>
<trkpt lat="49.28132" lon="10.25892"><ele>501</ele></trkpt>
<trkpt lat="49.28203" lon="10.25824"><ele>498</ele></trkpt>
<trkpt lat="49.28220" lon="10.25796"><ele>496</ele></trkpt>
<trkpt lat="49.28271" lon="10.25688"><ele>491</ele></trkpt>
<trkpt lat="49.28285" lon="10.25673"><ele>491</ele></trkpt>
<trkpt lat="49.28307" lon="10.25657"><ele>492</ele></trkpt>
<trkpt lat="49.28319" lon="10.25640"><ele>493</ele></trkpt>
<trkpt lat="49.28283" lon="10.25586"><ele>496</ele></trkpt>
<trkpt lat="49.28294" lon="10.25558"><ele>498</ele></trkpt>
<trkpt lat="49.28389" lon="10.25423"><ele>502</ele></trkpt>
<trkpt lat="49.28442" lon="10.25357"><ele>503</ele></trkpt>
<trkpt lat="49.28462" lon="10.25310"><ele>503</ele></trkpt>
<trkpt lat="49.28481" lon="10.25253"><ele>505</ele></trkpt>
<trkpt lat="49.28491" lon="10.25202"><ele>506</ele></trkpt>
<trkpt lat="49.28496" lon="10.25146"><ele>507</ele></trkpt>
<trkpt lat="49.28494" lon="10.25112"><ele>507</ele></trkpt>
<trkpt lat="49.28480" lon="10.25041"><ele>508</ele></trkpt>
<trkpt lat="49.28478" lon="10.25013"><ele>508</ele></trkpt>
<trkpt lat="49.28498" lon="10.24671"><ele>510</ele></trkpt>
<trkpt lat="49.28508" lon="10.24595"><ele>512</ele></trkpt>
<trkpt lat="49.28548" lon="10.24380"><ele>515</ele></trkpt>
<trkpt lat="49.28553" lon="10.24321"><ele>515</ele></trkpt>
<trkpt lat="49.28559" lon="10.24295"><ele>514</ele></trkpt>
<trkpt lat="49.28584" lon="10.24248"><ele>513</ele></trkpt>
<trkpt lat="49.28595" lon="10.24216"><ele>511</ele></trkpt>
<trkpt lat="49.28601" lon="10.24197"><ele>510</ele></trkpt>
<trkpt lat="49.28606" lon="10.24146"><ele>509</ele></trkpt>
<trkpt lat="49.28608" lon="10.24060"><ele>504</ele></trkpt>
<trkpt lat="49.28593" lon="10.23979"><ele>501</ele></trkpt>
<trkpt lat="49.28581" lon="10.23878"><ele>494</ele></trkpt>
<trkpt lat="49.28572" lon="10.23833"><ele>493</ele></trkpt>
<trkpt lat="49.28551" lon="10.23760"><ele>490</ele></trkpt>
<trkpt lat="49.28539" lon="10.23704"><ele>487</ele></trkpt>
<trkpt lat="49.28523" lon="10.23648"><ele>485</ele></trkpt>
<trkpt lat="49.28520" lon="10.23620"><ele>483</ele></trkpt>
<trkpt lat="49.28522" lon="10.23595"><ele>482</ele></trkpt>
<trkpt lat="49.28546" lon="10.23516"><ele>481</ele></trkpt>
<trkpt lat="49.28568" lon="10.23457"><ele>479</ele></trkpt>
<trkpt lat="49.28578" lon="10.23401"><ele>477</ele></trkpt>
<trkpt lat="49.28596" lon="10.23267"><ele>472</ele></trkpt>
<trkpt lat="49.28680" lon="10.23201"><ele>471</ele></trkpt>
<trkpt lat="49.28690" lon="10.23208"><ele>471</ele></trkpt>
<trkpt lat="49.28737" lon="10.23264"><ele>466</ele></trkpt>
<trkpt lat="49.28747" lon="10.23264"><ele>466</ele></trkpt>
<trkpt lat="49.29254" lon="10.22831"><ele>420</ele></trkpt>
<trkpt lat="49.29285" lon="10.22810"><ele>418</ele></trkpt>
<trkpt lat="49.29378" lon="10.22797"><ele>414</ele></trkpt>
<trkpt lat="49.29377" lon="10.22785"><ele>414</ele></trkpt>
<trkpt lat="49.29425" lon="10.22640"><ele>413</ele></trkpt>
<trkpt lat="49.29453" lon="10.22544"><ele>411</ele></trkpt>
<trkpt lat="49.29481" lon="10.22389"><ele>410</ele></trkpt>
<trkpt lat="49.29659" lon="10.22363"><ele>413</ele></trkpt>
<trkpt lat="49.29731" lon="10.22248"><ele>419</ele></trkpt>
<trkpt lat="49.29780" lon="10.22192"><ele>417</ele></trkpt>
<trkpt lat="49.29791" lon="10.22173"><ele>415</ele></trkpt>
<trkpt lat="49.29794" lon="10.22155"><ele>414</ele></trkpt>
<trkpt lat="49.29785" lon="10.22018"><ele>418</ele></trkpt>
<trkpt lat="49.29788" lon="10.22003"><ele>418</ele></trkpt>
<trkpt lat="49.29794" lon="10.21997"><ele>417</ele></trkpt>
<trkpt lat="49.29788" lon="10.21944"><ele>416</ele></trkpt>
<trkpt lat="49.29795" lon="10.21906"><ele>416</ele></trkpt>
<trkpt lat="49.29821" lon="10.21619"><ele>407</ele></trkpt>
<trkpt lat="49.29890" lon="10.21434"><ele>404</ele></trkpt>
<trkpt lat="49.30033" lon="10.21245"><ele>413</ele></trkpt>
<trkpt lat="49.30214" lon="10.21154"><ele>407</ele></trkpt>
<trkpt lat="49.30266" lon="10.21144"><ele>402</ele></trkpt>
<trkpt lat="49.30352" lon="10.21102"><ele>398</ele></trkpt>
<trkpt lat="49.30375" lon="10.21078"><ele>399</ele></trkpt>
<trkpt lat="49.30384" lon="10.21049"><ele>399</ele></trkpt>
<trkpt lat="49.30384" lon="10.21009"><ele>400</ele></trkpt>
<trkpt lat="49.30365" lon="10.20931"><ele>399</ele></trkpt>
<trkpt lat="49.30401" lon="10.20931"><ele>399</ele></trkpt>
<trkpt lat="49.30408" lon="10.20929"><ele>399</ele></trkpt>
<trkpt lat="49.30410" lon="10.20924"><ele>400</ele></trkpt>
<trkpt lat="49.30443" lon="10.20138"><ele>395</ele></trkpt>
<trkpt lat="49.30466" lon="10.20083"><ele>395</ele></trkpt>
<trkpt lat="49.30513" lon="10.19881"><ele>394</ele></trkpt>
<trkpt lat="49.30540" lon="10.19822"><ele>392</ele></trkpt>
<trkpt lat="49.30563" lon="10.19791"><ele>391</ele></trkpt>
<trkpt lat="49.30591" lon="10.19786"><ele>390</ele></trkpt>
<trkpt lat="49.30553" lon="10.18930"><ele>401</ele></trkpt>
<trkpt lat="49.30634" lon="10.18921"><ele>395</ele></trkpt>
<trkpt lat="49.30683" lon="10.18904"><ele>390</ele></trkpt>
<trkpt lat="49.30744" lon="10.18899"><ele>384</ele></trkpt>
<trkpt lat="49.30793" lon="10.18922"><ele>382</ele></trkpt>
<trkpt lat="49.30831" lon="10.18953"><ele>382</ele></trkpt>
<trkpt lat="49.30840" lon="10.18946"><ele>382</ele></trkpt>
<trkpt lat="49.30849" lon="10.18953"><ele>384</ele></trkpt>
<trkpt lat="49.30871" lon="10.18955"><ele>387</ele></trkpt>
<trkpt lat="49.30882" lon="10.18951"><ele>388</ele></trkpt>
<trkpt lat="49.30895" lon="10.18931"><ele>390</ele></trkpt>
<trkpt lat="49.30903" lon="10.18892"><ele>391</ele></trkpt>
<trkpt lat="49.30911" lon="10.18877"><ele>392</ele></trkpt>
<trkpt lat="49.30933" lon="10.18792"><ele>392</ele></trkpt>
<trkpt lat="49.30943" lon="10.18786"><ele>393</ele></trkpt>
<trkpt lat="49.30968" lon="10.18798"><ele>394</ele></trkpt>
<trkpt lat="49.31039" lon="10.18810"><ele>389</ele></trkpt>
<trkpt lat="49.31070" lon="10.18828"><ele>386</ele></trkpt>
<trkpt lat="49.31099" lon="10.18857"><ele>384</ele></trkpt>
<trkpt lat="49.31108" lon="10.18852"><ele>383</ele></trkpt>
<trkpt lat="49.31171" lon="10.18849"><ele>379</ele></trkpt>
<trkpt lat="49.31235" lon="10.18817"><ele>378</ele></trkpt>
<trkpt lat="49.31305" lon="10.18855"><ele>379</ele></trkpt>
<trkpt lat="49.31327" lon="10.18858"><ele>378</ele></trkpt>
<trkpt lat="49.31352" lon="10.18845"><ele>379</ele></trkpt>
<trkpt lat="49.31399" lon="10.18792"><ele>380</ele></trkpt>
<trkpt lat="49.31434" lon="10.18758"><ele>380</ele></trkpt>
<trkpt lat="49.31443" lon="10.18737"><ele>381</ele></trkpt>
<trkpt lat="49.31445" lon="10.18691"><ele>382</ele></trkpt>
<trkpt lat="49.31573" lon="10.18687"><ele>380</ele></trkpt>
<trkpt lat="49.31645" lon="10.18706"><ele>379</ele></trkpt>
<trkpt lat="49.31698" lon="10.18735"><ele>379</ele></trkpt>
<trkpt lat="49.31746" lon="10.18778"><ele>382</ele></trkpt>
<trkpt lat="49.31813" lon="10.18852"><ele>383</ele></trkpt>
<trkpt lat="49.31827" lon="10.18885"><ele>382</ele></trkpt>
<trkpt lat="49.31872" lon="10.18934"><ele>382</ele></trkpt>
<trkpt lat="49.31939" lon="10.18980"><ele>381</ele></trkpt>
<trkpt lat="49.32366" lon="10.19205"><ele>381</ele></trkpt>
<trkpt lat="49.32433" lon="10.19234"><ele>380</ele></trkpt>
<trkpt lat="49.32484" lon="10.19250"><ele>379</ele></trkpt>
<trkpt lat="49.32555" lon="10.19265"><ele>379</ele></trkpt>
<trkpt lat="49.33037" lon="10.19306"><ele>376</ele></trkpt>
<trkpt lat="49.33060" lon="10.19297"><ele>376</ele></trkpt>
<trkpt lat="49.33384" lon="10.19353"><ele>374</ele></trkpt>
<trkpt lat="49.33525" lon="10.19369"><ele>380</ele></trkpt>
<trkpt lat="49.33615" lon="10.19386"><ele>375</ele></trkpt>
<trkpt lat="49.34303" lon="10.19451"><ele>370</ele></trkpt>
<trkpt lat="49.34329" lon="10.19452"><ele>370</ele></trkpt>
<trkpt lat="49.34370" lon="10.19446"><ele>370</ele></trkpt>
<trkpt lat="49.34412" lon="10.19461"><ele>371</ele></trkpt>
<trkpt lat="49.34618" lon="10.19479"><ele>376</ele></trkpt>
<trkpt lat="49.34659" lon="10.19477"><ele>377</ele></trkpt>
<trkpt lat="49.34686" lon="10.19470"><ele>378</ele></trkpt>
<trkpt lat="49.34788" lon="10.19422"><ele>379</ele></trkpt>
<trkpt lat="49.34950" lon="10.19423"><ele>374</ele></trkpt>
<trkpt lat="49.34990" lon="10.19406"><ele>374</ele></trkpt>
<trkpt lat="49.35065" lon="10.19360"><ele>378</ele></trkpt>
<trkpt lat="49.35102" lon="10.19355"><ele>378</ele></trkpt>
<trkpt lat="49.35225" lon="10.19352"><ele>374</ele></trkpt>
<trkpt lat="49.35276" lon="10.19369"><ele>374</ele></trkpt>
<trkpt lat="49.35322" lon="10.19390"><ele>372</ele></trkpt>
<trkpt lat="49.35325" lon="10.19427"><ele>371</ele></trkpt>
<trkpt lat="49.35323" lon="10.19443"><ele>371</ele></trkpt>
<trkpt lat="49.35327" lon="10.19455"><ele>371</ele></trkpt>
<trkpt lat="49.35371" lon="10.19421"><ele>371</ele></trkpt>
<trkpt lat="49.35497" lon="10.19393"><ele>372</ele></trkpt>
<trkpt lat="49.35506" lon="10.19453"><ele>367</ele></trkpt>
<trkpt lat="49.35518" lon="10.19505"><ele>365</ele></trkpt>
<trkpt lat="49.35525" lon="10.19603"><ele>366</ele></trkpt>
<trkpt lat="49.35533" lon="10.19627"><ele>366</ele></trkpt>
<trkpt lat="49.35533" lon="10.19643"><ele>367</ele></trkpt>
<trkpt lat="49.35524" lon="10.19670"><ele>368</ele></trkpt>
<trkpt lat="49.35496" lon="10.19694"><ele>368</ele></trkpt>
<trkpt lat="49.35511" lon="10.19875"><ele>374</ele></trkpt>
<trkpt lat="49.35543" lon="10.19873"><ele>374</ele></trkpt>
<trkpt lat="49.35549" lon="10.19879"><ele>374</ele></trkpt>
<trkpt lat="49.35576" lon="10.19971"><ele>377</ele></trkpt>
<trkpt lat="49.35582" lon="10.19972"><ele>378</ele></trkpt>
<trkpt lat="49.35606" lon="10.19964"><ele>380</ele></trkpt>
<trkpt lat="49.35624" lon="10.20037"><ele>381</ele></trkpt>
<trkpt lat="49.35771" lon="10.19960"><ele>383</ele></trkpt>
<trkpt lat="49.35809" lon="10.19931"><ele>382</ele></trkpt>
<trkpt lat="49.35834" lon="10.19892"><ele>381</ele></trkpt>
<trkpt lat="49.35888" lon="10.19790"><ele>377</ele></trkpt>
<trkpt lat="49.35923" lon="10.19741"><ele>374</ele></trkpt>
<trkpt lat="49.35981" lon="10.19686"><ele>371</ele></trkpt>
<trkpt lat="49.36045" lon="10.19654"><ele>371</ele></trkpt>
<trkpt lat="49.36057" lon="10.19763"><ele>372</ele></trkpt>
<trkpt lat="49.36071" lon="10.19802"><ele>372</ele></trkpt>
<trkpt lat="49.36089" lon="10.19826"><ele>372</ele></trkpt>
<trkpt lat="49.36112" lon="10.19843"><ele>372</ele></trkpt>
<trkpt lat="49.36186" lon="10.19857"><ele>376</ele></trkpt>
<trkpt lat="49.36256" lon="10.19844"><ele>379</ele></trkpt>
<trkpt lat="49.36286" lon="10.19829"><ele>381</ele></trkpt>
<trkpt lat="49.36316" lon="10.19806"><ele>382</ele></trkpt>
<trkpt lat="49.36346" lon="10.19777"><ele>382</ele></trkpt>
<trkpt lat="49.36397" lon="10.19701"><ele>386</ele></trkpt>
<trkpt lat="49.36523" lon="10.19438"><ele>398</ele></trkpt>
<trkpt lat="49.36554" lon="10.19456"><ele>400</ele></trkpt>
<trkpt lat="49.36569" lon="10.19461"><ele>399</ele></trkpt>
<trkpt lat="49.36661" lon="10.19471"><ele>399</ele></trkpt>
<trkpt lat="49.36783" lon="10.19426"><ele>398</ele></trkpt>
<trkpt lat="49.36832" lon="10.19399"><ele>398</ele></trkpt>
<trkpt lat="49.36851" lon="10.19410"><ele>400</ele></trkpt>
<trkpt lat="49.36919" lon="10.19470"><ele>404</ele></trkpt>
<trkpt lat="49.36992" lon="10.19498"><ele>403</ele></trkpt>
<trkpt lat="49.37026" lon="10.19519"><ele>403</ele></trkpt>
<trkpt lat="49.37068" lon="10.19355"><ele>406</ele></trkpt>
<trkpt lat="49.37110" lon="10.19090"><ele>410</ele></trkpt>
<trkpt lat="49.37120" lon="10.19057"><ele>411</ele></trkpt>
<trkpt lat="49.37158" lon="10.18983"><ele>414</ele></trkpt>
<trkpt lat="49.37221" lon="10.18903"><ele>417</ele></trkpt>
<trkpt lat="49.37372" lon="10.18751"><ele>419</ele></trkpt>
<trkpt lat="49.37448" lon="10.18667"><ele>419</ele></trkpt>
<trkpt lat="49.37620" lon="10.18571"><ele>427</ele></trkpt>
<trkpt lat="49.37640" lon="10.18495"><ele>428</ele></trkpt>
<trkpt lat="49.37650" lon="10.18469"><ele>427</ele></trkpt>
<trkpt lat="49.37671" lon="10.18439"><ele>427</ele></trkpt>
<trkpt lat="49.37697" lon="10.18365"><ele>426</ele></trkpt>
<trkpt lat="49.37705" lon="10.18331"><ele>425</ele></trkpt>
<trkpt lat="49.37689" lon="10.18328"><ele>425</ele></trkpt>
<trkpt lat="49.37645" lon="10.18338"><ele>424</ele></trkpt>
<trkpt lat="49.37622" lon="10.18280"><ele>422</ele></trkpt>
    </trkseg>
  </trk>
</gpx>
