<?xml version="1.0" encoding="UTF-8"?>
<gpx version="1.1" creator="Gravel Kompass" xmlns="http://www.topografix.com/GPX/1/1">
  <metadata><name>München–Haltern am See: Romantische Straße, Taubertal, Main, Lahn &amp; Ruhr – Etappe 4</name></metadata>
  <trk>
    <name>Etappe 4: Wertheim – Hanau</name>
    <trkseg>
<trkpt lat="49.75978" lon="9.51685"><ele>138</ele></trkpt>
<trkpt lat="49.76002" lon="9.51670"><ele>138</ele></trkpt>
<trkpt lat="49.76025" lon="9.51898"><ele>140</ele></trkpt>
<trkpt lat="49.76023" lon="9.51912"><ele>140</ele></trkpt>
<trkpt lat="49.76030" lon="9.52005"><ele>140</ele></trkpt>
<trkpt lat="49.76026" lon="9.52019"><ele>141</ele></trkpt>
<trkpt lat="49.76023" lon="9.52069"><ele>142</ele></trkpt>
<trkpt lat="49.76042" lon="9.52077"><ele>140</ele></trkpt>
<trkpt lat="49.76044" lon="9.52084"><ele>140</ele></trkpt>
<trkpt lat="49.76033" lon="9.52138"><ele>140</ele></trkpt>
<trkpt lat="49.76038" lon="9.52152"><ele>139</ele></trkpt>
<trkpt lat="49.76028" lon="9.52184"><ele>140</ele></trkpt>
<trkpt lat="49.76022" lon="9.52248"><ele>141</ele></trkpt>
<trkpt lat="49.76021" lon="9.52333"><ele>140</ele></trkpt>
<trkpt lat="49.76027" lon="9.52402"><ele>142</ele></trkpt>
<trkpt lat="49.76033" lon="9.52413"><ele>140</ele></trkpt>
<trkpt lat="49.76039" lon="9.52416"><ele>140</ele></trkpt>
<trkpt lat="49.76203" lon="9.52463"><ele>140</ele></trkpt>
<trkpt lat="49.76220" lon="9.52460"><ele>143</ele></trkpt>
<trkpt lat="49.76236" lon="9.52443"><ele>144</ele></trkpt>
<trkpt lat="49.76242" lon="9.52421"><ele>143</ele></trkpt>
<trkpt lat="49.76235" lon="9.52209"><ele>142</ele></trkpt>
<trkpt lat="49.76237" lon="9.52167"><ele>142</ele></trkpt>
<trkpt lat="49.76242" lon="9.52137"><ele>142</ele></trkpt>
<trkpt lat="49.76341" lon="9.51822"><ele>144</ele></trkpt>
<trkpt lat="49.76301" lon="9.51808"><ele>141</ele></trkpt>
<trkpt lat="49.76264" lon="9.51786"><ele>137</ele></trkpt>
<trkpt lat="49.76258" lon="9.51775"><ele>136</ele></trkpt>
<trkpt lat="49.76274" lon="9.51709"><ele>136</ele></trkpt>
<trkpt lat="49.76285" lon="9.51683"><ele>136</ele></trkpt>
<trkpt lat="49.76309" lon="9.51649"><ele>136</ele></trkpt>
<trkpt lat="49.76335" lon="9.51589"><ele>136</ele></trkpt>
<trkpt lat="49.76343" lon="9.51563"><ele>136</ele></trkpt>
<trkpt lat="49.76358" lon="9.51561"><ele>137</ele></trkpt>
<trkpt lat="49.76397" lon="9.51499"><ele>136</ele></trkpt>
<trkpt lat="49.76547" lon="9.51357"><ele>136</ele></trkpt>
<trkpt lat="49.76564" lon="9.51349"><ele>137</ele></trkpt>
<trkpt lat="49.76577" lon="9.51336"><ele>138</ele></trkpt>
<trkpt lat="49.76702" lon="9.51203"><ele>137</ele></trkpt>
<trkpt lat="49.76718" lon="9.51166"><ele>136</ele></trkpt>
<trkpt lat="49.76758" lon="9.51134"><ele>135</ele></trkpt>
<trkpt lat="49.76788" lon="9.51140"><ele>136</ele></trkpt>
<trkpt lat="49.76847" lon="9.51127"><ele>137</ele></trkpt>
<trkpt lat="49.76898" lon="9.51122"><ele>137</ele></trkpt>
<trkpt lat="49.76977" lon="9.51128"><ele>138</ele></trkpt>
<trkpt lat="49.77064" lon="9.51127"><ele>139</ele></trkpt>
<trkpt lat="49.77138" lon="9.51138"><ele>139</ele></trkpt>
<trkpt lat="49.77146" lon="9.51146"><ele>139</ele></trkpt>
<trkpt lat="49.77219" lon="9.51143"><ele>137</ele></trkpt>
<trkpt lat="49.77305" lon="9.51167"><ele>137</ele></trkpt>
<trkpt lat="49.77429" lon="9.51172"><ele>136</ele></trkpt>
<trkpt lat="49.77539" lon="9.51190"><ele>136</ele></trkpt>
<trkpt lat="49.77592" lon="9.51206"><ele>136</ele></trkpt>
<trkpt lat="49.77662" lon="9.51239"><ele>136</ele></trkpt>
<trkpt lat="49.77666" lon="9.51249"><ele>137</ele></trkpt>
<trkpt lat="49.77666" lon="9.51279"><ele>138</ele></trkpt>
<trkpt lat="49.77669" lon="9.51285"><ele>138</ele></trkpt>
<trkpt lat="49.77690" lon="9.51282"><ele>138</ele></trkpt>
<trkpt lat="49.77753" lon="9.51294"><ele>137</ele></trkpt>
<trkpt lat="49.77921" lon="9.51355"><ele>137</ele></trkpt>
<trkpt lat="49.77975" lon="9.51370"><ele>136</ele></trkpt>
<trkpt lat="49.78039" lon="9.51377"><ele>136</ele></trkpt>
<trkpt lat="49.78085" lon="9.51378"><ele>137</ele></trkpt>
<trkpt lat="49.78147" lon="9.51371"><ele>136</ele></trkpt>
<trkpt lat="49.78206" lon="9.51353"><ele>136</ele></trkpt>
<trkpt lat="49.78300" lon="9.51297"><ele>135</ele></trkpt>
<trkpt lat="49.78346" lon="9.51263"><ele>136</ele></trkpt>
<trkpt lat="49.78394" lon="9.51220"><ele>135</ele></trkpt>
<trkpt lat="49.78422" lon="9.51190"><ele>135</ele></trkpt>
<trkpt lat="49.78427" lon="9.51193"><ele>135</ele></trkpt>
<trkpt lat="49.78433" lon="9.51209"><ele>136</ele></trkpt>
<trkpt lat="49.78520" lon="9.51109"><ele>136</ele></trkpt>
<trkpt lat="49.78586" lon="9.51016"><ele>136</ele></trkpt>
<trkpt lat="49.78620" lon="9.50944"><ele>136</ele></trkpt>
<trkpt lat="49.78648" lon="9.50859"><ele>136</ele></trkpt>
<trkpt lat="49.78656" lon="9.50846"><ele>136</ele></trkpt>
<trkpt lat="49.78675" lon="9.50793"><ele>136</ele></trkpt>
<trkpt lat="49.78697" lon="9.50750"><ele>136</ele></trkpt>
<trkpt lat="49.78718" lon="9.50718"><ele>136</ele></trkpt>
<trkpt lat="49.78849" lon="9.50463"><ele>136</ele></trkpt>
<trkpt lat="49.78889" lon="9.50373"><ele>136</ele></trkpt>
<trkpt lat="49.78918" lon="9.50278"><ele>136</ele></trkpt>
<trkpt lat="49.78942" lon="9.50148"><ele>136</ele></trkpt>
<trkpt lat="49.78954" lon="9.50004"><ele>137</ele></trkpt>
<trkpt lat="49.78957" lon="9.49846"><ele>136</ele></trkpt>
<trkpt lat="49.78977" lon="9.49628"><ele>135</ele></trkpt>
<trkpt lat="49.78983" lon="9.49592"><ele>135</ele></trkpt>
<trkpt lat="49.78986" lon="9.49539"><ele>136</ele></trkpt>
<trkpt lat="49.78987" lon="9.49336"><ele>136</ele></trkpt>
<trkpt lat="49.78987" lon="9.49276"><ele>136</ele></trkpt>
<trkpt lat="49.78964" lon="9.49123"><ele>136</ele></trkpt>
<trkpt lat="49.78964" lon="9.49113"><ele>136</ele></trkpt>
<trkpt lat="49.78969" lon="9.49102"><ele>136</ele></trkpt>
<trkpt lat="49.78969" lon="9.49094"><ele>136</ele></trkpt>
<trkpt lat="49.78964" lon="9.49078"><ele>136</ele></trkpt>
<trkpt lat="49.78945" lon="9.49052"><ele>135</ele></trkpt>
<trkpt lat="49.78942" lon="9.49030"><ele>136</ele></trkpt>
<trkpt lat="49.78948" lon="9.49012"><ele>136</ele></trkpt>
<trkpt lat="49.78979" lon="9.48964"><ele>136</ele></trkpt>
<trkpt lat="49.79000" lon="9.48926"><ele>137</ele></trkpt>
<trkpt lat="49.79023" lon="9.48869"><ele>139</ele></trkpt>
<trkpt lat="49.79037" lon="9.48821"><ele>140</ele></trkpt>
<trkpt lat="49.79045" lon="9.48773"><ele>141</ele></trkpt>
<trkpt lat="49.79044" lon="9.48732"><ele>140</ele></trkpt>
<trkpt lat="49.79035" lon="9.48662"><ele>141</ele></trkpt>
<trkpt lat="49.79023" lon="9.48603"><ele>142</ele></trkpt>
<trkpt lat="49.79018" lon="9.48517"><ele>141</ele></trkpt>
<trkpt lat="49.78998" lon="9.48439"><ele>140</ele></trkpt>
<trkpt lat="49.78987" lon="9.48400"><ele>140</ele></trkpt>
<trkpt lat="49.78939" lon="9.48268"><ele>139</ele></trkpt>
<trkpt lat="49.78796" lon="9.47820"><ele>139</ele></trkpt>
<trkpt lat="49.78787" lon="9.47784"><ele>138</ele></trkpt>
<trkpt lat="49.78789" lon="9.47774"><ele>139</ele></trkpt>
<trkpt lat="49.78782" lon="9.47768"><ele>138</ele></trkpt>
<trkpt lat="49.78775" lon="9.47748"><ele>139</ele></trkpt>
<trkpt lat="49.78748" lon="9.47656"><ele>138</ele></trkpt>
<trkpt lat="49.78717" lon="9.47569"><ele>138</ele></trkpt>
<trkpt lat="49.78668" lon="9.47469"><ele>139</ele></trkpt>
<trkpt lat="49.78623" lon="9.47401"><ele>139</ele></trkpt>
<trkpt lat="49.78550" lon="9.47326"><ele>139</ele></trkpt>
<trkpt lat="49.78533" lon="9.47301"><ele>139</ele></trkpt>
<trkpt lat="49.78518" lon="9.47287"><ele>138</ele></trkpt>
<trkpt lat="49.78509" lon="9.47269"><ele>139</ele></trkpt>
<trkpt lat="49.78464" lon="9.47229"><ele>139</ele></trkpt>
<trkpt lat="49.78448" lon="9.47223"><ele>139</ele></trkpt>
<trkpt lat="49.78336" lon="9.47132"><ele>138</ele></trkpt>
<trkpt lat="49.78319" lon="9.47123"><ele>138</ele></trkpt>
<trkpt lat="49.78268" lon="9.47108"><ele>138</ele></trkpt>
<trkpt lat="49.78218" lon="9.47085"><ele>136</ele></trkpt>
<trkpt lat="49.78195" lon="9.47085"><ele>135</ele></trkpt>
<trkpt lat="49.78147" lon="9.47093"><ele>135</ele></trkpt>
<trkpt lat="49.78077" lon="9.47055"><ele>135</ele></trkpt>
<trkpt lat="49.77984" lon="9.47019"><ele>135</ele></trkpt>
<trkpt lat="49.77742" lon="9.46950"><ele>136</ele></trkpt>
<trkpt lat="49.77622" lon="9.46888"><ele>135</ele></trkpt>
<trkpt lat="49.77524" lon="9.46805"><ele>135</ele></trkpt>
<trkpt lat="49.77513" lon="9.46788"><ele>136</ele></trkpt>
<trkpt lat="49.77494" lon="9.46742"><ele>137</ele></trkpt>
<trkpt lat="49.77433" lon="9.46655"><ele>139</ele></trkpt>
<trkpt lat="49.77344" lon="9.46510"><ele>138</ele></trkpt>
<trkpt lat="49.77292" lon="9.46439"><ele>138</ele></trkpt>
<trkpt lat="49.77190" lon="9.46195"><ele>138</ele></trkpt>
<trkpt lat="49.77154" lon="9.46022"><ele>138</ele></trkpt>
<trkpt lat="49.77141" lon="9.45913"><ele>137</ele></trkpt>
<trkpt lat="49.77131" lon="9.45789"><ele>138</ele></trkpt>
<trkpt lat="49.77135" lon="9.45698"><ele>138</ele></trkpt>
<trkpt lat="49.77144" lon="9.45605"><ele>138</ele></trkpt>
<trkpt lat="49.77188" lon="9.45232"><ele>138</ele></trkpt>
<trkpt lat="49.77207" lon="9.45125"><ele>138</ele></trkpt>
<trkpt lat="49.77222" lon="9.45069"><ele>137</ele></trkpt>
<trkpt lat="49.77267" lon="9.44944"><ele>137</ele></trkpt>
<trkpt lat="49.77307" lon="9.44862"><ele>137</ele></trkpt>
<trkpt lat="49.77308" lon="9.44814"><ele>135</ele></trkpt>
<trkpt lat="49.77314" lon="9.44782"><ele>134</ele></trkpt>
<trkpt lat="49.77349" lon="9.44707"><ele>134</ele></trkpt>
<trkpt lat="49.77363" lon="9.44683"><ele>134</ele></trkpt>
<trkpt lat="49.77430" lon="9.44599"><ele>134</ele></trkpt>
<trkpt lat="49.77465" lon="9.44564"><ele>134</ele></trkpt>
<trkpt lat="49.77570" lon="9.44476"><ele>134</ele></trkpt>
<trkpt lat="49.77703" lon="9.44395"><ele>134</ele></trkpt>
<trkpt lat="49.77810" lon="9.44342"><ele>135</ele></trkpt>
<trkpt lat="49.77823" lon="9.44339"><ele>135</ele></trkpt>
<trkpt lat="49.77898" lon="9.44290"><ele>135</ele></trkpt>
<trkpt lat="49.77949" lon="9.44248"><ele>135</ele></trkpt>
<trkpt lat="49.78009" lon="9.44205"><ele>134</ele></trkpt>
<trkpt lat="49.78032" lon="9.44183"><ele>134</ele></trkpt>
<trkpt lat="49.78132" lon="9.44123"><ele>134</ele></trkpt>
<trkpt lat="49.78153" lon="9.44117"><ele>134</ele></trkpt>
<trkpt lat="49.78193" lon="9.44091"><ele>134</ele></trkpt>
<trkpt lat="49.78298" lon="9.44035"><ele>134</ele></trkpt>
<trkpt lat="49.78338" lon="9.44008"><ele>132</ele></trkpt>
<trkpt lat="49.78407" lon="9.43945"><ele>134</ele></trkpt>
<trkpt lat="49.78496" lon="9.43877"><ele>134</ele></trkpt>
<trkpt lat="49.78568" lon="9.43816"><ele>133</ele></trkpt>
<trkpt lat="49.78631" lon="9.43768"><ele>134</ele></trkpt>
<trkpt lat="49.78660" lon="9.43742"><ele>133</ele></trkpt>
<trkpt lat="49.78731" lon="9.43667"><ele>133</ele></trkpt>
<trkpt lat="49.78816" lon="9.43560"><ele>133</ele></trkpt>
<trkpt lat="49.78843" lon="9.43518"><ele>133</ele></trkpt>
<trkpt lat="49.78922" lon="9.43363"><ele>133</ele></trkpt>
<trkpt lat="49.78921" lon="9.43347"><ele>132</ele></trkpt>
<trkpt lat="49.78904" lon="9.43331"><ele>132</ele></trkpt>
<trkpt lat="49.78903" lon="9.43310"><ele>132</ele></trkpt>
<trkpt lat="49.78924" lon="9.43244"><ele>132</ele></trkpt>
<trkpt lat="49.78931" lon="9.43210"><ele>132</ele></trkpt>
<trkpt lat="49.78934" lon="9.43162"><ele>130</ele></trkpt>
<trkpt lat="49.78943" lon="9.43122"><ele>131</ele></trkpt>
<trkpt lat="49.78981" lon="9.42985"><ele>131</ele></trkpt>
<trkpt lat="49.79001" lon="9.42888"><ele>132</ele></trkpt>
<trkpt lat="49.79022" lon="9.42807"><ele>132</ele></trkpt>
<trkpt lat="49.79037" lon="9.42661"><ele>132</ele></trkpt>
<trkpt lat="49.79041" lon="9.42536"><ele>132</ele></trkpt>
<trkpt lat="49.79037" lon="9.42391"><ele>132</ele></trkpt>
<trkpt lat="49.79029" lon="9.42316"><ele>132</ele></trkpt>
<trkpt lat="49.79017" lon="9.42271"><ele>132</ele></trkpt>
<trkpt lat="49.79014" lon="9.42230"><ele>130</ele></trkpt>
<trkpt lat="49.78962" lon="9.42070"><ele>133</ele></trkpt>
<trkpt lat="49.78848" lon="9.41826"><ele>133</ele></trkpt>
<trkpt lat="49.78803" lon="9.41757"><ele>133</ele></trkpt>
<trkpt lat="49.78724" lon="9.41665"><ele>132</ele></trkpt>
<trkpt lat="49.78667" lon="9.41578"><ele>132</ele></trkpt>
<trkpt lat="49.78597" lon="9.41462"><ele>132</ele></trkpt>
<trkpt lat="49.78590" lon="9.41456"><ele>132</ele></trkpt>
<trkpt lat="49.78585" lon="9.41457"><ele>132</ele></trkpt>
<trkpt lat="49.78570" lon="9.41449"><ele>131</ele></trkpt>
<trkpt lat="49.78511" lon="9.41395"><ele>132</ele></trkpt>
<trkpt lat="49.78448" lon="9.41318"><ele>131</ele></trkpt>
<trkpt lat="49.78346" lon="9.41146"><ele>132</ele></trkpt>
<trkpt lat="49.78293" lon="9.41068"><ele>132</ele></trkpt>
<trkpt lat="49.78264" lon="9.41014"><ele>132</ele></trkpt>
<trkpt lat="49.78218" lon="9.40951"><ele>131</ele></trkpt>
<trkpt lat="49.78210" lon="9.40923"><ele>133</ele></trkpt>
<trkpt lat="49.78131" lon="9.40789"><ele>134</ele></trkpt>
<trkpt lat="49.78019" lon="9.40568"><ele>134</ele></trkpt>
<trkpt lat="49.77929" lon="9.40412"><ele>135</ele></trkpt>
<trkpt lat="49.77921" lon="9.40413"><ele>135</ele></trkpt>
<trkpt lat="49.77908" lon="9.40424"><ele>134</ele></trkpt>
<trkpt lat="49.77897" lon="9.40422"><ele>133</ele></trkpt>
<trkpt lat="49.77823" lon="9.40349"><ele>134</ele></trkpt>
<trkpt lat="49.77699" lon="9.40188"><ele>134</ele></trkpt>
<trkpt lat="49.77630" lon="9.40116"><ele>134</ele></trkpt>
<trkpt lat="49.77596" lon="9.40076"><ele>134</ele></trkpt>
<trkpt lat="49.77527" lon="9.39968"><ele>134</ele></trkpt>
<trkpt lat="49.77517" lon="9.39938"><ele>135</ele></trkpt>
<trkpt lat="49.77501" lon="9.39861"><ele>139</ele></trkpt>
<trkpt lat="49.77498" lon="9.39826"><ele>138</ele></trkpt>
<trkpt lat="49.77508" lon="9.39810"><ele>139</ele></trkpt>
<trkpt lat="49.77552" lon="9.39780"><ele>139</ele></trkpt>
<trkpt lat="49.77634" lon="9.39759"><ele>140</ele></trkpt>
<trkpt lat="49.77604" lon="9.39621"><ele>140</ele></trkpt>
<trkpt lat="49.77583" lon="9.39478"><ele>140</ele></trkpt>
<trkpt lat="49.77574" lon="9.39210"><ele>142</ele></trkpt>
<trkpt lat="49.77573" lon="9.39012"><ele>142</ele></trkpt>
<trkpt lat="49.77577" lon="9.38942"><ele>142</ele></trkpt>
<trkpt lat="49.77586" lon="9.38873"><ele>143</ele></trkpt>
<trkpt lat="49.77623" lon="9.38691"><ele>142</ele></trkpt>
<trkpt lat="49.77663" lon="9.38445"><ele>141</ele></trkpt>
<trkpt lat="49.77533" lon="9.38344"><ele>136</ele></trkpt>
<trkpt lat="49.77514" lon="9.38320"><ele>135</ele></trkpt>
<trkpt lat="49.77473" lon="9.38241"><ele>132</ele></trkpt>
<trkpt lat="49.77466" lon="9.38211"><ele>131</ele></trkpt>
<trkpt lat="49.77464" lon="9.38179"><ele>131</ele></trkpt>
<trkpt lat="49.77466" lon="9.38160"><ele>130</ele></trkpt>
<trkpt lat="49.77472" lon="9.38143"><ele>131</ele></trkpt>
<trkpt lat="49.77609" lon="9.37987"><ele>130</ele></trkpt>
<trkpt lat="49.77658" lon="9.37951"><ele>131</ele></trkpt>
<trkpt lat="49.77769" lon="9.37842"><ele>130</ele></trkpt>
<trkpt lat="49.77836" lon="9.37796"><ele>131</ele></trkpt>
<trkpt lat="49.77856" lon="9.37846"><ele>133</ele></trkpt>
<trkpt lat="49.77960" lon="9.37701"><ele>134</ele></trkpt>
<trkpt lat="49.77998" lon="9.37618"><ele>134</ele></trkpt>
<trkpt lat="49.78005" lon="9.37593"><ele>134</ele></trkpt>
<trkpt lat="49.78075" lon="9.37318"><ele>134</ele></trkpt>
<trkpt lat="49.78083" lon="9.37253"><ele>133</ele></trkpt>
<trkpt lat="49.78085" lon="9.37199"><ele>133</ele></trkpt>
<trkpt lat="49.78061" lon="9.37068"><ele>132</ele></trkpt>
<trkpt lat="49.78022" lon="9.36932"><ele>133</ele></trkpt>
<trkpt lat="49.78009" lon="9.36898"><ele>135</ele></trkpt>
<trkpt lat="49.77974" lon="9.36832"><ele>135</ele></trkpt>
<trkpt lat="49.77915" lon="9.36742"><ele>134</ele></trkpt>
<trkpt lat="49.77837" lon="9.36634"><ele>134</ele></trkpt>
<trkpt lat="49.77797" lon="9.36571"><ele>134</ele></trkpt>
<trkpt lat="49.77656" lon="9.36371"><ele>134</ele></trkpt>
<trkpt lat="49.77576" lon="9.36270"><ele>134</ele></trkpt>
<trkpt lat="49.77560" lon="9.36259"><ele>133</ele></trkpt>
<trkpt lat="49.77500" lon="9.36184"><ele>132</ele></trkpt>
<trkpt lat="49.77409" lon="9.36049"><ele>131</ele></trkpt>
<trkpt lat="49.77382" lon="9.35997"><ele>131</ele></trkpt>
<trkpt lat="49.77369" lon="9.35946"><ele>131</ele></trkpt>
<trkpt lat="49.77331" lon="9.35876"><ele>132</ele></trkpt>
<trkpt lat="49.77300" lon="9.35804"><ele>132</ele></trkpt>
<trkpt lat="49.77078" lon="9.35101"><ele>132</ele></trkpt>
<trkpt lat="49.77052" lon="9.34999"><ele>133</ele></trkpt>
<trkpt lat="49.77038" lon="9.34931"><ele>132</ele></trkpt>
<trkpt lat="49.77014" lon="9.34771"><ele>132</ele></trkpt>
<trkpt lat="49.76966" lon="9.34197"><ele>131</ele></trkpt>
<trkpt lat="49.76957" lon="9.34080"><ele>131</ele></trkpt>
<trkpt lat="49.76953" lon="9.33979"><ele>130</ele></trkpt>
<trkpt lat="49.76965" lon="9.33863"><ele>132</ele></trkpt>
<trkpt lat="49.76976" lon="9.33798"><ele>131</ele></trkpt>
<trkpt lat="49.76989" lon="9.33738"><ele>132</ele></trkpt>
<trkpt lat="49.77015" lon="9.33657"><ele>132</ele></trkpt>
<trkpt lat="49.77045" lon="9.33532"><ele>134</ele></trkpt>
<trkpt lat="49.77056" lon="9.33467"><ele>133</ele></trkpt>
<trkpt lat="49.77076" lon="9.33221"><ele>133</ele></trkpt>
<trkpt lat="49.77095" lon="9.32900"><ele>133</ele></trkpt>
<trkpt lat="49.77108" lon="9.32780"><ele>134</ele></trkpt>
<trkpt lat="49.77110" lon="9.32659"><ele>136</ele></trkpt>
<trkpt lat="49.77106" lon="9.32495"><ele>135</ele></trkpt>
<trkpt lat="49.77089" lon="9.32292"><ele>132</ele></trkpt>
<trkpt lat="49.77077" lon="9.32225"><ele>131</ele></trkpt>
<trkpt lat="49.77021" lon="9.32243"><ele>130</ele></trkpt>
<trkpt lat="49.77019" lon="9.32188"><ele>130</ele></trkpt>
<trkpt lat="49.77009" lon="9.32116"><ele>130</ele></trkpt>
<trkpt lat="49.76995" lon="9.31893"><ele>130</ele></trkpt>
<trkpt lat="49.76989" lon="9.31854"><ele>130</ele></trkpt>
<trkpt lat="49.76973" lon="9.31797"><ele>130</ele></trkpt>
<trkpt lat="49.76941" lon="9.31719"><ele>130</ele></trkpt>
<trkpt lat="49.76933" lon="9.31676"><ele>130</ele></trkpt>
<trkpt lat="49.76897" lon="9.31563"><ele>130</ele></trkpt>
<trkpt lat="49.76845" lon="9.31454"><ele>130</ele></trkpt>
<trkpt lat="49.76786" lon="9.31366"><ele>130</ele></trkpt>
<trkpt lat="49.76718" lon="9.31293"><ele>131</ele></trkpt>
<trkpt lat="49.76690" lon="9.31270"><ele>132</ele></trkpt>
<trkpt lat="49.76634" lon="9.31243"><ele>132</ele></trkpt>
<trkpt lat="49.76575" lon="9.31227"><ele>132</ele></trkpt>
<trkpt lat="49.76502" lon="9.31222"><ele>132</ele></trkpt>
<trkpt lat="49.76459" lon="9.31226"><ele>132</ele></trkpt>
<trkpt lat="49.76417" lon="9.31241"><ele>132</ele></trkpt>
<trkpt lat="49.76382" lon="9.31244"><ele>132</ele></trkpt>
<trkpt lat="49.76279" lon="9.31235"><ele>132</ele></trkpt>
<trkpt lat="49.76218" lon="9.31250"><ele>131</ele></trkpt>
<trkpt lat="49.76175" lon="9.31246"><ele>132</ele></trkpt>
<trkpt lat="49.76000" lon="9.31274"><ele>131</ele></trkpt>
<trkpt lat="49.75865" lon="9.31316"><ele>132</ele></trkpt>
<trkpt lat="49.75767" lon="9.31373"><ele>130</ele></trkpt>
<trkpt lat="49.75708" lon="9.31421"><ele>130</ele></trkpt>
<trkpt lat="49.75670" lon="9.31459"><ele>132</ele></trkpt>
<trkpt lat="49.75634" lon="9.31485"><ele>133</ele></trkpt>
<trkpt lat="49.75566" lon="9.31542"><ele>136</ele></trkpt>
<trkpt lat="49.75407" lon="9.31719"><ele>134</ele></trkpt>
<trkpt lat="49.75337" lon="9.31808"><ele>130</ele></trkpt>
<trkpt lat="49.75224" lon="9.31926"><ele>133</ele></trkpt>
<trkpt lat="49.75142" lon="9.32005"><ele>130</ele></trkpt>
<trkpt lat="49.75071" lon="9.32050"><ele>130</ele></trkpt>
<trkpt lat="49.74834" lon="9.32167"><ele>131</ele></trkpt>
<trkpt lat="49.74791" lon="9.32178"><ele>131</ele></trkpt>
<trkpt lat="49.74730" lon="9.32179"><ele>132</ele></trkpt>
<trkpt lat="49.74670" lon="9.32187"><ele>133</ele></trkpt>
<trkpt lat="49.74624" lon="9.32182"><ele>133</ele></trkpt>
<trkpt lat="49.74584" lon="9.32156"><ele>134</ele></trkpt>
<trkpt lat="49.74531" lon="9.32111"><ele>134</ele></trkpt>
<trkpt lat="49.74523" lon="9.32112"><ele>134</ele></trkpt>
<trkpt lat="49.74507" lon="9.32130"><ele>134</ele></trkpt>
<trkpt lat="49.74486" lon="9.32181"><ele>132</ele></trkpt>
<trkpt lat="49.74475" lon="9.32199"><ele>132</ele></trkpt>
<trkpt lat="49.74470" lon="9.32202"><ele>131</ele></trkpt>
<trkpt lat="49.74465" lon="9.32201"><ele>130</ele></trkpt>
<trkpt lat="49.74451" lon="9.32184"><ele>130</ele></trkpt>
<trkpt lat="49.74374" lon="9.32088"><ele>132</ele></trkpt>
<trkpt lat="49.74364" lon="9.32068"><ele>133</ele></trkpt>
<trkpt lat="49.74353" lon="9.32029"><ele>136</ele></trkpt>
<trkpt lat="49.74235" lon="9.32263"><ele>132</ele></trkpt>
<trkpt lat="49.74194" lon="9.32335"><ele>134</ele></trkpt>
<trkpt lat="49.74123" lon="9.32222"><ele>131</ele></trkpt>
<trkpt lat="49.74147" lon="9.32179"><ele>128</ele></trkpt>
<trkpt lat="49.74097" lon="9.32097"><ele>128</ele></trkpt>
<trkpt lat="49.74057" lon="9.32020"><ele>129</ele></trkpt>
<trkpt lat="49.74065" lon="9.31989"><ele>127</ele></trkpt>
<trkpt lat="49.74065" lon="9.31977"><ele>126</ele></trkpt>
<trkpt lat="49.74051" lon="9.31940"><ele>126</ele></trkpt>
<trkpt lat="49.74032" lon="9.31868"><ele>126</ele></trkpt>
<trkpt lat="49.73989" lon="9.31752"><ele>128</ele></trkpt>
<trkpt lat="49.73974" lon="9.31697"><ele>128</ele></trkpt>
<trkpt lat="49.73981" lon="9.31179"><ele>127</ele></trkpt>
<trkpt lat="49.73975" lon="9.30986"><ele>127</ele></trkpt>
<trkpt lat="49.73973" lon="9.30705"><ele>127</ele></trkpt>
<trkpt lat="49.73975" lon="9.30665"><ele>127</ele></trkpt>
<trkpt lat="49.73995" lon="9.30486"><ele>126</ele></trkpt>
<trkpt lat="49.74011" lon="9.30309"><ele>126</ele></trkpt>
<trkpt lat="49.74016" lon="9.30208"><ele>126</ele></trkpt>
<trkpt lat="49.74015" lon="9.30108"><ele>126</ele></trkpt>
<trkpt lat="49.74001" lon="9.29895"><ele>126</ele></trkpt>
<trkpt lat="49.74006" lon="9.29830"><ele>126</ele></trkpt>
<trkpt lat="49.73996" lon="9.29673"><ele>126</ele></trkpt>
<trkpt lat="49.73986" lon="9.29631"><ele>126</ele></trkpt>
<trkpt lat="49.73978" lon="9.29611"><ele>127</ele></trkpt>
<trkpt lat="49.73964" lon="9.29544"><ele>126</ele></trkpt>
<trkpt lat="49.73954" lon="9.29441"><ele>128</ele></trkpt>
<trkpt lat="49.73957" lon="9.29405"><ele>127</ele></trkpt>
<trkpt lat="49.74009" lon="9.29103"><ele>128</ele></trkpt>
<trkpt lat="49.74055" lon="9.28946"><ele>127</ele></trkpt>
<trkpt lat="49.74062" lon="9.28914"><ele>126</ele></trkpt>
<trkpt lat="49.74078" lon="9.28794"><ele>127</ele></trkpt>
<trkpt lat="49.74092" lon="9.28597"><ele>127</ele></trkpt>
<trkpt lat="49.74097" lon="9.28472"><ele>126</ele></trkpt>
<trkpt lat="49.74092" lon="9.28285"><ele>127</ele></trkpt>
<trkpt lat="49.74087" lon="9.28214"><ele>127</ele></trkpt>
<trkpt lat="49.74074" lon="9.28126"><ele>126</ele></trkpt>
<trkpt lat="49.74052" lon="9.28037"><ele>127</ele></trkpt>
<trkpt lat="49.74032" lon="9.27978"><ele>127</ele></trkpt>
<trkpt lat="49.74005" lon="9.27929"><ele>128</ele></trkpt>
<trkpt lat="49.73940" lon="9.27857"><ele>127</ele></trkpt>
<trkpt lat="49.73761" lon="9.27672"><ele>128</ele></trkpt>
<trkpt lat="49.73633" lon="9.27543"><ele>128</ele></trkpt>
<trkpt lat="49.73566" lon="9.27503"><ele>128</ele></trkpt>
<trkpt lat="49.73540" lon="9.27481"><ele>128</ele></trkpt>
<trkpt lat="49.73524" lon="9.27428"><ele>128</ele></trkpt>
<trkpt lat="49.73509" lon="9.27404"><ele>128</ele></trkpt>
<trkpt lat="49.73489" lon="9.27380"><ele>128</ele></trkpt>
<trkpt lat="49.73432" lon="9.27334"><ele>128</ele></trkpt>
<trkpt lat="49.73296" lon="9.27273"><ele>128</ele></trkpt>
<trkpt lat="49.73146" lon="9.27160"><ele>128</ele></trkpt>
<trkpt lat="49.73046" lon="9.27091"><ele>128</ele></trkpt>
<trkpt lat="49.72948" lon="9.27031"><ele>128</ele></trkpt>
<trkpt lat="49.72824" lon="9.26972"><ele>127</ele></trkpt>
<trkpt lat="49.72603" lon="9.26884"><ele>127</ele></trkpt>
<trkpt lat="49.72595" lon="9.26865"><ele>127</ele></trkpt>
<trkpt lat="49.72584" lon="9.26795"><ele>126</ele></trkpt>
<trkpt lat="49.72580" lon="9.26785"><ele>126</ele></trkpt>
<trkpt lat="49.72570" lon="9.26778"><ele>126</ele></trkpt>
<trkpt lat="49.72492" lon="9.26755"><ele>126</ele></trkpt>
<trkpt lat="49.72394" lon="9.26732"><ele>126</ele></trkpt>
<trkpt lat="49.72219" lon="9.26697"><ele>126</ele></trkpt>
<trkpt lat="49.72100" lon="9.26662"><ele>126</ele></trkpt>
<trkpt lat="49.72064" lon="9.26709"><ele>126</ele></trkpt>
<trkpt lat="49.72020" lon="9.26734"><ele>128</ele></trkpt>
<trkpt lat="49.71996" lon="9.26730"><ele>128</ele></trkpt>
<trkpt lat="49.71978" lon="9.26711"><ele>128</ele></trkpt>
<trkpt lat="49.71956" lon="9.26674"><ele>128</ele></trkpt>
<trkpt lat="49.71925" lon="9.26650"><ele>128</ele></trkpt>
<trkpt lat="49.71887" lon="9.26628"><ele>127</ele></trkpt>
<trkpt lat="49.71685" lon="9.26535"><ele>127</ele></trkpt>
<trkpt lat="49.71528" lon="9.26441"><ele>126</ele></trkpt>
<trkpt lat="49.71469" lon="9.26410"><ele>126</ele></trkpt>
<trkpt lat="49.71430" lon="9.26396"><ele>126</ele></trkpt>
<trkpt lat="49.71401" lon="9.26394"><ele>126</ele></trkpt>
<trkpt lat="49.71327" lon="9.26412"><ele>126</ele></trkpt>
<trkpt lat="49.71305" lon="9.26413"><ele>126</ele></trkpt>
<trkpt lat="49.71255" lon="9.26407"><ele>126</ele></trkpt>
<trkpt lat="49.71220" lon="9.26419"><ele>126</ele></trkpt>
<trkpt lat="49.71207" lon="9.26425"><ele>125</ele></trkpt>
<trkpt lat="49.71212" lon="9.26499"><ele>126</ele></trkpt>
<trkpt lat="49.71186" lon="9.26498"><ele>125</ele></trkpt>
<trkpt lat="49.71091" lon="9.26431"><ele>127</ele></trkpt>
<trkpt lat="49.71028" lon="9.26375"><ele>127</ele></trkpt>
<trkpt lat="49.70904" lon="9.26237"><ele>127</ele></trkpt>
<trkpt lat="49.70883" lon="9.26221"><ele>127</ele></trkpt>
<trkpt lat="49.70790" lon="9.26177"><ele>127</ele></trkpt>
<trkpt lat="49.70783" lon="9.26179"><ele>127</ele></trkpt>
<trkpt lat="49.70771" lon="9.26208"><ele>128</ele></trkpt>
<trkpt lat="49.70768" lon="9.26239"><ele>128</ele></trkpt>
<trkpt lat="49.70772" lon="9.26262"><ele>129</ele></trkpt>
<trkpt lat="49.70741" lon="9.26294"><ele>129</ele></trkpt>
<trkpt lat="49.70672" lon="9.26442"><ele>132</ele></trkpt>
<trkpt lat="49.70667" lon="9.26441"><ele>132</ele></trkpt>
<trkpt lat="49.70662" lon="9.26446"><ele>132</ele></trkpt>
<trkpt lat="49.70558" lon="9.26350"><ele>132</ele></trkpt>
<trkpt lat="49.70439" lon="9.26217"><ele>132</ele></trkpt>
<trkpt lat="49.70395" lon="9.26164"><ele>134</ele></trkpt>
<trkpt lat="49.70373" lon="9.26129"><ele>133</ele></trkpt>
<trkpt lat="49.70363" lon="9.26102"><ele>132</ele></trkpt>
<trkpt lat="49.70354" lon="9.26111"><ele>133</ele></trkpt>
<trkpt lat="49.70339" lon="9.26138"><ele>134</ele></trkpt>
<trkpt lat="49.70253" lon="9.26313"><ele>142</ele></trkpt>
<trkpt lat="49.70248" lon="9.26318"><ele>142</ele></trkpt>
<trkpt lat="49.70071" lon="9.26286"><ele>156</ele></trkpt>
<trkpt lat="49.69982" lon="9.26250"><ele>161</ele></trkpt>
<trkpt lat="49.69986" lon="9.26190"><ele>160</ele></trkpt>
<trkpt lat="49.70013" lon="9.26190"><ele>156</ele></trkpt>
<trkpt lat="49.70029" lon="9.26173"><ele>153</ele></trkpt>
<trkpt lat="49.70037" lon="9.26170"><ele>152</ele></trkpt>
<trkpt lat="49.70170" lon="9.25967"><ele>136</ele></trkpt>
<trkpt lat="49.70177" lon="9.25974"><ele>136</ele></trkpt>
<trkpt lat="49.70182" lon="9.25972"><ele>135</ele></trkpt>
<trkpt lat="49.70202" lon="9.25950"><ele>134</ele></trkpt>
<trkpt lat="49.70260" lon="9.25853"><ele>128</ele></trkpt>
<trkpt lat="49.70304" lon="9.25760"><ele>126</ele></trkpt>
<trkpt lat="49.70315" lon="9.25727"><ele>126</ele></trkpt>
<trkpt lat="49.70323" lon="9.25716"><ele>126</ele></trkpt>
<trkpt lat="49.70326" lon="9.25701"><ele>126</ele></trkpt>
<trkpt lat="49.70316" lon="9.25678"><ele>126</ele></trkpt>
<trkpt lat="49.70307" lon="9.25671"><ele>126</ele></trkpt>
<trkpt lat="49.70261" lon="9.25657"><ele>126</ele></trkpt>
<trkpt lat="49.70246" lon="9.25647"><ele>127</ele></trkpt>
<trkpt lat="49.70179" lon="9.25576"><ele>126</ele></trkpt>
<trkpt lat="49.70307" lon="9.25300"><ele>132</ele></trkpt>
<trkpt lat="49.70344" lon="9.25248"><ele>134</ele></trkpt>
<trkpt lat="49.70396" lon="9.25188"><ele>134</ele></trkpt>
<trkpt lat="49.70435" lon="9.25134"><ele>133</ele></trkpt>
<trkpt lat="49.70487" lon="9.25041"><ele>133</ele></trkpt>
<trkpt lat="49.70560" lon="9.24925"><ele>133</ele></trkpt>
<trkpt lat="49.70585" lon="9.24870"><ele>132</ele></trkpt>
<trkpt lat="49.70594" lon="9.24836"><ele>132</ele></trkpt>
<trkpt lat="49.70598" lon="9.24776"><ele>132</ele></trkpt>
<trkpt lat="49.70567" lon="9.24500"><ele>132</ele></trkpt>
<trkpt lat="49.70606" lon="9.24374"><ele>132</ele></trkpt>
<trkpt lat="49.70627" lon="9.24329"><ele>132</ele></trkpt>
<trkpt lat="49.70690" lon="9.24241"><ele>131</ele></trkpt>
<trkpt lat="49.70719" lon="9.24210"><ele>132</ele></trkpt>
<trkpt lat="49.71414" lon="9.23818"><ele>139</ele></trkpt>
<trkpt lat="49.71453" lon="9.23789"><ele>141</ele></trkpt>
<trkpt lat="49.71569" lon="9.23686"><ele>142</ele></trkpt>
<trkpt lat="49.71693" lon="9.23564"><ele>138</ele></trkpt>
<trkpt lat="49.71774" lon="9.23479"><ele>136</ele></trkpt>
<trkpt lat="49.71874" lon="9.23362"><ele>136</ele></trkpt>
<trkpt lat="49.72073" lon="9.23115"><ele>134</ele></trkpt>
<trkpt lat="49.71984" lon="9.22935"><ele>130</ele></trkpt>
<trkpt lat="49.72111" lon="9.22782"><ele>130</ele></trkpt>
<trkpt lat="49.72215" lon="9.22669"><ele>130</ele></trkpt>
<trkpt lat="49.72369" lon="9.22521"><ele>130</ele></trkpt>
<trkpt lat="49.72403" lon="9.22498"><ele>131</ele></trkpt>
<trkpt lat="49.72434" lon="9.22484"><ele>132</ele></trkpt>
<trkpt lat="49.72458" lon="9.22482"><ele>132</ele></trkpt>
<trkpt lat="49.72486" lon="9.22517"><ele>133</ele></trkpt>
<trkpt lat="49.72491" lon="9.22510"><ele>133</ele></trkpt>
<trkpt lat="49.72671" lon="9.22707"><ele>140</ele></trkpt>
<trkpt lat="49.72706" lon="9.22727"><ele>140</ele></trkpt>
<trkpt lat="49.72722" lon="9.22721"><ele>139</ele></trkpt>
<trkpt lat="49.72734" lon="9.22741"><ele>139</ele></trkpt>
<trkpt lat="49.72744" lon="9.22742"><ele>139</ele></trkpt>
<trkpt lat="49.72817" lon="9.22809"><ele>139</ele></trkpt>
<trkpt lat="49.73089" lon="9.23075"><ele>144</ele></trkpt>
<trkpt lat="49.73154" lon="9.23132"><ele>145</ele></trkpt>
<trkpt lat="49.73163" lon="9.23136"><ele>145</ele></trkpt>
<trkpt lat="49.73169" lon="9.23109"><ele>144</ele></trkpt>
<trkpt lat="49.73191" lon="9.23053"><ele>143</ele></trkpt>
<trkpt lat="49.73255" lon="9.22906"><ele>149</ele></trkpt>
<trkpt lat="49.73278" lon="9.22990"><ele>151</ele></trkpt>
<trkpt lat="49.73310" lon="9.23065"><ele>155</ele></trkpt>
<trkpt lat="49.73345" lon="9.23124"><ele>160</ele></trkpt>
<trkpt lat="49.73371" lon="9.23161"><ele>161</ele></trkpt>
<trkpt lat="49.73415" lon="9.23207"><ele>161</ele></trkpt>
<trkpt lat="49.73427" lon="9.23178"><ele>164</ele></trkpt>
<trkpt lat="49.73486" lon="9.23167"><ele>172</ele></trkpt>
<trkpt lat="49.73487" lon="9.23157"><ele>175</ele></trkpt>
<trkpt lat="49.73483" lon="9.23152"><ele>176</ele></trkpt>
<trkpt lat="49.73460" lon="9.23141"><ele>175</ele></trkpt>
<trkpt lat="49.73434" lon="9.23121"><ele>179</ele></trkpt>
<trkpt lat="49.73419" lon="9.23102"><ele>180</ele></trkpt>
<trkpt lat="49.73409" lon="9.23070"><ele>181</ele></trkpt>
<trkpt lat="49.73398" lon="9.23013"><ele>184</ele></trkpt>
<trkpt lat="49.73395" lon="9.22962"><ele>188</ele></trkpt>
<trkpt lat="49.73398" lon="9.22890"><ele>192</ele></trkpt>
<trkpt lat="49.73396" lon="9.22851"><ele>193</ele></trkpt>
<trkpt lat="49.73403" lon="9.22781"><ele>196</ele></trkpt>
<trkpt lat="49.73420" lon="9.22751"><ele>199</ele></trkpt>
<trkpt lat="49.73443" lon="9.22684"><ele>202</ele></trkpt>
<trkpt lat="49.73547" lon="9.22483"><ele>214</ele></trkpt>
<trkpt lat="49.73598" lon="9.22349"><ele>220</ele></trkpt>
<trkpt lat="49.73652" lon="9.22223"><ele>227</ele></trkpt>
<trkpt lat="49.73677" lon="9.22155"><ele>231</ele></trkpt>
<trkpt lat="49.73697" lon="9.22039"><ele>236</ele></trkpt>
<trkpt lat="49.73704" lon="9.22044"><ele>238</ele></trkpt>
<trkpt lat="49.73708" lon="9.22091"><ele>238</ele></trkpt>
<trkpt lat="49.73720" lon="9.22170"><ele>242</ele></trkpt>
<trkpt lat="49.73710" lon="9.22207"><ele>242</ele></trkpt>
<trkpt lat="49.73709" lon="9.22220"><ele>242</ele></trkpt>
<trkpt lat="49.73714" lon="9.22227"><ele>244</ele></trkpt>
<trkpt lat="49.73720" lon="9.22226"><ele>245</ele></trkpt>
<trkpt lat="49.73729" lon="9.22213"><ele>246</ele></trkpt>
<trkpt lat="49.73749" lon="9.22110"><ele>249</ele></trkpt>
<trkpt lat="49.73776" lon="9.22030"><ele>253</ele></trkpt>
<trkpt lat="49.73794" lon="9.21985"><ele>256</ele></trkpt>
<trkpt lat="49.73797" lon="9.21967"><ele>256</ele></trkpt>
<trkpt lat="49.73796" lon="9.21949"><ele>256</ele></trkpt>
<trkpt lat="49.73776" lon="9.21881"><ele>260</ele></trkpt>
<trkpt lat="49.73775" lon="9.21867"><ele>261</ele></trkpt>
<trkpt lat="49.73780" lon="9.21855"><ele>262</ele></trkpt>
<trkpt lat="49.73788" lon="9.21843"><ele>264</ele></trkpt>
<trkpt lat="49.73804" lon="9.21838"><ele>264</ele></trkpt>
<trkpt lat="49.73833" lon="9.21850"><ele>264</ele></trkpt>
<trkpt lat="49.73920" lon="9.21895"><ele>273</ele></trkpt>
<trkpt lat="49.73977" lon="9.21961"><ele>275</ele></trkpt>
<trkpt lat="49.73991" lon="9.21972"><ele>276</ele></trkpt>
<trkpt lat="49.74074" lon="9.21999"><ele>280</ele></trkpt>
<trkpt lat="49.74071" lon="9.21980"><ele>282</ele></trkpt>
<trkpt lat="49.73905" lon="9.21651"><ele>290</ele></trkpt>
<trkpt lat="49.73776" lon="9.21349"><ele>302</ele></trkpt>
<trkpt lat="49.73776" lon="9.21328"><ele>303</ele></trkpt>
<trkpt lat="49.73780" lon="9.21031"><ele>312</ele></trkpt>
<trkpt lat="49.73911" lon="9.20752"><ele>326</ele></trkpt>
<trkpt lat="49.74025" lon="9.20561"><ele>329</ele></trkpt>
<trkpt lat="49.74033" lon="9.20529"><ele>330</ele></trkpt>
<trkpt lat="49.74061" lon="9.20484"><ele>328</ele></trkpt>
<trkpt lat="49.74084" lon="9.20476"><ele>328</ele></trkpt>
<trkpt lat="49.74234" lon="9.20443"><ele>322</ele></trkpt>
<trkpt lat="49.74362" lon="9.20356"><ele>324</ele></trkpt>
<trkpt lat="49.74402" lon="9.20348"><ele>325</ele></trkpt>
<trkpt lat="49.74476" lon="9.20284"><ele>329</ele></trkpt>
<trkpt lat="49.74481" lon="9.20285"><ele>328</ele></trkpt>
<trkpt lat="49.74484" lon="9.20292"><ele>328</ele></trkpt>
<trkpt lat="49.74642" lon="9.20653"><ele>315</ele></trkpt>
<trkpt lat="49.74651" lon="9.20658"><ele>314</ele></trkpt>
<trkpt lat="49.74660" lon="9.20653"><ele>314</ele></trkpt>
<trkpt lat="49.74736" lon="9.20498"><ele>316</ele></trkpt>
<trkpt lat="49.74797" lon="9.20637"><ele>305</ele></trkpt>
<trkpt lat="49.74801" lon="9.20634"><ele>306</ele></trkpt>
<trkpt lat="49.74871" lon="9.20494"><ele>306</ele></trkpt>
<trkpt lat="49.74788" lon="9.20394"><ele>315</ele></trkpt>
<trkpt lat="49.74895" lon="9.20173"><ele>302</ele></trkpt>
<trkpt lat="49.74905" lon="9.20086"><ele>297</ele></trkpt>
<trkpt lat="49.74889" lon="9.20012"><ele>294</ele></trkpt>
<trkpt lat="49.74889" lon="9.19980"><ele>293</ele></trkpt>
<trkpt lat="49.74901" lon="9.19964"><ele>292</ele></trkpt>
<trkpt lat="49.74917" lon="9.19957"><ele>292</ele></trkpt>
<trkpt lat="49.75006" lon="9.19966"><ele>286</ele></trkpt>
<trkpt lat="49.75017" lon="9.19996"><ele>283</ele></trkpt>
<trkpt lat="49.75034" lon="9.20007"><ele>284</ele></trkpt>
<trkpt lat="49.75099" lon="9.20139"><ele>272</ele></trkpt>
<trkpt lat="49.75208" lon="9.20213"><ele>266</ele></trkpt>
<trkpt lat="49.75224" lon="9.20235"><ele>263</ele></trkpt>
<trkpt lat="49.75247" lon="9.20245"><ele>263</ele></trkpt>
<trkpt lat="49.75270" lon="9.20248"><ele>259</ele></trkpt>
<trkpt lat="49.75334" lon="9.20206"><ele>255</ele></trkpt>
<trkpt lat="49.75383" lon="9.20162"><ele>252</ele></trkpt>
<trkpt lat="49.75424" lon="9.20116"><ele>249</ele></trkpt>
<trkpt lat="49.75464" lon="9.20083"><ele>244</ele></trkpt>
<trkpt lat="49.75501" lon="9.20064"><ele>241</ele></trkpt>
<trkpt lat="49.75550" lon="9.20048"><ele>239</ele></trkpt>
<trkpt lat="49.75658" lon="9.20018"><ele>232</ele></trkpt>
<trkpt lat="49.75696" lon="9.19991"><ele>228</ele></trkpt>
<trkpt lat="49.75746" lon="9.19945"><ele>224</ele></trkpt>
<trkpt lat="49.75777" lon="9.19900"><ele>222</ele></trkpt>
<trkpt lat="49.75795" lon="9.19866"><ele>220</ele></trkpt>
<trkpt lat="49.75802" lon="9.19727"><ele>214</ele></trkpt>
<trkpt lat="49.75797" lon="9.19658"><ele>210</ele></trkpt>
<trkpt lat="49.75771" lon="9.19566"><ele>208</ele></trkpt>
<trkpt lat="49.75744" lon="9.19483"><ele>204</ele></trkpt>
<trkpt lat="49.75670" lon="9.19347"><ele>196</ele></trkpt>
<trkpt lat="49.75526" lon="9.19138"><ele>186</ele></trkpt>
<trkpt lat="49.75501" lon="9.19093"><ele>185</ele></trkpt>
<trkpt lat="49.75481" lon="9.19068"><ele>184</ele></trkpt>
<trkpt lat="49.75473" lon="9.19047"><ele>181</ele></trkpt>
<trkpt lat="49.75480" lon="9.19035"><ele>178</ele></trkpt>
<trkpt lat="49.75494" lon="9.19033"><ele>177</ele></trkpt>
<trkpt lat="49.75525" lon="9.19044"><ele>177</ele></trkpt>
<trkpt lat="49.75633" lon="9.19135"><ele>168</ele></trkpt>
<trkpt lat="49.75678" lon="9.19167"><ele>165</ele></trkpt>
<trkpt lat="49.75746" lon="9.19204"><ele>160</ele></trkpt>
<trkpt lat="49.75762" lon="9.19218"><ele>159</ele></trkpt>
<trkpt lat="49.75783" lon="9.19246"><ele>157</ele></trkpt>
<trkpt lat="49.75798" lon="9.19253"><ele>156</ele></trkpt>
<trkpt lat="49.75803" lon="9.19246"><ele>156</ele></trkpt>
<trkpt lat="49.75803" lon="9.19235"><ele>155</ele></trkpt>
<trkpt lat="49.75793" lon="9.19178"><ele>154</ele></trkpt>
<trkpt lat="49.75804" lon="9.19128"><ele>151</ele></trkpt>
<trkpt lat="49.75804" lon="9.19111"><ele>151</ele></trkpt>
<trkpt lat="49.75787" lon="9.19069"><ele>149</ele></trkpt>
<trkpt lat="49.75786" lon="9.19052"><ele>147</ele></trkpt>
<trkpt lat="49.75789" lon="9.19040"><ele>147</ele></trkpt>
<trkpt lat="49.75817" lon="9.19001"><ele>143</ele></trkpt>
<trkpt lat="49.75833" lon="9.18965"><ele>140</ele></trkpt>
<trkpt lat="49.75891" lon="9.18783"><ele>134</ele></trkpt>
<trkpt lat="49.75932" lon="9.18776"><ele>133</ele></trkpt>
<trkpt lat="49.75975" lon="9.18751"><ele>133</ele></trkpt>
<trkpt lat="49.76016" lon="9.18702"><ele>132</ele></trkpt>
<trkpt lat="49.76031" lon="9.18674"><ele>131</ele></trkpt>
<trkpt lat="49.76044" lon="9.18633"><ele>131</ele></trkpt>
<trkpt lat="49.76063" lon="9.18536"><ele>130</ele></trkpt>
<trkpt lat="49.76076" lon="9.18393"><ele>131</ele></trkpt>
<trkpt lat="49.76185" lon="9.18343"><ele>130</ele></trkpt>
<trkpt lat="49.76196" lon="9.18334"><ele>131</ele></trkpt>
<trkpt lat="49.76203" lon="9.18322"><ele>130</ele></trkpt>
<trkpt lat="49.76263" lon="9.18310"><ele>131</ele></trkpt>
<trkpt lat="49.76264" lon="9.18245"><ele>131</ele></trkpt>
<trkpt lat="49.76274" lon="9.18120"><ele>128</ele></trkpt>
<trkpt lat="49.76284" lon="9.18052"><ele>122</ele></trkpt>
<trkpt lat="49.76295" lon="9.17998"><ele>122</ele></trkpt>
<trkpt lat="49.76462" lon="9.18038"><ele>121</ele></trkpt>
<trkpt lat="49.76639" lon="9.18073"><ele>121</ele></trkpt>
<trkpt lat="49.76744" lon="9.18133"><ele>122</ele></trkpt>
<trkpt lat="49.76821" lon="9.18166"><ele>122</ele></trkpt>
<trkpt lat="49.76864" lon="9.18173"><ele>122</ele></trkpt>
<trkpt lat="49.76996" lon="9.18209"><ele>122</ele></trkpt>
<trkpt lat="49.77087" lon="9.18241"><ele>122</ele></trkpt>
<trkpt lat="49.77137" lon="9.18267"><ele>122</ele></trkpt>
<trkpt lat="49.77188" lon="9.18284"><ele>122</ele></trkpt>
<trkpt lat="49.77309" lon="9.18314"><ele>121</ele></trkpt>
<trkpt lat="49.77367" lon="9.18324"><ele>122</ele></trkpt>
<trkpt lat="49.77511" lon="9.18336"><ele>124</ele></trkpt>
<trkpt lat="49.77623" lon="9.18323"><ele>124</ele></trkpt>
<trkpt lat="49.77674" lon="9.18311"><ele>124</ele></trkpt>
<trkpt lat="49.77721" lon="9.18293"><ele>124</ele></trkpt>
<trkpt lat="49.77763" lon="9.18289"><ele>124</ele></trkpt>
<trkpt lat="49.77798" lon="9.18308"><ele>125</ele></trkpt>
<trkpt lat="49.77821" lon="9.18308"><ele>125</ele></trkpt>
<trkpt lat="49.77846" lon="9.18305"><ele>125</ele></trkpt>
<trkpt lat="49.77893" lon="9.18290"><ele>125</ele></trkpt>
<trkpt lat="49.77934" lon="9.18261"><ele>124</ele></trkpt>
<trkpt lat="49.78142" lon="9.18069"><ele>123</ele></trkpt>
<trkpt lat="49.78214" lon="9.18013"><ele>124</ele></trkpt>
<trkpt lat="49.78213" lon="9.18000"><ele>124</ele></trkpt>
<trkpt lat="49.78219" lon="9.17995"><ele>124</ele></trkpt>
<trkpt lat="49.78135" lon="9.17769"><ele>123</ele></trkpt>
<trkpt lat="49.78130" lon="9.17742"><ele>126</ele></trkpt>
<trkpt lat="49.78133" lon="9.17723"><ele>126</ele></trkpt>
<trkpt lat="49.78137" lon="9.17714"><ele>126</ele></trkpt>
<trkpt lat="49.78145" lon="9.17718"><ele>126</ele></trkpt>
<trkpt lat="49.78145" lon="9.17745"><ele>126</ele></trkpt>
<trkpt lat="49.78149" lon="9.17761"><ele>124</ele></trkpt>
<trkpt lat="49.78161" lon="9.17761"><ele>122</ele></trkpt>
<trkpt lat="49.78188" lon="9.17737"><ele>121</ele></trkpt>
<trkpt lat="49.78195" lon="9.17742"><ele>120</ele></trkpt>
<trkpt lat="49.78201" lon="9.17760"><ele>119</ele></trkpt>
<trkpt lat="49.78269" lon="9.17703"><ele>119</ele></trkpt>
<trkpt lat="49.78307" lon="9.17665"><ele>119</ele></trkpt>
<trkpt lat="49.78374" lon="9.17612"><ele>120</ele></trkpt>
<trkpt lat="49.78480" lon="9.17555"><ele>120</ele></trkpt>
<trkpt lat="49.78565" lon="9.17528"><ele>120</ele></trkpt>
<trkpt lat="49.78630" lon="9.17498"><ele>120</ele></trkpt>
<trkpt lat="49.78680" lon="9.17464"><ele>120</ele></trkpt>
<trkpt lat="49.78703" lon="9.17446"><ele>120</ele></trkpt>
<trkpt lat="49.78748" lon="9.17400"><ele>121</ele></trkpt>
<trkpt lat="49.78852" lon="9.17267"><ele>121</ele></trkpt>
<trkpt lat="49.78950" lon="9.17131"><ele>121</ele></trkpt>
<trkpt lat="49.79081" lon="9.16930"><ele>122</ele></trkpt>
<trkpt lat="49.79112" lon="9.16964"><ele>120</ele></trkpt>
<trkpt lat="49.79120" lon="9.16958"><ele>119</ele></trkpt>
<trkpt lat="49.79127" lon="9.16931"><ele>120</ele></trkpt>
<trkpt lat="49.79190" lon="9.16816"><ele>119</ele></trkpt>
<trkpt lat="49.79190" lon="9.16803"><ele>120</ele></trkpt>
<trkpt lat="49.79178" lon="9.16780"><ele>121</ele></trkpt>
<trkpt lat="49.79181" lon="9.16776"><ele>121</ele></trkpt>
<trkpt lat="49.79181" lon="9.16753"><ele>121</ele></trkpt>
<trkpt lat="49.79186" lon="9.16741"><ele>121</ele></trkpt>
<trkpt lat="49.79353" lon="9.16447"><ele>121</ele></trkpt>
<trkpt lat="49.79436" lon="9.16247"><ele>121</ele></trkpt>
<trkpt lat="49.79513" lon="9.16091"><ele>123</ele></trkpt>
<trkpt lat="49.79516" lon="9.16073"><ele>123</ele></trkpt>
<trkpt lat="49.79538" lon="9.16047"><ele>122</ele></trkpt>
<trkpt lat="49.79577" lon="9.15988"><ele>122</ele></trkpt>
<trkpt lat="49.79691" lon="9.15771"><ele>123</ele></trkpt>
<trkpt lat="49.79735" lon="9.15710"><ele>123</ele></trkpt>
<trkpt lat="49.79775" lon="9.15642"><ele>122</ele></trkpt>
<trkpt lat="49.79822" lon="9.15530"><ele>121</ele></trkpt>
<trkpt lat="49.79877" lon="9.15383"><ele>121</ele></trkpt>
<trkpt lat="49.79900" lon="9.15314"><ele>121</ele></trkpt>
<trkpt lat="49.79929" lon="9.15202"><ele>122</ele></trkpt>
<trkpt lat="49.80018" lon="9.15242"><ele>120</ele></trkpt>
<trkpt lat="49.80038" lon="9.15247"><ele>119</ele></trkpt>
<trkpt lat="49.80049" lon="9.15242"><ele>118</ele></trkpt>
<trkpt lat="49.80099" lon="9.15121"><ele>119</ele></trkpt>
<trkpt lat="49.80183" lon="9.14896"><ele>118</ele></trkpt>
<trkpt lat="49.80219" lon="9.14775"><ele>119</ele></trkpt>
<trkpt lat="49.80336" lon="9.14417"><ele>119</ele></trkpt>
<trkpt lat="49.80336" lon="9.14403"><ele>119</ele></trkpt>
<trkpt lat="49.80331" lon="9.14390"><ele>120</ele></trkpt>
<trkpt lat="49.80297" lon="9.14339"><ele>120</ele></trkpt>
<trkpt lat="49.80280" lon="9.14297"><ele>121</ele></trkpt>
<trkpt lat="49.80300" lon="9.14247"><ele>121</ele></trkpt>
<trkpt lat="49.80318" lon="9.14175"><ele>121</ele></trkpt>
<trkpt lat="49.80355" lon="9.14085"><ele>120</ele></trkpt>
<trkpt lat="49.80440" lon="9.13926"><ele>120</ele></trkpt>
<trkpt lat="49.80494" lon="9.13845"><ele>121</ele></trkpt>
<trkpt lat="49.80532" lon="9.13798"><ele>120</ele></trkpt>
<trkpt lat="49.80576" lon="9.13751"><ele>121</ele></trkpt>
<trkpt lat="49.80571" lon="9.13740"><ele>122</ele></trkpt>
<trkpt lat="49.80703" lon="9.13612"><ele>121</ele></trkpt>
<trkpt lat="49.80760" lon="9.13565"><ele>121</ele></trkpt>
<trkpt lat="49.80841" lon="9.13516"><ele>122</ele></trkpt>
<trkpt lat="49.80883" lon="9.13498"><ele>122</ele></trkpt>
<trkpt lat="49.80930" lon="9.13485"><ele>122</ele></trkpt>
<trkpt lat="49.80987" lon="9.13478"><ele>121</ele></trkpt>
<trkpt lat="49.81077" lon="9.13477"><ele>121</ele></trkpt>
<trkpt lat="49.81601" lon="9.13495"><ele>120</ele></trkpt>
<trkpt lat="49.81788" lon="9.13503"><ele>120</ele></trkpt>
<trkpt lat="49.81844" lon="9.13510"><ele>120</ele></trkpt>
<trkpt lat="49.81906" lon="9.13526"><ele>120</ele></trkpt>
<trkpt lat="49.81956" lon="9.13546"><ele>120</ele></trkpt>
<trkpt lat="49.82254" lon="9.13683"><ele>118</ele></trkpt>
<trkpt lat="49.82778" lon="9.13891"><ele>120</ele></trkpt>
<trkpt lat="49.82755" lon="9.13981"><ele>118</ele></trkpt>
<trkpt lat="49.82998" lon="9.14082"><ele>118</ele></trkpt>
<trkpt lat="49.83012" lon="9.14013"><ele>118</ele></trkpt>
<trkpt lat="49.83015" lon="9.14006"><ele>118</ele></trkpt>
<trkpt lat="49.83053" lon="9.14019"><ele>119</ele></trkpt>
<trkpt lat="49.83063" lon="9.14019"><ele>118</ele></trkpt>
<trkpt lat="49.83068" lon="9.14011"><ele>118</ele></trkpt>
<trkpt lat="49.83079" lon="9.13963"><ele>118</ele></trkpt>
<trkpt lat="49.83084" lon="9.13910"><ele>118</ele></trkpt>
<trkpt lat="49.83083" lon="9.13899"><ele>118</ele></trkpt>
<trkpt lat="49.83077" lon="9.13891"><ele>118</ele></trkpt>
<trkpt lat="49.83011" lon="9.13864"><ele>122</ele></trkpt>
<trkpt lat="49.82952" lon="9.13848"><ele>121</ele></trkpt>
<trkpt lat="49.82887" lon="9.13837"><ele>120</ele></trkpt>
<trkpt lat="49.82882" lon="9.13830"><ele>120</ele></trkpt>
<trkpt lat="49.82900" lon="9.13732"><ele>122</ele></trkpt>
<trkpt lat="49.82938" lon="9.13618"><ele>122</ele></trkpt>
<trkpt lat="49.82949" lon="9.13572"><ele>122</ele></trkpt>
<trkpt lat="49.82988" lon="9.13369"><ele>120</ele></trkpt>
<trkpt lat="49.82968" lon="9.13286"><ele>120</ele></trkpt>
<trkpt lat="49.82961" lon="9.13188"><ele>121</ele></trkpt>
<trkpt lat="49.82966" lon="9.13054"><ele>122</ele></trkpt>
<trkpt lat="49.82954" lon="9.12674"><ele>124</ele></trkpt>
<trkpt lat="49.82948" lon="9.12583"><ele>125</ele></trkpt>
<trkpt lat="49.82944" lon="9.12333"><ele>126</ele></trkpt>
<trkpt lat="49.82974" lon="9.12132"><ele>126</ele></trkpt>
<trkpt lat="49.82976" lon="9.12065"><ele>126</ele></trkpt>
<trkpt lat="49.82988" lon="9.12018"><ele>127</ele></trkpt>
<trkpt lat="49.83036" lon="9.11880"><ele>127</ele></trkpt>
<trkpt lat="49.83062" lon="9.11781"><ele>128</ele></trkpt>
<trkpt lat="49.83138" lon="9.11584"><ele>128</ele></trkpt>
<trkpt lat="49.83172" lon="9.11464"><ele>128</ele></trkpt>
<trkpt lat="49.83191" lon="9.11426"><ele>127</ele></trkpt>
<trkpt lat="49.83219" lon="9.11393"><ele>128</ele></trkpt>
<trkpt lat="49.83242" lon="9.11349"><ele>128</ele></trkpt>
<trkpt lat="49.83238" lon="9.11326"><ele>128</ele></trkpt>
<trkpt lat="49.83211" lon="9.11285"><ele>129</ele></trkpt>
<trkpt lat="49.83190" lon="9.11212"><ele>131</ele></trkpt>
<trkpt lat="49.83123" lon="9.11195"><ele>134</ele></trkpt>
<trkpt lat="49.83108" lon="9.11243"><ele>136</ele></trkpt>
<trkpt lat="49.83103" lon="9.11249"><ele>137</ele></trkpt>
<trkpt lat="49.83091" lon="9.11246"><ele>138</ele></trkpt>
<trkpt lat="49.83021" lon="9.11193"><ele>142</ele></trkpt>
<trkpt lat="49.82984" lon="9.11154"><ele>146</ele></trkpt>
<trkpt lat="49.82747" lon="9.10977"><ele>183</ele></trkpt>
<trkpt lat="49.82735" lon="9.10973"><ele>184</ele></trkpt>
<trkpt lat="49.82720" lon="9.10975"><ele>186</ele></trkpt>
<trkpt lat="49.82708" lon="9.10984"><ele>188</ele></trkpt>
<trkpt lat="49.82700" lon="9.10999"><ele>190</ele></trkpt>
<trkpt lat="49.82693" lon="9.11056"><ele>195</ele></trkpt>
<trkpt lat="49.82687" lon="9.11078"><ele>197</ele></trkpt>
<trkpt lat="49.82675" lon="9.11103"><ele>199</ele></trkpt>
<trkpt lat="49.82603" lon="9.11126"><ele>204</ele></trkpt>
<trkpt lat="49.82547" lon="9.11166"><ele>210</ele></trkpt>
<trkpt lat="49.82485" lon="9.11140"><ele>216</ele></trkpt>
<trkpt lat="49.82475" lon="9.11131"><ele>216</ele></trkpt>
<trkpt lat="49.82447" lon="9.11081"><ele>220</ele></trkpt>
<trkpt lat="49.82433" lon="9.11069"><ele>220</ele></trkpt>
<trkpt lat="49.82404" lon="9.11063"><ele>223</ele></trkpt>
<trkpt lat="49.82386" lon="9.11067"><ele>224</ele></trkpt>
<trkpt lat="49.82365" lon="9.11081"><ele>226</ele></trkpt>
<trkpt lat="49.82354" lon="9.11081"><ele>226</ele></trkpt>
<trkpt lat="49.82338" lon="9.11072"><ele>227</ele></trkpt>
<trkpt lat="49.82332" lon="9.11061"><ele>227</ele></trkpt>
<trkpt lat="49.82376" lon="9.11009"><ele>225</ele></trkpt>
<trkpt lat="49.82383" lon="9.10997"><ele>224</ele></trkpt>
<trkpt lat="49.82385" lon="9.10981"><ele>224</ele></trkpt>
<trkpt lat="49.82374" lon="9.10896"><ele>220</ele></trkpt>
<trkpt lat="49.82322" lon="9.10705"><ele>213</ele></trkpt>
<trkpt lat="49.82307" lon="9.10623"><ele>210</ele></trkpt>
<trkpt lat="49.82307" lon="9.10598"><ele>209</ele></trkpt>
<trkpt lat="49.82319" lon="9.10579"><ele>208</ele></trkpt>
<trkpt lat="49.82369" lon="9.10545"><ele>204</ele></trkpt>
<trkpt lat="49.82468" lon="9.10511"><ele>196</ele></trkpt>
<trkpt lat="49.82500" lon="9.10494"><ele>194</ele></trkpt>
<trkpt lat="49.82511" lon="9.10482"><ele>192</ele></trkpt>
<trkpt lat="49.82536" lon="9.10430"><ele>190</ele></trkpt>
<trkpt lat="49.82546" lon="9.10390"><ele>187</ele></trkpt>
<trkpt lat="49.82547" lon="9.10356"><ele>186</ele></trkpt>
<trkpt lat="49.82526" lon="9.10281"><ele>182</ele></trkpt>
<trkpt lat="49.82526" lon="9.10254"><ele>182</ele></trkpt>
<trkpt lat="49.82559" lon="9.10169"><ele>176</ele></trkpt>
<trkpt lat="49.82572" lon="9.10154"><ele>177</ele></trkpt>
<trkpt lat="49.82596" lon="9.10229"><ele>174</ele></trkpt>
<trkpt lat="49.82617" lon="9.10277"><ele>171</ele></trkpt>
<trkpt lat="49.82653" lon="9.10343"><ele>172</ele></trkpt>
<trkpt lat="49.82716" lon="9.10499"><ele>165</ele></trkpt>
<trkpt lat="49.82758" lon="9.10574"><ele>163</ele></trkpt>
<trkpt lat="49.82785" lon="9.10641"><ele>158</ele></trkpt>
<trkpt lat="49.82824" lon="9.10716"><ele>155</ele></trkpt>
<trkpt lat="49.82865" lon="9.10816"><ele>152</ele></trkpt>
<trkpt lat="49.82926" lon="9.10941"><ele>148</ele></trkpt>
<trkpt lat="49.82994" lon="9.11059"><ele>146</ele></trkpt>
<trkpt lat="49.83050" lon="9.11148"><ele>138</ele></trkpt>
<trkpt lat="49.83078" lon="9.11181"><ele>136</ele></trkpt>
<trkpt lat="49.83097" lon="9.11190"><ele>134</ele></trkpt>
<trkpt lat="49.83190" lon="9.11212"><ele>131</ele></trkpt>
<trkpt lat="49.83211" lon="9.11285"><ele>129</ele></trkpt>
<trkpt lat="49.83238" lon="9.11326"><ele>128</ele></trkpt>
<trkpt lat="49.83242" lon="9.11349"><ele>128</ele></trkpt>
<trkpt lat="49.83230" lon="9.11375"><ele>128</ele></trkpt>
<trkpt lat="49.83206" lon="9.11409"><ele>127</ele></trkpt>
<trkpt lat="49.83210" lon="9.11450"><ele>127</ele></trkpt>
<trkpt lat="49.83208" lon="9.11552"><ele>126</ele></trkpt>
<trkpt lat="49.83202" lon="9.11576"><ele>126</ele></trkpt>
<trkpt lat="49.83183" lon="9.11620"><ele>125</ele></trkpt>
<trkpt lat="49.83263" lon="9.11689"><ele>124</ele></trkpt>
<trkpt lat="49.83271" lon="9.11700"><ele>125</ele></trkpt>
<trkpt lat="49.83272" lon="9.11704"><ele>125</ele></trkpt>
<trkpt lat="49.83261" lon="9.11729"><ele>125</ele></trkpt>
<trkpt lat="49.83256" lon="9.11752"><ele>125</ele></trkpt>
<trkpt lat="49.83253" lon="9.11789"><ele>125</ele></trkpt>
<trkpt lat="49.83261" lon="9.11926"><ele>125</ele></trkpt>
<trkpt lat="49.83270" lon="9.12009"><ele>125</ele></trkpt>
<trkpt lat="49.83286" lon="9.12063"><ele>124</ele></trkpt>
<trkpt lat="49.83301" lon="9.12094"><ele>124</ele></trkpt>
<trkpt lat="49.83321" lon="9.12115"><ele>124</ele></trkpt>
<trkpt lat="49.83360" lon="9.12143"><ele>125</ele></trkpt>
<trkpt lat="49.83326" lon="9.12208"><ele>124</ele></trkpt>
<trkpt lat="49.83309" lon="9.12266"><ele>124</ele></trkpt>
<trkpt lat="49.83303" lon="9.12302"><ele>124</ele></trkpt>
<trkpt lat="49.83280" lon="9.12645"><ele>124</ele></trkpt>
<trkpt lat="49.83272" lon="9.12731"><ele>124</ele></trkpt>
<trkpt lat="49.83397" lon="9.12762"><ele>128</ele></trkpt>
<trkpt lat="49.83377" lon="9.12878"><ele>126</ele></trkpt>
<trkpt lat="49.83358" lon="9.12972"><ele>125</ele></trkpt>
<trkpt lat="49.83343" lon="9.13019"><ele>126</ele></trkpt>
<trkpt lat="49.83291" lon="9.13147"><ele>124</ele></trkpt>
<trkpt lat="49.83274" lon="9.13229"><ele>123</ele></trkpt>
<trkpt lat="49.83265" lon="9.13300"><ele>122</ele></trkpt>
<trkpt lat="49.83253" lon="9.13470"><ele>124</ele></trkpt>
<trkpt lat="49.83237" lon="9.13547"><ele>124</ele></trkpt>
<trkpt lat="49.83220" lon="9.13663"><ele>126</ele></trkpt>
<trkpt lat="49.83221" lon="9.13704"><ele>124</ele></trkpt>
<trkpt lat="49.83231" lon="9.13807"><ele>124</ele></trkpt>
<trkpt lat="49.83243" lon="9.13846"><ele>123</ele></trkpt>
<trkpt lat="49.83267" lon="9.13881"><ele>124</ele></trkpt>
<trkpt lat="49.83285" lon="9.13921"><ele>123</ele></trkpt>
<trkpt lat="49.83379" lon="9.14052"><ele>122</ele></trkpt>
<trkpt lat="49.83434" lon="9.14112"><ele>123</ele></trkpt>
<trkpt lat="49.83561" lon="9.14230"><ele>124</ele></trkpt>
<trkpt lat="49.83535" lon="9.14299"><ele>121</ele></trkpt>
<trkpt lat="49.83532" lon="9.14337"><ele>121</ele></trkpt>
<trkpt lat="49.83541" lon="9.14376"><ele>120</ele></trkpt>
<trkpt lat="49.83558" lon="9.14404"><ele>121</ele></trkpt>
<trkpt lat="49.83582" lon="9.14431"><ele>121</ele></trkpt>
<trkpt lat="49.83631" lon="9.14477"><ele>121</ele></trkpt>
<trkpt lat="49.83695" lon="9.14531"><ele>121</ele></trkpt>
<trkpt lat="49.83715" lon="9.14544"><ele>122</ele></trkpt>
<trkpt lat="49.83739" lon="9.14568"><ele>122</ele></trkpt>
<trkpt lat="49.83758" lon="9.14659"><ele>119</ele></trkpt>
<trkpt lat="49.83774" lon="9.14689"><ele>119</ele></trkpt>
<trkpt lat="49.83812" lon="9.14727"><ele>119</ele></trkpt>
<trkpt lat="49.83852" lon="9.14756"><ele>119</ele></trkpt>
<trkpt lat="49.83814" lon="9.14836"><ele>118</ele></trkpt>
<trkpt lat="49.83861" lon="9.14865"><ele>118</ele></trkpt>
<trkpt lat="49.83879" lon="9.14884"><ele>118</ele></trkpt>
<trkpt lat="49.83954" lon="9.14938"><ele>118</ele></trkpt>
<trkpt lat="49.84034" lon="9.14982"><ele>118</ele></trkpt>
<trkpt lat="49.84117" lon="9.15035"><ele>118</ele></trkpt>
<trkpt lat="49.84174" lon="9.15061"><ele>118</ele></trkpt>
<trkpt lat="49.84216" lon="9.15089"><ele>118</ele></trkpt>
<trkpt lat="49.84431" lon="9.15165"><ele>118</ele></trkpt>
<trkpt lat="49.84452" lon="9.15179"><ele>118</ele></trkpt>
<trkpt lat="49.84463" lon="9.15210"><ele>118</ele></trkpt>
<trkpt lat="49.84486" lon="9.15219"><ele>118</ele></trkpt>
<trkpt lat="49.84522" lon="9.15209"><ele>118</ele></trkpt>
<trkpt lat="49.84541" lon="9.15209"><ele>119</ele></trkpt>
<trkpt lat="49.84585" lon="9.15221"><ele>118</ele></trkpt>
<trkpt lat="49.84674" lon="9.15252"><ele>118</ele></trkpt>
<trkpt lat="49.85095" lon="9.15379"><ele>118</ele></trkpt>
<trkpt lat="49.85699" lon="9.15552"><ele>117</ele></trkpt>
<trkpt lat="49.85716" lon="9.15559"><ele>118</ele></trkpt>
<trkpt lat="49.85772" lon="9.15603"><ele>117</ele></trkpt>
<trkpt lat="49.85865" lon="9.15629"><ele>117</ele></trkpt>
<trkpt lat="49.85965" lon="9.15642"><ele>117</ele></trkpt>
<trkpt lat="49.85992" lon="9.15626"><ele>118</ele></trkpt>
<trkpt lat="49.86003" lon="9.15624"><ele>118</ele></trkpt>
<trkpt lat="49.86080" lon="9.15624"><ele>118</ele></trkpt>
<trkpt lat="49.86161" lon="9.15617"><ele>118</ele></trkpt>
<trkpt lat="49.86227" lon="9.15603"><ele>120</ele></trkpt>
<trkpt lat="49.86273" lon="9.15688"><ele>116</ele></trkpt>
<trkpt lat="49.86309" lon="9.15710"><ele>117</ele></trkpt>
<trkpt lat="49.86316" lon="9.15704"><ele>117</ele></trkpt>
<trkpt lat="49.86323" lon="9.15706"><ele>117</ele></trkpt>
<trkpt lat="49.86328" lon="9.15713"><ele>116</ele></trkpt>
<trkpt lat="49.86794" lon="9.15830"><ele>116</ele></trkpt>
<trkpt lat="49.86973" lon="9.15844"><ele>116</ele></trkpt>
<trkpt lat="49.87353" lon="9.15901"><ele>116</ele></trkpt>
<trkpt lat="49.87435" lon="9.15948"><ele>116</ele></trkpt>
<trkpt lat="49.87571" lon="9.15988"><ele>117</ele></trkpt>
<trkpt lat="49.87633" lon="9.16016"><ele>117</ele></trkpt>
<trkpt lat="49.87651" lon="9.16028"><ele>117</ele></trkpt>
<trkpt lat="49.87663" lon="9.16045"><ele>116</ele></trkpt>
<trkpt lat="49.87674" lon="9.16053"><ele>116</ele></trkpt>
<trkpt lat="49.87783" lon="9.16105"><ele>116</ele></trkpt>
<trkpt lat="49.88020" lon="9.16245"><ele>116</ele></trkpt>
<trkpt lat="49.88087" lon="9.16096"><ele>120</ele></trkpt>
<trkpt lat="49.88093" lon="9.16091"><ele>120</ele></trkpt>
<trkpt lat="49.88217" lon="9.16085"><ele>120</ele></trkpt>
<trkpt lat="49.88287" lon="9.16093"><ele>120</ele></trkpt>
<trkpt lat="49.88287" lon="9.16100"><ele>120</ele></trkpt>
<trkpt lat="49.88419" lon="9.16091"><ele>120</ele></trkpt>
<trkpt lat="49.88550" lon="9.16091"><ele>120</ele></trkpt>
<trkpt lat="49.88513" lon="9.15654"><ele>120</ele></trkpt>
<trkpt lat="49.88693" lon="9.15620"><ele>118</ele></trkpt>
<trkpt lat="49.88757" lon="9.15603"><ele>119</ele></trkpt>
<trkpt lat="49.88839" lon="9.15550"><ele>119</ele></trkpt>
<trkpt lat="49.89004" lon="9.15417"><ele>118</ele></trkpt>
<trkpt lat="49.89174" lon="9.15324"><ele>118</ele></trkpt>
<trkpt lat="49.89207" lon="9.15289"><ele>118</ele></trkpt>
<trkpt lat="49.89297" lon="9.15163"><ele>118</ele></trkpt>
<trkpt lat="49.89334" lon="9.15131"><ele>118</ele></trkpt>
<trkpt lat="49.89377" lon="9.15109"><ele>117</ele></trkpt>
<trkpt lat="49.89412" lon="9.15155"><ele>116</ele></trkpt>
<trkpt lat="49.89476" lon="9.15034"><ele>116</ele></trkpt>
<trkpt lat="49.89455" lon="9.14985"><ele>118</ele></trkpt>
<trkpt lat="49.89411" lon="9.14916"><ele>118</ele></trkpt>
<trkpt lat="49.89395" lon="9.14878"><ele>118</ele></trkpt>
<trkpt lat="49.89387" lon="9.14882"><ele>118</ele></trkpt>
<trkpt lat="49.89385" lon="9.14892"><ele>118</ele></trkpt>
<trkpt lat="49.89413" lon="9.14964"><ele>120</ele></trkpt>
<trkpt lat="49.89440" lon="9.15012"><ele>119</ele></trkpt>
<trkpt lat="49.89676" lon="9.15296"><ele>117</ele></trkpt>
<trkpt lat="49.89691" lon="9.15333"><ele>120</ele></trkpt>
<trkpt lat="49.89702" lon="9.15319"><ele>119</ele></trkpt>
<trkpt lat="49.89706" lon="9.15324"><ele>119</ele></trkpt>
<trkpt lat="49.89720" lon="9.15330"><ele>119</ele></trkpt>
<trkpt lat="49.89734" lon="9.15344"><ele>119</ele></trkpt>
<trkpt lat="49.89746" lon="9.15339"><ele>120</ele></trkpt>
<trkpt lat="49.89777" lon="9.15311"><ele>119</ele></trkpt>
<trkpt lat="49.89954" lon="9.15141"><ele>119</ele></trkpt>
<trkpt lat="49.89987" lon="9.15116"><ele>119</ele></trkpt>
<trkpt lat="49.90023" lon="9.15095"><ele>119</ele></trkpt>
<trkpt lat="49.90134" lon="9.15052"><ele>118</ele></trkpt>
<trkpt lat="49.90321" lon="9.15002"><ele>118</ele></trkpt>
<trkpt lat="49.90406" lon="9.14966"><ele>118</ele></trkpt>
<trkpt lat="49.90438" lon="9.14964"><ele>118</ele></trkpt>
<trkpt lat="49.90454" lon="9.14977"><ele>118</ele></trkpt>
<trkpt lat="49.90465" lon="9.14952"><ele>118</ele></trkpt>
<trkpt lat="49.90489" lon="9.14945"><ele>117</ele></trkpt>
<trkpt lat="49.90521" lon="9.14961"><ele>118</ele></trkpt>
<trkpt lat="49.90547" lon="9.14959"><ele>118</ele></trkpt>
<trkpt lat="49.91095" lon="9.14797"><ele>116</ele></trkpt>
<trkpt lat="49.91103" lon="9.14790"><ele>116</ele></trkpt>
<trkpt lat="49.91120" lon="9.14762"><ele>115</ele></trkpt>
<trkpt lat="49.91125" lon="9.14759"><ele>115</ele></trkpt>
<trkpt lat="49.91133" lon="9.14763"><ele>115</ele></trkpt>
<trkpt lat="49.91135" lon="9.14773"><ele>115</ele></trkpt>
<trkpt lat="49.91151" lon="9.14769"><ele>116</ele></trkpt>
<trkpt lat="49.91182" lon="9.14743"><ele>115</ele></trkpt>
<trkpt lat="49.91212" lon="9.14728"><ele>115</ele></trkpt>
<trkpt lat="49.91268" lon="9.14674"><ele>114</ele></trkpt>
<trkpt lat="49.91328" lon="9.14634"><ele>114</ele></trkpt>
<trkpt lat="49.91407" lon="9.14569"><ele>113</ele></trkpt>
<trkpt lat="49.91438" lon="9.14550"><ele>114</ele></trkpt>
<trkpt lat="49.91457" lon="9.14552"><ele>114</ele></trkpt>
<trkpt lat="49.91497" lon="9.14577"><ele>114</ele></trkpt>
<trkpt lat="49.91560" lon="9.14597"><ele>114</ele></trkpt>
<trkpt lat="49.91582" lon="9.14571"><ele>114</ele></trkpt>
<trkpt lat="49.91591" lon="9.14528"><ele>114</ele></trkpt>
<trkpt lat="49.91734" lon="9.14535"><ele>113</ele></trkpt>
<trkpt lat="49.91816" lon="9.14532"><ele>113</ele></trkpt>
<trkpt lat="49.91997" lon="9.14512"><ele>113</ele></trkpt>
<trkpt lat="49.92002" lon="9.14515"><ele>113</ele></trkpt>
<trkpt lat="49.92009" lon="9.14527"><ele>113</ele></trkpt>
<trkpt lat="49.92021" lon="9.14575"><ele>114</ele></trkpt>
<trkpt lat="49.92029" lon="9.14589"><ele>114</ele></trkpt>
<trkpt lat="49.92065" lon="9.14609"><ele>117</ele></trkpt>
<trkpt lat="49.92090" lon="9.14607"><ele>118</ele></trkpt>
<trkpt lat="49.92166" lon="9.14591"><ele>120</ele></trkpt>
<trkpt lat="49.92280" lon="9.14547"><ele>120</ele></trkpt>
<trkpt lat="49.92346" lon="9.14516"><ele>120</ele></trkpt>
<trkpt lat="49.92399" lon="9.14486"><ele>121</ele></trkpt>
<trkpt lat="49.92524" lon="9.14405"><ele>119</ele></trkpt>
<trkpt lat="49.92607" lon="9.14325"><ele>117</ele></trkpt>
<trkpt lat="49.92713" lon="9.14239"><ele>120</ele></trkpt>
<trkpt lat="49.92829" lon="9.14136"><ele>119</ele></trkpt>
<trkpt lat="49.92888" lon="9.14076"><ele>119</ele></trkpt>
<trkpt lat="49.92951" lon="9.14022"><ele>119</ele></trkpt>
<trkpt lat="49.93009" lon="9.13965"><ele>119</ele></trkpt>
<trkpt lat="49.93033" lon="9.13920"><ele>119</ele></trkpt>
<trkpt lat="49.93097" lon="9.13856"><ele>120</ele></trkpt>
<trkpt lat="49.93103" lon="9.13856"><ele>119</ele></trkpt>
<trkpt lat="49.93210" lon="9.13710"><ele>120</ele></trkpt>
<trkpt lat="49.93403" lon="9.13379"><ele>120</ele></trkpt>
<trkpt lat="49.93603" lon="9.13175"><ele>119</ele></trkpt>
<trkpt lat="49.93615" lon="9.13158"><ele>119</ele></trkpt>
<trkpt lat="49.93793" lon="9.13609"><ele>120</ele></trkpt>
<trkpt lat="49.93851" lon="9.13555"><ele>119</ele></trkpt>
<trkpt lat="49.93893" lon="9.13503"><ele>119</ele></trkpt>
<trkpt lat="49.93920" lon="9.13575"><ele>120</ele></trkpt>
<trkpt lat="49.93978" lon="9.13488"><ele>119</ele></trkpt>
<trkpt lat="49.94048" lon="9.13361"><ele>119</ele></trkpt>
<trkpt lat="49.94105" lon="9.13284"><ele>118</ele></trkpt>
<trkpt lat="49.94140" lon="9.13259"><ele>118</ele></trkpt>
<trkpt lat="49.94321" lon="9.13192"><ele>119</ele></trkpt>
<trkpt lat="49.94408" lon="9.13190"><ele>119</ele></trkpt>
<trkpt lat="49.94432" lon="9.13186"><ele>118</ele></trkpt>
<trkpt lat="49.94474" lon="9.13161"><ele>118</ele></trkpt>
<trkpt lat="49.94515" lon="9.13112"><ele>117</ele></trkpt>
<trkpt lat="49.94523" lon="9.13095"><ele>118</ele></trkpt>
<trkpt lat="49.94538" lon="9.13078"><ele>118</ele></trkpt>
<trkpt lat="49.94843" lon="9.12952"><ele>120</ele></trkpt>
<trkpt lat="49.94861" lon="9.12954"><ele>120</ele></trkpt>
<trkpt lat="49.94934" lon="9.12932"><ele>118</ele></trkpt>
<trkpt lat="49.94959" lon="9.12914"><ele>118</ele></trkpt>
<trkpt lat="49.94995" lon="9.12896"><ele>118</ele></trkpt>
<trkpt lat="49.95035" lon="9.12883"><ele>118</ele></trkpt>
<trkpt lat="49.95061" lon="9.12880"><ele>118</ele></trkpt>
<trkpt lat="49.95098" lon="9.12883"><ele>118</ele></trkpt>
<trkpt lat="49.95223" lon="9.12841"><ele>123</ele></trkpt>
<trkpt lat="49.95249" lon="9.12837"><ele>124</ele></trkpt>
<trkpt lat="49.95284" lon="9.12839"><ele>124</ele></trkpt>
<trkpt lat="49.95361" lon="9.12855"><ele>126</ele></trkpt>
<trkpt lat="49.95396" lon="9.12871"><ele>127</ele></trkpt>
<trkpt lat="49.95447" lon="9.12905"><ele>127</ele></trkpt>
<trkpt lat="49.95512" lon="9.12953"><ele>126</ele></trkpt>
<trkpt lat="49.95629" lon="9.13061"><ele>126</ele></trkpt>
<trkpt lat="49.95670" lon="9.13112"><ele>127</ele></trkpt>
<trkpt lat="49.95680" lon="9.13135"><ele>127</ele></trkpt>
<trkpt lat="49.95720" lon="9.13182"><ele>127</ele></trkpt>
<trkpt lat="49.95719" lon="9.13178"><ele>127</ele></trkpt>
<trkpt lat="49.95728" lon="9.13164"><ele>126</ele></trkpt>
<trkpt lat="49.95734" lon="9.13169"><ele>126</ele></trkpt>
<trkpt lat="49.95748" lon="9.13170"><ele>126</ele></trkpt>
<trkpt lat="49.95757" lon="9.13157"><ele>123</ele></trkpt>
<trkpt lat="49.95817" lon="9.13208"><ele>123</ele></trkpt>
<trkpt lat="49.95884" lon="9.13218"><ele>120</ele></trkpt>
<trkpt lat="49.95946" lon="9.13233"><ele>119</ele></trkpt>
<trkpt lat="49.95999" lon="9.13251"><ele>117</ele></trkpt>
<trkpt lat="49.96035" lon="9.13272"><ele>113</ele></trkpt>
<trkpt lat="49.96200" lon="9.13400"><ele>111</ele></trkpt>
<trkpt lat="49.96328" lon="9.13574"><ele>110</ele></trkpt>
<trkpt lat="49.96442" lon="9.13705"><ele>111</ele></trkpt>
<trkpt lat="49.96527" lon="9.13789"><ele>110</ele></trkpt>
<trkpt lat="49.96642" lon="9.13890"><ele>111</ele></trkpt>
<trkpt lat="49.96672" lon="9.13920"><ele>110</ele></trkpt>
<trkpt lat="49.96676" lon="9.13929"><ele>110</ele></trkpt>
<trkpt lat="49.96734" lon="9.13978"><ele>110</ele></trkpt>
<trkpt lat="49.96771" lon="9.14000"><ele>111</ele></trkpt>
<trkpt lat="49.96791" lon="9.14001"><ele>110</ele></trkpt>
<trkpt lat="49.96954" lon="9.14091"><ele>110</ele></trkpt>
<trkpt lat="49.96946" lon="9.14126"><ele>111</ele></trkpt>
<trkpt lat="49.96952" lon="9.14132"><ele>112</ele></trkpt>
<trkpt lat="49.96959" lon="9.14128"><ele>111</ele></trkpt>
<trkpt lat="49.96971" lon="9.14130"><ele>111</ele></trkpt>
<trkpt lat="49.97057" lon="9.14162"><ele>111</ele></trkpt>
<trkpt lat="49.97117" lon="9.14168"><ele>112</ele></trkpt>
<trkpt lat="49.97118" lon="9.14189"><ele>112</ele></trkpt>
<trkpt lat="49.97123" lon="9.14205"><ele>112</ele></trkpt>
<trkpt lat="49.97157" lon="9.14232"><ele>114</ele></trkpt>
<trkpt lat="49.97167" lon="9.14257"><ele>115</ele></trkpt>
<trkpt lat="49.97163" lon="9.14301"><ele>113</ele></trkpt>
<trkpt lat="49.97162" lon="9.14343"><ele>114</ele></trkpt>
<trkpt lat="49.97167" lon="9.14400"><ele>114</ele></trkpt>
<trkpt lat="49.97177" lon="9.14441"><ele>118</ele></trkpt>
<trkpt lat="49.97282" lon="9.14649"><ele>118</ele></trkpt>
<trkpt lat="49.97320" lon="9.14713"><ele>123</ele></trkpt>
<trkpt lat="49.97358" lon="9.14763"><ele>124</ele></trkpt>
<trkpt lat="49.97358" lon="9.14778"><ele>125</ele></trkpt>
<trkpt lat="49.97363" lon="9.14783"><ele>125</ele></trkpt>
<trkpt lat="49.97370" lon="9.14781"><ele>125</ele></trkpt>
<trkpt lat="49.97374" lon="9.14773"><ele>125</ele></trkpt>
<trkpt lat="49.97372" lon="9.14762"><ele>124</ele></trkpt>
<trkpt lat="49.97406" lon="9.14729"><ele>125</ele></trkpt>
<trkpt lat="49.97437" lon="9.14684"><ele>127</ele></trkpt>
<trkpt lat="49.97503" lon="9.14544"><ele>125</ele></trkpt>
<trkpt lat="49.97516" lon="9.14530"><ele>126</ele></trkpt>
<trkpt lat="49.97579" lon="9.14413"><ele>129</ele></trkpt>
<trkpt lat="49.97575" lon="9.14388"><ele>130</ele></trkpt>
<trkpt lat="49.97587" lon="9.14316"><ele>130</ele></trkpt>
<trkpt lat="49.97580" lon="9.14276"><ele>131</ele></trkpt>
<trkpt lat="49.97554" lon="9.14220"><ele>130</ele></trkpt>
<trkpt lat="49.97531" lon="9.14220"><ele>130</ele></trkpt>
<trkpt lat="49.97527" lon="9.14210"><ele>128</ele></trkpt>
<trkpt lat="49.97498" lon="9.14220"><ele>129</ele></trkpt>
<trkpt lat="49.97492" lon="9.14166"><ele>116</ele></trkpt>
<trkpt lat="49.97513" lon="9.14153"><ele>116</ele></trkpt>
<trkpt lat="49.97615" lon="9.14040"><ele>117</ele></trkpt>
<trkpt lat="49.97660" lon="9.14011"><ele>112</ele></trkpt>
<trkpt lat="49.97645" lon="9.13969"><ele>110</ele></trkpt>
<trkpt lat="49.97654" lon="9.13953"><ele>110</ele></trkpt>
<trkpt lat="49.97678" lon="9.13871"><ele>111</ele></trkpt>
<trkpt lat="49.97681" lon="9.13846"><ele>110</ele></trkpt>
<trkpt lat="49.97681" lon="9.13759"><ele>110</ele></trkpt>
<trkpt lat="49.97702" lon="9.13660"><ele>112</ele></trkpt>
<trkpt lat="49.97705" lon="9.13630"><ele>112</ele></trkpt>
<trkpt lat="49.97724" lon="9.13526"><ele>111</ele></trkpt>
<trkpt lat="49.97769" lon="9.13410"><ele>113</ele></trkpt>
<trkpt lat="49.97788" lon="9.13351"><ele>113</ele></trkpt>
<trkpt lat="49.97801" lon="9.13298"><ele>113</ele></trkpt>
<trkpt lat="49.97810" lon="9.13244"><ele>112</ele></trkpt>
<trkpt lat="49.97813" lon="9.13192"><ele>113</ele></trkpt>
<trkpt lat="49.97837" lon="9.13084"><ele>111</ele></trkpt>
<trkpt lat="49.97837" lon="9.13068"><ele>111</ele></trkpt>
<trkpt lat="49.97820" lon="9.13042"><ele>110</ele></trkpt>
<trkpt lat="49.97835" lon="9.12852"><ele>110</ele></trkpt>
<trkpt lat="49.97848" lon="9.12786"><ele>110</ele></trkpt>
<trkpt lat="49.97851" lon="9.12703"><ele>110</ele></trkpt>
<trkpt lat="49.97866" lon="9.12483"><ele>110</ele></trkpt>
<trkpt lat="49.97872" lon="9.12343"><ele>110</ele></trkpt>
<trkpt lat="49.97869" lon="9.12225"><ele>110</ele></trkpt>
<trkpt lat="49.97864" lon="9.12116"><ele>110</ele></trkpt>
<trkpt lat="49.97847" lon="9.11951"><ele>110</ele></trkpt>
<trkpt lat="49.97836" lon="9.11878"><ele>110</ele></trkpt>
<trkpt lat="49.97836" lon="9.11816"><ele>110</ele></trkpt>
<trkpt lat="49.97832" lon="9.11787"><ele>110</ele></trkpt>
<trkpt lat="49.97801" lon="9.11649"><ele>110</ele></trkpt>
<trkpt lat="49.97796" lon="9.11601"><ele>111</ele></trkpt>
<trkpt lat="49.97801" lon="9.11575"><ele>112</ele></trkpt>
<trkpt lat="49.97773" lon="9.11520"><ele>110</ele></trkpt>
<trkpt lat="49.97698" lon="9.11224"><ele>110</ele></trkpt>
<trkpt lat="49.97696" lon="9.11205"><ele>110</ele></trkpt>
<trkpt lat="49.97703" lon="9.11117"><ele>110</ele></trkpt>
<trkpt lat="49.97700" lon="9.11103"><ele>110</ele></trkpt>
<trkpt lat="49.97686" lon="9.11079"><ele>110</ele></trkpt>
<trkpt lat="49.97639" lon="9.11013"><ele>110</ele></trkpt>
<trkpt lat="49.97616" lon="9.10988"><ele>110</ele></trkpt>
<trkpt lat="49.97576" lon="9.10909"><ele>110</ele></trkpt>
<trkpt lat="49.97558" lon="9.10855"><ele>110</ele></trkpt>
<trkpt lat="49.97510" lon="9.10674"><ele>109</ele></trkpt>
<trkpt lat="49.97507" lon="9.10650"><ele>110</ele></trkpt>
<trkpt lat="49.97509" lon="9.10623"><ele>110</ele></trkpt>
<trkpt lat="49.97523" lon="9.10547"><ele>110</ele></trkpt>
<trkpt lat="49.97524" lon="9.10519"><ele>110</ele></trkpt>
<trkpt lat="49.97483" lon="9.10420"><ele>110</ele></trkpt>
<trkpt lat="49.97466" lon="9.10346"><ele>110</ele></trkpt>
<trkpt lat="49.97461" lon="9.10300"><ele>110</ele></trkpt>
<trkpt lat="49.97425" lon="9.09803"><ele>110</ele></trkpt>
<trkpt lat="49.97415" lon="9.09615"><ele>111</ele></trkpt>
<trkpt lat="49.97423" lon="9.09367"><ele>110</ele></trkpt>
<trkpt lat="49.97418" lon="9.09306"><ele>110</ele></trkpt>
<trkpt lat="49.97405" lon="9.09268"><ele>110</ele></trkpt>
<trkpt lat="49.97407" lon="9.09255"><ele>110</ele></trkpt>
<trkpt lat="49.97417" lon="9.09238"><ele>110</ele></trkpt>
<trkpt lat="49.97451" lon="9.09205"><ele>110</ele></trkpt>
<trkpt lat="49.97464" lon="9.09180"><ele>110</ele></trkpt>
<trkpt lat="49.97475" lon="9.09143"><ele>110</ele></trkpt>
<trkpt lat="49.97492" lon="9.09061"><ele>110</ele></trkpt>
<trkpt lat="49.97534" lon="9.08898"><ele>109</ele></trkpt>
<trkpt lat="49.97559" lon="9.08849"><ele>110</ele></trkpt>
<trkpt lat="49.97572" lon="9.08798"><ele>110</ele></trkpt>
<trkpt lat="49.97597" lon="9.08733"><ele>110</ele></trkpt>
<trkpt lat="49.97614" lon="9.08661"><ele>110</ele></trkpt>
<trkpt lat="49.97615" lon="9.08631"><ele>110</ele></trkpt>
<trkpt lat="49.97648" lon="9.08457"><ele>110</ele></trkpt>
<trkpt lat="49.97714" lon="9.08463"><ele>114</ele></trkpt>
<trkpt lat="49.97753" lon="9.08476"><ele>114</ele></trkpt>
<trkpt lat="49.97761" lon="9.08387"><ele>114</ele></trkpt>
<trkpt lat="49.97770" lon="9.08328"><ele>114</ele></trkpt>
<trkpt lat="49.97806" lon="9.08188"><ele>115</ele></trkpt>
<trkpt lat="49.97864" lon="9.07919"><ele>114</ele></trkpt>
<trkpt lat="49.97869" lon="9.07867"><ele>113</ele></trkpt>
<trkpt lat="49.97916" lon="9.07693"><ele>112</ele></trkpt>
<trkpt lat="49.97937" lon="9.07631"><ele>112</ele></trkpt>
<trkpt lat="49.97966" lon="9.07554"><ele>112</ele></trkpt>
<trkpt lat="49.97999" lon="9.07485"><ele>113</ele></trkpt>
<trkpt lat="49.98154" lon="9.07190"><ele>114</ele></trkpt>
<trkpt lat="49.98359" lon="9.06970"><ele>113</ele></trkpt>
<trkpt lat="49.98419" lon="9.06901"><ele>113</ele></trkpt>
<trkpt lat="49.98434" lon="9.06877"><ele>113</ele></trkpt>
<trkpt lat="49.98587" lon="9.06704"><ele>112</ele></trkpt>
<trkpt lat="49.98634" lon="9.06668"><ele>112</ele></trkpt>
<trkpt lat="49.98826" lon="9.06604"><ele>111</ele></trkpt>
<trkpt lat="49.99238" lon="9.06503"><ele>111</ele></trkpt>
<trkpt lat="49.99250" lon="9.06504"><ele>111</ele></trkpt>
<trkpt lat="49.99264" lon="9.06513"><ele>111</ele></trkpt>
<trkpt lat="49.99291" lon="9.06486"><ele>110</ele></trkpt>
<trkpt lat="49.99324" lon="9.06470"><ele>110</ele></trkpt>
<trkpt lat="49.99422" lon="9.06440"><ele>110</ele></trkpt>
<trkpt lat="49.99536" lon="9.06390"><ele>110</ele></trkpt>
<trkpt lat="49.99569" lon="9.06380"><ele>110</ele></trkpt>
<trkpt lat="49.99580" lon="9.06371"><ele>110</ele></trkpt>
<trkpt lat="49.99670" lon="9.06286"><ele>109</ele></trkpt>
<trkpt lat="49.99764" lon="9.06207"><ele>110</ele></trkpt>
<trkpt lat="49.99805" lon="9.06157"><ele>110</ele></trkpt>
<trkpt lat="49.99860" lon="9.06107"><ele>110</ele></trkpt>
<trkpt lat="49.99879" lon="9.06100"><ele>110</ele></trkpt>
<trkpt lat="49.99904" lon="9.06084"><ele>110</ele></trkpt>
<trkpt lat="49.99939" lon="9.06036"><ele>110</ele></trkpt>
<trkpt lat="49.99973" lon="9.06035"><ele>110</ele></trkpt>
<trkpt lat="50.00012" lon="9.06001"><ele>110</ele></trkpt>
<trkpt lat="50.00014" lon="9.06011"><ele>110</ele></trkpt>
<trkpt lat="50.00058" lon="9.05975"><ele>111</ele></trkpt>
<trkpt lat="50.00052" lon="9.05958"><ele>110</ele></trkpt>
<trkpt lat="50.00176" lon="9.05843"><ele>110</ele></trkpt>
<trkpt lat="50.00213" lon="9.05799"><ele>110</ele></trkpt>
<trkpt lat="50.00262" lon="9.05730"><ele>111</ele></trkpt>
<trkpt lat="50.00271" lon="9.05700"><ele>110</ele></trkpt>
<trkpt lat="50.00290" lon="9.05681"><ele>110</ele></trkpt>
<trkpt lat="50.00339" lon="9.05602"><ele>110</ele></trkpt>
<trkpt lat="50.00420" lon="9.05456"><ele>110</ele></trkpt>
<trkpt lat="50.00495" lon="9.05311"><ele>110</ele></trkpt>
<trkpt lat="50.00521" lon="9.05272"><ele>111</ele></trkpt>
<trkpt lat="50.00532" lon="9.05274"><ele>112</ele></trkpt>
<trkpt lat="50.00596" lon="9.05358"><ele>114</ele></trkpt>
<trkpt lat="50.00675" lon="9.05193"><ele>113</ele></trkpt>
<trkpt lat="50.00793" lon="9.04958"><ele>112</ele></trkpt>
<trkpt lat="50.00817" lon="9.04896"><ele>113</ele></trkpt>
<trkpt lat="50.00837" lon="9.04824"><ele>113</ele></trkpt>
<trkpt lat="50.01014" lon="9.05100"><ele>114</ele></trkpt>
<trkpt lat="50.01041" lon="9.05092"><ele>113</ele></trkpt>
<trkpt lat="50.01059" lon="9.05073"><ele>113</ele></trkpt>
<trkpt lat="50.01188" lon="9.04886"><ele>112</ele></trkpt>
<trkpt lat="50.01238" lon="9.04822"><ele>112</ele></trkpt>
<trkpt lat="50.01250" lon="9.04801"><ele>112</ele></trkpt>
<trkpt lat="50.01313" lon="9.04642"><ele>112</ele></trkpt>
<trkpt lat="50.01345" lon="9.04549"><ele>112</ele></trkpt>
<trkpt lat="50.01385" lon="9.04458"><ele>112</ele></trkpt>
<trkpt lat="50.01415" lon="9.04432"><ele>111</ele></trkpt>
<trkpt lat="50.01534" lon="9.04379"><ele>112</ele></trkpt>
<trkpt lat="50.01615" lon="9.04315"><ele>111</ele></trkpt>
<trkpt lat="50.01700" lon="9.04299"><ele>111</ele></trkpt>
<trkpt lat="50.01726" lon="9.04281"><ele>110</ele></trkpt>
<trkpt lat="50.01955" lon="9.04094"><ele>111</ele></trkpt>
<trkpt lat="50.01963" lon="9.04072"><ele>111</ele></trkpt>
<trkpt lat="50.01986" lon="9.04031"><ele>110</ele></trkpt>
<trkpt lat="50.02027" lon="9.03992"><ele>110</ele></trkpt>
<trkpt lat="50.02130" lon="9.03928"><ele>110</ele></trkpt>
<trkpt lat="50.02333" lon="9.03830"><ele>110</ele></trkpt>
<trkpt lat="50.02639" lon="9.03712"><ele>109</ele></trkpt>
<trkpt lat="50.02637" lon="9.03660"><ele>109</ele></trkpt>
<trkpt lat="50.02639" lon="9.03631"><ele>109</ele></trkpt>
<trkpt lat="50.02665" lon="9.03494"><ele>108</ele></trkpt>
<trkpt lat="50.02670" lon="9.03429"><ele>108</ele></trkpt>
<trkpt lat="50.02672" lon="9.03351"><ele>108</ele></trkpt>
<trkpt lat="50.02699" lon="9.03358"><ele>108</ele></trkpt>
<trkpt lat="50.02807" lon="9.03432"><ele>108</ele></trkpt>
<trkpt lat="50.02897" lon="9.03469"><ele>108</ele></trkpt>
<trkpt lat="50.02984" lon="9.03492"><ele>108</ele></trkpt>
<trkpt lat="50.03035" lon="9.03497"><ele>107</ele></trkpt>
<trkpt lat="50.03179" lon="9.03499"><ele>107</ele></trkpt>
<trkpt lat="50.03364" lon="9.03521"><ele>107</ele></trkpt>
<trkpt lat="50.03432" lon="9.03515"><ele>107</ele></trkpt>
<trkpt lat="50.03451" lon="9.03507"><ele>107</ele></trkpt>
<trkpt lat="50.03492" lon="9.03479"><ele>107</ele></trkpt>
<trkpt lat="50.03582" lon="9.03455"><ele>107</ele></trkpt>
<trkpt lat="50.03576" lon="9.03372"><ele>106</ele></trkpt>
<trkpt lat="50.03588" lon="9.03063"><ele>106</ele></trkpt>
<trkpt lat="50.03543" lon="9.03058"><ele>107</ele></trkpt>
<trkpt lat="50.03537" lon="9.03049"><ele>107</ele></trkpt>
<trkpt lat="50.03598" lon="9.03046"><ele>107</ele></trkpt>
<trkpt lat="50.03712" lon="9.03026"><ele>107</ele></trkpt>
<trkpt lat="50.03811" lon="9.02989"><ele>106</ele></trkpt>
<trkpt lat="50.03864" lon="9.02959"><ele>106</ele></trkpt>
<trkpt lat="50.03912" lon="9.02919"><ele>107</ele></trkpt>
<trkpt lat="50.03986" lon="9.02833"><ele>107</ele></trkpt>
<trkpt lat="50.04205" lon="9.02414"><ele>107</ele></trkpt>
<trkpt lat="50.04274" lon="9.02199"><ele>107</ele></trkpt>
<trkpt lat="50.04411" lon="9.01597"><ele>106</ele></trkpt>
<trkpt lat="50.04427" lon="9.01506"><ele>106</ele></trkpt>
<trkpt lat="50.04441" lon="9.01418"><ele>106</ele></trkpt>
<trkpt lat="50.04463" lon="9.01219"><ele>106</ele></trkpt>
<trkpt lat="50.04474" lon="9.01030"><ele>106</ele></trkpt>
<trkpt lat="50.04468" lon="9.00710"><ele>106</ele></trkpt>
<trkpt lat="50.04431" lon="9.00478"><ele>106</ele></trkpt>
<trkpt lat="50.04315" lon="8.99981"><ele>106</ele></trkpt>
<trkpt lat="50.04171" lon="8.99514"><ele>107</ele></trkpt>
<trkpt lat="50.04134" lon="8.99374"><ele>106</ele></trkpt>
<trkpt lat="50.04097" lon="8.99220"><ele>106</ele></trkpt>
<trkpt lat="50.04107" lon="8.99159"><ele>105</ele></trkpt>
<trkpt lat="50.04108" lon="8.99137"><ele>105</ele></trkpt>
<trkpt lat="50.04094" lon="8.99063"><ele>104</ele></trkpt>
<trkpt lat="50.04096" lon="8.99035"><ele>104</ele></trkpt>
<trkpt lat="50.04084" lon="8.98902"><ele>105</ele></trkpt>
<trkpt lat="50.04085" lon="8.98832"><ele>106</ele></trkpt>
<trkpt lat="50.04081" lon="8.98784"><ele>107</ele></trkpt>
<trkpt lat="50.04089" lon="8.98672"><ele>108</ele></trkpt>
<trkpt lat="50.04115" lon="8.98487"><ele>108</ele></trkpt>
<trkpt lat="50.04152" lon="8.98342"><ele>106</ele></trkpt>
<trkpt lat="50.04169" lon="8.98299"><ele>107</ele></trkpt>
<trkpt lat="50.04177" lon="8.98286"><ele>106</ele></trkpt>
<trkpt lat="50.04234" lon="8.98119"><ele>107</ele></trkpt>
<trkpt lat="50.04287" lon="8.98007"><ele>106</ele></trkpt>
<trkpt lat="50.04369" lon="8.97855"><ele>105</ele></trkpt>
<trkpt lat="50.04375" lon="8.97841"><ele>105</ele></trkpt>
<trkpt lat="50.04381" lon="8.97793"><ele>107</ele></trkpt>
<trkpt lat="50.04387" lon="8.97774"><ele>108</ele></trkpt>
<trkpt lat="50.04401" lon="8.97754"><ele>109</ele></trkpt>
<trkpt lat="50.04415" lon="8.97744"><ele>109</ele></trkpt>
<trkpt lat="50.04393" lon="8.97660"><ele>109</ele></trkpt>
<trkpt lat="50.04364" lon="8.97600"><ele>110</ele></trkpt>
<trkpt lat="50.04347" lon="8.97552"><ele>109</ele></trkpt>
<trkpt lat="50.04385" lon="8.97526"><ele>110</ele></trkpt>
<trkpt lat="50.04199" lon="8.96786"><ele>115</ele></trkpt>
<trkpt lat="50.04212" lon="8.96785"><ele>115</ele></trkpt>
<trkpt lat="50.04211" lon="8.96777"><ele>115</ele></trkpt>
<trkpt lat="50.04216" lon="8.96774"><ele>115</ele></trkpt>
<trkpt lat="50.04220" lon="8.96763"><ele>116</ele></trkpt>
<trkpt lat="50.04291" lon="8.96755"><ele>115</ele></trkpt>
<trkpt lat="50.04296" lon="8.96771"><ele>115</ele></trkpt>
<trkpt lat="50.04301" lon="8.96768"><ele>115</ele></trkpt>
<trkpt lat="50.04310" lon="8.96796"><ele>114</ele></trkpt>
<trkpt lat="50.04337" lon="8.96904"><ele>113</ele></trkpt>
<trkpt lat="50.04348" lon="8.96897"><ele>112</ele></trkpt>
<trkpt lat="50.04318" lon="8.96771"><ele>114</ele></trkpt>
<trkpt lat="50.04317" lon="8.96758"><ele>114</ele></trkpt>
<trkpt lat="50.04322" lon="8.96751"><ele>113</ele></trkpt>
<trkpt lat="50.04682" lon="8.96717"><ele>110</ele></trkpt>
<trkpt lat="50.04722" lon="8.96698"><ele>109</ele></trkpt>
<trkpt lat="50.04766" lon="8.96684"><ele>110</ele></trkpt>
<trkpt lat="50.04789" lon="8.96664"><ele>110</ele></trkpt>
<trkpt lat="50.04805" lon="8.96659"><ele>110</ele></trkpt>
<trkpt lat="50.04811" lon="8.96682"><ele>109</ele></trkpt>
<trkpt lat="50.04816" lon="8.96655"><ele>110</ele></trkpt>
<trkpt lat="50.04825" lon="8.96638"><ele>110</ele></trkpt>
<trkpt lat="50.04863" lon="8.96613"><ele>110</ele></trkpt>
<trkpt lat="50.04894" lon="8.96585"><ele>111</ele></trkpt>
<trkpt lat="50.05580" lon="8.95938"><ele>108</ele></trkpt>
<trkpt lat="50.05625" lon="8.95912"><ele>108</ele></trkpt>
<trkpt lat="50.05850" lon="8.95697"><ele>107</ele></trkpt>
<trkpt lat="50.05880" lon="8.95657"><ele>107</ele></trkpt>
<trkpt lat="50.06139" lon="8.95411"><ele>109</ele></trkpt>
<trkpt lat="50.06191" lon="8.95382"><ele>109</ele></trkpt>
<trkpt lat="50.06217" lon="8.95339"><ele>109</ele></trkpt>
<trkpt lat="50.06234" lon="8.95320"><ele>109</ele></trkpt>
<trkpt lat="50.06357" lon="8.95204"><ele>109</ele></trkpt>
<trkpt lat="50.06365" lon="8.95202"><ele>109</ele></trkpt>
<trkpt lat="50.06378" lon="8.95219"><ele>109</ele></trkpt>
<trkpt lat="50.06385" lon="8.95218"><ele>109</ele></trkpt>
<trkpt lat="50.06416" lon="8.95150"><ele>108</ele></trkpt>
<trkpt lat="50.06634" lon="8.94944"><ele>108</ele></trkpt>
<trkpt lat="50.06673" lon="8.94922"><ele>108</ele></trkpt>
<trkpt lat="50.06666" lon="8.94862"><ele>109</ele></trkpt>
<trkpt lat="50.06714" lon="8.94833"><ele>108</ele></trkpt>
<trkpt lat="50.06738" lon="8.94812"><ele>108</ele></trkpt>
<trkpt lat="50.07256" lon="8.94321"><ele>108</ele></trkpt>
<trkpt lat="50.07360" lon="8.94213"><ele>107</ele></trkpt>
<trkpt lat="50.07350" lon="8.94200"><ele>107</ele></trkpt>
<trkpt lat="50.07364" lon="8.94184"><ele>107</ele></trkpt>
<trkpt lat="50.07400" lon="8.94164"><ele>107</ele></trkpt>
<trkpt lat="50.07531" lon="8.94039"><ele>108</ele></trkpt>
<trkpt lat="50.07642" lon="8.93938"><ele>107</ele></trkpt>
<trkpt lat="50.07672" lon="8.93905"><ele>107</ele></trkpt>
<trkpt lat="50.07693" lon="8.93872"><ele>107</ele></trkpt>
<trkpt lat="50.07709" lon="8.93855"><ele>107</ele></trkpt>
<trkpt lat="50.07848" lon="8.93742"><ele>107</ele></trkpt>
<trkpt lat="50.07926" lon="8.93652"><ele>107</ele></trkpt>
<trkpt lat="50.07940" lon="8.93669"><ele>107</ele></trkpt>
<trkpt lat="50.08125" lon="8.93502"><ele>107</ele></trkpt>
<trkpt lat="50.08206" lon="8.93439"><ele>106</ele></trkpt>
<trkpt lat="50.08295" lon="8.93403"><ele>106</ele></trkpt>
<trkpt lat="50.08367" lon="8.93386"><ele>106</ele></trkpt>
<trkpt lat="50.08409" lon="8.93382"><ele>106</ele></trkpt>
<trkpt lat="50.08969" lon="8.93394"><ele>104</ele></trkpt>
<trkpt lat="50.09019" lon="8.93388"><ele>104</ele></trkpt>
<trkpt lat="50.09090" lon="8.93398"><ele>104</ele></trkpt>
<trkpt lat="50.09274" lon="8.93396"><ele>105</ele></trkpt>
<trkpt lat="50.09338" lon="8.93371"><ele>105</ele></trkpt>
<trkpt lat="50.09351" lon="8.93372"><ele>106</ele></trkpt>
<trkpt lat="50.09370" lon="8.93332"><ele>106</ele></trkpt>
<trkpt lat="50.09424" lon="8.93256"><ele>105</ele></trkpt>
<trkpt lat="50.09438" lon="8.93268"><ele>105</ele></trkpt>
<trkpt lat="50.09871" lon="8.93292"><ele>105</ele></trkpt>
<trkpt lat="50.09862" lon="8.93357"><ele>105</ele></trkpt>
<trkpt lat="50.09864" lon="8.93365"><ele>105</ele></trkpt>
<trkpt lat="50.10009" lon="8.93370"><ele>106</ele></trkpt>
<trkpt lat="50.10019" lon="8.93385"><ele>106</ele></trkpt>
<trkpt lat="50.10042" lon="8.93395"><ele>106</ele></trkpt>
<trkpt lat="50.10163" lon="8.93403"><ele>106</ele></trkpt>
<trkpt lat="50.10161" lon="8.93443"><ele>107</ele></trkpt>
<trkpt lat="50.10155" lon="8.93455"><ele>106</ele></trkpt>
<trkpt lat="50.10170" lon="8.93465"><ele>105</ele></trkpt>
<trkpt lat="50.10187" lon="8.93458"><ele>105</ele></trkpt>
<trkpt lat="50.10288" lon="8.93443"><ele>106</ele></trkpt>
<trkpt lat="50.10376" lon="8.93441"><ele>106</ele></trkpt>
<trkpt lat="50.10426" lon="8.93449"><ele>106</ele></trkpt>
<trkpt lat="50.10485" lon="8.93469"><ele>106</ele></trkpt>
<trkpt lat="50.10555" lon="8.93513"><ele>103</ele></trkpt>
<trkpt lat="50.10743" lon="8.93655"><ele>104</ele></trkpt>
<trkpt lat="50.10769" lon="8.93684"><ele>107</ele></trkpt>
<trkpt lat="50.10722" lon="8.93960"><ele>105</ele></trkpt>
<trkpt lat="50.10721" lon="8.93974"><ele>105</ele></trkpt>
<trkpt lat="50.10724" lon="8.93990"><ele>105</ele></trkpt>
<trkpt lat="50.10653" lon="8.94160"><ele>106</ele></trkpt>
<trkpt lat="50.10651" lon="8.94174"><ele>106</ele></trkpt>
<trkpt lat="50.10653" lon="8.94181"><ele>106</ele></trkpt>
<trkpt lat="50.10934" lon="8.94551"><ele>105</ele></trkpt>
<trkpt lat="50.10940" lon="8.94533"><ele>105</ele></trkpt>
<trkpt lat="50.10965" lon="8.94550"><ele>105</ele></trkpt>
<trkpt lat="50.10965" lon="8.94531"><ele>105</ele></trkpt>
<trkpt lat="50.10970" lon="8.94513"><ele>105</ele></trkpt>
<trkpt lat="50.10985" lon="8.94486"><ele>105</ele></trkpt>
<trkpt lat="50.11002" lon="8.94436"><ele>105</ele></trkpt>
<trkpt lat="50.11016" lon="8.94419"><ele>105</ele></trkpt>
<trkpt lat="50.11057" lon="8.94397"><ele>105</ele></trkpt>
<trkpt lat="50.11156" lon="8.94367"><ele>105</ele></trkpt>
<trkpt lat="50.11166" lon="8.94360"><ele>105</ele></trkpt>
<trkpt lat="50.11219" lon="8.94294"><ele>105</ele></trkpt>
<trkpt lat="50.11249" lon="8.94281"><ele>105</ele></trkpt>
<trkpt lat="50.11260" lon="8.94257"><ele>105</ele></trkpt>
<trkpt lat="50.11269" lon="8.94261"><ele>105</ele></trkpt>
<trkpt lat="50.11307" lon="8.94252"><ele>105</ele></trkpt>
<trkpt lat="50.11364" lon="8.94280"><ele>108</ele></trkpt>
<trkpt lat="50.11408" lon="8.94295"><ele>108</ele></trkpt>
<trkpt lat="50.11500" lon="8.94231"><ele>106</ele></trkpt>
<trkpt lat="50.11509" lon="8.94234"><ele>106</ele></trkpt>
<trkpt lat="50.11539" lon="8.94262"><ele>106</ele></trkpt>
<trkpt lat="50.11559" lon="8.94273"><ele>106</ele></trkpt>
<trkpt lat="50.11606" lon="8.94269"><ele>106</ele></trkpt>
<trkpt lat="50.11693" lon="8.94271"><ele>106</ele></trkpt>
<trkpt lat="50.11707" lon="8.94265"><ele>106</ele></trkpt>
<trkpt lat="50.11751" lon="8.94232"><ele>106</ele></trkpt>
<trkpt lat="50.11770" lon="8.94206"><ele>106</ele></trkpt>
<trkpt lat="50.11782" lon="8.94180"><ele>106</ele></trkpt>
<trkpt lat="50.11794" lon="8.94142"><ele>106</ele></trkpt>
<trkpt lat="50.11804" lon="8.94029"><ele>106</ele></trkpt>
<trkpt lat="50.11815" lon="8.94005"><ele>106</ele></trkpt>
<trkpt lat="50.11815" lon="8.93998"><ele>106</ele></trkpt>
<trkpt lat="50.11807" lon="8.93985"><ele>106</ele></trkpt>
<trkpt lat="50.11805" lon="8.93973"><ele>107</ele></trkpt>
<trkpt lat="50.11813" lon="8.93954"><ele>107</ele></trkpt>
<trkpt lat="50.11848" lon="8.93890"><ele>106</ele></trkpt>
<trkpt lat="50.11864" lon="8.93868"><ele>106</ele></trkpt>
<trkpt lat="50.11883" lon="8.93853"><ele>105</ele></trkpt>
<trkpt lat="50.11926" lon="8.93848"><ele>105</ele></trkpt>
<trkpt lat="50.11945" lon="8.93835"><ele>105</ele></trkpt>
<trkpt lat="50.12033" lon="8.93704"><ele>105</ele></trkpt>
<trkpt lat="50.12038" lon="8.93712"><ele>105</ele></trkpt>
<trkpt lat="50.12162" lon="8.93520"><ele>105</ele></trkpt>
<trkpt lat="50.12235" lon="8.93396"><ele>105</ele></trkpt>
<trkpt lat="50.12265" lon="8.93334"><ele>104</ele></trkpt>
<trkpt lat="50.12336" lon="8.93160"><ele>104</ele></trkpt>
<trkpt lat="50.12341" lon="8.93164"><ele>104</ele></trkpt>
<trkpt lat="50.12351" lon="8.93164"><ele>104</ele></trkpt>
<trkpt lat="50.12358" lon="8.93153"><ele>104</ele></trkpt>
<trkpt lat="50.12359" lon="8.93136"><ele>104</ele></trkpt>
<trkpt lat="50.12355" lon="8.93126"><ele>104</ele></trkpt>
<trkpt lat="50.12432" lon="8.93036"><ele>104</ele></trkpt>
<trkpt lat="50.12579" lon="8.92877"><ele>104</ele></trkpt>
<trkpt lat="50.12598" lon="8.92870"><ele>104</ele></trkpt>
<trkpt lat="50.12620" lon="8.92881"><ele>105</ele></trkpt>
<trkpt lat="50.12630" lon="8.92880"><ele>105</ele></trkpt>
<trkpt lat="50.12660" lon="8.92862"><ele>105</ele></trkpt>
<trkpt lat="50.12676" lon="8.92836"><ele>105</ele></trkpt>
<trkpt lat="50.12683" lon="8.92787"><ele>105</ele></trkpt>
<trkpt lat="50.12695" lon="8.92761"><ele>105</ele></trkpt>
<trkpt lat="50.12992" lon="8.92391"><ele>106</ele></trkpt>
<trkpt lat="50.13017" lon="8.92375"><ele>106</ele></trkpt>
<trkpt lat="50.13027" lon="8.92388"><ele>106</ele></trkpt>
<trkpt lat="50.13034" lon="8.92390"><ele>106</ele></trkpt>
<trkpt lat="50.13043" lon="8.92386"><ele>106</ele></trkpt>
<trkpt lat="50.13050" lon="8.92374"><ele>106</ele></trkpt>
<trkpt lat="50.13052" lon="8.92353"><ele>106</ele></trkpt>
<trkpt lat="50.13074" lon="8.92320"><ele>106</ele></trkpt>
<trkpt lat="50.13171" lon="8.92219"><ele>105</ele></trkpt>
<trkpt lat="50.13214" lon="8.92131"><ele>105</ele></trkpt>
<trkpt lat="50.13234" lon="8.92062"><ele>105</ele></trkpt>
<trkpt lat="50.13238" lon="8.91617"><ele>104</ele></trkpt>
<trkpt lat="50.13314" lon="8.91617"><ele>104</ele></trkpt>
<trkpt lat="50.13314" lon="8.91698"><ele>105</ele></trkpt>
    </trkseg>
  </trk>
</gpx>
