<?xml version="1.0" encoding="UTF-8"?>
<gpx version="1.1" creator="Gravel Kompass" xmlns="http://www.topografix.com/GPX/1/1">
  <metadata><name>München – Haltern am See: Von der Isar ins Münsterland – Etappe 6</name></metadata>
  <trk>
    <name>Etappe 6: Bad Mergentheim – Würzburg</name>
    <trkseg>
<trkpt lat="49.49707" lon="9.77707"><ele>222</ele></trkpt>
<trkpt lat="49.49749" lon="9.77598"><ele>234</ele></trkpt>
<trkpt lat="49.49832" lon="9.77324"><ele>252</ele></trkpt>
<trkpt lat="49.49886" lon="9.77229"><ele>262</ele></trkpt>
<trkpt lat="49.49922" lon="9.77142"><ele>265</ele></trkpt>
<trkpt lat="49.49969" lon="9.77078"><ele>273</ele></trkpt>
<trkpt lat="49.50007" lon="9.77033"><ele>278</ele></trkpt>
<trkpt lat="49.50031" lon="9.77009"><ele>282</ele></trkpt>
<trkpt lat="49.50045" lon="9.77003"><ele>285</ele></trkpt>
<trkpt lat="49.50051" lon="9.76992"><ele>285</ele></trkpt>
<trkpt lat="49.50068" lon="9.76976"><ele>288</ele></trkpt>
<trkpt lat="49.50098" lon="9.76957"><ele>294</ele></trkpt>
<trkpt lat="49.50165" lon="9.76847"><ele>309</ele></trkpt>
<trkpt lat="49.50193" lon="9.76768"><ele>314</ele></trkpt>
<trkpt lat="49.50220" lon="9.76676"><ele>314</ele></trkpt>
<trkpt lat="49.50234" lon="9.76680"><ele>316</ele></trkpt>
<trkpt lat="49.50249" lon="9.76722"><ele>321</ele></trkpt>
<trkpt lat="49.50250" lon="9.76743"><ele>322</ele></trkpt>
<trkpt lat="49.50246" lon="9.76752"><ele>322</ele></trkpt>
<trkpt lat="49.50285" lon="9.76755"><ele>319</ele></trkpt>
<trkpt lat="49.50305" lon="9.76764"><ele>317</ele></trkpt>
<trkpt lat="49.50353" lon="9.76800"><ele>310</ele></trkpt>
<trkpt lat="49.50435" lon="9.76899"><ele>300</ele></trkpt>
<trkpt lat="49.50490" lon="9.76928"><ele>293</ele></trkpt>
<trkpt lat="49.50559" lon="9.76982"><ele>285</ele></trkpt>
<trkpt lat="49.50597" lon="9.77021"><ele>279</ele></trkpt>
<trkpt lat="49.50610" lon="9.77040"><ele>278</ele></trkpt>
<trkpt lat="49.50613" lon="9.77066"><ele>279</ele></trkpt>
<trkpt lat="49.50610" lon="9.77105"><ele>281</ele></trkpt>
<trkpt lat="49.50582" lon="9.77208"><ele>287</ele></trkpt>
<trkpt lat="49.50584" lon="9.77236"><ele>287</ele></trkpt>
<trkpt lat="49.50607" lon="9.77263"><ele>288</ele></trkpt>
<trkpt lat="49.50658" lon="9.77363"><ele>297</ele></trkpt>
<trkpt lat="49.50678" lon="9.77380"><ele>299</ele></trkpt>
<trkpt lat="49.50714" lon="9.77386"><ele>301</ele></trkpt>
<trkpt lat="49.50754" lon="9.77386"><ele>304</ele></trkpt>
<trkpt lat="49.50830" lon="9.77420"><ele>310</ele></trkpt>
<trkpt lat="49.50901" lon="9.77540"><ele>320</ele></trkpt>
<trkpt lat="49.50951" lon="9.77656"><ele>324</ele></trkpt>
<trkpt lat="49.50961" lon="9.77723"><ele>326</ele></trkpt>
<trkpt lat="49.50955" lon="9.77795"><ele>330</ele></trkpt>
<trkpt lat="49.50924" lon="9.77890"><ele>337</ele></trkpt>
<trkpt lat="49.50909" lon="9.77952"><ele>341</ele></trkpt>
<trkpt lat="49.50873" lon="9.78278"><ele>350</ele></trkpt>
<trkpt lat="49.50869" lon="9.78437"><ele>350</ele></trkpt>
<trkpt lat="49.50863" lon="9.78503"><ele>350</ele></trkpt>
<trkpt lat="49.50845" lon="9.78629"><ele>350</ele></trkpt>
<trkpt lat="49.50974" lon="9.78688"><ele>336</ele></trkpt>
<trkpt lat="49.50931" lon="9.78806"><ele>343</ele></trkpt>
<trkpt lat="49.50867" lon="9.78902"><ele>348</ele></trkpt>
<trkpt lat="49.50863" lon="9.78922"><ele>348</ele></trkpt>
<trkpt lat="49.50860" lon="9.78964"><ele>349</ele></trkpt>
<trkpt lat="49.50864" lon="9.78997"><ele>349</ele></trkpt>
<trkpt lat="49.50890" lon="9.79104"><ele>347</ele></trkpt>
<trkpt lat="49.50916" lon="9.79169"><ele>348</ele></trkpt>
<trkpt lat="49.50931" lon="9.79194"><ele>348</ele></trkpt>
<trkpt lat="49.50948" lon="9.79213"><ele>349</ele></trkpt>
<trkpt lat="49.50975" lon="9.79219"><ele>350</ele></trkpt>
<trkpt lat="49.51008" lon="9.79217"><ele>351</ele></trkpt>
<trkpt lat="49.51090" lon="9.79353"><ele>352</ele></trkpt>
<trkpt lat="49.51340" lon="9.79739"><ele>310</ele></trkpt>
<trkpt lat="49.51394" lon="9.79844"><ele>297</ele></trkpt>
<trkpt lat="49.51402" lon="9.79894"><ele>299</ele></trkpt>
<trkpt lat="49.51408" lon="9.79909"><ele>302</ele></trkpt>
<trkpt lat="49.51431" lon="9.79948"><ele>311</ele></trkpt>
<trkpt lat="49.51461" lon="9.80014"><ele>318</ele></trkpt>
<trkpt lat="49.51493" lon="9.80118"><ele>326</ele></trkpt>
<trkpt lat="49.51490" lon="9.80129"><ele>326</ele></trkpt>
<trkpt lat="49.51523" lon="9.80180"><ele>330</ele></trkpt>
<trkpt lat="49.51562" lon="9.80259"><ele>336</ele></trkpt>
<trkpt lat="49.51617" lon="9.80391"><ele>342</ele></trkpt>
<trkpt lat="49.51633" lon="9.80417"><ele>343</ele></trkpt>
<trkpt lat="49.51655" lon="9.80442"><ele>344</ele></trkpt>
<trkpt lat="49.51883" lon="9.80625"><ele>343</ele></trkpt>
<trkpt lat="49.52014" lon="9.80779"><ele>340</ele></trkpt>
<trkpt lat="49.52018" lon="9.80780"><ele>340</ele></trkpt>
<trkpt lat="49.52023" lon="9.80796"><ele>339</ele></trkpt>
<trkpt lat="49.52044" lon="9.80829"><ele>339</ele></trkpt>
<trkpt lat="49.52061" lon="9.80843"><ele>340</ele></trkpt>
<trkpt lat="49.52083" lon="9.80874"><ele>340</ele></trkpt>
<trkpt lat="49.52085" lon="9.80884"><ele>340</ele></trkpt>
<trkpt lat="49.52087" lon="9.80908"><ele>338</ele></trkpt>
<trkpt lat="49.52082" lon="9.81084"><ele>328</ele></trkpt>
<trkpt lat="49.52064" lon="9.81149"><ele>324</ele></trkpt>
<trkpt lat="49.52056" lon="9.81169"><ele>322</ele></trkpt>
<trkpt lat="49.52034" lon="9.81206"><ele>320</ele></trkpt>
<trkpt lat="49.52018" lon="9.81226"><ele>321</ele></trkpt>
<trkpt lat="49.52001" lon="9.81239"><ele>321</ele></trkpt>
<trkpt lat="49.51998" lon="9.81260"><ele>323</ele></trkpt>
<trkpt lat="49.52044" lon="9.81314"><ele>325</ele></trkpt>
<trkpt lat="49.52078" lon="9.81341"><ele>326</ele></trkpt>
<trkpt lat="49.52046" lon="9.81371"><ele>328</ele></trkpt>
<trkpt lat="49.51994" lon="9.81505"><ele>341</ele></trkpt>
<trkpt lat="49.51972" lon="9.81536"><ele>344</ele></trkpt>
<trkpt lat="49.51952" lon="9.81581"><ele>348</ele></trkpt>
<trkpt lat="49.51950" lon="9.81624"><ele>350</ele></trkpt>
<trkpt lat="49.51930" lon="9.81740"><ele>355</ele></trkpt>
<trkpt lat="49.51898" lon="9.81863"><ele>355</ele></trkpt>
<trkpt lat="49.52067" lon="9.82002"><ele>363</ele></trkpt>
<trkpt lat="49.52197" lon="9.82116"><ele>372</ele></trkpt>
<trkpt lat="49.52319" lon="9.82195"><ele>370</ele></trkpt>
<trkpt lat="49.52481" lon="9.82321"><ele>364</ele></trkpt>
<trkpt lat="49.52531" lon="9.82357"><ele>364</ele></trkpt>
<trkpt lat="49.52665" lon="9.82426"><ele>365</ele></trkpt>
<trkpt lat="49.52817" lon="9.82522"><ele>370</ele></trkpt>
<trkpt lat="49.52832" lon="9.82541"><ele>371</ele></trkpt>
<trkpt lat="49.52824" lon="9.82592"><ele>370</ele></trkpt>
<trkpt lat="49.52815" lon="9.82604"><ele>370</ele></trkpt>
<trkpt lat="49.52871" lon="9.82663"><ele>369</ele></trkpt>
<trkpt lat="49.52998" lon="9.82769"><ele>368</ele></trkpt>
<trkpt lat="49.53016" lon="9.82769"><ele>368</ele></trkpt>
<trkpt lat="49.53057" lon="9.82733"><ele>368</ele></trkpt>
<trkpt lat="49.53085" lon="9.82733"><ele>368</ele></trkpt>
<trkpt lat="49.53168" lon="9.82844"><ele>368</ele></trkpt>
<trkpt lat="49.53273" lon="9.82955"><ele>365</ele></trkpt>
<trkpt lat="49.53385" lon="9.83040"><ele>362</ele></trkpt>
<trkpt lat="49.53625" lon="9.83410"><ele>369</ele></trkpt>
<trkpt lat="49.53869" lon="9.83962"><ele>372</ele></trkpt>
<trkpt lat="49.54148" lon="9.84652"><ele>368</ele></trkpt>
<trkpt lat="49.54171" lon="9.84752"><ele>366</ele></trkpt>
<trkpt lat="49.54172" lon="9.84803"><ele>365</ele></trkpt>
<trkpt lat="49.54186" lon="9.84834"><ele>366</ele></trkpt>
<trkpt lat="49.54220" lon="9.84972"><ele>366</ele></trkpt>
<trkpt lat="49.54234" lon="9.85050"><ele>365</ele></trkpt>
<trkpt lat="49.54264" lon="9.85135"><ele>366</ele></trkpt>
<trkpt lat="49.54276" lon="9.85240"><ele>364</ele></trkpt>
<trkpt lat="49.54300" lon="9.85348"><ele>364</ele></trkpt>
<trkpt lat="49.54322" lon="9.85391"><ele>364</ele></trkpt>
<trkpt lat="49.54355" lon="9.85505"><ele>364</ele></trkpt>
<trkpt lat="49.54432" lon="9.85449"><ele>371</ele></trkpt>
<trkpt lat="49.54495" lon="9.85421"><ele>377</ele></trkpt>
<trkpt lat="49.54519" lon="9.85419"><ele>378</ele></trkpt>
<trkpt lat="49.54535" lon="9.85443"><ele>377</ele></trkpt>
<trkpt lat="49.54566" lon="9.85540"><ele>376</ele></trkpt>
<trkpt lat="49.54590" lon="9.85595"><ele>373</ele></trkpt>
<trkpt lat="49.54620" lon="9.85640"><ele>372</ele></trkpt>
<trkpt lat="49.54644" lon="9.85662"><ele>373</ele></trkpt>
<trkpt lat="49.54697" lon="9.85661"><ele>374</ele></trkpt>
<trkpt lat="49.54789" lon="9.85677"><ele>376</ele></trkpt>
<trkpt lat="49.55223" lon="9.85830"><ele>370</ele></trkpt>
<trkpt lat="49.55232" lon="9.85851"><ele>370</ele></trkpt>
<trkpt lat="49.55232" lon="9.85877"><ele>370</ele></trkpt>
<trkpt lat="49.55221" lon="9.85930"><ele>372</ele></trkpt>
<trkpt lat="49.55219" lon="9.85972"><ele>372</ele></trkpt>
<trkpt lat="49.55233" lon="9.86052"><ele>370</ele></trkpt>
<trkpt lat="49.55229" lon="9.86101"><ele>370</ele></trkpt>
<trkpt lat="49.55216" lon="9.86158"><ele>371</ele></trkpt>
<trkpt lat="49.55216" lon="9.86241"><ele>371</ele></trkpt>
<trkpt lat="49.55208" lon="9.86329"><ele>372</ele></trkpt>
<trkpt lat="49.55212" lon="9.86423"><ele>371</ele></trkpt>
<trkpt lat="49.55232" lon="9.86656"><ele>368</ele></trkpt>
<trkpt lat="49.55236" lon="9.86767"><ele>366</ele></trkpt>
<trkpt lat="49.55230" lon="9.86806"><ele>366</ele></trkpt>
<trkpt lat="49.55242" lon="9.86897"><ele>366</ele></trkpt>
<trkpt lat="49.55275" lon="9.87060"><ele>365</ele></trkpt>
<trkpt lat="49.55340" lon="9.87173"><ele>362</ele></trkpt>
<trkpt lat="49.55444" lon="9.87329"><ele>354</ele></trkpt>
<trkpt lat="49.55513" lon="9.87444"><ele>350</ele></trkpt>
<trkpt lat="49.55618" lon="9.87651"><ele>344</ele></trkpt>
<trkpt lat="49.55664" lon="9.87754"><ele>344</ele></trkpt>
<trkpt lat="49.55695" lon="9.87837"><ele>342</ele></trkpt>
<trkpt lat="49.55765" lon="9.87767"><ele>348</ele></trkpt>
<trkpt lat="49.55789" lon="9.87762"><ele>348</ele></trkpt>
<trkpt lat="49.55985" lon="9.87762"><ele>342</ele></trkpt>
<trkpt lat="49.56043" lon="9.87767"><ele>340</ele></trkpt>
<trkpt lat="49.56092" lon="9.87780"><ele>338</ele></trkpt>
<trkpt lat="49.56114" lon="9.87922"><ele>334</ele></trkpt>
<trkpt lat="49.56123" lon="9.87952"><ele>334</ele></trkpt>
<trkpt lat="49.56253" lon="9.88264"><ele>329</ele></trkpt>
<trkpt lat="49.56294" lon="9.88373"><ele>327</ele></trkpt>
<trkpt lat="49.56345" lon="9.88539"><ele>326</ele></trkpt>
<trkpt lat="49.56369" lon="9.88640"><ele>325</ele></trkpt>
<trkpt lat="49.56448" lon="9.89015"><ele>320</ele></trkpt>
<trkpt lat="49.56443" lon="9.89138"><ele>320</ele></trkpt>
<trkpt lat="49.56410" lon="9.89395"><ele>320</ele></trkpt>
<trkpt lat="49.56404" lon="9.89411"><ele>320</ele></trkpt>
<trkpt lat="49.56405" lon="9.89458"><ele>320</ele></trkpt>
<trkpt lat="49.56511" lon="9.89705"><ele>320</ele></trkpt>
<trkpt lat="49.56533" lon="9.89750"><ele>320</ele></trkpt>
<trkpt lat="49.56554" lon="9.89777"><ele>320</ele></trkpt>
<trkpt lat="49.56579" lon="9.89804"><ele>320</ele></trkpt>
<trkpt lat="49.56604" lon="9.89823"><ele>320</ele></trkpt>
<trkpt lat="49.56631" lon="9.89838"><ele>320</ele></trkpt>
<trkpt lat="49.57124" lon="9.89977"><ele>324</ele></trkpt>
<trkpt lat="49.57193" lon="9.90008"><ele>326</ele></trkpt>
<trkpt lat="49.57653" lon="9.90305"><ele>336</ele></trkpt>
<trkpt lat="49.57792" lon="9.90425"><ele>335</ele></trkpt>
<trkpt lat="49.57820" lon="9.90441"><ele>335</ele></trkpt>
<trkpt lat="49.57828" lon="9.90457"><ele>336</ele></trkpt>
<trkpt lat="49.57850" lon="9.90440"><ele>335</ele></trkpt>
<trkpt lat="49.57861" lon="9.90508"><ele>335</ele></trkpt>
<trkpt lat="49.57963" lon="9.90663"><ele>338</ele></trkpt>
<trkpt lat="49.58041" lon="9.90834"><ele>340</ele></trkpt>
<trkpt lat="49.58125" lon="9.91040"><ele>341</ele></trkpt>
<trkpt lat="49.58118" lon="9.91052"><ele>341</ele></trkpt>
<trkpt lat="49.58129" lon="9.91077"><ele>341</ele></trkpt>
<trkpt lat="49.58125" lon="9.91083"><ele>341</ele></trkpt>
<trkpt lat="49.58139" lon="9.91120"><ele>342</ele></trkpt>
<trkpt lat="49.58344" lon="9.91525"><ele>342</ele></trkpt>
<trkpt lat="49.58393" lon="9.91629"><ele>342</ele></trkpt>
<trkpt lat="49.58438" lon="9.91755"><ele>343</ele></trkpt>
<trkpt lat="49.58458" lon="9.91823"><ele>343</ele></trkpt>
<trkpt lat="49.58486" lon="9.91945"><ele>343</ele></trkpt>
<trkpt lat="49.58492" lon="9.91977"><ele>343</ele></trkpt>
<trkpt lat="49.58502" lon="9.92079"><ele>344</ele></trkpt>
<trkpt lat="49.58507" lon="9.92179"><ele>343</ele></trkpt>
<trkpt lat="49.58510" lon="9.92501"><ele>342</ele></trkpt>
<trkpt lat="49.58507" lon="9.92586"><ele>342</ele></trkpt>
<trkpt lat="49.58565" lon="9.92574"><ele>339</ele></trkpt>
<trkpt lat="49.58559" lon="9.92624"><ele>338</ele></trkpt>
<trkpt lat="49.58562" lon="9.92688"><ele>334</ele></trkpt>
<trkpt lat="49.58570" lon="9.92733"><ele>330</ele></trkpt>
<trkpt lat="49.58621" lon="9.92932"><ele>326</ele></trkpt>
<trkpt lat="49.58690" lon="9.93128"><ele>322</ele></trkpt>
<trkpt lat="49.58799" lon="9.93393"><ele>316</ele></trkpt>
<trkpt lat="49.58804" lon="9.93399"><ele>315</ele></trkpt>
<trkpt lat="49.58816" lon="9.93401"><ele>315</ele></trkpt>
<trkpt lat="49.58846" lon="9.93369"><ele>314</ele></trkpt>
<trkpt lat="49.58854" lon="9.93374"><ele>314</ele></trkpt>
<trkpt lat="49.58860" lon="9.93390"><ele>315</ele></trkpt>
<trkpt lat="49.58784" lon="9.93461"><ele>316</ele></trkpt>
<trkpt lat="49.58817" lon="9.93515"><ele>315</ele></trkpt>
<trkpt lat="49.58934" lon="9.93764"><ele>316</ele></trkpt>
<trkpt lat="49.59014" lon="9.93924"><ele>315</ele></trkpt>
<trkpt lat="49.59138" lon="9.94157"><ele>312</ele></trkpt>
<trkpt lat="49.59276" lon="9.94389"><ele>312</ele></trkpt>
<trkpt lat="49.59358" lon="9.94513"><ele>311</ele></trkpt>
<trkpt lat="49.59412" lon="9.94584"><ele>311</ele></trkpt>
<trkpt lat="49.59486" lon="9.94669"><ele>312</ele></trkpt>
<trkpt lat="49.59493" lon="9.94685"><ele>312</ele></trkpt>
<trkpt lat="49.59492" lon="9.94698"><ele>313</ele></trkpt>
<trkpt lat="49.59463" lon="9.94729"><ele>313</ele></trkpt>
<trkpt lat="49.59461" lon="9.94739"><ele>313</ele></trkpt>
<trkpt lat="49.59466" lon="9.94754"><ele>313</ele></trkpt>
<trkpt lat="49.59466" lon="9.94769"><ele>313</ele></trkpt>
<trkpt lat="49.59465" lon="9.94783"><ele>312</ele></trkpt>
<trkpt lat="49.59460" lon="9.94790"><ele>312</ele></trkpt>
<trkpt lat="49.59427" lon="9.94796"><ele>312</ele></trkpt>
<trkpt lat="49.59346" lon="9.94836"><ele>310</ele></trkpt>
<trkpt lat="49.59342" lon="9.94840"><ele>310</ele></trkpt>
<trkpt lat="49.59337" lon="9.94850"><ele>309</ele></trkpt>
<trkpt lat="49.59305" lon="9.95449"><ele>306</ele></trkpt>
<trkpt lat="49.59303" lon="9.95786"><ele>304</ele></trkpt>
<trkpt lat="49.59306" lon="9.96114"><ele>301</ele></trkpt>
<trkpt lat="49.59309" lon="9.96155"><ele>301</ele></trkpt>
<trkpt lat="49.59326" lon="9.96224"><ele>300</ele></trkpt>
<trkpt lat="49.59370" lon="9.96352"><ele>300</ele></trkpt>
<trkpt lat="49.59375" lon="9.96395"><ele>300</ele></trkpt>
<trkpt lat="49.59374" lon="9.96412"><ele>300</ele></trkpt>
<trkpt lat="49.59378" lon="9.96418"><ele>300</ele></trkpt>
<trkpt lat="49.59390" lon="9.96419"><ele>300</ele></trkpt>
<trkpt lat="49.59415" lon="9.96468"><ele>301</ele></trkpt>
<trkpt lat="49.59404" lon="9.96614"><ele>300</ele></trkpt>
<trkpt lat="49.59404" lon="9.96653"><ele>299</ele></trkpt>
<trkpt lat="49.59408" lon="9.96658"><ele>299</ele></trkpt>
<trkpt lat="49.59427" lon="9.96864"><ele>298</ele></trkpt>
<trkpt lat="49.59490" lon="9.97336"><ele>295</ele></trkpt>
<trkpt lat="49.59716" lon="9.98278"><ele>289</ele></trkpt>
<trkpt lat="49.59759" lon="9.98556"><ele>288</ele></trkpt>
<trkpt lat="49.59833" lon="9.98527"><ele>290</ele></trkpt>
<trkpt lat="49.60118" lon="9.98486"><ele>302</ele></trkpt>
<trkpt lat="49.60194" lon="9.99214"><ele>285</ele></trkpt>
<trkpt lat="49.60284" lon="9.99889"><ele>276</ele></trkpt>
<trkpt lat="49.60336" lon="10.00202"><ele>273</ele></trkpt>
<trkpt lat="49.60419" lon="10.00604"><ele>272</ele></trkpt>
<trkpt lat="49.60481" lon="10.00865"><ele>269</ele></trkpt>
<trkpt lat="49.60577" lon="10.01129"><ele>268</ele></trkpt>
<trkpt lat="49.60149" lon="10.01395"><ele>285</ele></trkpt>
<trkpt lat="49.60299" lon="10.01858"><ele>284</ele></trkpt>
<trkpt lat="49.60026" lon="10.01998"><ele>280</ele></trkpt>
<trkpt lat="49.59764" lon="10.02143"><ele>290</ele></trkpt>
<trkpt lat="49.59689" lon="10.02177"><ele>290</ele></trkpt>
<trkpt lat="49.59637" lon="10.02208"><ele>289</ele></trkpt>
<trkpt lat="49.59467" lon="10.02345"><ele>276</ele></trkpt>
<trkpt lat="49.59492" lon="10.02400"><ele>277</ele></trkpt>
<trkpt lat="49.59619" lon="10.02615"><ele>275</ele></trkpt>
<trkpt lat="49.59604" lon="10.02654"><ele>272</ele></trkpt>
<trkpt lat="49.59524" lon="10.02692"><ele>272</ele></trkpt>
<trkpt lat="49.59507" lon="10.02705"><ele>272</ele></trkpt>
<trkpt lat="49.59481" lon="10.02740"><ele>273</ele></trkpt>
<trkpt lat="49.59384" lon="10.03176"><ele>275</ele></trkpt>
<trkpt lat="49.59381" lon="10.03217"><ele>275</ele></trkpt>
<trkpt lat="49.59422" lon="10.03596"><ele>277</ele></trkpt>
<trkpt lat="49.59402" lon="10.03651"><ele>277</ele></trkpt>
<trkpt lat="49.59387" lon="10.03719"><ele>277</ele></trkpt>
<trkpt lat="49.59283" lon="10.04321"><ele>280</ele></trkpt>
<trkpt lat="49.59350" lon="10.04816"><ele>284</ele></trkpt>
<trkpt lat="49.59390" lon="10.05195"><ele>286</ele></trkpt>
<trkpt lat="49.59392" lon="10.05224"><ele>286</ele></trkpt>
<trkpt lat="49.59390" lon="10.05256"><ele>287</ele></trkpt>
<trkpt lat="49.59306" lon="10.05521"><ele>292</ele></trkpt>
<trkpt lat="49.59259" lon="10.05527"><ele>292</ele></trkpt>
<trkpt lat="49.59243" lon="10.05524"><ele>292</ele></trkpt>
<trkpt lat="49.59197" lon="10.05502"><ele>293</ele></trkpt>
<trkpt lat="49.59159" lon="10.05494"><ele>292</ele></trkpt>
<trkpt lat="49.59133" lon="10.05497"><ele>291</ele></trkpt>
<trkpt lat="49.59072" lon="10.05545"><ele>290</ele></trkpt>
<trkpt lat="49.59052" lon="10.05548"><ele>289</ele></trkpt>
<trkpt lat="49.59056" lon="10.05573"><ele>290</ele></trkpt>
<trkpt lat="49.59052" lon="10.05601"><ele>290</ele></trkpt>
<trkpt lat="49.58994" lon="10.05702"><ele>292</ele></trkpt>
<trkpt lat="49.58986" lon="10.05721"><ele>292</ele></trkpt>
<trkpt lat="49.58972" lon="10.05774"><ele>293</ele></trkpt>
<trkpt lat="49.58963" lon="10.05840"><ele>295</ele></trkpt>
<trkpt lat="49.58960" lon="10.05896"><ele>297</ele></trkpt>
<trkpt lat="49.58969" lon="10.06018"><ele>299</ele></trkpt>
<trkpt lat="49.59000" lon="10.06253"><ele>304</ele></trkpt>
<trkpt lat="49.58999" lon="10.06270"><ele>304</ele></trkpt>
<trkpt lat="49.58995" lon="10.06281"><ele>304</ele></trkpt>
<trkpt lat="49.58974" lon="10.06303"><ele>303</ele></trkpt>
<trkpt lat="49.58973" lon="10.06321"><ele>303</ele></trkpt>
<trkpt lat="49.58982" lon="10.06726"><ele>311</ele></trkpt>
<trkpt lat="49.59001" lon="10.06735"><ele>312</ele></trkpt>
<trkpt lat="49.59245" lon="10.06714"><ele>318</ele></trkpt>
<trkpt lat="49.59250" lon="10.06716"><ele>318</ele></trkpt>
<trkpt lat="49.59269" lon="10.06952"><ele>317</ele></trkpt>
<trkpt lat="49.59202" lon="10.07084"><ele>318</ele></trkpt>
<trkpt lat="49.58994" lon="10.07523"><ele>325</ele></trkpt>
<trkpt lat="49.58938" lon="10.07632"><ele>327</ele></trkpt>
<trkpt lat="49.58929" lon="10.07630"><ele>327</ele></trkpt>
<trkpt lat="49.58822" lon="10.07653"><ele>328</ele></trkpt>
<trkpt lat="49.58446" lon="10.07799"><ele>326</ele></trkpt>
<trkpt lat="49.58497" lon="10.08281"><ele>316</ele></trkpt>
<trkpt lat="49.58582" lon="10.08533"><ele>311</ele></trkpt>
<trkpt lat="49.58541" lon="10.08561"><ele>311</ele></trkpt>
<trkpt lat="49.58527" lon="10.08578"><ele>311</ele></trkpt>
<trkpt lat="49.58508" lon="10.08613"><ele>310</ele></trkpt>
<trkpt lat="49.58482" lon="10.08674"><ele>309</ele></trkpt>
<trkpt lat="49.58414" lon="10.08804"><ele>309</ele></trkpt>
<trkpt lat="49.58392" lon="10.08898"><ele>309</ele></trkpt>
<trkpt lat="49.58402" lon="10.08904"><ele>308</ele></trkpt>
<trkpt lat="49.58486" lon="10.09016"><ele>306</ele></trkpt>
<trkpt lat="49.58520" lon="10.09050"><ele>308</ele></trkpt>
<trkpt lat="49.58534" lon="10.09025"><ele>308</ele></trkpt>
<trkpt lat="49.58559" lon="10.09007"><ele>308</ele></trkpt>
<trkpt lat="49.58589" lon="10.08992"><ele>308</ele></trkpt>
<trkpt lat="49.58628" lon="10.08989"><ele>308</ele></trkpt>
<trkpt lat="49.58656" lon="10.08993"><ele>308</ele></trkpt>
<trkpt lat="49.58674" lon="10.09002"><ele>308</ele></trkpt>
<trkpt lat="49.58741" lon="10.09071"><ele>308</ele></trkpt>
<trkpt lat="49.58773" lon="10.09115"><ele>309</ele></trkpt>
<trkpt lat="49.58800" lon="10.09162"><ele>310</ele></trkpt>
<trkpt lat="49.58841" lon="10.09338"><ele>312</ele></trkpt>
<trkpt lat="49.58862" lon="10.09680"><ele>319</ele></trkpt>
<trkpt lat="49.58858" lon="10.09680"><ele>319</ele></trkpt>
<trkpt lat="49.58871" lon="10.09946"><ele>323</ele></trkpt>
<trkpt lat="49.58875" lon="10.09959"><ele>324</ele></trkpt>
<trkpt lat="49.58882" lon="10.09964"><ele>324</ele></trkpt>
<trkpt lat="49.58970" lon="10.09955"><ele>331</ele></trkpt>
<trkpt lat="49.58976" lon="10.09958"><ele>331</ele></trkpt>
<trkpt lat="49.58982" lon="10.09971"><ele>332</ele></trkpt>
<trkpt lat="49.58999" lon="10.10845"><ele>338</ele></trkpt>
<trkpt lat="49.59110" lon="10.11392"><ele>333</ele></trkpt>
<trkpt lat="49.58890" lon="10.11604"><ele>328</ele></trkpt>
<trkpt lat="49.58634" lon="10.11807"><ele>332</ele></trkpt>
<trkpt lat="49.58553" lon="10.11880"><ele>331</ele></trkpt>
<trkpt lat="49.58649" lon="10.12724"><ele>324</ele></trkpt>
<trkpt lat="49.58644" lon="10.13703"><ele>314</ele></trkpt>
<trkpt lat="49.58651" lon="10.13777"><ele>313</ele></trkpt>
<trkpt lat="49.58592" lon="10.13844"><ele>312</ele></trkpt>
<trkpt lat="49.58538" lon="10.13931"><ele>314</ele></trkpt>
<trkpt lat="49.58500" lon="10.13975"><ele>319</ele></trkpt>
<trkpt lat="49.58465" lon="10.14038"><ele>323</ele></trkpt>
<trkpt lat="49.58460" lon="10.14053"><ele>324</ele></trkpt>
<trkpt lat="49.58461" lon="10.14064"><ele>324</ele></trkpt>
<trkpt lat="49.58491" lon="10.14161"><ele>325</ele></trkpt>
<trkpt lat="49.58525" lon="10.14289"><ele>324</ele></trkpt>
<trkpt lat="49.58271" lon="10.14968"><ele>320</ele></trkpt>
<trkpt lat="49.58262" lon="10.15004"><ele>318</ele></trkpt>
<trkpt lat="49.58260" lon="10.15023"><ele>318</ele></trkpt>
<trkpt lat="49.58285" lon="10.15349"><ele>314</ele></trkpt>
<trkpt lat="49.58277" lon="10.16121"><ele>327</ele></trkpt>
<trkpt lat="49.58269" lon="10.16188"><ele>328</ele></trkpt>
<trkpt lat="49.58254" lon="10.16410"><ele>331</ele></trkpt>
<trkpt lat="49.58299" lon="10.16722"><ele>335</ele></trkpt>
<trkpt lat="49.58344" lon="10.16978"><ele>338</ele></trkpt>
<trkpt lat="49.58357" lon="10.17107"><ele>339</ele></trkpt>
<trkpt lat="49.58356" lon="10.17119"><ele>338</ele></trkpt>
<trkpt lat="49.58350" lon="10.17130"><ele>338</ele></trkpt>
<trkpt lat="49.58245" lon="10.17114"><ele>339</ele></trkpt>
<trkpt lat="49.58109" lon="10.17104"><ele>339</ele></trkpt>
<trkpt lat="49.57926" lon="10.17115"><ele>336</ele></trkpt>
<trkpt lat="49.57948" lon="10.17458"><ele>334</ele></trkpt>
<trkpt lat="49.57956" lon="10.17540"><ele>334</ele></trkpt>
<trkpt lat="49.57953" lon="10.17609"><ele>333</ele></trkpt>
<trkpt lat="49.57826" lon="10.17612"><ele>333</ele></trkpt>
<trkpt lat="49.57793" lon="10.17658"><ele>332</ele></trkpt>
<trkpt lat="49.57767" lon="10.17681"><ele>332</ele></trkpt>
<trkpt lat="49.57683" lon="10.17722"><ele>332</ele></trkpt>
<trkpt lat="49.57576" lon="10.17755"><ele>328</ele></trkpt>
<trkpt lat="49.57575" lon="10.17767"><ele>328</ele></trkpt>
<trkpt lat="49.57599" lon="10.18243"><ele>324</ele></trkpt>
<trkpt lat="49.57713" lon="10.18234"><ele>327</ele></trkpt>
<trkpt lat="49.57682" lon="10.18389"><ele>326</ele></trkpt>
<trkpt lat="49.57656" lon="10.18493"><ele>326</ele></trkpt>
<trkpt lat="49.57632" lon="10.18566"><ele>325</ele></trkpt>
<trkpt lat="49.57935" lon="10.18552"><ele>320</ele></trkpt>
<trkpt lat="49.57955" lon="10.18562"><ele>320</ele></trkpt>
<trkpt lat="49.58115" lon="10.18553"><ele>317</ele></trkpt>
<trkpt lat="49.58137" lon="10.18544"><ele>317</ele></trkpt>
<trkpt lat="49.58623" lon="10.18516"><ele>318</ele></trkpt>
<trkpt lat="49.58791" lon="10.19491"><ele>305</ele></trkpt>
<trkpt lat="49.58793" lon="10.19578"><ele>305</ele></trkpt>
<trkpt lat="49.58815" lon="10.19665"><ele>301</ele></trkpt>
<trkpt lat="49.58846" lon="10.19771"><ele>298</ele></trkpt>
<trkpt lat="49.58835" lon="10.19788"><ele>298</ele></trkpt>
<trkpt lat="49.58823" lon="10.19795"><ele>298</ele></trkpt>
<trkpt lat="49.58773" lon="10.19808"><ele>299</ele></trkpt>
<trkpt lat="49.58760" lon="10.19818"><ele>299</ele></trkpt>
<trkpt lat="49.58724" lon="10.19930"><ele>296</ele></trkpt>
<trkpt lat="49.58710" lon="10.20031"><ele>299</ele></trkpt>
<trkpt lat="49.58682" lon="10.20097"><ele>300</ele></trkpt>
<trkpt lat="49.58644" lon="10.20160"><ele>300</ele></trkpt>
<trkpt lat="49.58569" lon="10.20234"><ele>300</ele></trkpt>
<trkpt lat="49.58527" lon="10.20247"><ele>302</ele></trkpt>
<trkpt lat="49.58144" lon="10.20258"><ele>314</ele></trkpt>
<trkpt lat="49.58155" lon="10.20363"><ele>313</ele></trkpt>
<trkpt lat="49.58166" lon="10.20673"><ele>311</ele></trkpt>
<trkpt lat="49.58131" lon="10.21286"><ele>310</ele></trkpt>
<trkpt lat="49.57946" lon="10.21302"><ele>311</ele></trkpt>
<trkpt lat="49.57840" lon="10.21276"><ele>319</ele></trkpt>
<trkpt lat="49.57708" lon="10.21322"><ele>331</ele></trkpt>
<trkpt lat="49.57754" lon="10.21683"><ele>327</ele></trkpt>
<trkpt lat="49.57823" lon="10.22186"><ele>314</ele></trkpt>
<trkpt lat="49.57830" lon="10.22146"><ele>314</ele></trkpt>
<trkpt lat="49.57840" lon="10.22125"><ele>314</ele></trkpt>
<trkpt lat="49.57940" lon="10.22087"><ele>310</ele></trkpt>
<trkpt lat="49.58010" lon="10.22048"><ele>313</ele></trkpt>
<trkpt lat="49.58088" lon="10.21994"><ele>311</ele></trkpt>
<trkpt lat="49.58176" lon="10.21916"><ele>308</ele></trkpt>
<trkpt lat="49.58234" lon="10.21854"><ele>308</ele></trkpt>
<trkpt lat="49.58441" lon="10.21603"><ele>308</ele></trkpt>
<trkpt lat="49.58456" lon="10.21581"><ele>308</ele></trkpt>
<trkpt lat="49.58608" lon="10.21258"><ele>310</ele></trkpt>
<trkpt lat="49.58788" lon="10.20845"><ele>310</ele></trkpt>
<trkpt lat="49.58900" lon="10.20626"><ele>307</ele></trkpt>
<trkpt lat="49.58955" lon="10.20535"><ele>304</ele></trkpt>
<trkpt lat="49.59036" lon="10.20424"><ele>297</ele></trkpt>
<trkpt lat="49.59061" lon="10.20398"><ele>295</ele></trkpt>
<trkpt lat="49.59097" lon="10.20344"><ele>292</ele></trkpt>
<trkpt lat="49.59200" lon="10.20170"><ele>291</ele></trkpt>
<trkpt lat="49.59208" lon="10.20147"><ele>292</ele></trkpt>
<trkpt lat="49.59211" lon="10.20089"><ele>292</ele></trkpt>
<trkpt lat="49.59207" lon="10.20052"><ele>292</ele></trkpt>
<trkpt lat="49.59187" lon="10.19953"><ele>292</ele></trkpt>
<trkpt lat="49.59189" lon="10.19857"><ele>294</ele></trkpt>
<trkpt lat="49.59184" lon="10.19805"><ele>296</ele></trkpt>
<trkpt lat="49.59185" lon="10.19780"><ele>296</ele></trkpt>
<trkpt lat="49.59174" lon="10.19741"><ele>296</ele></trkpt>
<trkpt lat="49.59170" lon="10.19698"><ele>298</ele></trkpt>
<trkpt lat="49.59177" lon="10.19661"><ele>298</ele></trkpt>
<trkpt lat="49.59205" lon="10.19606"><ele>301</ele></trkpt>
<trkpt lat="49.59216" lon="10.19575"><ele>303</ele></trkpt>
<trkpt lat="49.59218" lon="10.19483"><ele>305</ele></trkpt>
<trkpt lat="49.59265" lon="10.19361"><ele>310</ele></trkpt>
<trkpt lat="49.59275" lon="10.19330"><ele>310</ele></trkpt>
<trkpt lat="49.59284" lon="10.19284"><ele>311</ele></trkpt>
<trkpt lat="49.59289" lon="10.19217"><ele>312</ele></trkpt>
<trkpt lat="49.59275" lon="10.19066"><ele>314</ele></trkpt>
<trkpt lat="49.59271" lon="10.18967"><ele>316</ele></trkpt>
<trkpt lat="49.59723" lon="10.18750"><ele>314</ele></trkpt>
<trkpt lat="49.59745" lon="10.18732"><ele>314</ele></trkpt>
<trkpt lat="49.59750" lon="10.18715"><ele>315</ele></trkpt>
<trkpt lat="49.59754" lon="10.18688"><ele>315</ele></trkpt>
<trkpt lat="49.59774" lon="10.18254"><ele>308</ele></trkpt>
<trkpt lat="49.59778" lon="10.18233"><ele>308</ele></trkpt>
<trkpt lat="49.59787" lon="10.18214"><ele>308</ele></trkpt>
<trkpt lat="49.59839" lon="10.18155"><ele>308</ele></trkpt>
<trkpt lat="49.59846" lon="10.18130"><ele>307</ele></trkpt>
<trkpt lat="49.59846" lon="10.18111"><ele>308</ele></trkpt>
<trkpt lat="49.59795" lon="10.17955"><ele>311</ele></trkpt>
<trkpt lat="49.59799" lon="10.17924"><ele>312</ele></trkpt>
<trkpt lat="49.59812" lon="10.17911"><ele>312</ele></trkpt>
<trkpt lat="49.59850" lon="10.17902"><ele>312</ele></trkpt>
<trkpt lat="49.60353" lon="10.17846"><ele>314</ele></trkpt>
<trkpt lat="49.60281" lon="10.17480"><ele>319</ele></trkpt>
<trkpt lat="49.60271" lon="10.17375"><ele>315</ele></trkpt>
<trkpt lat="49.60245" lon="10.17219"><ele>316</ele></trkpt>
<trkpt lat="49.60242" lon="10.17191"><ele>316</ele></trkpt>
<trkpt lat="49.60243" lon="10.17181"><ele>315</ele></trkpt>
<trkpt lat="49.60398" lon="10.17079"><ele>306</ele></trkpt>
<trkpt lat="49.60429" lon="10.17038"><ele>306</ele></trkpt>
<trkpt lat="49.60489" lon="10.16982"><ele>303</ele></trkpt>
<trkpt lat="49.60517" lon="10.16921"><ele>302</ele></trkpt>
<trkpt lat="49.60530" lon="10.16840"><ele>300</ele></trkpt>
<trkpt lat="49.60552" lon="10.16766"><ele>296</ele></trkpt>
<trkpt lat="49.60563" lon="10.16694"><ele>293</ele></trkpt>
<trkpt lat="49.60559" lon="10.16632"><ele>292</ele></trkpt>
<trkpt lat="49.60594" lon="10.16478"><ele>292</ele></trkpt>
<trkpt lat="49.60619" lon="10.16381"><ele>292</ele></trkpt>
<trkpt lat="49.60674" lon="10.16392"><ele>292</ele></trkpt>
<trkpt lat="49.60738" lon="10.16386"><ele>300</ele></trkpt>
<trkpt lat="49.60744" lon="10.16341"><ele>302</ele></trkpt>
<trkpt lat="49.60757" lon="10.16273"><ele>303</ele></trkpt>
<trkpt lat="49.60758" lon="10.16132"><ele>301</ele></trkpt>
<trkpt lat="49.60753" lon="10.16079"><ele>298</ele></trkpt>
<trkpt lat="49.60727" lon="10.15995"><ele>294</ele></trkpt>
<trkpt lat="49.60718" lon="10.15991"><ele>294</ele></trkpt>
<trkpt lat="49.60702" lon="10.15833"><ele>295</ele></trkpt>
<trkpt lat="49.60688" lon="10.15780"><ele>295</ele></trkpt>
<trkpt lat="49.60647" lon="10.15517"><ele>299</ele></trkpt>
<trkpt lat="49.60601" lon="10.15281"><ele>300</ele></trkpt>
<trkpt lat="49.60914" lon="10.15089"><ele>309</ele></trkpt>
<trkpt lat="49.60845" lon="10.14864"><ele>310</ele></trkpt>
<trkpt lat="49.60746" lon="10.14589"><ele>314</ele></trkpt>
<trkpt lat="49.60546" lon="10.14188"><ele>311</ele></trkpt>
<trkpt lat="49.61109" lon="10.13850"><ele>309</ele></trkpt>
<trkpt lat="49.61121" lon="10.13837"><ele>309</ele></trkpt>
<trkpt lat="49.61127" lon="10.13820"><ele>309</ele></trkpt>
<trkpt lat="49.61114" lon="10.13753"><ele>312</ele></trkpt>
<trkpt lat="49.60928" lon="10.12967"><ele>322</ele></trkpt>
<trkpt lat="49.60957" lon="10.12919"><ele>323</ele></trkpt>
<trkpt lat="49.61144" lon="10.12710"><ele>324</ele></trkpt>
<trkpt lat="49.61348" lon="10.12487"><ele>322</ele></trkpt>
<trkpt lat="49.61364" lon="10.12476"><ele>322</ele></trkpt>
<trkpt lat="49.61587" lon="10.12235"><ele>324</ele></trkpt>
<trkpt lat="49.61684" lon="10.12128"><ele>326</ele></trkpt>
<trkpt lat="49.61710" lon="10.12088"><ele>326</ele></trkpt>
<trkpt lat="49.61970" lon="10.11806"><ele>330</ele></trkpt>
<trkpt lat="49.61992" lon="10.11791"><ele>330</ele></trkpt>
<trkpt lat="49.62004" lon="10.11791"><ele>330</ele></trkpt>
<trkpt lat="49.62022" lon="10.11808"><ele>329</ele></trkpt>
<trkpt lat="49.62032" lon="10.11810"><ele>329</ele></trkpt>
<trkpt lat="49.62054" lon="10.11769"><ele>329</ele></trkpt>
<trkpt lat="49.62045" lon="10.11744"><ele>330</ele></trkpt>
<trkpt lat="49.62045" lon="10.11733"><ele>330</ele></trkpt>
<trkpt lat="49.62050" lon="10.11722"><ele>330</ele></trkpt>
<trkpt lat="49.62144" lon="10.11618"><ele>332</ele></trkpt>
<trkpt lat="49.62488" lon="10.11311"><ele>330</ele></trkpt>
<trkpt lat="49.62604" lon="10.11214"><ele>329</ele></trkpt>
<trkpt lat="49.62685" lon="10.11133"><ele>328</ele></trkpt>
<trkpt lat="49.62712" lon="10.11102"><ele>327</ele></trkpt>
<trkpt lat="49.62760" lon="10.11033"><ele>326</ele></trkpt>
<trkpt lat="49.62977" lon="10.10689"><ele>320</ele></trkpt>
<trkpt lat="49.63149" lon="10.10930"><ele>311</ele></trkpt>
<trkpt lat="49.63250" lon="10.10770"><ele>308</ele></trkpt>
<trkpt lat="49.63394" lon="10.10664"><ele>303</ele></trkpt>
<trkpt lat="49.63685" lon="10.10292"><ele>293</ele></trkpt>
<trkpt lat="49.63902" lon="10.10150"><ele>287</ele></trkpt>
<trkpt lat="49.63967" lon="10.10100"><ele>285</ele></trkpt>
<trkpt lat="49.63986" lon="10.10075"><ele>285</ele></trkpt>
<trkpt lat="49.63992" lon="10.10056"><ele>285</ele></trkpt>
<trkpt lat="49.63995" lon="10.10032"><ele>284</ele></trkpt>
<trkpt lat="49.64016" lon="10.09486"><ele>272</ele></trkpt>
<trkpt lat="49.64021" lon="10.09397"><ele>270</ele></trkpt>
<trkpt lat="49.64030" lon="10.09356"><ele>270</ele></trkpt>
<trkpt lat="49.64057" lon="10.09307"><ele>268</ele></trkpt>
<trkpt lat="49.64087" lon="10.09263"><ele>266</ele></trkpt>
<trkpt lat="49.64124" lon="10.09217"><ele>266</ele></trkpt>
<trkpt lat="49.64144" lon="10.09198"><ele>265</ele></trkpt>
<trkpt lat="49.64172" lon="10.09179"><ele>264</ele></trkpt>
<trkpt lat="49.64223" lon="10.09165"><ele>263</ele></trkpt>
<trkpt lat="49.64344" lon="10.09115"><ele>262</ele></trkpt>
<trkpt lat="49.64371" lon="10.09083"><ele>261</ele></trkpt>
<trkpt lat="49.64312" lon="10.08747"><ele>272</ele></trkpt>
<trkpt lat="49.64444" lon="10.08523"><ele>265</ele></trkpt>
<trkpt lat="49.64381" lon="10.08444"><ele>257</ele></trkpt>
<trkpt lat="49.64437" lon="10.08354"><ele>252</ele></trkpt>
<trkpt lat="49.64443" lon="10.08329"><ele>250</ele></trkpt>
<trkpt lat="49.64458" lon="10.08305"><ele>248</ele></trkpt>
<trkpt lat="49.64612" lon="10.08081"><ele>240</ele></trkpt>
<trkpt lat="49.64642" lon="10.08055"><ele>241</ele></trkpt>
<trkpt lat="49.64632" lon="10.08016"><ele>240</ele></trkpt>
<trkpt lat="49.64505" lon="10.07318"><ele>268</ele></trkpt>
<trkpt lat="49.64456" lon="10.06748"><ele>290</ele></trkpt>
<trkpt lat="49.64460" lon="10.06726"><ele>290</ele></trkpt>
<trkpt lat="49.64475" lon="10.06686"><ele>289</ele></trkpt>
<trkpt lat="49.64461" lon="10.06488"><ele>287</ele></trkpt>
<trkpt lat="49.64472" lon="10.06469"><ele>287</ele></trkpt>
<trkpt lat="49.64975" lon="10.06545"><ele>278</ele></trkpt>
<trkpt lat="49.64973" lon="10.06488"><ele>277</ele></trkpt>
<trkpt lat="49.64969" lon="10.06455"><ele>275</ele></trkpt>
<trkpt lat="49.64934" lon="10.06289"><ele>268</ele></trkpt>
<trkpt lat="49.64929" lon="10.06256"><ele>266</ele></trkpt>
<trkpt lat="49.64929" lon="10.06210"><ele>265</ele></trkpt>
<trkpt lat="49.64920" lon="10.06176"><ele>264</ele></trkpt>
<trkpt lat="49.64806" lon="10.06051"><ele>260</ele></trkpt>
<trkpt lat="49.64819" lon="10.06034"><ele>259</ele></trkpt>
<trkpt lat="49.64844" lon="10.06042"><ele>258</ele></trkpt>
<trkpt lat="49.64946" lon="10.06102"><ele>254</ele></trkpt>
<trkpt lat="49.64975" lon="10.06109"><ele>254</ele></trkpt>
<trkpt lat="49.64999" lon="10.06123"><ele>254</ele></trkpt>
<trkpt lat="49.65044" lon="10.06165"><ele>252</ele></trkpt>
<trkpt lat="49.65053" lon="10.06162"><ele>252</ele></trkpt>
<trkpt lat="49.65059" lon="10.06152"><ele>252</ele></trkpt>
<trkpt lat="49.65097" lon="10.06014"><ele>250</ele></trkpt>
<trkpt lat="49.65127" lon="10.05965"><ele>248</ele></trkpt>
<trkpt lat="49.65136" lon="10.05938"><ele>246</ele></trkpt>
<trkpt lat="49.65184" lon="10.05889"><ele>243</ele></trkpt>
<trkpt lat="49.65196" lon="10.05892"><ele>242</ele></trkpt>
<trkpt lat="49.65217" lon="10.05917"><ele>242</ele></trkpt>
<trkpt lat="49.65236" lon="10.05926"><ele>243</ele></trkpt>
<trkpt lat="49.65289" lon="10.05935"><ele>241</ele></trkpt>
<trkpt lat="49.65324" lon="10.05933"><ele>240</ele></trkpt>
<trkpt lat="49.65359" lon="10.05925"><ele>236</ele></trkpt>
<trkpt lat="49.65403" lon="10.05928"><ele>234</ele></trkpt>
<trkpt lat="49.65450" lon="10.05887"><ele>231</ele></trkpt>
<trkpt lat="49.65477" lon="10.05820"><ele>227</ele></trkpt>
<trkpt lat="49.65489" lon="10.05810"><ele>226</ele></trkpt>
<trkpt lat="49.65504" lon="10.05807"><ele>225</ele></trkpt>
<trkpt lat="49.65533" lon="10.05813"><ele>225</ele></trkpt>
<trkpt lat="49.65587" lon="10.05841"><ele>221</ele></trkpt>
<trkpt lat="49.65645" lon="10.05856"><ele>218</ele></trkpt>
<trkpt lat="49.65700" lon="10.05880"><ele>218</ele></trkpt>
<trkpt lat="49.65769" lon="10.05922"><ele>214</ele></trkpt>
<trkpt lat="49.65795" lon="10.05958"><ele>214</ele></trkpt>
<trkpt lat="49.65839" lon="10.05992"><ele>210</ele></trkpt>
<trkpt lat="49.65865" lon="10.05999"><ele>207</ele></trkpt>
<trkpt lat="49.65890" lon="10.05998"><ele>206</ele></trkpt>
<trkpt lat="49.66004" lon="10.05972"><ele>202</ele></trkpt>
<trkpt lat="49.66063" lon="10.05948"><ele>199</ele></trkpt>
<trkpt lat="49.66125" lon="10.05932"><ele>196</ele></trkpt>
<trkpt lat="49.66187" lon="10.05936"><ele>194</ele></trkpt>
<trkpt lat="49.66203" lon="10.05941"><ele>194</ele></trkpt>
<trkpt lat="49.66255" lon="10.05967"><ele>192</ele></trkpt>
<trkpt lat="49.66308" lon="10.06007"><ele>188</ele></trkpt>
<trkpt lat="49.66382" lon="10.06071"><ele>186</ele></trkpt>
<trkpt lat="49.66424" lon="10.06090"><ele>184</ele></trkpt>
<trkpt lat="49.66498" lon="10.06096"><ele>183</ele></trkpt>
<trkpt lat="49.66492" lon="10.06114"><ele>184</ele></trkpt>
<trkpt lat="49.66467" lon="10.06278"><ele>182</ele></trkpt>
<trkpt lat="49.66465" lon="10.06311"><ele>182</ele></trkpt>
<trkpt lat="49.66564" lon="10.06326"><ele>178</ele></trkpt>
<trkpt lat="49.66609" lon="10.06341"><ele>179</ele></trkpt>
<trkpt lat="49.66652" lon="10.06348"><ele>179</ele></trkpt>
<trkpt lat="49.66749" lon="10.06349"><ele>179</ele></trkpt>
<trkpt lat="49.66843" lon="10.06341"><ele>179</ele></trkpt>
<trkpt lat="49.66840" lon="10.06277"><ele>178</ele></trkpt>
<trkpt lat="49.66831" lon="10.06236"><ele>178</ele></trkpt>
<trkpt lat="49.66832" lon="10.06177"><ele>178</ele></trkpt>
<trkpt lat="49.66855" lon="10.05900"><ele>177</ele></trkpt>
<trkpt lat="49.66863" lon="10.05851"><ele>177</ele></trkpt>
<trkpt lat="49.66860" lon="10.05825"><ele>177</ele></trkpt>
<trkpt lat="49.66873" lon="10.05721"><ele>177</ele></trkpt>
<trkpt lat="49.66950" lon="10.05445"><ele>176</ele></trkpt>
<trkpt lat="49.66957" lon="10.05394"><ele>177</ele></trkpt>
<trkpt lat="49.66985" lon="10.05274"><ele>176</ele></trkpt>
<trkpt lat="49.67000" lon="10.05228"><ele>176</ele></trkpt>
<trkpt lat="49.67039" lon="10.05144"><ele>176</ele></trkpt>
<trkpt lat="49.67163" lon="10.04956"><ele>176</ele></trkpt>
<trkpt lat="49.67309" lon="10.04747"><ele>177</ele></trkpt>
<trkpt lat="49.67530" lon="10.04356"><ele>178</ele></trkpt>
<trkpt lat="49.67569" lon="10.04306"><ele>177</ele></trkpt>
<trkpt lat="49.67580" lon="10.04268"><ele>176</ele></trkpt>
<trkpt lat="49.67598" lon="10.04230"><ele>176</ele></trkpt>
<trkpt lat="49.67652" lon="10.04135"><ele>177</ele></trkpt>
<trkpt lat="49.67707" lon="10.04055"><ele>177</ele></trkpt>
<trkpt lat="49.67720" lon="10.04046"><ele>177</ele></trkpt>
<trkpt lat="49.67746" lon="10.04037"><ele>177</ele></trkpt>
<trkpt lat="49.67755" lon="10.04024"><ele>177</ele></trkpt>
<trkpt lat="49.67771" lon="10.03959"><ele>176</ele></trkpt>
<trkpt lat="49.67787" lon="10.03932"><ele>176</ele></trkpt>
<trkpt lat="49.67958" lon="10.03740"><ele>175</ele></trkpt>
<trkpt lat="49.68080" lon="10.03597"><ele>177</ele></trkpt>
<trkpt lat="49.68121" lon="10.03556"><ele>177</ele></trkpt>
<trkpt lat="49.68203" lon="10.03445"><ele>176</ele></trkpt>
<trkpt lat="49.68309" lon="10.03289"><ele>176</ele></trkpt>
<trkpt lat="49.68436" lon="10.03068"><ele>175</ele></trkpt>
<trkpt lat="49.68583" lon="10.02880"><ele>176</ele></trkpt>
<trkpt lat="49.68661" lon="10.02770"><ele>175</ele></trkpt>
<trkpt lat="49.68733" lon="10.02693"><ele>175</ele></trkpt>
<trkpt lat="49.68828" lon="10.02572"><ele>175</ele></trkpt>
<trkpt lat="49.68936" lon="10.02451"><ele>175</ele></trkpt>
<trkpt lat="49.69009" lon="10.02339"><ele>174</ele></trkpt>
<trkpt lat="49.69021" lon="10.02326"><ele>174</ele></trkpt>
<trkpt lat="49.69068" lon="10.02293"><ele>174</ele></trkpt>
<trkpt lat="49.69146" lon="10.02255"><ele>175</ele></trkpt>
<trkpt lat="49.69212" lon="10.02234"><ele>175</ele></trkpt>
<trkpt lat="49.69292" lon="10.02219"><ele>174</ele></trkpt>
<trkpt lat="49.69377" lon="10.02235"><ele>175</ele></trkpt>
<trkpt lat="49.69453" lon="10.02240"><ele>175</ele></trkpt>
<trkpt lat="49.69544" lon="10.02256"><ele>175</ele></trkpt>
<trkpt lat="49.69714" lon="10.02266"><ele>175</ele></trkpt>
<trkpt lat="49.70009" lon="10.02246"><ele>174</ele></trkpt>
<trkpt lat="49.70129" lon="10.02258"><ele>175</ele></trkpt>
<trkpt lat="49.70274" lon="10.02249"><ele>175</ele></trkpt>
<trkpt lat="49.70356" lon="10.02213"><ele>174</ele></trkpt>
<trkpt lat="49.70396" lon="10.02205"><ele>175</ele></trkpt>
<trkpt lat="49.70462" lon="10.02178"><ele>175</ele></trkpt>
<trkpt lat="49.70479" lon="10.02178"><ele>176</ele></trkpt>
<trkpt lat="49.70509" lon="10.02157"><ele>176</ele></trkpt>
<trkpt lat="49.70549" lon="10.02137"><ele>175</ele></trkpt>
<trkpt lat="49.70709" lon="10.02064"><ele>175</ele></trkpt>
<trkpt lat="49.70742" lon="10.02037"><ele>174</ele></trkpt>
<trkpt lat="49.70752" lon="10.02034"><ele>174</ele></trkpt>
<trkpt lat="49.70825" lon="10.02013"><ele>173</ele></trkpt>
<trkpt lat="49.70874" lon="10.02033"><ele>174</ele></trkpt>
<trkpt lat="49.70983" lon="10.02023"><ele>174</ele></trkpt>
<trkpt lat="49.71012" lon="10.02014"><ele>175</ele></trkpt>
<trkpt lat="49.71101" lon="10.01975"><ele>175</ele></trkpt>
<trkpt lat="49.71186" lon="10.01909"><ele>176</ele></trkpt>
<trkpt lat="49.71250" lon="10.01841"><ele>176</ele></trkpt>
<trkpt lat="49.71362" lon="10.01693"><ele>176</ele></trkpt>
<trkpt lat="49.71714" lon="10.01126"><ele>175</ele></trkpt>
<trkpt lat="49.71817" lon="10.00946"><ele>175</ele></trkpt>
<trkpt lat="49.71831" lon="10.00911"><ele>175</ele></trkpt>
<trkpt lat="49.71845" lon="10.00851"><ele>174</ele></trkpt>
<trkpt lat="49.71864" lon="10.00551"><ele>173</ele></trkpt>
<trkpt lat="49.71889" lon="10.00471"><ele>173</ele></trkpt>
<trkpt lat="49.71982" lon="10.00268"><ele>174</ele></trkpt>
<trkpt lat="49.72021" lon="10.00220"><ele>174</ele></trkpt>
<trkpt lat="49.72065" lon="10.00101"><ele>173</ele></trkpt>
<trkpt lat="49.72075" lon="10.00088"><ele>174</ele></trkpt>
<trkpt lat="49.72091" lon="10.00076"><ele>174</ele></trkpt>
<trkpt lat="49.72114" lon="10.00037"><ele>174</ele></trkpt>
<trkpt lat="49.72183" lon="9.99865"><ele>174</ele></trkpt>
<trkpt lat="49.72185" lon="9.99846"><ele>174</ele></trkpt>
<trkpt lat="49.72191" lon="9.99834"><ele>174</ele></trkpt>
<trkpt lat="49.72219" lon="9.99806"><ele>175</ele></trkpt>
<trkpt lat="49.72286" lon="9.99704"><ele>175</ele></trkpt>
<trkpt lat="49.72376" lon="9.99585"><ele>175</ele></trkpt>
<trkpt lat="49.72398" lon="9.99537"><ele>175</ele></trkpt>
<trkpt lat="49.72425" lon="9.99525"><ele>175</ele></trkpt>
<trkpt lat="49.72469" lon="9.99492"><ele>176</ele></trkpt>
<trkpt lat="49.72523" lon="9.99438"><ele>174</ele></trkpt>
<trkpt lat="49.72559" lon="9.99410"><ele>174</ele></trkpt>
<trkpt lat="49.72555" lon="9.99381"><ele>173</ele></trkpt>
<trkpt lat="49.72559" lon="9.99370"><ele>174</ele></trkpt>
<trkpt lat="49.72630" lon="9.99239"><ele>173</ele></trkpt>
<trkpt lat="49.72703" lon="9.99126"><ele>174</ele></trkpt>
<trkpt lat="49.72791" lon="9.99030"><ele>173</ele></trkpt>
<trkpt lat="49.72845" lon="9.98980"><ele>173</ele></trkpt>
<trkpt lat="49.72907" lon="9.98936"><ele>173</ele></trkpt>
<trkpt lat="49.73007" lon="9.98889"><ele>173</ele></trkpt>
<trkpt lat="49.73147" lon="9.98838"><ele>173</ele></trkpt>
<trkpt lat="49.73278" lon="9.98769"><ele>173</ele></trkpt>
<trkpt lat="49.73506" lon="9.98669"><ele>173</ele></trkpt>
<trkpt lat="49.73596" lon="9.98676"><ele>173</ele></trkpt>
<trkpt lat="49.73687" lon="9.98701"><ele>173</ele></trkpt>
<trkpt lat="49.73771" lon="9.98747"><ele>174</ele></trkpt>
<trkpt lat="49.73793" lon="9.98755"><ele>174</ele></trkpt>
<trkpt lat="49.73855" lon="9.98764"><ele>173</ele></trkpt>
<trkpt lat="49.73897" lon="9.98758"><ele>173</ele></trkpt>
<trkpt lat="49.73948" lon="9.98742"><ele>173</ele></trkpt>
<trkpt lat="49.73980" lon="9.98740"><ele>173</ele></trkpt>
<trkpt lat="49.74028" lon="9.98745"><ele>173</ele></trkpt>
<trkpt lat="49.74102" lon="9.98759"><ele>173</ele></trkpt>
<trkpt lat="49.74155" lon="9.98762"><ele>173</ele></trkpt>
<trkpt lat="49.74252" lon="9.98776"><ele>173</ele></trkpt>
<trkpt lat="49.74420" lon="9.98769"><ele>173</ele></trkpt>
<trkpt lat="49.74548" lon="9.98784"><ele>173</ele></trkpt>
<trkpt lat="49.74690" lon="9.98770"><ele>173</ele></trkpt>
<trkpt lat="49.74827" lon="9.98740"><ele>173</ele></trkpt>
<trkpt lat="49.74961" lon="9.98683"><ele>173</ele></trkpt>
<trkpt lat="49.74995" lon="9.98665"><ele>173</ele></trkpt>
<trkpt lat="49.75074" lon="9.98608"><ele>172</ele></trkpt>
<trkpt lat="49.75107" lon="9.98576"><ele>173</ele></trkpt>
<trkpt lat="49.75155" lon="9.98518"><ele>172</ele></trkpt>
<trkpt lat="49.75183" lon="9.98470"><ele>172</ele></trkpt>
<trkpt lat="49.75208" lon="9.98437"><ele>172</ele></trkpt>
<trkpt lat="49.75221" lon="9.98400"><ele>173</ele></trkpt>
<trkpt lat="49.75234" lon="9.98384"><ele>172</ele></trkpt>
<trkpt lat="49.75385" lon="9.98248"><ele>172</ele></trkpt>
<trkpt lat="49.75422" lon="9.98232"><ele>172</ele></trkpt>
<trkpt lat="49.75427" lon="9.98220"><ele>172</ele></trkpt>
<trkpt lat="49.75443" lon="9.98201"><ele>172</ele></trkpt>
<trkpt lat="49.75686" lon="9.98014"><ele>172</ele></trkpt>
<trkpt lat="49.75716" lon="9.98005"><ele>171</ele></trkpt>
<trkpt lat="49.75721" lon="9.98000"><ele>171</ele></trkpt>
<trkpt lat="49.75748" lon="9.97963"><ele>172</ele></trkpt>
<trkpt lat="49.75791" lon="9.97920"><ele>172</ele></trkpt>
<trkpt lat="49.75815" lon="9.97877"><ele>170</ele></trkpt>
<trkpt lat="49.75828" lon="9.97875"><ele>170</ele></trkpt>
<trkpt lat="49.75839" lon="9.97863"><ele>171</ele></trkpt>
<trkpt lat="49.75850" lon="9.97838"><ele>170</ele></trkpt>
<trkpt lat="49.75859" lon="9.97795"><ele>170</ele></trkpt>
<trkpt lat="49.75871" lon="9.97775"><ele>170</ele></trkpt>
<trkpt lat="49.75884" lon="9.97763"><ele>170</ele></trkpt>
<trkpt lat="49.75886" lon="9.97768"><ele>170</ele></trkpt>
<trkpt lat="49.75872" lon="9.97783"><ele>170</ele></trkpt>
<trkpt lat="49.75907" lon="9.97873"><ele>172</ele></trkpt>
<trkpt lat="49.75938" lon="9.97921"><ele>173</ele></trkpt>
<trkpt lat="49.76025" lon="9.98031"><ele>178</ele></trkpt>
<trkpt lat="49.76040" lon="9.97981"><ele>178</ele></trkpt>
<trkpt lat="49.76057" lon="9.97957"><ele>178</ele></trkpt>
<trkpt lat="49.76066" lon="9.97939"><ele>180</ele></trkpt>
<trkpt lat="49.76118" lon="9.97709"><ele>178</ele></trkpt>
<trkpt lat="49.76119" lon="9.97689"><ele>178</ele></trkpt>
<trkpt lat="49.76115" lon="9.97676"><ele>176</ele></trkpt>
<trkpt lat="49.76130" lon="9.97676"><ele>179</ele></trkpt>
<trkpt lat="49.76288" lon="9.97261"><ele>181</ele></trkpt>
<trkpt lat="49.76398" lon="9.96955"><ele>182</ele></trkpt>
<trkpt lat="49.76447" lon="9.96827"><ele>182</ele></trkpt>
<trkpt lat="49.76466" lon="9.96764"><ele>182</ele></trkpt>
<trkpt lat="49.76493" lon="9.96794"><ele>185</ele></trkpt>
<trkpt lat="49.76576" lon="9.96930"><ele>203</ele></trkpt>
<trkpt lat="49.76613" lon="9.96976"><ele>210</ele></trkpt>
<trkpt lat="49.76605" lon="9.96943"><ele>208</ele></trkpt>
<trkpt lat="49.76553" lon="9.96788"><ele>209</ele></trkpt>
<trkpt lat="49.76552" lon="9.96744"><ele>209</ele></trkpt>
<trkpt lat="49.76566" lon="9.96680"><ele>212</ele></trkpt>
<trkpt lat="49.76623" lon="9.96505"><ele>220</ele></trkpt>
<trkpt lat="49.76655" lon="9.96330"><ele>208</ele></trkpt>
<trkpt lat="49.76681" lon="9.96213"><ele>202</ele></trkpt>
<trkpt lat="49.76694" lon="9.96180"><ele>200</ele></trkpt>
<trkpt lat="49.76711" lon="9.96150"><ele>198</ele></trkpt>
<trkpt lat="49.76736" lon="9.96119"><ele>196</ele></trkpt>
<trkpt lat="49.76770" lon="9.96084"><ele>193</ele></trkpt>
<trkpt lat="49.76794" lon="9.96067"><ele>192</ele></trkpt>
<trkpt lat="49.76808" lon="9.96062"><ele>193</ele></trkpt>
<trkpt lat="49.76901" lon="9.96061"><ele>193</ele></trkpt>
<trkpt lat="49.76918" lon="9.96081"><ele>194</ele></trkpt>
<trkpt lat="49.76996" lon="9.96128"><ele>200</ele></trkpt>
<trkpt lat="49.77063" lon="9.96217"><ele>207</ele></trkpt>
<trkpt lat="49.77082" lon="9.96266"><ele>208</ele></trkpt>
<trkpt lat="49.77095" lon="9.96286"><ele>211</ele></trkpt>
<trkpt lat="49.77127" lon="9.96329"><ele>214</ele></trkpt>
<trkpt lat="49.77142" lon="9.96344"><ele>214</ele></trkpt>
<trkpt lat="49.77164" lon="9.96353"><ele>214</ele></trkpt>
<trkpt lat="49.77197" lon="9.96349"><ele>217</ele></trkpt>
<trkpt lat="49.77213" lon="9.96355"><ele>218</ele></trkpt>
<trkpt lat="49.77236" lon="9.96347"><ele>221</ele></trkpt>
<trkpt lat="49.77297" lon="9.96311"><ele>227</ele></trkpt>
<trkpt lat="49.77373" lon="9.96244"><ele>232</ele></trkpt>
<trkpt lat="49.77412" lon="9.96222"><ele>234</ele></trkpt>
<trkpt lat="49.77455" lon="9.96230"><ele>238</ele></trkpt>
<trkpt lat="49.77522" lon="9.96226"><ele>242</ele></trkpt>
<trkpt lat="49.77544" lon="9.96236"><ele>242</ele></trkpt>
<trkpt lat="49.77566" lon="9.96268"><ele>243</ele></trkpt>
<trkpt lat="49.77587" lon="9.96259"><ele>245</ele></trkpt>
<trkpt lat="49.77602" lon="9.96244"><ele>246</ele></trkpt>
<trkpt lat="49.77619" lon="9.96209"><ele>248</ele></trkpt>
<trkpt lat="49.77638" lon="9.96144"><ele>254</ele></trkpt>
<trkpt lat="49.77643" lon="9.96116"><ele>256</ele></trkpt>
<trkpt lat="49.77652" lon="9.95978"><ele>262</ele></trkpt>
<trkpt lat="49.77665" lon="9.95895"><ele>263</ele></trkpt>
<trkpt lat="49.77679" lon="9.95839"><ele>264</ele></trkpt>
<trkpt lat="49.77735" lon="9.95720"><ele>265</ele></trkpt>
<trkpt lat="49.77739" lon="9.95702"><ele>265</ele></trkpt>
<trkpt lat="49.77756" lon="9.95696"><ele>265</ele></trkpt>
<trkpt lat="49.77786" lon="9.95696"><ele>265</ele></trkpt>
<trkpt lat="49.77789" lon="9.95678"><ele>265</ele></trkpt>
<trkpt lat="49.77799" lon="9.95657"><ele>265</ele></trkpt>
<trkpt lat="49.77796" lon="9.95589"><ele>264</ele></trkpt>
<trkpt lat="49.77798" lon="9.95541"><ele>264</ele></trkpt>
<trkpt lat="49.77824" lon="9.95439"><ele>263</ele></trkpt>
<trkpt lat="49.77831" lon="9.95425"><ele>263</ele></trkpt>
<trkpt lat="49.77841" lon="9.95423"><ele>263</ele></trkpt>
<trkpt lat="49.77850" lon="9.95391"><ele>262</ele></trkpt>
<trkpt lat="49.77868" lon="9.95290"><ele>261</ele></trkpt>
<trkpt lat="49.77869" lon="9.95254"><ele>259</ele></trkpt>
<trkpt lat="49.77866" lon="9.95175"><ele>256</ele></trkpt>
<trkpt lat="49.77878" lon="9.95023"><ele>248</ele></trkpt>
<trkpt lat="49.77881" lon="9.95004"><ele>246</ele></trkpt>
<trkpt lat="49.77914" lon="9.94927"><ele>241</ele></trkpt>
<trkpt lat="49.77923" lon="9.94894"><ele>238</ele></trkpt>
<trkpt lat="49.77925" lon="9.94865"><ele>235</ele></trkpt>
<trkpt lat="49.77918" lon="9.94702"><ele>223</ele></trkpt>
<trkpt lat="49.77919" lon="9.94665"><ele>221</ele></trkpt>
<trkpt lat="49.77927" lon="9.94626"><ele>218</ele></trkpt>
<trkpt lat="49.77947" lon="9.94577"><ele>214</ele></trkpt>
<trkpt lat="49.77960" lon="9.94558"><ele>212</ele></trkpt>
<trkpt lat="49.77971" lon="9.94549"><ele>212</ele></trkpt>
<trkpt lat="49.78004" lon="9.94544"><ele>209</ele></trkpt>
<trkpt lat="49.78023" lon="9.94533"><ele>208</ele></trkpt>
<trkpt lat="49.78065" lon="9.94466"><ele>204</ele></trkpt>
<trkpt lat="49.78120" lon="9.94545"><ele>206</ele></trkpt>
<trkpt lat="49.78229" lon="9.94667"><ele>208</ele></trkpt>
<trkpt lat="49.78249" lon="9.94693"><ele>208</ele></trkpt>
<trkpt lat="49.78274" lon="9.94743"><ele>208</ele></trkpt>
<trkpt lat="49.78310" lon="9.94853"><ele>209</ele></trkpt>
<trkpt lat="49.78331" lon="9.94835"><ele>207</ele></trkpt>
<trkpt lat="49.78435" lon="9.94776"><ele>201</ele></trkpt>
<trkpt lat="49.78447" lon="9.94834"><ele>202</ele></trkpt>
<trkpt lat="49.78456" lon="9.94853"><ele>202</ele></trkpt>
<trkpt lat="49.78482" lon="9.94889"><ele>203</ele></trkpt>
<trkpt lat="49.78497" lon="9.94900"><ele>203</ele></trkpt>
<trkpt lat="49.78589" lon="9.94999"><ele>205</ele></trkpt>
<trkpt lat="49.78763" lon="9.95216"><ele>205</ele></trkpt>
<trkpt lat="49.78796" lon="9.95249"><ele>206</ele></trkpt>
<trkpt lat="49.78839" lon="9.95282"><ele>208</ele></trkpt>
<trkpt lat="49.78901" lon="9.95312"><ele>212</ele></trkpt>
<trkpt lat="49.79100" lon="9.95337"><ele>226</ele></trkpt>
<trkpt lat="49.79106" lon="9.95327"><ele>226</ele></trkpt>
<trkpt lat="49.79134" lon="9.95331"><ele>226</ele></trkpt>
<trkpt lat="49.79133" lon="9.95340"><ele>228</ele></trkpt>
    </trkseg>
  </trk>
</gpx>
