<?xml version="1.0" encoding="UTF-8"?>
<gpx version="1.1" creator="Gravel Kompass" xmlns="http://www.topografix.com/GPX/1/1">
  <metadata><name>München – Haltern am See: Von der Isar ins Münsterland – Etappe 5</name></metadata>
  <trk>
    <name>Etappe 5: Rothenburg ob der Tauber – Bad Mergentheim</name>
    <trkseg>
<trkpt lat="49.37622" lon="10.18280"><ele>423</ele></trkpt>
<trkpt lat="49.37553" lon="10.18102"><ele>418</ele></trkpt>
<trkpt lat="49.37525" lon="10.18041"><ele>414</ele></trkpt>
<trkpt lat="49.37509" lon="10.17990"><ele>411</ele></trkpt>
<trkpt lat="49.37472" lon="10.18001"><ele>409</ele></trkpt>
<trkpt lat="49.37450" lon="10.18002"><ele>408</ele></trkpt>
<trkpt lat="49.37391" lon="10.17988"><ele>403</ele></trkpt>
<trkpt lat="49.37351" lon="10.17963"><ele>396</ele></trkpt>
<trkpt lat="49.37297" lon="10.17889"><ele>386</ele></trkpt>
<trkpt lat="49.37296" lon="10.17871"><ele>382</ele></trkpt>
<trkpt lat="49.37283" lon="10.17841"><ele>379</ele></trkpt>
<trkpt lat="49.37268" lon="10.17784"><ele>372</ele></trkpt>
<trkpt lat="49.37215" lon="10.17692"><ele>360</ele></trkpt>
<trkpt lat="49.37217" lon="10.17684"><ele>359</ele></trkpt>
<trkpt lat="49.37235" lon="10.17661"><ele>356</ele></trkpt>
<trkpt lat="49.37343" lon="10.17565"><ele>355</ele></trkpt>
<trkpt lat="49.37352" lon="10.17552"><ele>354</ele></trkpt>
<trkpt lat="49.37375" lon="10.17480"><ele>355</ele></trkpt>
<trkpt lat="49.37380" lon="10.17449"><ele>355</ele></trkpt>
<trkpt lat="49.37378" lon="10.17429"><ele>355</ele></trkpt>
<trkpt lat="49.37350" lon="10.17331"><ele>356</ele></trkpt>
<trkpt lat="49.37329" lon="10.17218"><ele>358</ele></trkpt>
<trkpt lat="49.37334" lon="10.17169"><ele>356</ele></trkpt>
<trkpt lat="49.37338" lon="10.17086"><ele>353</ele></trkpt>
<trkpt lat="49.37346" lon="10.17046"><ele>353</ele></trkpt>
<trkpt lat="49.37355" lon="10.17020"><ele>352</ele></trkpt>
<trkpt lat="49.37381" lon="10.16979"><ele>348</ele></trkpt>
<trkpt lat="49.37407" lon="10.16919"><ele>345</ele></trkpt>
<trkpt lat="49.37425" lon="10.16883"><ele>345</ele></trkpt>
<trkpt lat="49.37439" lon="10.16861"><ele>345</ele></trkpt>
<trkpt lat="49.37489" lon="10.16810"><ele>346</ele></trkpt>
<trkpt lat="49.37504" lon="10.16802"><ele>347</ele></trkpt>
<trkpt lat="49.37542" lon="10.16795"><ele>345</ele></trkpt>
<trkpt lat="49.37575" lon="10.16778"><ele>344</ele></trkpt>
<trkpt lat="49.37586" lon="10.16776"><ele>343</ele></trkpt>
<trkpt lat="49.37604" lon="10.16779"><ele>344</ele></trkpt>
<trkpt lat="49.37634" lon="10.16797"><ele>345</ele></trkpt>
<trkpt lat="49.37660" lon="10.16835"><ele>344</ele></trkpt>
<trkpt lat="49.37667" lon="10.16852"><ele>343</ele></trkpt>
<trkpt lat="49.37668" lon="10.16871"><ele>342</ele></trkpt>
<trkpt lat="49.37661" lon="10.16899"><ele>340</ele></trkpt>
<trkpt lat="49.37659" lon="10.16928"><ele>340</ele></trkpt>
<trkpt lat="49.37662" lon="10.16941"><ele>340</ele></trkpt>
<trkpt lat="49.37679" lon="10.16958"><ele>339</ele></trkpt>
<trkpt lat="49.37701" lon="10.16992"><ele>340</ele></trkpt>
<trkpt lat="49.37721" lon="10.17048"><ele>339</ele></trkpt>
<trkpt lat="49.37735" lon="10.17116"><ele>340</ele></trkpt>
<trkpt lat="49.37747" lon="10.17202"><ele>339</ele></trkpt>
<trkpt lat="49.37761" lon="10.17253"><ele>338</ele></trkpt>
<trkpt lat="49.37782" lon="10.17298"><ele>338</ele></trkpt>
<trkpt lat="49.37798" lon="10.17319"><ele>338</ele></trkpt>
<trkpt lat="49.37823" lon="10.17338"><ele>338</ele></trkpt>
<trkpt lat="49.37862" lon="10.17351"><ele>338</ele></trkpt>
<trkpt lat="49.37884" lon="10.17340"><ele>338</ele></trkpt>
<trkpt lat="49.37946" lon="10.17257"><ele>336</ele></trkpt>
<trkpt lat="49.37955" lon="10.17221"><ele>336</ele></trkpt>
<trkpt lat="49.37996" lon="10.17174"><ele>336</ele></trkpt>
<trkpt lat="49.38043" lon="10.17085"><ele>335</ele></trkpt>
<trkpt lat="49.38074" lon="10.17048"><ele>336</ele></trkpt>
<trkpt lat="49.38138" lon="10.17008"><ele>338</ele></trkpt>
<trkpt lat="49.38204" lon="10.17013"><ele>336</ele></trkpt>
<trkpt lat="49.38241" lon="10.17010"><ele>334</ele></trkpt>
<trkpt lat="49.38259" lon="10.17000"><ele>334</ele></trkpt>
<trkpt lat="49.38315" lon="10.16954"><ele>334</ele></trkpt>
<trkpt lat="49.38329" lon="10.16938"><ele>333</ele></trkpt>
<trkpt lat="49.38417" lon="10.16796"><ele>333</ele></trkpt>
<trkpt lat="49.38499" lon="10.16673"><ele>332</ele></trkpt>
<trkpt lat="49.38518" lon="10.16682"><ele>332</ele></trkpt>
<trkpt lat="49.38589" lon="10.16696"><ele>332</ele></trkpt>
<trkpt lat="49.38640" lon="10.16731"><ele>332</ele></trkpt>
<trkpt lat="49.38653" lon="10.16732"><ele>332</ele></trkpt>
<trkpt lat="49.38660" lon="10.16711"><ele>332</ele></trkpt>
<trkpt lat="49.38668" lon="10.16708"><ele>332</ele></trkpt>
<trkpt lat="49.38720" lon="10.16712"><ele>332</ele></trkpt>
<trkpt lat="49.38752" lon="10.16708"><ele>331</ele></trkpt>
<trkpt lat="49.38761" lon="10.16691"><ele>331</ele></trkpt>
<trkpt lat="49.38760" lon="10.16634"><ele>330</ele></trkpt>
<trkpt lat="49.38763" lon="10.16624"><ele>330</ele></trkpt>
<trkpt lat="49.38771" lon="10.16614"><ele>330</ele></trkpt>
<trkpt lat="49.38792" lon="10.16602"><ele>330</ele></trkpt>
<trkpt lat="49.38815" lon="10.16603"><ele>330</ele></trkpt>
<trkpt lat="49.38873" lon="10.16620"><ele>330</ele></trkpt>
<trkpt lat="49.38890" lon="10.16556"><ele>330</ele></trkpt>
<trkpt lat="49.38926" lon="10.16515"><ele>330</ele></trkpt>
<trkpt lat="49.39114" lon="10.16485"><ele>328</ele></trkpt>
<trkpt lat="49.39124" lon="10.16477"><ele>328</ele></trkpt>
<trkpt lat="49.39146" lon="10.16434"><ele>332</ele></trkpt>
<trkpt lat="49.39153" lon="10.16428"><ele>333</ele></trkpt>
<trkpt lat="49.39177" lon="10.16427"><ele>333</ele></trkpt>
<trkpt lat="49.39250" lon="10.16438"><ele>335</ele></trkpt>
<trkpt lat="49.39272" lon="10.16450"><ele>334</ele></trkpt>
<trkpt lat="49.39294" lon="10.16467"><ele>332</ele></trkpt>
<trkpt lat="49.39323" lon="10.16502"><ele>330</ele></trkpt>
<trkpt lat="49.39357" lon="10.16554"><ele>328</ele></trkpt>
<trkpt lat="49.39410" lon="10.16650"><ele>328</ele></trkpt>
<trkpt lat="49.39438" lon="10.16638"><ele>330</ele></trkpt>
<trkpt lat="49.39459" lon="10.16618"><ele>332</ele></trkpt>
<trkpt lat="49.39516" lon="10.16635"><ele>331</ele></trkpt>
<trkpt lat="49.39571" lon="10.16632"><ele>330</ele></trkpt>
<trkpt lat="49.39597" lon="10.16609"><ele>330</ele></trkpt>
<trkpt lat="49.39612" lon="10.16587"><ele>330</ele></trkpt>
<trkpt lat="49.39647" lon="10.16516"><ele>333</ele></trkpt>
<trkpt lat="49.39678" lon="10.16381"><ele>335</ele></trkpt>
<trkpt lat="49.39689" lon="10.16343"><ele>335</ele></trkpt>
<trkpt lat="49.39728" lon="10.16239"><ele>336</ele></trkpt>
<trkpt lat="49.39747" lon="10.16164"><ele>336</ele></trkpt>
<trkpt lat="49.39758" lon="10.16109"><ele>337</ele></trkpt>
<trkpt lat="49.39768" lon="10.16032"><ele>338</ele></trkpt>
<trkpt lat="49.39783" lon="10.15972"><ele>336</ele></trkpt>
<trkpt lat="49.39794" lon="10.15935"><ele>336</ele></trkpt>
<trkpt lat="49.39815" lon="10.15887"><ele>334</ele></trkpt>
<trkpt lat="49.39831" lon="10.15859"><ele>336</ele></trkpt>
<trkpt lat="49.39890" lon="10.15775"><ele>330</ele></trkpt>
<trkpt lat="49.39938" lon="10.15714"><ele>326</ele></trkpt>
<trkpt lat="49.39952" lon="10.15704"><ele>325</ele></trkpt>
<trkpt lat="49.39971" lon="10.15707"><ele>327</ele></trkpt>
<trkpt lat="49.39975" lon="10.15732"><ele>326</ele></trkpt>
<trkpt lat="49.39981" lon="10.15743"><ele>324</ele></trkpt>
<trkpt lat="49.40002" lon="10.15748"><ele>323</ele></trkpt>
<trkpt lat="49.40023" lon="10.15745"><ele>322</ele></trkpt>
<trkpt lat="49.40062" lon="10.15721"><ele>322</ele></trkpt>
<trkpt lat="49.40190" lon="10.15615"><ele>320</ele></trkpt>
<trkpt lat="49.40213" lon="10.15591"><ele>319</ele></trkpt>
<trkpt lat="49.40234" lon="10.15541"><ele>320</ele></trkpt>
<trkpt lat="49.40285" lon="10.15452"><ele>320</ele></trkpt>
<trkpt lat="49.40297" lon="10.15437"><ele>322</ele></trkpt>
<trkpt lat="49.40349" lon="10.15393"><ele>328</ele></trkpt>
<trkpt lat="49.40437" lon="10.15357"><ele>327</ele></trkpt>
<trkpt lat="49.40613" lon="10.15319"><ele>318</ele></trkpt>
<trkpt lat="49.40643" lon="10.15320"><ele>317</ele></trkpt>
<trkpt lat="49.40706" lon="10.15334"><ele>317</ele></trkpt>
<trkpt lat="49.40740" lon="10.15335"><ele>316</ele></trkpt>
<trkpt lat="49.40799" lon="10.15285"><ele>317</ele></trkpt>
<trkpt lat="49.40933" lon="10.15151"><ele>316</ele></trkpt>
<trkpt lat="49.40946" lon="10.15142"><ele>316</ele></trkpt>
<trkpt lat="49.40971" lon="10.15135"><ele>317</ele></trkpt>
<trkpt lat="49.41026" lon="10.15139"><ele>318</ele></trkpt>
<trkpt lat="49.41035" lon="10.15146"><ele>317</ele></trkpt>
<trkpt lat="49.41059" lon="10.15173"><ele>317</ele></trkpt>
<trkpt lat="49.41077" lon="10.15207"><ele>318</ele></trkpt>
<trkpt lat="49.41132" lon="10.15274"><ele>316</ele></trkpt>
<trkpt lat="49.41140" lon="10.15277"><ele>316</ele></trkpt>
<trkpt lat="49.41150" lon="10.15272"><ele>316</ele></trkpt>
<trkpt lat="49.41225" lon="10.15209"><ele>320</ele></trkpt>
<trkpt lat="49.41232" lon="10.15210"><ele>319</ele></trkpt>
<trkpt lat="49.41267" lon="10.15176"><ele>318</ele></trkpt>
<trkpt lat="49.41354" lon="10.15053"><ele>318</ele></trkpt>
<trkpt lat="49.41420" lon="10.14987"><ele>316</ele></trkpt>
<trkpt lat="49.41439" lon="10.14990"><ele>313</ele></trkpt>
<trkpt lat="49.41475" lon="10.15008"><ele>312</ele></trkpt>
<trkpt lat="49.41508" lon="10.15012"><ele>312</ele></trkpt>
<trkpt lat="49.41529" lon="10.15032"><ele>313</ele></trkpt>
<trkpt lat="49.41541" lon="10.15053"><ele>314</ele></trkpt>
<trkpt lat="49.41574" lon="10.15033"><ele>314</ele></trkpt>
<trkpt lat="49.41590" lon="10.15036"><ele>315</ele></trkpt>
<trkpt lat="49.41598" lon="10.15019"><ele>314</ele></trkpt>
<trkpt lat="49.41615" lon="10.15001"><ele>314</ele></trkpt>
<trkpt lat="49.41648" lon="10.14986"><ele>313</ele></trkpt>
<trkpt lat="49.41672" lon="10.14959"><ele>312</ele></trkpt>
<trkpt lat="49.41686" lon="10.14953"><ele>312</ele></trkpt>
<trkpt lat="49.41698" lon="10.14954"><ele>312</ele></trkpt>
<trkpt lat="49.41710" lon="10.14960"><ele>312</ele></trkpt>
<trkpt lat="49.41754" lon="10.14964"><ele>312</ele></trkpt>
<trkpt lat="49.41772" lon="10.14971"><ele>311</ele></trkpt>
<trkpt lat="49.41828" lon="10.15031"><ele>311</ele></trkpt>
<trkpt lat="49.41870" lon="10.15050"><ele>311</ele></trkpt>
<trkpt lat="49.41879" lon="10.14956"><ele>312</ele></trkpt>
<trkpt lat="49.41886" lon="10.14952"><ele>312</ele></trkpt>
<trkpt lat="49.41951" lon="10.14950"><ele>312</ele></trkpt>
<trkpt lat="49.41969" lon="10.14945"><ele>312</ele></trkpt>
<trkpt lat="49.41991" lon="10.14935"><ele>312</ele></trkpt>
<trkpt lat="49.42019" lon="10.14906"><ele>312</ele></trkpt>
<trkpt lat="49.42027" lon="10.14895"><ele>312</ele></trkpt>
<trkpt lat="49.42096" lon="10.14734"><ele>313</ele></trkpt>
<trkpt lat="49.42115" lon="10.14701"><ele>314</ele></trkpt>
<trkpt lat="49.42163" lon="10.14630"><ele>318</ele></trkpt>
<trkpt lat="49.42195" lon="10.14600"><ele>316</ele></trkpt>
<trkpt lat="49.42218" lon="10.14586"><ele>317</ele></trkpt>
<trkpt lat="49.42241" lon="10.14582"><ele>314</ele></trkpt>
<trkpt lat="49.42279" lon="10.14566"><ele>312</ele></trkpt>
<trkpt lat="49.42344" lon="10.14515"><ele>310</ele></trkpt>
<trkpt lat="49.42410" lon="10.14480"><ele>309</ele></trkpt>
<trkpt lat="49.42462" lon="10.14463"><ele>309</ele></trkpt>
<trkpt lat="49.42510" lon="10.14453"><ele>308</ele></trkpt>
<trkpt lat="49.42532" lon="10.14441"><ele>308</ele></trkpt>
<trkpt lat="49.42727" lon="10.14256"><ele>311</ele></trkpt>
<trkpt lat="49.42768" lon="10.14222"><ele>310</ele></trkpt>
<trkpt lat="49.42794" lon="10.14217"><ele>309</ele></trkpt>
<trkpt lat="49.42866" lon="10.14222"><ele>307</ele></trkpt>
<trkpt lat="49.42917" lon="10.14204"><ele>306</ele></trkpt>
<trkpt lat="49.42957" lon="10.14171"><ele>306</ele></trkpt>
<trkpt lat="49.43091" lon="10.14083"><ele>306</ele></trkpt>
<trkpt lat="49.43230" lon="10.13981"><ele>307</ele></trkpt>
<trkpt lat="49.43256" lon="10.13978"><ele>308</ele></trkpt>
<trkpt lat="49.43276" lon="10.13983"><ele>308</ele></trkpt>
<trkpt lat="49.43391" lon="10.14058"><ele>305</ele></trkpt>
<trkpt lat="49.43406" lon="10.14062"><ele>304</ele></trkpt>
<trkpt lat="49.43420" lon="10.14060"><ele>304</ele></trkpt>
<trkpt lat="49.43528" lon="10.13970"><ele>303</ele></trkpt>
<trkpt lat="49.43550" lon="10.13943"><ele>303</ele></trkpt>
<trkpt lat="49.43563" lon="10.13905"><ele>302</ele></trkpt>
<trkpt lat="49.43581" lon="10.13778"><ele>303</ele></trkpt>
<trkpt lat="49.43604" lon="10.13733"><ele>305</ele></trkpt>
<trkpt lat="49.43628" lon="10.13719"><ele>304</ele></trkpt>
<trkpt lat="49.43689" lon="10.13724"><ele>302</ele></trkpt>
<trkpt lat="49.43813" lon="10.13679"><ele>303</ele></trkpt>
<trkpt lat="49.43868" lon="10.13641"><ele>302</ele></trkpt>
<trkpt lat="49.43924" lon="10.13591"><ele>302</ele></trkpt>
<trkpt lat="49.43979" lon="10.13550"><ele>302</ele></trkpt>
<trkpt lat="49.44007" lon="10.13514"><ele>301</ele></trkpt>
<trkpt lat="49.44031" lon="10.13444"><ele>301</ele></trkpt>
<trkpt lat="49.44039" lon="10.13406"><ele>301</ele></trkpt>
<trkpt lat="49.44044" lon="10.13356"><ele>301</ele></trkpt>
<trkpt lat="49.44047" lon="10.13215"><ele>300</ele></trkpt>
<trkpt lat="49.44056" lon="10.13026"><ele>300</ele></trkpt>
<trkpt lat="49.44051" lon="10.12933"><ele>303</ele></trkpt>
<trkpt lat="49.44057" lon="10.12885"><ele>305</ele></trkpt>
<trkpt lat="49.44085" lon="10.12766"><ele>313</ele></trkpt>
<trkpt lat="49.44092" lon="10.12744"><ele>314</ele></trkpt>
<trkpt lat="49.44229" lon="10.12560"><ele>307</ele></trkpt>
<trkpt lat="49.44261" lon="10.12509"><ele>306</ele></trkpt>
<trkpt lat="49.44324" lon="10.12434"><ele>305</ele></trkpt>
<trkpt lat="49.44388" lon="10.12364"><ele>305</ele></trkpt>
<trkpt lat="49.44491" lon="10.12291"><ele>299</ele></trkpt>
<trkpt lat="49.44505" lon="10.12277"><ele>299</ele></trkpt>
<trkpt lat="49.44546" lon="10.12195"><ele>300</ele></trkpt>
<trkpt lat="49.44592" lon="10.12116"><ele>299</ele></trkpt>
<trkpt lat="49.44600" lon="10.12059"><ele>300</ele></trkpt>
<trkpt lat="49.44599" lon="10.12040"><ele>301</ele></trkpt>
<trkpt lat="49.44589" lon="10.11921"><ele>307</ele></trkpt>
<trkpt lat="49.44570" lon="10.11790"><ele>318</ele></trkpt>
<trkpt lat="49.44571" lon="10.11626"><ele>321</ele></trkpt>
<trkpt lat="49.44594" lon="10.11565"><ele>316</ele></trkpt>
<trkpt lat="49.44624" lon="10.11453"><ele>314</ele></trkpt>
<trkpt lat="49.44683" lon="10.11316"><ele>303</ele></trkpt>
<trkpt lat="49.44706" lon="10.11253"><ele>298</ele></trkpt>
<trkpt lat="49.44710" lon="10.11227"><ele>298</ele></trkpt>
<trkpt lat="49.44715" lon="10.11077"><ele>294</ele></trkpt>
<trkpt lat="49.44704" lon="10.11073"><ele>294</ele></trkpt>
<trkpt lat="49.44695" lon="10.11060"><ele>295</ele></trkpt>
<trkpt lat="49.44642" lon="10.10970"><ele>294</ele></trkpt>
<trkpt lat="49.44585" lon="10.10894"><ele>296</ele></trkpt>
<trkpt lat="49.44517" lon="10.10791"><ele>296</ele></trkpt>
<trkpt lat="49.44481" lon="10.10703"><ele>294</ele></trkpt>
<trkpt lat="49.44471" lon="10.10674"><ele>293</ele></trkpt>
<trkpt lat="49.44467" lon="10.10642"><ele>294</ele></trkpt>
<trkpt lat="49.44474" lon="10.10587"><ele>292</ele></trkpt>
<trkpt lat="49.44476" lon="10.10528"><ele>292</ele></trkpt>
<trkpt lat="49.44481" lon="10.10456"><ele>291</ele></trkpt>
<trkpt lat="49.44487" lon="10.10418"><ele>291</ele></trkpt>
<trkpt lat="49.44508" lon="10.10334"><ele>290</ele></trkpt>
<trkpt lat="49.44514" lon="10.10319"><ele>291</ele></trkpt>
<trkpt lat="49.44523" lon="10.10314"><ele>291</ele></trkpt>
<trkpt lat="49.44536" lon="10.10315"><ele>290</ele></trkpt>
<trkpt lat="49.44544" lon="10.10309"><ele>291</ele></trkpt>
<trkpt lat="49.44575" lon="10.10250"><ele>290</ele></trkpt>
<trkpt lat="49.44583" lon="10.10225"><ele>291</ele></trkpt>
<trkpt lat="49.44582" lon="10.10210"><ele>291</ele></trkpt>
<trkpt lat="49.44592" lon="10.10176"><ele>290</ele></trkpt>
<trkpt lat="49.44582" lon="10.10122"><ele>291</ele></trkpt>
<trkpt lat="49.44586" lon="10.10072"><ele>292</ele></trkpt>
<trkpt lat="49.44628" lon="10.09875"><ele>292</ele></trkpt>
<trkpt lat="49.44652" lon="10.09663"><ele>298</ele></trkpt>
<trkpt lat="49.44680" lon="10.09553"><ele>300</ele></trkpt>
<trkpt lat="49.44739" lon="10.09292"><ele>305</ele></trkpt>
<trkpt lat="49.44744" lon="10.09237"><ele>305</ele></trkpt>
<trkpt lat="49.44737" lon="10.09168"><ele>306</ele></trkpt>
<trkpt lat="49.44717" lon="10.09029"><ele>309</ele></trkpt>
<trkpt lat="49.44707" lon="10.08839"><ele>313</ele></trkpt>
<trkpt lat="49.44706" lon="10.08754"><ele>317</ele></trkpt>
<trkpt lat="49.44716" lon="10.08693"><ele>318</ele></trkpt>
<trkpt lat="49.44753" lon="10.08526"><ele>320</ele></trkpt>
<trkpt lat="49.44767" lon="10.08478"><ele>322</ele></trkpt>
<trkpt lat="49.44868" lon="10.08209"><ele>319</ele></trkpt>
<trkpt lat="49.44884" lon="10.08136"><ele>320</ele></trkpt>
<trkpt lat="49.44926" lon="10.07881"><ele>321</ele></trkpt>
<trkpt lat="49.44940" lon="10.07757"><ele>322</ele></trkpt>
<trkpt lat="49.44951" lon="10.07690"><ele>322</ele></trkpt>
<trkpt lat="49.44998" lon="10.07580"><ele>315</ele></trkpt>
<trkpt lat="49.45053" lon="10.07375"><ele>308</ele></trkpt>
<trkpt lat="49.45106" lon="10.07224"><ele>306</ele></trkpt>
<trkpt lat="49.45157" lon="10.07103"><ele>300</ele></trkpt>
<trkpt lat="49.45175" lon="10.07076"><ele>298</ele></trkpt>
<trkpt lat="49.45218" lon="10.07026"><ele>292</ele></trkpt>
<trkpt lat="49.45262" lon="10.06932"><ele>290</ele></trkpt>
<trkpt lat="49.45281" lon="10.06885"><ele>290</ele></trkpt>
<trkpt lat="49.45302" lon="10.06794"><ele>290</ele></trkpt>
<trkpt lat="49.45356" lon="10.06690"><ele>289</ele></trkpt>
<trkpt lat="49.45511" lon="10.06318"><ele>291</ele></trkpt>
<trkpt lat="49.45528" lon="10.06273"><ele>292</ele></trkpt>
<trkpt lat="49.45536" lon="10.06240"><ele>292</ele></trkpt>
<trkpt lat="49.45539" lon="10.06206"><ele>295</ele></trkpt>
<trkpt lat="49.45570" lon="10.06131"><ele>298</ele></trkpt>
<trkpt lat="49.45600" lon="10.06087"><ele>300</ele></trkpt>
<trkpt lat="49.45676" lon="10.06020"><ele>296</ele></trkpt>
<trkpt lat="49.45954" lon="10.05661"><ele>286</ele></trkpt>
<trkpt lat="49.45997" lon="10.05596"><ele>284</ele></trkpt>
<trkpt lat="49.46049" lon="10.05501"><ele>283</ele></trkpt>
<trkpt lat="49.46131" lon="10.05367"><ele>282</ele></trkpt>
<trkpt lat="49.46198" lon="10.05276"><ele>280</ele></trkpt>
<trkpt lat="49.46247" lon="10.05198"><ele>279</ele></trkpt>
<trkpt lat="49.46333" lon="10.05103"><ele>274</ele></trkpt>
<trkpt lat="49.46358" lon="10.05070"><ele>274</ele></trkpt>
<trkpt lat="49.46362" lon="10.05061"><ele>274</ele></trkpt>
<trkpt lat="49.46364" lon="10.05039"><ele>274</ele></trkpt>
<trkpt lat="49.46386" lon="10.04719"><ele>277</ele></trkpt>
<trkpt lat="49.46426" lon="10.04480"><ele>278</ele></trkpt>
<trkpt lat="49.46437" lon="10.04441"><ele>277</ele></trkpt>
<trkpt lat="49.46504" lon="10.04265"><ele>276</ele></trkpt>
<trkpt lat="49.46594" lon="10.03946"><ele>281</ele></trkpt>
<trkpt lat="49.46660" lon="10.03754"><ele>282</ele></trkpt>
<trkpt lat="49.46686" lon="10.03685"><ele>280</ele></trkpt>
<trkpt lat="49.46762" lon="10.03532"><ele>276</ele></trkpt>
<trkpt lat="49.46780" lon="10.03485"><ele>276</ele></trkpt>
<trkpt lat="49.46802" lon="10.03405"><ele>275</ele></trkpt>
<trkpt lat="49.46812" lon="10.03346"><ele>276</ele></trkpt>
<trkpt lat="49.46815" lon="10.03310"><ele>277</ele></trkpt>
<trkpt lat="49.46812" lon="10.03246"><ele>277</ele></trkpt>
<trkpt lat="49.46818" lon="10.03207"><ele>274</ele></trkpt>
<trkpt lat="49.46832" lon="10.03170"><ele>272</ele></trkpt>
<trkpt lat="49.46848" lon="10.03156"><ele>270</ele></trkpt>
<trkpt lat="49.46865" lon="10.03116"><ele>269</ele></trkpt>
<trkpt lat="49.46867" lon="10.03052"><ele>270</ele></trkpt>
<trkpt lat="49.46879" lon="10.02979"><ele>275</ele></trkpt>
<trkpt lat="49.46938" lon="10.02928"><ele>283</ele></trkpt>
<trkpt lat="49.46990" lon="10.02911"><ele>286</ele></trkpt>
<trkpt lat="49.47001" lon="10.02904"><ele>286</ele></trkpt>
<trkpt lat="49.47015" lon="10.02891"><ele>286</ele></trkpt>
<trkpt lat="49.47023" lon="10.02878"><ele>286</ele></trkpt>
<trkpt lat="49.47033" lon="10.02851"><ele>288</ele></trkpt>
<trkpt lat="49.47045" lon="10.02845"><ele>285</ele></trkpt>
<trkpt lat="49.47065" lon="10.02825"><ele>283</ele></trkpt>
<trkpt lat="49.47073" lon="10.02809"><ele>282</ele></trkpt>
<trkpt lat="49.47080" lon="10.02803"><ele>282</ele></trkpt>
<trkpt lat="49.47111" lon="10.02791"><ele>278</ele></trkpt>
<trkpt lat="49.47156" lon="10.02680"><ele>276</ele></trkpt>
<trkpt lat="49.47246" lon="10.02499"><ele>272</ele></trkpt>
<trkpt lat="49.47290" lon="10.02361"><ele>270</ele></trkpt>
<trkpt lat="49.47367" lon="10.02156"><ele>270</ele></trkpt>
<trkpt lat="49.47404" lon="10.02094"><ele>273</ele></trkpt>
<trkpt lat="49.47425" lon="10.02070"><ele>274</ele></trkpt>
<trkpt lat="49.47482" lon="10.02034"><ele>271</ele></trkpt>
<trkpt lat="49.47621" lon="10.01922"><ele>272</ele></trkpt>
<trkpt lat="49.47737" lon="10.01802"><ele>272</ele></trkpt>
<trkpt lat="49.47756" lon="10.01789"><ele>272</ele></trkpt>
<trkpt lat="49.47778" lon="10.01778"><ele>272</ele></trkpt>
<trkpt lat="49.47884" lon="10.01740"><ele>270</ele></trkpt>
<trkpt lat="49.47946" lon="10.01725"><ele>269</ele></trkpt>
<trkpt lat="49.48056" lon="10.01678"><ele>271</ele></trkpt>
<trkpt lat="49.48144" lon="10.01562"><ele>274</ele></trkpt>
<trkpt lat="49.48153" lon="10.01542"><ele>274</ele></trkpt>
<trkpt lat="49.48157" lon="10.01525"><ele>274</ele></trkpt>
<trkpt lat="49.48158" lon="10.01485"><ele>274</ele></trkpt>
<trkpt lat="49.48139" lon="10.01384"><ele>275</ele></trkpt>
<trkpt lat="49.48065" lon="10.01155"><ele>280</ele></trkpt>
<trkpt lat="49.48038" lon="10.01040"><ele>284</ele></trkpt>
<trkpt lat="49.48033" lon="10.00983"><ele>284</ele></trkpt>
<trkpt lat="49.48034" lon="10.00863"><ele>285</ele></trkpt>
<trkpt lat="49.48018" lon="10.00455"><ele>284</ele></trkpt>
<trkpt lat="49.47982" lon="10.00318"><ele>284</ele></trkpt>
<trkpt lat="49.47961" lon="10.00272"><ele>284</ele></trkpt>
<trkpt lat="49.47891" lon="10.00149"><ele>283</ele></trkpt>
<trkpt lat="49.47739" lon="10.00009"><ele>284</ele></trkpt>
<trkpt lat="49.47627" lon="9.99919"><ele>286</ele></trkpt>
<trkpt lat="49.47559" lon="9.99844"><ele>285</ele></trkpt>
<trkpt lat="49.47547" lon="9.99844"><ele>286</ele></trkpt>
<trkpt lat="49.47512" lon="9.99797"><ele>286</ele></trkpt>
<trkpt lat="49.47508" lon="9.99789"><ele>286</ele></trkpt>
<trkpt lat="49.47507" lon="9.99773"><ele>286</ele></trkpt>
<trkpt lat="49.47508" lon="9.99741"><ele>286</ele></trkpt>
<trkpt lat="49.47514" lon="9.99717"><ele>286</ele></trkpt>
<trkpt lat="49.47510" lon="9.99684"><ele>286</ele></trkpt>
<trkpt lat="49.47532" lon="9.99696"><ele>286</ele></trkpt>
<trkpt lat="49.47545" lon="9.99708"><ele>286</ele></trkpt>
<trkpt lat="49.47581" lon="9.99754"><ele>286</ele></trkpt>
<trkpt lat="49.47602" lon="9.99757"><ele>291</ele></trkpt>
<trkpt lat="49.47609" lon="9.99747"><ele>295</ele></trkpt>
<trkpt lat="49.47600" lon="9.99715"><ele>296</ele></trkpt>
<trkpt lat="49.47602" lon="9.99704"><ele>298</ele></trkpt>
<trkpt lat="49.47590" lon="9.99653"><ele>300</ele></trkpt>
<trkpt lat="49.47586" lon="9.99614"><ele>302</ele></trkpt>
<trkpt lat="49.47615" lon="9.99426"><ele>314</ele></trkpt>
<trkpt lat="49.47628" lon="9.99360"><ele>317</ele></trkpt>
<trkpt lat="49.47643" lon="9.99302"><ele>320</ele></trkpt>
<trkpt lat="49.47661" lon="9.99268"><ele>321</ele></trkpt>
<trkpt lat="49.47667" lon="9.99249"><ele>321</ele></trkpt>
<trkpt lat="49.47670" lon="9.99227"><ele>321</ele></trkpt>
<trkpt lat="49.47758" lon="9.99176"><ele>334</ele></trkpt>
<trkpt lat="49.47814" lon="9.99134"><ele>342</ele></trkpt>
<trkpt lat="49.47849" lon="9.99039"><ele>348</ele></trkpt>
<trkpt lat="49.47860" lon="9.98880"><ele>352</ele></trkpt>
<trkpt lat="49.47793" lon="9.98361"><ele>364</ele></trkpt>
<trkpt lat="49.47721" lon="9.98039"><ele>370</ele></trkpt>
<trkpt lat="49.47701" lon="9.97824"><ele>374</ele></trkpt>
<trkpt lat="49.47724" lon="9.97466"><ele>380</ele></trkpt>
<trkpt lat="49.47791" lon="9.97209"><ele>392</ele></trkpt>
<trkpt lat="49.47862" lon="9.97065"><ele>398</ele></trkpt>
<trkpt lat="49.47850" lon="9.97030"><ele>397</ele></trkpt>
<trkpt lat="49.47832" lon="9.97011"><ele>396</ele></trkpt>
<trkpt lat="49.47811" lon="9.96981"><ele>396</ele></trkpt>
<trkpt lat="49.47800" lon="9.96891"><ele>399</ele></trkpt>
<trkpt lat="49.47782" lon="9.96783"><ele>402</ele></trkpt>
<trkpt lat="49.47775" lon="9.96643"><ele>405</ele></trkpt>
<trkpt lat="49.47743" lon="9.96280"><ele>406</ele></trkpt>
<trkpt lat="49.47737" lon="9.96249"><ele>406</ele></trkpt>
<trkpt lat="49.47725" lon="9.96210"><ele>405</ele></trkpt>
<trkpt lat="49.47698" lon="9.96157"><ele>403</ele></trkpt>
<trkpt lat="49.47709" lon="9.96143"><ele>404</ele></trkpt>
<trkpt lat="49.47737" lon="9.96086"><ele>406</ele></trkpt>
<trkpt lat="49.47886" lon="9.95869"><ele>406</ele></trkpt>
<trkpt lat="49.48019" lon="9.95564"><ele>397</ele></trkpt>
<trkpt lat="49.48039" lon="9.95534"><ele>396</ele></trkpt>
<trkpt lat="49.48062" lon="9.95491"><ele>394</ele></trkpt>
<trkpt lat="49.48022" lon="9.95463"><ele>395</ele></trkpt>
<trkpt lat="49.47917" lon="9.95370"><ele>394</ele></trkpt>
<trkpt lat="49.47715" lon="9.95119"><ele>383</ele></trkpt>
<trkpt lat="49.47671" lon="9.95082"><ele>377</ele></trkpt>
<trkpt lat="49.47654" lon="9.95076"><ele>375</ele></trkpt>
<trkpt lat="49.47627" lon="9.95073"><ele>372</ele></trkpt>
<trkpt lat="49.47586" lon="9.95074"><ele>368</ele></trkpt>
<trkpt lat="49.47523" lon="9.95058"><ele>362</ele></trkpt>
<trkpt lat="49.47486" lon="9.95036"><ele>358</ele></trkpt>
<trkpt lat="49.47427" lon="9.94971"><ele>352</ele></trkpt>
<trkpt lat="49.47322" lon="9.94931"><ele>342</ele></trkpt>
<trkpt lat="49.47299" lon="9.94933"><ele>342</ele></trkpt>
<trkpt lat="49.47231" lon="9.94916"><ele>345</ele></trkpt>
<trkpt lat="49.47219" lon="9.94817"><ele>346</ele></trkpt>
<trkpt lat="49.47217" lon="9.94769"><ele>347</ele></trkpt>
<trkpt lat="49.47219" lon="9.94735"><ele>346</ele></trkpt>
<trkpt lat="49.47211" lon="9.94641"><ele>345</ele></trkpt>
<trkpt lat="49.47198" lon="9.94578"><ele>344</ele></trkpt>
<trkpt lat="49.47176" lon="9.94518"><ele>343</ele></trkpt>
<trkpt lat="49.47173" lon="9.94485"><ele>342</ele></trkpt>
<trkpt lat="49.47189" lon="9.94366"><ele>342</ele></trkpt>
<trkpt lat="49.47201" lon="9.94308"><ele>344</ele></trkpt>
<trkpt lat="49.47228" lon="9.94235"><ele>346</ele></trkpt>
<trkpt lat="49.47255" lon="9.94075"><ele>345</ele></trkpt>
<trkpt lat="49.47303" lon="9.93891"><ele>335</ele></trkpt>
<trkpt lat="49.47303" lon="9.93858"><ele>334</ele></trkpt>
<trkpt lat="49.47266" lon="9.93708"><ele>328</ele></trkpt>
<trkpt lat="49.47254" lon="9.93670"><ele>326</ele></trkpt>
<trkpt lat="49.47232" lon="9.93619"><ele>325</ele></trkpt>
<trkpt lat="49.47221" lon="9.93582"><ele>324</ele></trkpt>
<trkpt lat="49.47220" lon="9.93535"><ele>323</ele></trkpt>
<trkpt lat="49.47233" lon="9.93357"><ele>320</ele></trkpt>
<trkpt lat="49.47230" lon="9.93307"><ele>320</ele></trkpt>
<trkpt lat="49.47210" lon="9.93169"><ele>318</ele></trkpt>
<trkpt lat="49.47206" lon="9.93051"><ele>311</ele></trkpt>
<trkpt lat="49.47266" lon="9.92667"><ele>289</ele></trkpt>
<trkpt lat="49.47319" lon="9.92573"><ele>280</ele></trkpt>
<trkpt lat="49.47337" lon="9.92515"><ele>272</ele></trkpt>
<trkpt lat="49.47348" lon="9.92506"><ele>271</ele></trkpt>
<trkpt lat="49.47395" lon="9.92488"><ele>264</ele></trkpt>
<trkpt lat="49.47401" lon="9.92462"><ele>261</ele></trkpt>
<trkpt lat="49.47402" lon="9.92437"><ele>258</ele></trkpt>
<trkpt lat="49.47398" lon="9.92377"><ele>253</ele></trkpt>
<trkpt lat="49.47409" lon="9.92328"><ele>248</ele></trkpt>
<trkpt lat="49.47376" lon="9.92288"><ele>247</ele></trkpt>
<trkpt lat="49.47364" lon="9.92250"><ele>245</ele></trkpt>
<trkpt lat="49.47330" lon="9.92284"><ele>246</ele></trkpt>
<trkpt lat="49.47151" lon="9.92426"><ele>248</ele></trkpt>
<trkpt lat="49.47013" lon="9.92501"><ele>246</ele></trkpt>
<trkpt lat="49.46846" lon="9.92604"><ele>246</ele></trkpt>
<trkpt lat="49.46805" lon="9.92624"><ele>246</ele></trkpt>
<trkpt lat="49.46728" lon="9.92645"><ele>246</ele></trkpt>
<trkpt lat="49.46715" lon="9.92641"><ele>245</ele></trkpt>
<trkpt lat="49.46733" lon="9.92582"><ele>244</ele></trkpt>
<trkpt lat="49.46772" lon="9.92414"><ele>243</ele></trkpt>
<trkpt lat="49.46791" lon="9.92366"><ele>244</ele></trkpt>
<trkpt lat="49.46885" lon="9.92262"><ele>248</ele></trkpt>
<trkpt lat="49.46951" lon="9.92217"><ele>247</ele></trkpt>
<trkpt lat="49.47031" lon="9.92169"><ele>246</ele></trkpt>
<trkpt lat="49.47037" lon="9.92161"><ele>246</ele></trkpt>
<trkpt lat="49.47041" lon="9.92132"><ele>247</ele></trkpt>
<trkpt lat="49.47055" lon="9.92109"><ele>247</ele></trkpt>
<trkpt lat="49.47118" lon="9.92065"><ele>246</ele></trkpt>
<trkpt lat="49.47170" lon="9.92019"><ele>246</ele></trkpt>
<trkpt lat="49.47237" lon="9.91941"><ele>246</ele></trkpt>
<trkpt lat="49.47416" lon="9.91700"><ele>244</ele></trkpt>
<trkpt lat="49.47401" lon="9.91670"><ele>244</ele></trkpt>
<trkpt lat="49.47365" lon="9.91632"><ele>247</ele></trkpt>
<trkpt lat="49.47310" lon="9.91596"><ele>249</ele></trkpt>
<trkpt lat="49.47275" lon="9.91556"><ele>250</ele></trkpt>
<trkpt lat="49.47174" lon="9.91476"><ele>258</ele></trkpt>
<trkpt lat="49.47163" lon="9.91461"><ele>259</ele></trkpt>
<trkpt lat="49.47082" lon="9.91267"><ele>261</ele></trkpt>
<trkpt lat="49.47067" lon="9.91245"><ele>262</ele></trkpt>
<trkpt lat="49.47040" lon="9.91235"><ele>261</ele></trkpt>
<trkpt lat="49.46992" lon="9.91192"><ele>266</ele></trkpt>
<trkpt lat="49.46937" lon="9.91185"><ele>268</ele></trkpt>
<trkpt lat="49.46910" lon="9.91131"><ele>270</ele></trkpt>
<trkpt lat="49.46871" lon="9.91100"><ele>270</ele></trkpt>
<trkpt lat="49.46840" lon="9.91000"><ele>272</ele></trkpt>
<trkpt lat="49.46783" lon="9.90958"><ele>275</ele></trkpt>
<trkpt lat="49.46736" lon="9.90875"><ele>278</ele></trkpt>
<trkpt lat="49.46680" lon="9.90816"><ele>280</ele></trkpt>
<trkpt lat="49.46656" lon="9.90762"><ele>282</ele></trkpt>
<trkpt lat="49.46649" lon="9.90753"><ele>281</ele></trkpt>
<trkpt lat="49.46606" lon="9.90731"><ele>284</ele></trkpt>
<trkpt lat="49.46527" lon="9.90669"><ele>285</ele></trkpt>
<trkpt lat="49.46527" lon="9.90656"><ele>286</ele></trkpt>
<trkpt lat="49.46533" lon="9.90649"><ele>288</ele></trkpt>
<trkpt lat="49.46623" lon="9.90692"><ele>288</ele></trkpt>
<trkpt lat="49.46665" lon="9.90692"><ele>291</ele></trkpt>
<trkpt lat="49.46655" lon="9.90655"><ele>294</ele></trkpt>
<trkpt lat="49.46649" lon="9.90590"><ele>301</ele></trkpt>
<trkpt lat="49.46657" lon="9.90520"><ele>308</ele></trkpt>
<trkpt lat="49.46656" lon="9.90475"><ele>311</ele></trkpt>
<trkpt lat="49.46670" lon="9.90348"><ele>322</ele></trkpt>
<trkpt lat="49.46677" lon="9.90333"><ele>323</ele></trkpt>
<trkpt lat="49.46676" lon="9.90329"><ele>324</ele></trkpt>
<trkpt lat="49.46577" lon="9.90312"><ele>326</ele></trkpt>
<trkpt lat="49.46462" lon="9.90372"><ele>330</ele></trkpt>
<trkpt lat="49.46436" lon="9.90373"><ele>330</ele></trkpt>
<trkpt lat="49.46423" lon="9.90257"><ele>338</ele></trkpt>
<trkpt lat="49.46376" lon="9.90077"><ele>347</ele></trkpt>
<trkpt lat="49.46293" lon="9.90057"><ele>351</ele></trkpt>
<trkpt lat="49.46319" lon="9.89567"><ele>355</ele></trkpt>
<trkpt lat="49.46321" lon="9.89545"><ele>354</ele></trkpt>
<trkpt lat="49.46326" lon="9.89531"><ele>354</ele></trkpt>
<trkpt lat="49.46225" lon="9.89443"><ele>358</ele></trkpt>
<trkpt lat="49.46212" lon="9.89407"><ele>358</ele></trkpt>
<trkpt lat="49.46184" lon="9.89409"><ele>360</ele></trkpt>
<trkpt lat="49.46156" lon="9.89404"><ele>361</ele></trkpt>
<trkpt lat="49.46117" lon="9.89383"><ele>363</ele></trkpt>
<trkpt lat="49.46126" lon="9.89339"><ele>362</ele></trkpt>
<trkpt lat="49.46090" lon="9.89180"><ele>362</ele></trkpt>
<trkpt lat="49.46094" lon="9.89163"><ele>362</ele></trkpt>
<trkpt lat="49.46144" lon="9.89108"><ele>355</ele></trkpt>
<trkpt lat="49.46186" lon="9.89052"><ele>349</ele></trkpt>
<trkpt lat="49.46199" lon="9.89013"><ele>346</ele></trkpt>
<trkpt lat="49.46222" lon="9.88858"><ele>344</ele></trkpt>
<trkpt lat="49.46223" lon="9.88785"><ele>345</ele></trkpt>
<trkpt lat="49.46239" lon="9.88623"><ele>343</ele></trkpt>
<trkpt lat="49.46257" lon="9.88551"><ele>338</ele></trkpt>
<trkpt lat="49.46256" lon="9.88535"><ele>338</ele></trkpt>
<trkpt lat="49.46206" lon="9.88382"><ele>338</ele></trkpt>
<trkpt lat="49.46163" lon="9.88293"><ele>335</ele></trkpt>
<trkpt lat="49.46205" lon="9.88215"><ele>329</ele></trkpt>
<trkpt lat="49.46220" lon="9.88181"><ele>326</ele></trkpt>
<trkpt lat="49.46223" lon="9.88164"><ele>326</ele></trkpt>
<trkpt lat="49.46221" lon="9.88032"><ele>318</ele></trkpt>
<trkpt lat="49.46219" lon="9.88010"><ele>317</ele></trkpt>
<trkpt lat="49.46194" lon="9.87965"><ele>314</ele></trkpt>
<trkpt lat="49.46219" lon="9.87939"><ele>312</ele></trkpt>
<trkpt lat="49.46257" lon="9.87910"><ele>307</ele></trkpt>
<trkpt lat="49.46337" lon="9.87871"><ele>301</ele></trkpt>
<trkpt lat="49.46372" lon="9.87837"><ele>296</ele></trkpt>
<trkpt lat="49.46474" lon="9.87683"><ele>279</ele></trkpt>
<trkpt lat="49.46493" lon="9.87649"><ele>275</ele></trkpt>
<trkpt lat="49.46548" lon="9.87595"><ele>266</ele></trkpt>
<trkpt lat="49.46575" lon="9.87561"><ele>262</ele></trkpt>
<trkpt lat="49.46622" lon="9.87465"><ele>254</ele></trkpt>
<trkpt lat="49.46643" lon="9.87409"><ele>250</ele></trkpt>
<trkpt lat="49.46671" lon="9.87289"><ele>242</ele></trkpt>
<trkpt lat="49.46630" lon="9.87292"><ele>245</ele></trkpt>
<trkpt lat="49.46587" lon="9.87119"><ele>246</ele></trkpt>
<trkpt lat="49.46562" lon="9.86936"><ele>244</ele></trkpt>
<trkpt lat="49.46562" lon="9.86920"><ele>244</ele></trkpt>
<trkpt lat="49.46581" lon="9.86932"><ele>243</ele></trkpt>
<trkpt lat="49.46583" lon="9.86913"><ele>243</ele></trkpt>
<trkpt lat="49.46762" lon="9.86836"><ele>236</ele></trkpt>
<trkpt lat="49.46735" lon="9.86640"><ele>238</ele></trkpt>
<trkpt lat="49.46711" lon="9.86432"><ele>236</ele></trkpt>
<trkpt lat="49.46711" lon="9.86370"><ele>232</ele></trkpt>
<trkpt lat="49.46730" lon="9.85898"><ele>240</ele></trkpt>
<trkpt lat="49.46748" lon="9.85800"><ele>244</ele></trkpt>
<trkpt lat="49.46782" lon="9.85687"><ele>243</ele></trkpt>
<trkpt lat="49.46798" lon="9.85591"><ele>241</ele></trkpt>
<trkpt lat="49.46794" lon="9.85268"><ele>232</ele></trkpt>
<trkpt lat="49.46769" lon="9.85132"><ele>224</ele></trkpt>
<trkpt lat="49.46769" lon="9.85101"><ele>222</ele></trkpt>
<trkpt lat="49.46775" lon="9.85070"><ele>222</ele></trkpt>
<trkpt lat="49.46775" lon="9.85054"><ele>222</ele></trkpt>
<trkpt lat="49.46758" lon="9.84987"><ele>223</ele></trkpt>
<trkpt lat="49.46764" lon="9.84953"><ele>223</ele></trkpt>
<trkpt lat="49.46771" lon="9.84927"><ele>223</ele></trkpt>
<trkpt lat="49.46790" lon="9.84897"><ele>225</ele></trkpt>
<trkpt lat="49.46843" lon="9.84828"><ele>234</ele></trkpt>
<trkpt lat="49.46860" lon="9.84799"><ele>238</ele></trkpt>
<trkpt lat="49.46881" lon="9.84713"><ele>246</ele></trkpt>
<trkpt lat="49.46888" lon="9.84672"><ele>248</ele></trkpt>
<trkpt lat="49.46894" lon="9.84580"><ele>249</ele></trkpt>
<trkpt lat="49.46893" lon="9.84427"><ele>250</ele></trkpt>
<trkpt lat="49.46881" lon="9.84150"><ele>249</ele></trkpt>
<trkpt lat="49.46883" lon="9.83931"><ele>246</ele></trkpt>
<trkpt lat="49.46979" lon="9.83946"><ele>248</ele></trkpt>
<trkpt lat="49.46988" lon="9.83836"><ele>246</ele></trkpt>
<trkpt lat="49.46997" lon="9.83822"><ele>246</ele></trkpt>
<trkpt lat="49.46972" lon="9.83785"><ele>247</ele></trkpt>
<trkpt lat="49.46899" lon="9.83662"><ele>244</ele></trkpt>
<trkpt lat="49.46875" lon="9.83650"><ele>243</ele></trkpt>
<trkpt lat="49.46873" lon="9.83585"><ele>243</ele></trkpt>
<trkpt lat="49.46876" lon="9.83558"><ele>242</ele></trkpt>
<trkpt lat="49.46885" lon="9.83529"><ele>242</ele></trkpt>
<trkpt lat="49.46909" lon="9.83466"><ele>244</ele></trkpt>
<trkpt lat="49.46953" lon="9.83477"><ele>246</ele></trkpt>
<trkpt lat="49.46974" lon="9.83458"><ele>246</ele></trkpt>
<trkpt lat="49.47015" lon="9.83388"><ele>246</ele></trkpt>
<trkpt lat="49.47038" lon="9.83369"><ele>246</ele></trkpt>
<trkpt lat="49.47058" lon="9.83358"><ele>245</ele></trkpt>
<trkpt lat="49.47112" lon="9.83341"><ele>244</ele></trkpt>
<trkpt lat="49.47137" lon="9.83327"><ele>243</ele></trkpt>
<trkpt lat="49.47165" lon="9.83299"><ele>241</ele></trkpt>
<trkpt lat="49.47214" lon="9.83318"><ele>237</ele></trkpt>
<trkpt lat="49.47246" lon="9.83310"><ele>234</ele></trkpt>
<trkpt lat="49.47272" lon="9.83317"><ele>230</ele></trkpt>
<trkpt lat="49.47286" lon="9.83330"><ele>228</ele></trkpt>
<trkpt lat="49.47320" lon="9.83375"><ele>224</ele></trkpt>
<trkpt lat="49.47363" lon="9.83412"><ele>220</ele></trkpt>
<trkpt lat="49.47393" lon="9.83332"><ele>215</ele></trkpt>
<trkpt lat="49.47408" lon="9.83264"><ele>214</ele></trkpt>
<trkpt lat="49.47398" lon="9.83260"><ele>214</ele></trkpt>
<trkpt lat="49.47403" lon="9.83234"><ele>214</ele></trkpt>
<trkpt lat="49.47424" lon="9.83165"><ele>215</ele></trkpt>
<trkpt lat="49.47444" lon="9.83134"><ele>216</ele></trkpt>
<trkpt lat="49.47474" lon="9.83101"><ele>218</ele></trkpt>
<trkpt lat="49.47482" lon="9.83083"><ele>219</ele></trkpt>
<trkpt lat="49.47482" lon="9.83076"><ele>220</ele></trkpt>
<trkpt lat="49.47512" lon="9.83022"><ele>220</ele></trkpt>
<trkpt lat="49.47549" lon="9.82939"><ele>218</ele></trkpt>
<trkpt lat="49.47656" lon="9.82544"><ele>214</ele></trkpt>
<trkpt lat="49.47710" lon="9.82376"><ele>212</ele></trkpt>
<trkpt lat="49.47744" lon="9.82283"><ele>212</ele></trkpt>
<trkpt lat="49.47789" lon="9.82216"><ele>212</ele></trkpt>
<trkpt lat="49.47849" lon="9.82096"><ele>215</ele></trkpt>
<trkpt lat="49.47892" lon="9.82028"><ele>215</ele></trkpt>
<trkpt lat="49.47986" lon="9.81828"><ele>214</ele></trkpt>
<trkpt lat="49.48044" lon="9.81726"><ele>214</ele></trkpt>
<trkpt lat="49.48118" lon="9.81645"><ele>215</ele></trkpt>
<trkpt lat="49.48144" lon="9.81624"><ele>216</ele></trkpt>
<trkpt lat="49.48166" lon="9.81594"><ele>218</ele></trkpt>
<trkpt lat="49.48280" lon="9.81493"><ele>222</ele></trkpt>
<trkpt lat="49.48292" lon="9.81487"><ele>223</ele></trkpt>
<trkpt lat="49.48369" lon="9.81499"><ele>218</ele></trkpt>
<trkpt lat="49.48484" lon="9.81493"><ele>211</ele></trkpt>
<trkpt lat="49.48513" lon="9.81487"><ele>209</ele></trkpt>
<trkpt lat="49.48567" lon="9.81451"><ele>210</ele></trkpt>
<trkpt lat="49.48598" lon="9.81441"><ele>211</ele></trkpt>
<trkpt lat="49.48637" lon="9.81439"><ele>211</ele></trkpt>
<trkpt lat="49.48664" lon="9.81442"><ele>210</ele></trkpt>
<trkpt lat="49.48706" lon="9.81434"><ele>211</ele></trkpt>
<trkpt lat="49.48747" lon="9.81434"><ele>209</ele></trkpt>
<trkpt lat="49.48794" lon="9.81418"><ele>209</ele></trkpt>
<trkpt lat="49.48848" lon="9.81380"><ele>210</ele></trkpt>
<trkpt lat="49.48947" lon="9.81301"><ele>210</ele></trkpt>
<trkpt lat="49.48964" lon="9.81301"><ele>209</ele></trkpt>
<trkpt lat="49.48979" lon="9.81312"><ele>208</ele></trkpt>
<trkpt lat="49.49012" lon="9.81347"><ele>207</ele></trkpt>
<trkpt lat="49.49020" lon="9.81348"><ele>207</ele></trkpt>
<trkpt lat="49.49080" lon="9.81317"><ele>207</ele></trkpt>
<trkpt lat="49.49114" lon="9.81288"><ele>207</ele></trkpt>
<trkpt lat="49.49123" lon="9.81275"><ele>207</ele></trkpt>
<trkpt lat="49.49130" lon="9.81257"><ele>207</ele></trkpt>
<trkpt lat="49.49139" lon="9.81216"><ele>207</ele></trkpt>
<trkpt lat="49.49148" lon="9.81199"><ele>207</ele></trkpt>
<trkpt lat="49.49147" lon="9.81175"><ele>207</ele></trkpt>
<trkpt lat="49.49165" lon="9.81073"><ele>207</ele></trkpt>
<trkpt lat="49.49184" lon="9.80976"><ele>209</ele></trkpt>
<trkpt lat="49.49198" lon="9.80932"><ele>209</ele></trkpt>
<trkpt lat="49.49205" lon="9.80935"><ele>208</ele></trkpt>
<trkpt lat="49.49210" lon="9.80931"><ele>208</ele></trkpt>
<trkpt lat="49.49271" lon="9.80825"><ele>207</ele></trkpt>
<trkpt lat="49.49282" lon="9.80804"><ele>207</ele></trkpt>
<trkpt lat="49.49287" lon="9.80782"><ele>207</ele></trkpt>
<trkpt lat="49.49283" lon="9.80755"><ele>207</ele></trkpt>
<trkpt lat="49.49271" lon="9.80736"><ele>208</ele></trkpt>
<trkpt lat="49.49202" lon="9.80700"><ele>212</ele></trkpt>
<trkpt lat="49.49200" lon="9.80685"><ele>212</ele></trkpt>
<trkpt lat="49.49191" lon="9.80666"><ele>212</ele></trkpt>
<trkpt lat="49.49157" lon="9.80618"><ele>214</ele></trkpt>
<trkpt lat="49.49128" lon="9.80530"><ele>214</ele></trkpt>
<trkpt lat="49.49072" lon="9.80307"><ele>213</ele></trkpt>
<trkpt lat="49.49054" lon="9.80205"><ele>212</ele></trkpt>
<trkpt lat="49.49034" lon="9.80084"><ele>211</ele></trkpt>
<trkpt lat="49.49021" lon="9.79972"><ele>210</ele></trkpt>
<trkpt lat="49.49006" lon="9.79775"><ele>208</ele></trkpt>
<trkpt lat="49.48999" lon="9.79590"><ele>206</ele></trkpt>
<trkpt lat="49.49002" lon="9.79435"><ele>205</ele></trkpt>
<trkpt lat="49.49012" lon="9.79282"><ele>204</ele></trkpt>
<trkpt lat="49.49025" lon="9.79184"><ele>203</ele></trkpt>
<trkpt lat="49.49033" lon="9.79150"><ele>203</ele></trkpt>
<trkpt lat="49.49038" lon="9.79143"><ele>203</ele></trkpt>
<trkpt lat="49.49061" lon="9.79146"><ele>203</ele></trkpt>
<trkpt lat="49.49068" lon="9.79139"><ele>203</ele></trkpt>
<trkpt lat="49.49074" lon="9.79123"><ele>203</ele></trkpt>
<trkpt lat="49.49070" lon="9.79123"><ele>203</ele></trkpt>
<trkpt lat="49.49066" lon="9.79108"><ele>203</ele></trkpt>
<trkpt lat="49.49037" lon="9.79094"><ele>204</ele></trkpt>
<trkpt lat="49.49033" lon="9.79082"><ele>204</ele></trkpt>
<trkpt lat="49.49034" lon="9.79059"><ele>204</ele></trkpt>
<trkpt lat="49.49054" lon="9.78928"><ele>203</ele></trkpt>
<trkpt lat="49.49082" lon="9.78765"><ele>203</ele></trkpt>
<trkpt lat="49.49150" lon="9.78439"><ele>203</ele></trkpt>
<trkpt lat="49.49160" lon="9.78344"><ele>203</ele></trkpt>
<trkpt lat="49.49161" lon="9.78310"><ele>202</ele></trkpt>
<trkpt lat="49.49153" lon="9.78195"><ele>202</ele></trkpt>
<trkpt lat="49.49155" lon="9.78189"><ele>202</ele></trkpt>
<trkpt lat="49.49195" lon="9.78172"><ele>202</ele></trkpt>
<trkpt lat="49.49238" lon="9.78135"><ele>202</ele></trkpt>
<trkpt lat="49.49306" lon="9.78060"><ele>202</ele></trkpt>
<trkpt lat="49.49378" lon="9.77999"><ele>202</ele></trkpt>
<trkpt lat="49.49389" lon="9.77980"><ele>202</ele></trkpt>
<trkpt lat="49.49484" lon="9.77880"><ele>202</ele></trkpt>
<trkpt lat="49.49515" lon="9.77852"><ele>202</ele></trkpt>
<trkpt lat="49.49557" lon="9.77800"><ele>201</ele></trkpt>
<trkpt lat="49.49579" lon="9.77755"><ele>201</ele></trkpt>
<trkpt lat="49.49606" lon="9.77674"><ele>200</ele></trkpt>
<trkpt lat="49.49637" lon="9.77548"><ele>200</ele></trkpt>
<trkpt lat="49.49646" lon="9.77499"><ele>200</ele></trkpt>
<trkpt lat="49.49663" lon="9.77446"><ele>200</ele></trkpt>
<trkpt lat="49.49661" lon="9.77434"><ele>200</ele></trkpt>
<trkpt lat="49.49654" lon="9.77433"><ele>200</ele></trkpt>
<trkpt lat="49.49632" lon="9.77507"><ele>200</ele></trkpt>
<trkpt lat="49.49629" lon="9.77527"><ele>200</ele></trkpt>
<trkpt lat="49.49692" lon="9.77568"><ele>203</ele></trkpt>
<trkpt lat="49.49695" lon="9.77581"><ele>204</ele></trkpt>
<trkpt lat="49.49689" lon="9.77626"><ele>205</ele></trkpt>
<trkpt lat="49.49693" lon="9.77638"><ele>206</ele></trkpt>
<trkpt lat="49.49685" lon="9.77718"><ele>213</ele></trkpt>
<trkpt lat="49.49670" lon="9.77795"><ele>216</ele></trkpt>
<trkpt lat="49.49677" lon="9.77788"><ele>219</ele></trkpt>
<trkpt lat="49.49689" lon="9.77748"><ele>219</ele></trkpt>
<trkpt lat="49.49707" lon="9.77707"><ele>224</ele></trkpt>
    </trkseg>
  </trk>
</gpx>
