<?xml version="1.0" encoding="UTF-8"?>
<gpx version="1.1" creator="Gravel Kompass" xmlns="http://www.topografix.com/GPX/1/1">
  <metadata><name>München – Haltern am See: Von der Isar ins Münsterland – Etappe 13</name></metadata>
  <trk>
    <name>Etappe 13: Paderborn – Münster</name>
    <trkseg>
<trkpt lat="51.71891" lon="8.75753"><ele>120</ele></trkpt>
<trkpt lat="51.71886" lon="8.75756"><ele>120</ele></trkpt>
<trkpt lat="51.71882" lon="8.75731"><ele>120</ele></trkpt>
<trkpt lat="51.71816" lon="8.75538"><ele>122</ele></trkpt>
<trkpt lat="51.71774" lon="8.75494"><ele>124</ele></trkpt>
<trkpt lat="51.71764" lon="8.75471"><ele>124</ele></trkpt>
<trkpt lat="51.71750" lon="8.75421"><ele>123</ele></trkpt>
<trkpt lat="51.71740" lon="8.75341"><ele>121</ele></trkpt>
<trkpt lat="51.71733" lon="8.75337"><ele>121</ele></trkpt>
<trkpt lat="51.71728" lon="8.75265"><ele>120</ele></trkpt>
<trkpt lat="51.71732" lon="8.75228"><ele>119</ele></trkpt>
<trkpt lat="51.71776" lon="8.75093"><ele>114</ele></trkpt>
<trkpt lat="51.71790" lon="8.75035"><ele>113</ele></trkpt>
<trkpt lat="51.71801" lon="8.74885"><ele>112</ele></trkpt>
<trkpt lat="51.71818" lon="8.74739"><ele>114</ele></trkpt>
<trkpt lat="51.71820" lon="8.74676"><ele>115</ele></trkpt>
<trkpt lat="51.71830" lon="8.74565"><ele>115</ele></trkpt>
<trkpt lat="51.71818" lon="8.74562"><ele>115</ele></trkpt>
<trkpt lat="51.71809" lon="8.74356"><ele>111</ele></trkpt>
<trkpt lat="51.71814" lon="8.74167"><ele>110</ele></trkpt>
<trkpt lat="51.71800" lon="8.73988"><ele>111</ele></trkpt>
<trkpt lat="51.71789" lon="8.73958"><ele>111</ele></trkpt>
<trkpt lat="51.71726" lon="8.73943"><ele>112</ele></trkpt>
<trkpt lat="51.71722" lon="8.73875"><ele>112</ele></trkpt>
<trkpt lat="51.71698" lon="8.73739"><ele>112</ele></trkpt>
<trkpt lat="51.71695" lon="8.73647"><ele>112</ele></trkpt>
<trkpt lat="51.71698" lon="8.73552"><ele>113</ele></trkpt>
<trkpt lat="51.71692" lon="8.73507"><ele>113</ele></trkpt>
<trkpt lat="51.71820" lon="8.73447"><ele>112</ele></trkpt>
<trkpt lat="51.71842" lon="8.73190"><ele>115</ele></trkpt>
<trkpt lat="51.71934" lon="8.73207"><ele>115</ele></trkpt>
<trkpt lat="51.71942" lon="8.73087"><ele>117</ele></trkpt>
<trkpt lat="51.71972" lon="8.72765"><ele>119</ele></trkpt>
<trkpt lat="51.71980" lon="8.72630"><ele>118</ele></trkpt>
<trkpt lat="51.71986" lon="8.72486"><ele>119</ele></trkpt>
<trkpt lat="51.71995" lon="8.72415"><ele>119</ele></trkpt>
<trkpt lat="51.72006" lon="8.72367"><ele>119</ele></trkpt>
<trkpt lat="51.72006" lon="8.72355"><ele>119</ele></trkpt>
<trkpt lat="51.72000" lon="8.72338"><ele>119</ele></trkpt>
<trkpt lat="51.72004" lon="8.72289"><ele>119</ele></trkpt>
<trkpt lat="51.72004" lon="8.72253"><ele>120</ele></trkpt>
<trkpt lat="51.72342" lon="8.72325"><ele>122</ele></trkpt>
<trkpt lat="51.72347" lon="8.72259"><ele>122</ele></trkpt>
<trkpt lat="51.72389" lon="8.72281"><ele>122</ele></trkpt>
<trkpt lat="51.72398" lon="8.72277"><ele>122</ele></trkpt>
<trkpt lat="51.72460" lon="8.72288"><ele>120</ele></trkpt>
<trkpt lat="51.72464" lon="8.72283"><ele>119</ele></trkpt>
<trkpt lat="51.72491" lon="8.71940"><ele>119</ele></trkpt>
<trkpt lat="51.72652" lon="8.71975"><ele>116</ele></trkpt>
<trkpt lat="51.72700" lon="8.71972"><ele>116</ele></trkpt>
<trkpt lat="51.72750" lon="8.71981"><ele>115</ele></trkpt>
<trkpt lat="51.72898" lon="8.72011"><ele>114</ele></trkpt>
<trkpt lat="51.72933" lon="8.72025"><ele>113</ele></trkpt>
<trkpt lat="51.72942" lon="8.72000"><ele>113</ele></trkpt>
<trkpt lat="51.72961" lon="8.71906"><ele>113</ele></trkpt>
<trkpt lat="51.72970" lon="8.71820"><ele>112</ele></trkpt>
<trkpt lat="51.72966" lon="8.71730"><ele>110</ele></trkpt>
<trkpt lat="51.72942" lon="8.71569"><ele>108</ele></trkpt>
<trkpt lat="51.72934" lon="8.71476"><ele>107</ele></trkpt>
<trkpt lat="51.72934" lon="8.71436"><ele>107</ele></trkpt>
<trkpt lat="51.72953" lon="8.71283"><ele>107</ele></trkpt>
<trkpt lat="51.72958" lon="8.71213"><ele>106</ele></trkpt>
<trkpt lat="51.72951" lon="8.71053"><ele>106</ele></trkpt>
<trkpt lat="51.72956" lon="8.71034"><ele>106</ele></trkpt>
<trkpt lat="51.72959" lon="8.70932"><ele>104</ele></trkpt>
<trkpt lat="51.72966" lon="8.70839"><ele>105</ele></trkpt>
<trkpt lat="51.72984" lon="8.70686"><ele>106</ele></trkpt>
<trkpt lat="51.73026" lon="8.70510"><ele>106</ele></trkpt>
<trkpt lat="51.73026" lon="8.70494"><ele>106</ele></trkpt>
<trkpt lat="51.73037" lon="8.70462"><ele>106</ele></trkpt>
<trkpt lat="51.73242" lon="8.70031"><ele>105</ele></trkpt>
<trkpt lat="51.73275" lon="8.69914"><ele>105</ele></trkpt>
<trkpt lat="51.73275" lon="8.69900"><ele>105</ele></trkpt>
<trkpt lat="51.73093" lon="8.69879"><ele>105</ele></trkpt>
<trkpt lat="51.73105" lon="8.69634"><ele>105</ele></trkpt>
<trkpt lat="51.73143" lon="8.69443"><ele>105</ele></trkpt>
<trkpt lat="51.73171" lon="8.69247"><ele>104</ele></trkpt>
<trkpt lat="51.73194" lon="8.69171"><ele>104</ele></trkpt>
<trkpt lat="51.73180" lon="8.69059"><ele>105</ele></trkpt>
<trkpt lat="51.73171" lon="8.68934"><ele>105</ele></trkpt>
<trkpt lat="51.73270" lon="8.68787"><ele>106</ele></trkpt>
<trkpt lat="51.73246" lon="8.68713"><ele>106</ele></trkpt>
<trkpt lat="51.73191" lon="8.68563"><ele>106</ele></trkpt>
<trkpt lat="51.73182" lon="8.68533"><ele>106</ele></trkpt>
<trkpt lat="51.73183" lon="8.68518"><ele>106</ele></trkpt>
<trkpt lat="51.73172" lon="8.68505"><ele>105</ele></trkpt>
<trkpt lat="51.73091" lon="8.68254"><ele>105</ele></trkpt>
<trkpt lat="51.73047" lon="8.68067"><ele>104</ele></trkpt>
<trkpt lat="51.73044" lon="8.68049"><ele>104</ele></trkpt>
<trkpt lat="51.73047" lon="8.68002"><ele>103</ele></trkpt>
<trkpt lat="51.73091" lon="8.67756"><ele>103</ele></trkpt>
<trkpt lat="51.73092" lon="8.67723"><ele>103</ele></trkpt>
<trkpt lat="51.73045" lon="8.67360"><ele>102</ele></trkpt>
<trkpt lat="51.73037" lon="8.67264"><ele>102</ele></trkpt>
<trkpt lat="51.73039" lon="8.67187"><ele>102</ele></trkpt>
<trkpt lat="51.73049" lon="8.67061"><ele>102</ele></trkpt>
<trkpt lat="51.73066" lon="8.66970"><ele>102</ele></trkpt>
<trkpt lat="51.73154" lon="8.66349"><ele>101</ele></trkpt>
<trkpt lat="51.73148" lon="8.66260"><ele>100</ele></trkpt>
<trkpt lat="51.73021" lon="8.65507"><ele>100</ele></trkpt>
<trkpt lat="51.72948" lon="8.65239"><ele>102</ele></trkpt>
<trkpt lat="51.72911" lon="8.65167"><ele>103</ele></trkpt>
<trkpt lat="51.72892" lon="8.65139"><ele>104</ele></trkpt>
<trkpt lat="51.72874" lon="8.65058"><ele>104</ele></trkpt>
<trkpt lat="51.72778" lon="8.64753"><ele>102</ele></trkpt>
<trkpt lat="51.72986" lon="8.64644"><ele>97</ele></trkpt>
<trkpt lat="51.72982" lon="8.64612"><ele>97</ele></trkpt>
<trkpt lat="51.73447" lon="8.64535"><ele>97</ele></trkpt>
<trkpt lat="51.73564" lon="8.64489"><ele>97</ele></trkpt>
<trkpt lat="51.73541" lon="8.64331"><ele>97</ele></trkpt>
<trkpt lat="51.73533" lon="8.64191"><ele>97</ele></trkpt>
<trkpt lat="51.73529" lon="8.64170"><ele>97</ele></trkpt>
<trkpt lat="51.73516" lon="8.63686"><ele>96</ele></trkpt>
<trkpt lat="51.73505" lon="8.63184"><ele>95</ele></trkpt>
<trkpt lat="51.73515" lon="8.63115"><ele>95</ele></trkpt>
<trkpt lat="51.73528" lon="8.63087"><ele>95</ele></trkpt>
<trkpt lat="51.73534" lon="8.63081"><ele>95</ele></trkpt>
<trkpt lat="51.73528" lon="8.63045"><ele>95</ele></trkpt>
<trkpt lat="51.73511" lon="8.62995"><ele>95</ele></trkpt>
<trkpt lat="51.73506" lon="8.62971"><ele>95</ele></trkpt>
<trkpt lat="51.73505" lon="8.62947"><ele>95</ele></trkpt>
<trkpt lat="51.73524" lon="8.62827"><ele>94</ele></trkpt>
<trkpt lat="51.73533" lon="8.62786"><ele>94</ele></trkpt>
<trkpt lat="51.73567" lon="8.62682"><ele>94</ele></trkpt>
<trkpt lat="51.73571" lon="8.62631"><ele>94</ele></trkpt>
<trkpt lat="51.73568" lon="8.62558"><ele>94</ele></trkpt>
<trkpt lat="51.73308" lon="8.62503"><ele>94</ele></trkpt>
<trkpt lat="51.73267" lon="8.62003"><ele>93</ele></trkpt>
<trkpt lat="51.73042" lon="8.61879"><ele>92</ele></trkpt>
<trkpt lat="51.73064" lon="8.61153"><ele>91</ele></trkpt>
<trkpt lat="51.73069" lon="8.61102"><ele>91</ele></trkpt>
<trkpt lat="51.73252" lon="8.59963"><ele>89</ele></trkpt>
<trkpt lat="51.73263" lon="8.59950"><ele>89</ele></trkpt>
<trkpt lat="51.73609" lon="8.59896"><ele>89</ele></trkpt>
<trkpt lat="51.73275" lon="8.59269"><ele>88</ele></trkpt>
<trkpt lat="51.73199" lon="8.59174"><ele>89</ele></trkpt>
<trkpt lat="51.73506" lon="8.58564"><ele>89</ele></trkpt>
<trkpt lat="51.73249" lon="8.57830"><ele>88</ele></trkpt>
<trkpt lat="51.73240" lon="8.57825"><ele>88</ele></trkpt>
<trkpt lat="51.73173" lon="8.57882"><ele>88</ele></trkpt>
<trkpt lat="51.73160" lon="8.57886"><ele>89</ele></trkpt>
<trkpt lat="51.72935" lon="8.57386"><ele>88</ele></trkpt>
<trkpt lat="51.72921" lon="8.57371"><ele>88</ele></trkpt>
<trkpt lat="51.72879" lon="8.57358"><ele>88</ele></trkpt>
<trkpt lat="51.72857" lon="8.57341"><ele>87</ele></trkpt>
<trkpt lat="51.72726" lon="8.57061"><ele>88</ele></trkpt>
<trkpt lat="51.72720" lon="8.57043"><ele>88</ele></trkpt>
<trkpt lat="51.72646" lon="8.56692"><ele>87</ele></trkpt>
<trkpt lat="51.72635" lon="8.56587"><ele>87</ele></trkpt>
<trkpt lat="51.72627" lon="8.56545"><ele>87</ele></trkpt>
<trkpt lat="51.72613" lon="8.56500"><ele>87</ele></trkpt>
<trkpt lat="51.72574" lon="8.56410"><ele>87</ele></trkpt>
<trkpt lat="51.72551" lon="8.56331"><ele>87</ele></trkpt>
<trkpt lat="51.72540" lon="8.56304"><ele>88</ele></trkpt>
<trkpt lat="51.72493" lon="8.56269"><ele>88</ele></trkpt>
<trkpt lat="51.72433" lon="8.56206"><ele>87</ele></trkpt>
<trkpt lat="51.72407" lon="8.56259"><ele>88</ele></trkpt>
<trkpt lat="51.72383" lon="8.56327"><ele>88</ele></trkpt>
<trkpt lat="51.72369" lon="8.56355"><ele>88</ele></trkpt>
<trkpt lat="51.72357" lon="8.56374"><ele>88</ele></trkpt>
<trkpt lat="51.72334" lon="8.56395"><ele>88</ele></trkpt>
<trkpt lat="51.72317" lon="8.56403"><ele>87</ele></trkpt>
<trkpt lat="51.72209" lon="8.56428"><ele>88</ele></trkpt>
<trkpt lat="51.72131" lon="8.56437"><ele>88</ele></trkpt>
<trkpt lat="51.72131" lon="8.56429"><ele>87</ele></trkpt>
<trkpt lat="51.72123" lon="8.56430"><ele>87</ele></trkpt>
<trkpt lat="51.72122" lon="8.56414"><ele>87</ele></trkpt>
<trkpt lat="51.71890" lon="8.55759"><ele>86</ele></trkpt>
<trkpt lat="51.71890" lon="8.55742"><ele>86</ele></trkpt>
<trkpt lat="51.71948" lon="8.55604"><ele>86</ele></trkpt>
<trkpt lat="51.71950" lon="8.55590"><ele>86</ele></trkpt>
<trkpt lat="51.71847" lon="8.54487"><ele>85</ele></trkpt>
<trkpt lat="51.71843" lon="8.54470"><ele>85</ele></trkpt>
<trkpt lat="51.71733" lon="8.54156"><ele>85</ele></trkpt>
<trkpt lat="51.71596" lon="8.53506"><ele>85</ele></trkpt>
<trkpt lat="51.71590" lon="8.53497"><ele>85</ele></trkpt>
<trkpt lat="51.71579" lon="8.53500"><ele>85</ele></trkpt>
<trkpt lat="51.71440" lon="8.53659"><ele>85</ele></trkpt>
<trkpt lat="51.71228" lon="8.53129"><ele>86</ele></trkpt>
<trkpt lat="51.71217" lon="8.53129"><ele>86</ele></trkpt>
<trkpt lat="51.71179" lon="8.53146"><ele>85</ele></trkpt>
<trkpt lat="51.71094" lon="8.53132"><ele>85</ele></trkpt>
<trkpt lat="51.71081" lon="8.53155"><ele>85</ele></trkpt>
<trkpt lat="51.71068" lon="8.53242"><ele>84</ele></trkpt>
<trkpt lat="51.71061" lon="8.53264"><ele>84</ele></trkpt>
<trkpt lat="51.71012" lon="8.53285"><ele>84</ele></trkpt>
<trkpt lat="51.70991" lon="8.53289"><ele>84</ele></trkpt>
<trkpt lat="51.70858" lon="8.53118"><ele>84</ele></trkpt>
<trkpt lat="51.70839" lon="8.53088"><ele>84</ele></trkpt>
<trkpt lat="51.70823" lon="8.53053"><ele>84</ele></trkpt>
<trkpt lat="51.70816" lon="8.53032"><ele>84</ele></trkpt>
<trkpt lat="51.70798" lon="8.52912"><ele>84</ele></trkpt>
<trkpt lat="51.70687" lon="8.52676"><ele>84</ele></trkpt>
<trkpt lat="51.70642" lon="8.52550"><ele>84</ele></trkpt>
<trkpt lat="51.70632" lon="8.52493"><ele>84</ele></trkpt>
<trkpt lat="51.70641" lon="8.52379"><ele>84</ele></trkpt>
<trkpt lat="51.70107" lon="8.50783"><ele>83</ele></trkpt>
<trkpt lat="51.69916" lon="8.50965"><ele>83</ele></trkpt>
<trkpt lat="51.69849" lon="8.51012"><ele>83</ele></trkpt>
<trkpt lat="51.69810" lon="8.51029"><ele>83</ele></trkpt>
<trkpt lat="51.69771" lon="8.50939"><ele>83</ele></trkpt>
<trkpt lat="51.69747" lon="8.50900"><ele>83</ele></trkpt>
<trkpt lat="51.69730" lon="8.50884"><ele>83</ele></trkpt>
<trkpt lat="51.69729" lon="8.50835"><ele>83</ele></trkpt>
<trkpt lat="51.69721" lon="8.50801"><ele>83</ele></trkpt>
<trkpt lat="51.69687" lon="8.50744"><ele>83</ele></trkpt>
<trkpt lat="51.69681" lon="8.50738"><ele>83</ele></trkpt>
<trkpt lat="51.69382" lon="8.50683"><ele>84</ele></trkpt>
<trkpt lat="51.69356" lon="8.50464"><ele>84</ele></trkpt>
<trkpt lat="51.69368" lon="8.50398"><ele>83</ele></trkpt>
<trkpt lat="51.69396" lon="8.50325"><ele>82</ele></trkpt>
<trkpt lat="51.69411" lon="8.50296"><ele>82</ele></trkpt>
<trkpt lat="51.69518" lon="8.50221"><ele>82</ele></trkpt>
<trkpt lat="51.69526" lon="8.50210"><ele>82</ele></trkpt>
<trkpt lat="51.69610" lon="8.49763"><ele>82</ele></trkpt>
<trkpt lat="51.69610" lon="8.49743"><ele>82</ele></trkpt>
<trkpt lat="51.69578" lon="8.49667"><ele>82</ele></trkpt>
<trkpt lat="51.69573" lon="8.49648"><ele>82</ele></trkpt>
<trkpt lat="51.69572" lon="8.49631"><ele>82</ele></trkpt>
<trkpt lat="51.69626" lon="8.49079"><ele>82</ele></trkpt>
<trkpt lat="51.69643" lon="8.48955"><ele>82</ele></trkpt>
<trkpt lat="51.69641" lon="8.48922"><ele>81</ele></trkpt>
<trkpt lat="51.69750" lon="8.47651"><ele>81</ele></trkpt>
<trkpt lat="51.69758" lon="8.47490"><ele>81</ele></trkpt>
<trkpt lat="51.69756" lon="8.47479"><ele>81</ele></trkpt>
<trkpt lat="51.69747" lon="8.47478"><ele>81</ele></trkpt>
<trkpt lat="51.69442" lon="8.47499"><ele>81</ele></trkpt>
<trkpt lat="51.69432" lon="8.47496"><ele>81</ele></trkpt>
<trkpt lat="51.69427" lon="8.46570"><ele>80</ele></trkpt>
<trkpt lat="51.69480" lon="8.46439"><ele>81</ele></trkpt>
<trkpt lat="51.69493" lon="8.46428"><ele>80</ele></trkpt>
<trkpt lat="51.69516" lon="8.46426"><ele>80</ele></trkpt>
<trkpt lat="51.69523" lon="8.46417"><ele>81</ele></trkpt>
<trkpt lat="51.69552" lon="8.46239"><ele>81</ele></trkpt>
<trkpt lat="51.69581" lon="8.46112"><ele>81</ele></trkpt>
<trkpt lat="51.69558" lon="8.46013"><ele>81</ele></trkpt>
<trkpt lat="51.69559" lon="8.45979"><ele>82</ele></trkpt>
<trkpt lat="51.69555" lon="8.45946"><ele>82</ele></trkpt>
<trkpt lat="51.69490" lon="8.45697"><ele>82</ele></trkpt>
<trkpt lat="51.69506" lon="8.45676"><ele>82</ele></trkpt>
<trkpt lat="51.69554" lon="8.45584"><ele>82</ele></trkpt>
<trkpt lat="51.69743" lon="8.44471"><ele>82</ele></trkpt>
<trkpt lat="51.69752" lon="8.44453"><ele>82</ele></trkpt>
<trkpt lat="51.69795" lon="8.44417"><ele>83</ele></trkpt>
<trkpt lat="51.69808" lon="8.44401"><ele>83</ele></trkpt>
<trkpt lat="51.69850" lon="8.44222"><ele>85</ele></trkpt>
<trkpt lat="51.69850" lon="8.44200"><ele>85</ele></trkpt>
<trkpt lat="51.69593" lon="8.43339"><ele>82</ele></trkpt>
<trkpt lat="51.69507" lon="8.43208"><ele>81</ele></trkpt>
<trkpt lat="51.69503" lon="8.43185"><ele>81</ele></trkpt>
<trkpt lat="51.69412" lon="8.43192"><ele>81</ele></trkpt>
<trkpt lat="51.69418" lon="8.42988"><ele>80</ele></trkpt>
<trkpt lat="51.69427" lon="8.42910"><ele>80</ele></trkpt>
<trkpt lat="51.69440" lon="8.42848"><ele>80</ele></trkpt>
<trkpt lat="51.69474" lon="8.42746"><ele>79</ele></trkpt>
<trkpt lat="51.69517" lon="8.42562"><ele>78</ele></trkpt>
<trkpt lat="51.69525" lon="8.42543"><ele>78</ele></trkpt>
<trkpt lat="51.69504" lon="8.42320"><ele>78</ele></trkpt>
<trkpt lat="51.69460" lon="8.41410"><ele>78</ele></trkpt>
<trkpt lat="51.69172" lon="8.41545"><ele>78</ele></trkpt>
<trkpt lat="51.69101" lon="8.41650"><ele>78</ele></trkpt>
<trkpt lat="51.69025" lon="8.41744"><ele>78</ele></trkpt>
<trkpt lat="51.69018" lon="8.41748"><ele>78</ele></trkpt>
<trkpt lat="51.68884" lon="8.41683"><ele>79</ele></trkpt>
<trkpt lat="51.68874" lon="8.41684"><ele>79</ele></trkpt>
<trkpt lat="51.68567" lon="8.41755"><ele>82</ele></trkpt>
<trkpt lat="51.68469" lon="8.41820"><ele>86</ele></trkpt>
<trkpt lat="51.68365" lon="8.41876"><ele>85</ele></trkpt>
<trkpt lat="51.68355" lon="8.41584"><ele>80</ele></trkpt>
<trkpt lat="51.68364" lon="8.41487"><ele>80</ele></trkpt>
<trkpt lat="51.68372" lon="8.41457"><ele>79</ele></trkpt>
<trkpt lat="51.68503" lon="8.41191"><ele>79</ele></trkpt>
<trkpt lat="51.68518" lon="8.41113"><ele>79</ele></trkpt>
<trkpt lat="51.68525" lon="8.41093"><ele>79</ele></trkpt>
<trkpt lat="51.68530" lon="8.41086"><ele>79</ele></trkpt>
<trkpt lat="51.68458" lon="8.40877"><ele>78</ele></trkpt>
<trkpt lat="51.68450" lon="8.40763"><ele>79</ele></trkpt>
<trkpt lat="51.68308" lon="8.40322"><ele>81</ele></trkpt>
<trkpt lat="51.68260" lon="8.39970"><ele>78</ele></trkpt>
<trkpt lat="51.68335" lon="8.39953"><ele>78</ele></trkpt>
<trkpt lat="51.68463" lon="8.39905"><ele>78</ele></trkpt>
<trkpt lat="51.68483" lon="8.39864"><ele>78</ele></trkpt>
<trkpt lat="51.68493" lon="8.39854"><ele>78</ele></trkpt>
<trkpt lat="51.68482" lon="8.39819"><ele>78</ele></trkpt>
<trkpt lat="51.68560" lon="8.39745"><ele>78</ele></trkpt>
<trkpt lat="51.68606" lon="8.39733"><ele>78</ele></trkpt>
<trkpt lat="51.68591" lon="8.39601"><ele>78</ele></trkpt>
<trkpt lat="51.68632" lon="8.39220"><ele>78</ele></trkpt>
<trkpt lat="51.68596" lon="8.39072"><ele>78</ele></trkpt>
<trkpt lat="51.68581" lon="8.38941"><ele>78</ele></trkpt>
<trkpt lat="51.68568" lon="8.38877"><ele>78</ele></trkpt>
<trkpt lat="51.68511" lon="8.38651"><ele>78</ele></trkpt>
<trkpt lat="51.68470" lon="8.38546"><ele>78</ele></trkpt>
<trkpt lat="51.68429" lon="8.38415"><ele>78</ele></trkpt>
<trkpt lat="51.68346" lon="8.38289"><ele>78</ele></trkpt>
<trkpt lat="51.68235" lon="8.38360"><ele>78</ele></trkpt>
<trkpt lat="51.68214" lon="8.38265"><ele>78</ele></trkpt>
<trkpt lat="51.68178" lon="8.38129"><ele>78</ele></trkpt>
<trkpt lat="51.68173" lon="8.38132"><ele>78</ele></trkpt>
<trkpt lat="51.68162" lon="8.38082"><ele>78</ele></trkpt>
<trkpt lat="51.68145" lon="8.37988"><ele>78</ele></trkpt>
<trkpt lat="51.68104" lon="8.37699"><ele>77</ele></trkpt>
<trkpt lat="51.68062" lon="8.37498"><ele>77</ele></trkpt>
<trkpt lat="51.68038" lon="8.37409"><ele>78</ele></trkpt>
<trkpt lat="51.67980" lon="8.37225"><ele>78</ele></trkpt>
<trkpt lat="51.67805" lon="8.36709"><ele>78</ele></trkpt>
<trkpt lat="51.67801" lon="8.36683"><ele>78</ele></trkpt>
<trkpt lat="51.67793" lon="8.36672"><ele>78</ele></trkpt>
<trkpt lat="51.67764" lon="8.36583"><ele>78</ele></trkpt>
<trkpt lat="51.67755" lon="8.36566"><ele>78</ele></trkpt>
<trkpt lat="51.67713" lon="8.36452"><ele>77</ele></trkpt>
<trkpt lat="51.67672" lon="8.36325"><ele>76</ele></trkpt>
<trkpt lat="51.67652" lon="8.36255"><ele>76</ele></trkpt>
<trkpt lat="51.67630" lon="8.36158"><ele>76</ele></trkpt>
<trkpt lat="51.67597" lon="8.35978"><ele>76</ele></trkpt>
<trkpt lat="51.67582" lon="8.35844"><ele>78</ele></trkpt>
<trkpt lat="51.67580" lon="8.35818"><ele>78</ele></trkpt>
<trkpt lat="51.67581" lon="8.35761"><ele>77</ele></trkpt>
<trkpt lat="51.67576" lon="8.35718"><ele>77</ele></trkpt>
<trkpt lat="51.67521" lon="8.35467"><ele>76</ele></trkpt>
<trkpt lat="51.67488" lon="8.35337"><ele>76</ele></trkpt>
<trkpt lat="51.67472" lon="8.35298"><ele>76</ele></trkpt>
<trkpt lat="51.67470" lon="8.35276"><ele>76</ele></trkpt>
<trkpt lat="51.67496" lon="8.35043"><ele>77</ele></trkpt>
<trkpt lat="51.67375" lon="8.35048"><ele>77</ele></trkpt>
<trkpt lat="51.67361" lon="8.35046"><ele>77</ele></trkpt>
<trkpt lat="51.67363" lon="8.35030"><ele>77</ele></trkpt>
<trkpt lat="51.67352" lon="8.35027"><ele>77</ele></trkpt>
<trkpt lat="51.67292" lon="8.35029"><ele>77</ele></trkpt>
<trkpt lat="51.67283" lon="8.35022"><ele>77</ele></trkpt>
<trkpt lat="51.67258" lon="8.34979"><ele>77</ele></trkpt>
<trkpt lat="51.67269" lon="8.34884"><ele>77</ele></trkpt>
<trkpt lat="51.67248" lon="8.34880"><ele>77</ele></trkpt>
<trkpt lat="51.67239" lon="8.34734"><ele>76</ele></trkpt>
<trkpt lat="51.67249" lon="8.34494"><ele>76</ele></trkpt>
<trkpt lat="51.67199" lon="8.34491"><ele>76</ele></trkpt>
<trkpt lat="51.67195" lon="8.34502"><ele>76</ele></trkpt>
<trkpt lat="51.67152" lon="8.34480"><ele>76</ele></trkpt>
<trkpt lat="51.67158" lon="8.34453"><ele>76</ele></trkpt>
<trkpt lat="51.67265" lon="8.34005"><ele>75</ele></trkpt>
<trkpt lat="51.67408" lon="8.33906"><ele>75</ele></trkpt>
<trkpt lat="51.67362" lon="8.33707"><ele>76</ele></trkpt>
<trkpt lat="51.67362" lon="8.33677"><ele>76</ele></trkpt>
<trkpt lat="51.67379" lon="8.33574"><ele>76</ele></trkpt>
<trkpt lat="51.67490" lon="8.33597"><ele>75</ele></trkpt>
<trkpt lat="51.67583" lon="8.33599"><ele>76</ele></trkpt>
<trkpt lat="51.67625" lon="8.33620"><ele>76</ele></trkpt>
<trkpt lat="51.67651" lon="8.33643"><ele>76</ele></trkpt>
<trkpt lat="51.67677" lon="8.33673"><ele>76</ele></trkpt>
<trkpt lat="51.67801" lon="8.33577"><ele>76</ele></trkpt>
<trkpt lat="51.67820" lon="8.33568"><ele>76</ele></trkpt>
<trkpt lat="51.67869" lon="8.33559"><ele>76</ele></trkpt>
<trkpt lat="51.67895" lon="8.33545"><ele>76</ele></trkpt>
<trkpt lat="51.68320" lon="8.33195"><ele>75</ele></trkpt>
<trkpt lat="51.68265" lon="8.33014"><ele>74</ele></trkpt>
<trkpt lat="51.68218" lon="8.32906"><ele>75</ele></trkpt>
<trkpt lat="51.68283" lon="8.32822"><ele>74</ele></trkpt>
<trkpt lat="51.68297" lon="8.32793"><ele>75</ele></trkpt>
<trkpt lat="51.68435" lon="8.32417"><ele>74</ele></trkpt>
<trkpt lat="51.68469" lon="8.32352"><ele>75</ele></trkpt>
<trkpt lat="51.68613" lon="8.32167"><ele>74</ele></trkpt>
<trkpt lat="51.68879" lon="8.31855"><ele>75</ele></trkpt>
<trkpt lat="51.68679" lon="8.31348"><ele>73</ele></trkpt>
<trkpt lat="51.68677" lon="8.31335"><ele>74</ele></trkpt>
<trkpt lat="51.68678" lon="8.31323"><ele>74</ele></trkpt>
<trkpt lat="51.68663" lon="8.31309"><ele>74</ele></trkpt>
<trkpt lat="51.68709" lon="8.31335"><ele>74</ele></trkpt>
<trkpt lat="51.68739" lon="8.31341"><ele>74</ele></trkpt>
<trkpt lat="51.68773" lon="8.31330"><ele>74</ele></trkpt>
<trkpt lat="51.68901" lon="8.31273"><ele>74</ele></trkpt>
<trkpt lat="51.68969" lon="8.31272"><ele>74</ele></trkpt>
<trkpt lat="51.68983" lon="8.31267"><ele>74</ele></trkpt>
<trkpt lat="51.69219" lon="8.31127"><ele>74</ele></trkpt>
<trkpt lat="51.69264" lon="8.31096"><ele>74</ele></trkpt>
<trkpt lat="51.69269" lon="8.31088"><ele>74</ele></trkpt>
<trkpt lat="51.69335" lon="8.31046"><ele>74</ele></trkpt>
<trkpt lat="51.69484" lon="8.31003"><ele>74</ele></trkpt>
<trkpt lat="51.69431" lon="8.30872"><ele>74</ele></trkpt>
<trkpt lat="51.69646" lon="8.30650"><ele>74</ele></trkpt>
<trkpt lat="51.69657" lon="8.30645"><ele>74</ele></trkpt>
<trkpt lat="51.69750" lon="8.30732"><ele>74</ele></trkpt>
<trkpt lat="51.69763" lon="8.30736"><ele>74</ele></trkpt>
<trkpt lat="51.69778" lon="8.30729"><ele>74</ele></trkpt>
<trkpt lat="51.69953" lon="8.30564"><ele>74</ele></trkpt>
<trkpt lat="51.70183" lon="8.30438"><ele>74</ele></trkpt>
<trkpt lat="51.70193" lon="8.30437"><ele>74</ele></trkpt>
<trkpt lat="51.70298" lon="8.30466"><ele>74</ele></trkpt>
<trkpt lat="51.70446" lon="8.30540"><ele>74</ele></trkpt>
<trkpt lat="51.70573" lon="8.30645"><ele>74</ele></trkpt>
<trkpt lat="51.70620" lon="8.30505"><ele>74</ele></trkpt>
<trkpt lat="51.70640" lon="8.30427"><ele>73</ele></trkpt>
<trkpt lat="51.70660" lon="8.30336"><ele>73</ele></trkpt>
<trkpt lat="51.70665" lon="8.30291"><ele>73</ele></trkpt>
<trkpt lat="51.70664" lon="8.30249"><ele>74</ele></trkpt>
<trkpt lat="51.70624" lon="8.29572"><ele>74</ele></trkpt>
<trkpt lat="51.70626" lon="8.29542"><ele>74</ele></trkpt>
<trkpt lat="51.70633" lon="8.29511"><ele>74</ele></trkpt>
<trkpt lat="51.70647" lon="8.29480"><ele>74</ele></trkpt>
<trkpt lat="51.70661" lon="8.29459"><ele>74</ele></trkpt>
<trkpt lat="51.70736" lon="8.29371"><ele>74</ele></trkpt>
<trkpt lat="51.70751" lon="8.29339"><ele>73</ele></trkpt>
<trkpt lat="51.70760" lon="8.29285"><ele>74</ele></trkpt>
<trkpt lat="51.70770" lon="8.28969"><ele>74</ele></trkpt>
<trkpt lat="51.70780" lon="8.28391"><ele>76</ele></trkpt>
<trkpt lat="51.70805" lon="8.27580"><ele>78</ele></trkpt>
<trkpt lat="51.70804" lon="8.27465"><ele>79</ele></trkpt>
<trkpt lat="51.71096" lon="8.27435"><ele>75</ele></trkpt>
<trkpt lat="51.71302" lon="8.27466"><ele>76</ele></trkpt>
<trkpt lat="51.71300" lon="8.27596"><ele>75</ele></trkpt>
<trkpt lat="51.71648" lon="8.27628"><ele>75</ele></trkpt>
<trkpt lat="51.71733" lon="8.27651"><ele>75</ele></trkpt>
<trkpt lat="51.71965" lon="8.27674"><ele>76</ele></trkpt>
<trkpt lat="51.72008" lon="8.27984"><ele>75</ele></trkpt>
<trkpt lat="51.72599" lon="8.27726"><ele>75</ele></trkpt>
<trkpt lat="51.72629" lon="8.27719"><ele>75</ele></trkpt>
<trkpt lat="51.72697" lon="8.27725"><ele>75</ele></trkpt>
<trkpt lat="51.72906" lon="8.27762"><ele>76</ele></trkpt>
<trkpt lat="51.73106" lon="8.27755"><ele>78</ele></trkpt>
<trkpt lat="51.73125" lon="8.27748"><ele>78</ele></trkpt>
<trkpt lat="51.73144" lon="8.27735"><ele>78</ele></trkpt>
<trkpt lat="51.73162" lon="8.27712"><ele>78</ele></trkpt>
<trkpt lat="51.73175" lon="8.27683"><ele>78</ele></trkpt>
<trkpt lat="51.73190" lon="8.27625"><ele>77</ele></trkpt>
<trkpt lat="51.73226" lon="8.27417"><ele>78</ele></trkpt>
<trkpt lat="51.73284" lon="8.27170"><ele>78</ele></trkpt>
<trkpt lat="51.73342" lon="8.27003"><ele>79</ele></trkpt>
<trkpt lat="51.73462" lon="8.27107"><ele>79</ele></trkpt>
<trkpt lat="51.73502" lon="8.27148"><ele>79</ele></trkpt>
<trkpt lat="51.73521" lon="8.27173"><ele>79</ele></trkpt>
<trkpt lat="51.73554" lon="8.27226"><ele>79</ele></trkpt>
<trkpt lat="51.73590" lon="8.27298"><ele>79</ele></trkpt>
<trkpt lat="51.73607" lon="8.27345"><ele>78</ele></trkpt>
<trkpt lat="51.73860" lon="8.26824"><ele>91</ele></trkpt>
<trkpt lat="51.73884" lon="8.26792"><ele>92</ele></trkpt>
<trkpt lat="51.74009" lon="8.26655"><ele>98</ele></trkpt>
<trkpt lat="51.73963" lon="8.26342"><ele>98</ele></trkpt>
<trkpt lat="51.73925" lon="8.26140"><ele>96</ele></trkpt>
<trkpt lat="51.73832" lon="8.25761"><ele>97</ele></trkpt>
<trkpt lat="51.73751" lon="8.25494"><ele>99</ele></trkpt>
<trkpt lat="51.73719" lon="8.25371"><ele>99</ele></trkpt>
<trkpt lat="51.73688" lon="8.25233"><ele>98</ele></trkpt>
<trkpt lat="51.73667" lon="8.25097"><ele>97</ele></trkpt>
<trkpt lat="51.73669" lon="8.25067"><ele>96</ele></trkpt>
<trkpt lat="51.73677" lon="8.25065"><ele>96</ele></trkpt>
<trkpt lat="51.73681" lon="8.25055"><ele>96</ele></trkpt>
<trkpt lat="51.73680" lon="8.25043"><ele>96</ele></trkpt>
<trkpt lat="51.73669" lon="8.25038"><ele>96</ele></trkpt>
<trkpt lat="51.73667" lon="8.25013"><ele>95</ele></trkpt>
<trkpt lat="51.73674" lon="8.24938"><ele>94</ele></trkpt>
<trkpt lat="51.73675" lon="8.24789"><ele>91</ele></trkpt>
<trkpt lat="51.73687" lon="8.24655"><ele>92</ele></trkpt>
<trkpt lat="51.73707" lon="8.24566"><ele>92</ele></trkpt>
<trkpt lat="51.73768" lon="8.24490"><ele>93</ele></trkpt>
<trkpt lat="51.73832" lon="8.24250"><ele>96</ele></trkpt>
<trkpt lat="51.73850" lon="8.24156"><ele>96</ele></trkpt>
<trkpt lat="51.73863" lon="8.24068"><ele>96</ele></trkpt>
<trkpt lat="51.73870" lon="8.23935"><ele>98</ele></trkpt>
<trkpt lat="51.73870" lon="8.23890"><ele>98</ele></trkpt>
<trkpt lat="51.73863" lon="8.23780"><ele>99</ele></trkpt>
<trkpt lat="51.73852" lon="8.23781"><ele>99</ele></trkpt>
<trkpt lat="51.73846" lon="8.23691"><ele>99</ele></trkpt>
<trkpt lat="51.73875" lon="8.23550"><ele>99</ele></trkpt>
<trkpt lat="51.73834" lon="8.23517"><ele>98</ele></trkpt>
<trkpt lat="51.73691" lon="8.23372"><ele>96</ele></trkpt>
<trkpt lat="51.73711" lon="8.23296"><ele>94</ele></trkpt>
<trkpt lat="51.73798" lon="8.23064"><ele>97</ele></trkpt>
<trkpt lat="51.73833" lon="8.22956"><ele>99</ele></trkpt>
<trkpt lat="51.73879" lon="8.22756"><ele>97</ele></trkpt>
<trkpt lat="51.73898" lon="8.22603"><ele>97</ele></trkpt>
<trkpt lat="51.73922" lon="8.22504"><ele>98</ele></trkpt>
<trkpt lat="51.73943" lon="8.22378"><ele>96</ele></trkpt>
<trkpt lat="51.73953" lon="8.22277"><ele>93</ele></trkpt>
<trkpt lat="51.73962" lon="8.22119"><ele>90</ele></trkpt>
<trkpt lat="51.73938" lon="8.21857"><ele>92</ele></trkpt>
<trkpt lat="51.73936" lon="8.21804"><ele>92</ele></trkpt>
<trkpt lat="51.73934" lon="8.21744"><ele>92</ele></trkpt>
<trkpt lat="51.73939" lon="8.21565"><ele>94</ele></trkpt>
<trkpt lat="51.73949" lon="8.21440"><ele>93</ele></trkpt>
<trkpt lat="51.73998" lon="8.20978"><ele>92</ele></trkpt>
<trkpt lat="51.74012" lon="8.20726"><ele>92</ele></trkpt>
<trkpt lat="51.74037" lon="8.20474"><ele>90</ele></trkpt>
<trkpt lat="51.74061" lon="8.20390"><ele>90</ele></trkpt>
<trkpt lat="51.74096" lon="8.20293"><ele>90</ele></trkpt>
<trkpt lat="51.74108" lon="8.20272"><ele>90</ele></trkpt>
<trkpt lat="51.74129" lon="8.20260"><ele>91</ele></trkpt>
<trkpt lat="51.74230" lon="8.20269"><ele>94</ele></trkpt>
<trkpt lat="51.74245" lon="8.20259"><ele>94</ele></trkpt>
<trkpt lat="51.74251" lon="8.20250"><ele>94</ele></trkpt>
<trkpt lat="51.74339" lon="8.19947"><ele>86</ele></trkpt>
<trkpt lat="51.74351" lon="8.19941"><ele>86</ele></trkpt>
<trkpt lat="51.74455" lon="8.19973"><ele>87</ele></trkpt>
<trkpt lat="51.74470" lon="8.19967"><ele>87</ele></trkpt>
<trkpt lat="51.74417" lon="8.19718"><ele>86</ele></trkpt>
<trkpt lat="51.74406" lon="8.19656"><ele>85</ele></trkpt>
<trkpt lat="51.74404" lon="8.19636"><ele>85</ele></trkpt>
<trkpt lat="51.74468" lon="8.19187"><ele>86</ele></trkpt>
<trkpt lat="51.74468" lon="8.19123"><ele>86</ele></trkpt>
<trkpt lat="51.74246" lon="8.17549"><ele>90</ele></trkpt>
<trkpt lat="51.74237" lon="8.17522"><ele>90</ele></trkpt>
<trkpt lat="51.74106" lon="8.17264"><ele>95</ele></trkpt>
<trkpt lat="51.74121" lon="8.17244"><ele>94</ele></trkpt>
<trkpt lat="51.74134" lon="8.17197"><ele>92</ele></trkpt>
<trkpt lat="51.74136" lon="8.17092"><ele>92</ele></trkpt>
<trkpt lat="51.74139" lon="8.17064"><ele>92</ele></trkpt>
<trkpt lat="51.74145" lon="8.17042"><ele>92</ele></trkpt>
<trkpt lat="51.74117" lon="8.17011"><ele>94</ele></trkpt>
<trkpt lat="51.74114" lon="8.16992"><ele>94</ele></trkpt>
<trkpt lat="51.74041" lon="8.16430"><ele>98</ele></trkpt>
<trkpt lat="51.74041" lon="8.16417"><ele>98</ele></trkpt>
<trkpt lat="51.74050" lon="8.16408"><ele>98</ele></trkpt>
<trkpt lat="51.74100" lon="8.16310"><ele>98</ele></trkpt>
<trkpt lat="51.74119" lon="8.16225"><ele>97</ele></trkpt>
<trkpt lat="51.74125" lon="8.16184"><ele>96</ele></trkpt>
<trkpt lat="51.74169" lon="8.15274"><ele>95</ele></trkpt>
<trkpt lat="51.74174" lon="8.15264"><ele>94</ele></trkpt>
<trkpt lat="51.74313" lon="8.15255"><ele>93</ele></trkpt>
<trkpt lat="51.74320" lon="8.15250"><ele>94</ele></trkpt>
<trkpt lat="51.74326" lon="8.15239"><ele>94</ele></trkpt>
<trkpt lat="51.74361" lon="8.14728"><ele>95</ele></trkpt>
<trkpt lat="51.74396" lon="8.14478"><ele>96</ele></trkpt>
<trkpt lat="51.74463" lon="8.14044"><ele>97</ele></trkpt>
<trkpt lat="51.74533" lon="8.13625"><ele>101</ele></trkpt>
<trkpt lat="51.74556" lon="8.13467"><ele>104</ele></trkpt>
<trkpt lat="51.74556" lon="8.13435"><ele>104</ele></trkpt>
<trkpt lat="51.74542" lon="8.13243"><ele>106</ele></trkpt>
<trkpt lat="51.74563" lon="8.13021"><ele>106</ele></trkpt>
<trkpt lat="51.74534" lon="8.12801"><ele>110</ele></trkpt>
<trkpt lat="51.74491" lon="8.12600"><ele>114</ele></trkpt>
<trkpt lat="51.74485" lon="8.12519"><ele>115</ele></trkpt>
<trkpt lat="51.74485" lon="8.12490"><ele>116</ele></trkpt>
<trkpt lat="51.74511" lon="8.12196"><ele>121</ele></trkpt>
<trkpt lat="51.74511" lon="8.12015"><ele>123</ele></trkpt>
<trkpt lat="51.74450" lon="8.11466"><ele>127</ele></trkpt>
<trkpt lat="51.74444" lon="8.11064"><ele>129</ele></trkpt>
<trkpt lat="51.74442" lon="8.11045"><ele>129</ele></trkpt>
<trkpt lat="51.74436" lon="8.11033"><ele>130</ele></trkpt>
<trkpt lat="51.74442" lon="8.11024"><ele>130</ele></trkpt>
<trkpt lat="51.74447" lon="8.11006"><ele>130</ele></trkpt>
<trkpt lat="51.74457" lon="8.10806"><ele>131</ele></trkpt>
<trkpt lat="51.74460" lon="8.10792"><ele>131</ele></trkpt>
<trkpt lat="51.74469" lon="8.10789"><ele>131</ele></trkpt>
<trkpt lat="51.74625" lon="8.10826"><ele>126</ele></trkpt>
<trkpt lat="51.74969" lon="8.10895"><ele>116</ele></trkpt>
<trkpt lat="51.75049" lon="8.10901"><ele>113</ele></trkpt>
<trkpt lat="51.75138" lon="8.10887"><ele>116</ele></trkpt>
<trkpt lat="51.75430" lon="8.10819"><ele>128</ele></trkpt>
<trkpt lat="51.75450" lon="8.10803"><ele>128</ele></trkpt>
<trkpt lat="51.75459" lon="8.10788"><ele>128</ele></trkpt>
<trkpt lat="51.75426" lon="8.10241"><ele>129</ele></trkpt>
<trkpt lat="51.75428" lon="8.10214"><ele>129</ele></trkpt>
<trkpt lat="51.75463" lon="8.10004"><ele>130</ele></trkpt>
<trkpt lat="51.75492" lon="8.09887"><ele>131</ele></trkpt>
<trkpt lat="51.75536" lon="8.09768"><ele>132</ele></trkpt>
<trkpt lat="51.75559" lon="8.09730"><ele>132</ele></trkpt>
<trkpt lat="51.75664" lon="8.09720"><ele>132</ele></trkpt>
<trkpt lat="51.75672" lon="8.09713"><ele>132</ele></trkpt>
<trkpt lat="51.75674" lon="8.09696"><ele>132</ele></trkpt>
<trkpt lat="51.75656" lon="8.09410"><ele>130</ele></trkpt>
<trkpt lat="51.75660" lon="8.09377"><ele>129</ele></trkpt>
<trkpt lat="51.75678" lon="8.09327"><ele>130</ele></trkpt>
<trkpt lat="51.75682" lon="8.09302"><ele>130</ele></trkpt>
<trkpt lat="51.75676" lon="8.09169"><ele>132</ele></trkpt>
<trkpt lat="51.75676" lon="8.09067"><ele>136</ele></trkpt>
<trkpt lat="51.75790" lon="8.09064"><ele>143</ele></trkpt>
<trkpt lat="51.75866" lon="8.09082"><ele>148</ele></trkpt>
<trkpt lat="51.75908" lon="8.09115"><ele>151</ele></trkpt>
<trkpt lat="51.76078" lon="8.09152"><ele>152</ele></trkpt>
<trkpt lat="51.76118" lon="8.09147"><ele>151</ele></trkpt>
<trkpt lat="51.76158" lon="8.09130"><ele>151</ele></trkpt>
<trkpt lat="51.76609" lon="8.08912"><ele>146</ele></trkpt>
<trkpt lat="51.76556" lon="8.08768"><ele>146</ele></trkpt>
<trkpt lat="51.76567" lon="8.08757"><ele>146</ele></trkpt>
<trkpt lat="51.76813" lon="8.08596"><ele>143</ele></trkpt>
<trkpt lat="51.76998" lon="8.08461"><ele>143</ele></trkpt>
<trkpt lat="51.76966" lon="8.08407"><ele>142</ele></trkpt>
<trkpt lat="51.76733" lon="8.08171"><ele>136</ele></trkpt>
<trkpt lat="51.76698" lon="8.08127"><ele>136</ele></trkpt>
<trkpt lat="51.76677" lon="8.08070"><ele>135</ele></trkpt>
<trkpt lat="51.76669" lon="8.08029"><ele>135</ele></trkpt>
<trkpt lat="51.76585" lon="8.07700"><ele>137</ele></trkpt>
<trkpt lat="51.76566" lon="8.07498"><ele>134</ele></trkpt>
<trkpt lat="51.76698" lon="8.07457"><ele>130</ele></trkpt>
<trkpt lat="51.76704" lon="8.07451"><ele>130</ele></trkpt>
<trkpt lat="51.76711" lon="8.07437"><ele>130</ele></trkpt>
<trkpt lat="51.76713" lon="8.07426"><ele>130</ele></trkpt>
<trkpt lat="51.76713" lon="8.07317"><ele>130</ele></trkpt>
<trkpt lat="51.76698" lon="8.07234"><ele>130</ele></trkpt>
<trkpt lat="51.76701" lon="8.07203"><ele>130</ele></trkpt>
<trkpt lat="51.76710" lon="8.07183"><ele>130</ele></trkpt>
<trkpt lat="51.76718" lon="8.07173"><ele>131</ele></trkpt>
<trkpt lat="51.76795" lon="8.07111"><ele>134</ele></trkpt>
<trkpt lat="51.76838" lon="8.07089"><ele>136</ele></trkpt>
<trkpt lat="51.76976" lon="8.07068"><ele>138</ele></trkpt>
<trkpt lat="51.77449" lon="8.06981"><ele>147</ele></trkpt>
<trkpt lat="51.77698" lon="8.07032"><ele>146</ele></trkpt>
<trkpt lat="51.77803" lon="8.07079"><ele>145</ele></trkpt>
<trkpt lat="51.77869" lon="8.07097"><ele>143</ele></trkpt>
<trkpt lat="51.77897" lon="8.07094"><ele>142</ele></trkpt>
<trkpt lat="51.78008" lon="8.07067"><ele>141</ele></trkpt>
<trkpt lat="51.78028" lon="8.07053"><ele>140</ele></trkpt>
<trkpt lat="51.78232" lon="8.06804"><ele>136</ele></trkpt>
<trkpt lat="51.78344" lon="8.06697"><ele>134</ele></trkpt>
<trkpt lat="51.78453" lon="8.06560"><ele>129</ele></trkpt>
<trkpt lat="51.78492" lon="8.06436"><ele>129</ele></trkpt>
<trkpt lat="51.78369" lon="8.06128"><ele>132</ele></trkpt>
<trkpt lat="51.78352" lon="8.06036"><ele>133</ele></trkpt>
<trkpt lat="51.78343" lon="8.05945"><ele>133</ele></trkpt>
<trkpt lat="51.78352" lon="8.05903"><ele>134</ele></trkpt>
<trkpt lat="51.78344" lon="8.05853"><ele>134</ele></trkpt>
<trkpt lat="51.78330" lon="8.05830"><ele>134</ele></trkpt>
<trkpt lat="51.78409" lon="8.05791"><ele>134</ele></trkpt>
<trkpt lat="51.78542" lon="8.05712"><ele>135</ele></trkpt>
<trkpt lat="51.78602" lon="8.05661"><ele>136</ele></trkpt>
<trkpt lat="51.78648" lon="8.05644"><ele>136</ele></trkpt>
<trkpt lat="51.78680" lon="8.05627"><ele>134</ele></trkpt>
<trkpt lat="51.78679" lon="8.05607"><ele>134</ele></trkpt>
<trkpt lat="51.78751" lon="8.05414"><ele>132</ele></trkpt>
<trkpt lat="51.78844" lon="8.05214"><ele>129</ele></trkpt>
<trkpt lat="51.78866" lon="8.05162"><ele>128</ele></trkpt>
<trkpt lat="51.78941" lon="8.04946"><ele>126</ele></trkpt>
<trkpt lat="51.78975" lon="8.04888"><ele>124</ele></trkpt>
<trkpt lat="51.78987" lon="8.04852"><ele>123</ele></trkpt>
<trkpt lat="51.78989" lon="8.04830"><ele>124</ele></trkpt>
<trkpt lat="51.79035" lon="8.04655"><ele>120</ele></trkpt>
<trkpt lat="51.79037" lon="8.04639"><ele>120</ele></trkpt>
<trkpt lat="51.79028" lon="8.04612"><ele>119</ele></trkpt>
<trkpt lat="51.79048" lon="8.04596"><ele>118</ele></trkpt>
<trkpt lat="51.79094" lon="8.04583"><ele>118</ele></trkpt>
<trkpt lat="51.79136" lon="8.04563"><ele>117</ele></trkpt>
<trkpt lat="51.79147" lon="8.04551"><ele>117</ele></trkpt>
<trkpt lat="51.79161" lon="8.04493"><ele>118</ele></trkpt>
<trkpt lat="51.79179" lon="8.04476"><ele>118</ele></trkpt>
<trkpt lat="51.79187" lon="8.04338"><ele>118</ele></trkpt>
<trkpt lat="51.79292" lon="8.03973"><ele>121</ele></trkpt>
<trkpt lat="51.79355" lon="8.03999"><ele>120</ele></trkpt>
<trkpt lat="51.79344" lon="8.04149"><ele>121</ele></trkpt>
<trkpt lat="51.79410" lon="8.04162"><ele>120</ele></trkpt>
<trkpt lat="51.79464" lon="8.04161"><ele>120</ele></trkpt>
<trkpt lat="51.79760" lon="8.04085"><ele>117</ele></trkpt>
<trkpt lat="51.79855" lon="8.03689"><ele>107</ele></trkpt>
<trkpt lat="51.79872" lon="8.03573"><ele>105</ele></trkpt>
<trkpt lat="51.79871" lon="8.03554"><ele>106</ele></trkpt>
<trkpt lat="51.79887" lon="8.03562"><ele>105</ele></trkpt>
<trkpt lat="51.79915" lon="8.03549"><ele>105</ele></trkpt>
<trkpt lat="51.79939" lon="8.03566"><ele>105</ele></trkpt>
<trkpt lat="51.79954" lon="8.03568"><ele>104</ele></trkpt>
<trkpt lat="51.80102" lon="8.03515"><ele>102</ele></trkpt>
<trkpt lat="51.80190" lon="8.03479"><ele>106</ele></trkpt>
<trkpt lat="51.80202" lon="8.03471"><ele>106</ele></trkpt>
<trkpt lat="51.80240" lon="8.03432"><ele>106</ele></trkpt>
<trkpt lat="51.80346" lon="8.03377"><ele>103</ele></trkpt>
<trkpt lat="51.80481" lon="8.03342"><ele>96</ele></trkpt>
<trkpt lat="51.80513" lon="8.03326"><ele>96</ele></trkpt>
<trkpt lat="51.80556" lon="8.03294"><ele>94</ele></trkpt>
<trkpt lat="51.80573" lon="8.03269"><ele>94</ele></trkpt>
<trkpt lat="51.80591" lon="8.03224"><ele>94</ele></trkpt>
<trkpt lat="51.80597" lon="8.03163"><ele>94</ele></trkpt>
<trkpt lat="51.80583" lon="8.02942"><ele>96</ele></trkpt>
<trkpt lat="51.80583" lon="8.02901"><ele>96</ele></trkpt>
<trkpt lat="51.80592" lon="8.02815"><ele>94</ele></trkpt>
<trkpt lat="51.80572" lon="8.02799"><ele>95</ele></trkpt>
<trkpt lat="51.80559" lon="8.02758"><ele>95</ele></trkpt>
<trkpt lat="51.80551" lon="8.02710"><ele>95</ele></trkpt>
<trkpt lat="51.80554" lon="8.02559"><ele>95</ele></trkpt>
<trkpt lat="51.80632" lon="8.02561"><ele>94</ele></trkpt>
<trkpt lat="51.80637" lon="8.02554"><ele>94</ele></trkpt>
<trkpt lat="51.80660" lon="8.02557"><ele>94</ele></trkpt>
<trkpt lat="51.80668" lon="8.02550"><ele>94</ele></trkpt>
<trkpt lat="51.80689" lon="8.02556"><ele>94</ele></trkpt>
<trkpt lat="51.80718" lon="8.02554"><ele>94</ele></trkpt>
<trkpt lat="51.81012" lon="8.02506"><ele>91</ele></trkpt>
<trkpt lat="51.81114" lon="8.02469"><ele>94</ele></trkpt>
<trkpt lat="51.81276" lon="8.02397"><ele>97</ele></trkpt>
<trkpt lat="51.81320" lon="8.02384"><ele>98</ele></trkpt>
<trkpt lat="51.81406" lon="8.02370"><ele>101</ele></trkpt>
<trkpt lat="51.81448" lon="8.02369"><ele>102</ele></trkpt>
<trkpt lat="51.81585" lon="8.02385"><ele>103</ele></trkpt>
<trkpt lat="51.81869" lon="8.02473"><ele>105</ele></trkpt>
<trkpt lat="51.82122" lon="8.02530"><ele>104</ele></trkpt>
<trkpt lat="51.82518" lon="8.02471"><ele>106</ele></trkpt>
<trkpt lat="51.82689" lon="8.02460"><ele>105</ele></trkpt>
<trkpt lat="51.82849" lon="8.02429"><ele>103</ele></trkpt>
<trkpt lat="51.82891" lon="8.02416"><ele>102</ele></trkpt>
<trkpt lat="51.82923" lon="8.02401"><ele>102</ele></trkpt>
<trkpt lat="51.82926" lon="8.02389"><ele>102</ele></trkpt>
<trkpt lat="51.82939" lon="8.02377"><ele>101</ele></trkpt>
<trkpt lat="51.82914" lon="8.02317"><ele>101</ele></trkpt>
<trkpt lat="51.82866" lon="8.02057"><ele>101</ele></trkpt>
<trkpt lat="51.82789" lon="8.01764"><ele>104</ele></trkpt>
<trkpt lat="51.82721" lon="8.01551"><ele>104</ele></trkpt>
<trkpt lat="51.82694" lon="8.01480"><ele>104</ele></trkpt>
<trkpt lat="51.82622" lon="8.01334"><ele>102</ele></trkpt>
<trkpt lat="51.82572" lon="8.01204"><ele>101</ele></trkpt>
<trkpt lat="51.82304" lon="8.00666"><ele>93</ele></trkpt>
<trkpt lat="51.82243" lon="8.00496"><ele>90</ele></trkpt>
<trkpt lat="51.82199" lon="8.00296"><ele>86</ele></trkpt>
<trkpt lat="51.82191" lon="8.00270"><ele>86</ele></trkpt>
<trkpt lat="51.82180" lon="8.00251"><ele>85</ele></trkpt>
<trkpt lat="51.82075" lon="8.00129"><ele>84</ele></trkpt>
<trkpt lat="51.82047" lon="8.00077"><ele>84</ele></trkpt>
<trkpt lat="51.82023" lon="8.00015"><ele>85</ele></trkpt>
<trkpt lat="51.81970" lon="7.99802"><ele>89</ele></trkpt>
<trkpt lat="51.81960" lon="7.99751"><ele>89</ele></trkpt>
<trkpt lat="51.81932" lon="7.98967"><ele>89</ele></trkpt>
<trkpt lat="51.81935" lon="7.98338"><ele>87</ele></trkpt>
<trkpt lat="51.81919" lon="7.98070"><ele>87</ele></trkpt>
<trkpt lat="51.81894" lon="7.97771"><ele>86</ele></trkpt>
<trkpt lat="51.81847" lon="7.97428"><ele>82</ele></trkpt>
<trkpt lat="51.81848" lon="7.97414"><ele>82</ele></trkpt>
<trkpt lat="51.81634" lon="7.97310"><ele>81</ele></trkpt>
<trkpt lat="51.81523" lon="7.97313"><ele>80</ele></trkpt>
<trkpt lat="51.81373" lon="7.97267"><ele>82</ele></trkpt>
<trkpt lat="51.81257" lon="7.97213"><ele>81</ele></trkpt>
<trkpt lat="51.80970" lon="7.97051"><ele>84</ele></trkpt>
<trkpt lat="51.80447" lon="7.96662"><ele>85</ele></trkpt>
<trkpt lat="51.80479" lon="7.96533"><ele>85</ele></trkpt>
<trkpt lat="51.80570" lon="7.96210"><ele>82</ele></trkpt>
<trkpt lat="51.80661" lon="7.95975"><ele>81</ele></trkpt>
<trkpt lat="51.80663" lon="7.95951"><ele>81</ele></trkpt>
<trkpt lat="51.80640" lon="7.95538"><ele>80</ele></trkpt>
<trkpt lat="51.80635" lon="7.95486"><ele>80</ele></trkpt>
<trkpt lat="51.80595" lon="7.95208"><ele>78</ele></trkpt>
<trkpt lat="51.80567" lon="7.95078"><ele>78</ele></trkpt>
<trkpt lat="51.80508" lon="7.94978"><ele>79</ele></trkpt>
<trkpt lat="51.80502" lon="7.94949"><ele>79</ele></trkpt>
<trkpt lat="51.80505" lon="7.94926"><ele>79</ele></trkpt>
<trkpt lat="51.80514" lon="7.94923"><ele>79</ele></trkpt>
<trkpt lat="51.80521" lon="7.94911"><ele>79</ele></trkpt>
<trkpt lat="51.80616" lon="7.94742"><ele>79</ele></trkpt>
<trkpt lat="51.80668" lon="7.94621"><ele>78</ele></trkpt>
<trkpt lat="51.80675" lon="7.94594"><ele>78</ele></trkpt>
<trkpt lat="51.80633" lon="7.94550"><ele>78</ele></trkpt>
<trkpt lat="51.80500" lon="7.94436"><ele>79</ele></trkpt>
<trkpt lat="51.80395" lon="7.94365"><ele>80</ele></trkpt>
<trkpt lat="51.80203" lon="7.94220"><ele>79</ele></trkpt>
<trkpt lat="51.80208" lon="7.94054"><ele>79</ele></trkpt>
<trkpt lat="51.80211" lon="7.94043"><ele>78</ele></trkpt>
<trkpt lat="51.80234" lon="7.94036"><ele>78</ele></trkpt>
<trkpt lat="51.80241" lon="7.94027"><ele>78</ele></trkpt>
<trkpt lat="51.80266" lon="7.93859"><ele>78</ele></trkpt>
<trkpt lat="51.80306" lon="7.93712"><ele>79</ele></trkpt>
<trkpt lat="51.80319" lon="7.93559"><ele>77</ele></trkpt>
<trkpt lat="51.80356" lon="7.93310"><ele>78</ele></trkpt>
<trkpt lat="51.80271" lon="7.93283"><ele>77</ele></trkpt>
<trkpt lat="51.80326" lon="7.93049"><ele>78</ele></trkpt>
<trkpt lat="51.80436" lon="7.92711"><ele>77</ele></trkpt>
<trkpt lat="51.80488" lon="7.92584"><ele>77</ele></trkpt>
<trkpt lat="51.80510" lon="7.92511"><ele>77</ele></trkpt>
<trkpt lat="51.80542" lon="7.92388"><ele>78</ele></trkpt>
<trkpt lat="51.80560" lon="7.92337"><ele>78</ele></trkpt>
<trkpt lat="51.80693" lon="7.92187"><ele>80</ele></trkpt>
<trkpt lat="51.80850" lon="7.92019"><ele>78</ele></trkpt>
<trkpt lat="51.80932" lon="7.91911"><ele>76</ele></trkpt>
<trkpt lat="51.80945" lon="7.91887"><ele>76</ele></trkpt>
<trkpt lat="51.80949" lon="7.91867"><ele>76</ele></trkpt>
<trkpt lat="51.80956" lon="7.91678"><ele>76</ele></trkpt>
<trkpt lat="51.80978" lon="7.91387"><ele>74</ele></trkpt>
<trkpt lat="51.81030" lon="7.91122"><ele>74</ele></trkpt>
<trkpt lat="51.81043" lon="7.91085"><ele>74</ele></trkpt>
<trkpt lat="51.81085" lon="7.91002"><ele>74</ele></trkpt>
<trkpt lat="51.81324" lon="7.90029"><ele>72</ele></trkpt>
<trkpt lat="51.81340" lon="7.89973"><ele>72</ele></trkpt>
<trkpt lat="51.81396" lon="7.89865"><ele>71</ele></trkpt>
<trkpt lat="51.81386" lon="7.89823"><ele>71</ele></trkpt>
<trkpt lat="51.81377" lon="7.89603"><ele>71</ele></trkpt>
<trkpt lat="51.81378" lon="7.89562"><ele>71</ele></trkpt>
<trkpt lat="51.81383" lon="7.89533"><ele>71</ele></trkpt>
<trkpt lat="51.81518" lon="7.89084"><ele>70</ele></trkpt>
<trkpt lat="51.81528" lon="7.89036"><ele>70</ele></trkpt>
<trkpt lat="51.81568" lon="7.88448"><ele>69</ele></trkpt>
<trkpt lat="51.81584" lon="7.88266"><ele>69</ele></trkpt>
<trkpt lat="51.81605" lon="7.88123"><ele>68</ele></trkpt>
<trkpt lat="51.81605" lon="7.88092"><ele>68</ele></trkpt>
<trkpt lat="51.81600" lon="7.88061"><ele>69</ele></trkpt>
<trkpt lat="51.81542" lon="7.87810"><ele>69</ele></trkpt>
<trkpt lat="51.81514" lon="7.87606"><ele>69</ele></trkpt>
<trkpt lat="51.81509" lon="7.87520"><ele>69</ele></trkpt>
<trkpt lat="51.81513" lon="7.87498"><ele>69</ele></trkpt>
<trkpt lat="51.81537" lon="7.87439"><ele>69</ele></trkpt>
<trkpt lat="51.81544" lon="7.87385"><ele>69</ele></trkpt>
<trkpt lat="51.81548" lon="7.87370"><ele>69</ele></trkpt>
<trkpt lat="51.81591" lon="7.87311"><ele>69</ele></trkpt>
<trkpt lat="51.81596" lon="7.87299"><ele>69</ele></trkpt>
<trkpt lat="51.81602" lon="7.87267"><ele>70</ele></trkpt>
<trkpt lat="51.81640" lon="7.87181"><ele>70</ele></trkpt>
<trkpt lat="51.81644" lon="7.87165"><ele>70</ele></trkpt>
<trkpt lat="51.81645" lon="7.87146"><ele>70</ele></trkpt>
<trkpt lat="51.81591" lon="7.86608"><ele>72</ele></trkpt>
<trkpt lat="51.81575" lon="7.86518"><ele>72</ele></trkpt>
<trkpt lat="51.81554" lon="7.86447"><ele>72</ele></trkpt>
<trkpt lat="51.81537" lon="7.86410"><ele>72</ele></trkpt>
<trkpt lat="51.81540" lon="7.86385"><ele>73</ele></trkpt>
<trkpt lat="51.81618" lon="7.86336"><ele>73</ele></trkpt>
<trkpt lat="51.81912" lon="7.86130"><ele>68</ele></trkpt>
<trkpt lat="51.82107" lon="7.86010"><ele>66</ele></trkpt>
<trkpt lat="51.82205" lon="7.85988"><ele>67</ele></trkpt>
<trkpt lat="51.82286" lon="7.85991"><ele>65</ele></trkpt>
<trkpt lat="51.82345" lon="7.85979"><ele>65</ele></trkpt>
<trkpt lat="51.82820" lon="7.85942"><ele>66</ele></trkpt>
<trkpt lat="51.82883" lon="7.85292"><ele>65</ele></trkpt>
<trkpt lat="51.83015" lon="7.84663"><ele>64</ele></trkpt>
<trkpt lat="51.83044" lon="7.84540"><ele>64</ele></trkpt>
<trkpt lat="51.83054" lon="7.84502"><ele>64</ele></trkpt>
<trkpt lat="51.83068" lon="7.84465"><ele>64</ele></trkpt>
<trkpt lat="51.83149" lon="7.84269"><ele>63</ele></trkpt>
<trkpt lat="51.83245" lon="7.84074"><ele>63</ele></trkpt>
<trkpt lat="51.83292" lon="7.83961"><ele>63</ele></trkpt>
<trkpt lat="51.83296" lon="7.83942"><ele>63</ele></trkpt>
<trkpt lat="51.83391" lon="7.83924"><ele>62</ele></trkpt>
<trkpt lat="51.83427" lon="7.83921"><ele>62</ele></trkpt>
<trkpt lat="51.83508" lon="7.83932"><ele>62</ele></trkpt>
<trkpt lat="51.83555" lon="7.83909"><ele>62</ele></trkpt>
<trkpt lat="51.83566" lon="7.83900"><ele>62</ele></trkpt>
<trkpt lat="51.83582" lon="7.83876"><ele>63</ele></trkpt>
<trkpt lat="51.83613" lon="7.83788"><ele>62</ele></trkpt>
<trkpt lat="51.83783" lon="7.83623"><ele>63</ele></trkpt>
<trkpt lat="51.83996" lon="7.83080"><ele>63</ele></trkpt>
<trkpt lat="51.84071" lon="7.83136"><ele>63</ele></trkpt>
<trkpt lat="51.84157" lon="7.83178"><ele>63</ele></trkpt>
<trkpt lat="51.84172" lon="7.83094"><ele>63</ele></trkpt>
<trkpt lat="51.84180" lon="7.82990"><ele>64</ele></trkpt>
<trkpt lat="51.84186" lon="7.82989"><ele>64</ele></trkpt>
<trkpt lat="51.84204" lon="7.82777"><ele>64</ele></trkpt>
<trkpt lat="51.84205" lon="7.82762"><ele>64</ele></trkpt>
<trkpt lat="51.84196" lon="7.82758"><ele>64</ele></trkpt>
<trkpt lat="51.84206" lon="7.82598"><ele>64</ele></trkpt>
<trkpt lat="51.84219" lon="7.82520"><ele>63</ele></trkpt>
<trkpt lat="51.84246" lon="7.82455"><ele>63</ele></trkpt>
<trkpt lat="51.84246" lon="7.82368"><ele>64</ele></trkpt>
<trkpt lat="51.84251" lon="7.82356"><ele>64</ele></trkpt>
<trkpt lat="51.84278" lon="7.82328"><ele>64</ele></trkpt>
<trkpt lat="51.84303" lon="7.82345"><ele>65</ele></trkpt>
<trkpt lat="51.84345" lon="7.82316"><ele>65</ele></trkpt>
<trkpt lat="51.84355" lon="7.82315"><ele>65</ele></trkpt>
<trkpt lat="51.84354" lon="7.82276"><ele>65</ele></trkpt>
<trkpt lat="51.84349" lon="7.82269"><ele>65</ele></trkpt>
<trkpt lat="51.84339" lon="7.82144"><ele>66</ele></trkpt>
<trkpt lat="51.84297" lon="7.81794"><ele>66</ele></trkpt>
<trkpt lat="51.84288" lon="7.81675"><ele>66</ele></trkpt>
<trkpt lat="51.84284" lon="7.81524"><ele>66</ele></trkpt>
<trkpt lat="51.84281" lon="7.81498"><ele>66</ele></trkpt>
<trkpt lat="51.84289" lon="7.81294"><ele>64</ele></trkpt>
<trkpt lat="51.84300" lon="7.81155"><ele>63</ele></trkpt>
<trkpt lat="51.84317" lon="7.81021"><ele>62</ele></trkpt>
<trkpt lat="51.84344" lon="7.80851"><ele>62</ele></trkpt>
<trkpt lat="51.84367" lon="7.80738"><ele>61</ele></trkpt>
<trkpt lat="51.84366" lon="7.80719"><ele>61</ele></trkpt>
<trkpt lat="51.84458" lon="7.80453"><ele>60</ele></trkpt>
<trkpt lat="51.84485" lon="7.80389"><ele>60</ele></trkpt>
<trkpt lat="51.84550" lon="7.80262"><ele>61</ele></trkpt>
<trkpt lat="51.84607" lon="7.80172"><ele>60</ele></trkpt>
<trkpt lat="51.84725" lon="7.80021"><ele>60</ele></trkpt>
<trkpt lat="51.84846" lon="7.79896"><ele>60</ele></trkpt>
<trkpt lat="51.84936" lon="7.79817"><ele>60</ele></trkpt>
<trkpt lat="51.85135" lon="7.79662"><ele>60</ele></trkpt>
<trkpt lat="51.85223" lon="7.79580"><ele>59</ele></trkpt>
<trkpt lat="51.85258" lon="7.79539"><ele>59</ele></trkpt>
<trkpt lat="51.85291" lon="7.79494"><ele>59</ele></trkpt>
<trkpt lat="51.85344" lon="7.79394"><ele>59</ele></trkpt>
<trkpt lat="51.85383" lon="7.79287"><ele>60</ele></trkpt>
<trkpt lat="51.85406" lon="7.79207"><ele>60</ele></trkpt>
<trkpt lat="51.85444" lon="7.79052"><ele>60</ele></trkpt>
<trkpt lat="51.85471" lon="7.78922"><ele>59</ele></trkpt>
<trkpt lat="51.85493" lon="7.78717"><ele>59</ele></trkpt>
<trkpt lat="51.85507" lon="7.78615"><ele>59</ele></trkpt>
<trkpt lat="51.85548" lon="7.78409"><ele>59</ele></trkpt>
<trkpt lat="51.85626" lon="7.78052"><ele>60</ele></trkpt>
<trkpt lat="51.85635" lon="7.78004"><ele>61</ele></trkpt>
<trkpt lat="51.85643" lon="7.77888"><ele>61</ele></trkpt>
<trkpt lat="51.85654" lon="7.77244"><ele>60</ele></trkpt>
<trkpt lat="51.85657" lon="7.77223"><ele>60</ele></trkpt>
<trkpt lat="51.85657" lon="7.76972"><ele>62</ele></trkpt>
<trkpt lat="51.85666" lon="7.76843"><ele>62</ele></trkpt>
<trkpt lat="51.85676" lon="7.76746"><ele>63</ele></trkpt>
<trkpt lat="51.85704" lon="7.76506"><ele>62</ele></trkpt>
<trkpt lat="51.85741" lon="7.76242"><ele>63</ele></trkpt>
<trkpt lat="51.85750" lon="7.76144"><ele>62</ele></trkpt>
<trkpt lat="51.85745" lon="7.75995"><ele>62</ele></trkpt>
<trkpt lat="51.85725" lon="7.75681"><ele>63</ele></trkpt>
<trkpt lat="51.85726" lon="7.75632"><ele>62</ele></trkpt>
<trkpt lat="51.85736" lon="7.75509"><ele>61</ele></trkpt>
<trkpt lat="51.85752" lon="7.75400"><ele>61</ele></trkpt>
<trkpt lat="51.85764" lon="7.75342"><ele>60</ele></trkpt>
<trkpt lat="51.85778" lon="7.75291"><ele>60</ele></trkpt>
<trkpt lat="51.85797" lon="7.75230"><ele>60</ele></trkpt>
<trkpt lat="51.85884" lon="7.74992"><ele>58</ele></trkpt>
<trkpt lat="51.85920" lon="7.74873"><ele>57</ele></trkpt>
<trkpt lat="51.85950" lon="7.74759"><ele>57</ele></trkpt>
<trkpt lat="51.86000" lon="7.74535"><ele>56</ele></trkpt>
<trkpt lat="51.86013" lon="7.74500"><ele>55</ele></trkpt>
<trkpt lat="51.86019" lon="7.74472"><ele>55</ele></trkpt>
<trkpt lat="51.86020" lon="7.74442"><ele>55</ele></trkpt>
<trkpt lat="51.86027" lon="7.74401"><ele>55</ele></trkpt>
<trkpt lat="51.86053" lon="7.74317"><ele>55</ele></trkpt>
<trkpt lat="51.86086" lon="7.74245"><ele>55</ele></trkpt>
<trkpt lat="51.86080" lon="7.74219"><ele>56</ele></trkpt>
<trkpt lat="51.86086" lon="7.74205"><ele>56</ele></trkpt>
<trkpt lat="51.85966" lon="7.73825"><ele>56</ele></trkpt>
<trkpt lat="51.85955" lon="7.73803"><ele>56</ele></trkpt>
<trkpt lat="51.85921" lon="7.73760"><ele>56</ele></trkpt>
<trkpt lat="51.85907" lon="7.73731"><ele>56</ele></trkpt>
<trkpt lat="51.85896" lon="7.73698"><ele>56</ele></trkpt>
<trkpt lat="51.85892" lon="7.73669"><ele>57</ele></trkpt>
<trkpt lat="51.85899" lon="7.73580"><ele>56</ele></trkpt>
<trkpt lat="51.85918" lon="7.73412"><ele>56</ele></trkpt>
<trkpt lat="51.85917" lon="7.73376"><ele>56</ele></trkpt>
<trkpt lat="51.85910" lon="7.73338"><ele>56</ele></trkpt>
<trkpt lat="51.85889" lon="7.73338"><ele>56</ele></trkpt>
<trkpt lat="51.85887" lon="7.73319"><ele>56</ele></trkpt>
<trkpt lat="51.85874" lon="7.73297"><ele>56</ele></trkpt>
<trkpt lat="51.85861" lon="7.73137"><ele>55</ele></trkpt>
<trkpt lat="51.85870" lon="7.73116"><ele>55</ele></trkpt>
<trkpt lat="51.85884" lon="7.73105"><ele>55</ele></trkpt>
<trkpt lat="51.85922" lon="7.73100"><ele>55</ele></trkpt>
<trkpt lat="51.85940" lon="7.73088"><ele>55</ele></trkpt>
<trkpt lat="51.85970" lon="7.73049"><ele>54</ele></trkpt>
<trkpt lat="51.86014" lon="7.72975"><ele>54</ele></trkpt>
<trkpt lat="51.86053" lon="7.72900"><ele>54</ele></trkpt>
<trkpt lat="51.86067" lon="7.72861"><ele>54</ele></trkpt>
<trkpt lat="51.86079" lon="7.72802"><ele>55</ele></trkpt>
<trkpt lat="51.86089" lon="7.72772"><ele>55</ele></trkpt>
<trkpt lat="51.86141" lon="7.72682"><ele>57</ele></trkpt>
<trkpt lat="51.86168" lon="7.72653"><ele>57</ele></trkpt>
<trkpt lat="51.86196" lon="7.72630"><ele>58</ele></trkpt>
<trkpt lat="51.86257" lon="7.72596"><ele>59</ele></trkpt>
<trkpt lat="51.86266" lon="7.72585"><ele>59</ele></trkpt>
<trkpt lat="51.86270" lon="7.72592"><ele>59</ele></trkpt>
<trkpt lat="51.86338" lon="7.72502"><ele>59</ele></trkpt>
<trkpt lat="51.86378" lon="7.72416"><ele>58</ele></trkpt>
<trkpt lat="51.86416" lon="7.72322"><ele>58</ele></trkpt>
<trkpt lat="51.86488" lon="7.72167"><ele>58</ele></trkpt>
<trkpt lat="51.86510" lon="7.72138"><ele>58</ele></trkpt>
<trkpt lat="51.86561" lon="7.72029"><ele>58</ele></trkpt>
<trkpt lat="51.86591" lon="7.71972"><ele>58</ele></trkpt>
<trkpt lat="51.86622" lon="7.71926"><ele>58</ele></trkpt>
<trkpt lat="51.86643" lon="7.71899"><ele>58</ele></trkpt>
<trkpt lat="51.86653" lon="7.71893"><ele>58</ele></trkpt>
<trkpt lat="51.86668" lon="7.71891"><ele>58</ele></trkpt>
<trkpt lat="51.86717" lon="7.71906"><ele>58</ele></trkpt>
<trkpt lat="51.86752" lon="7.71935"><ele>57</ele></trkpt>
<trkpt lat="51.86753" lon="7.71788"><ele>58</ele></trkpt>
<trkpt lat="51.86757" lon="7.71771"><ele>58</ele></trkpt>
<trkpt lat="51.86868" lon="7.71537"><ele>58</ele></trkpt>
<trkpt lat="51.86876" lon="7.71515"><ele>58</ele></trkpt>
<trkpt lat="51.86894" lon="7.71316"><ele>58</ele></trkpt>
<trkpt lat="51.86887" lon="7.71290"><ele>59</ele></trkpt>
<trkpt lat="51.86857" lon="7.71247"><ele>59</ele></trkpt>
<trkpt lat="51.86844" lon="7.71218"><ele>58</ele></trkpt>
<trkpt lat="51.86908" lon="7.71092"><ele>58</ele></trkpt>
<trkpt lat="51.86911" lon="7.71074"><ele>59</ele></trkpt>
<trkpt lat="51.86924" lon="7.71061"><ele>58</ele></trkpt>
<trkpt lat="51.86932" lon="7.71040"><ele>58</ele></trkpt>
<trkpt lat="51.87244" lon="7.70427"><ele>58</ele></trkpt>
<trkpt lat="51.87395" lon="7.70116"><ele>58</ele></trkpt>
<trkpt lat="51.87764" lon="7.69383"><ele>58</ele></trkpt>
<trkpt lat="51.87789" lon="7.69324"><ele>58</ele></trkpt>
<trkpt lat="51.87818" lon="7.69213"><ele>59</ele></trkpt>
<trkpt lat="51.88089" lon="7.68071"><ele>60</ele></trkpt>
<trkpt lat="51.88197" lon="7.68150"><ele>61</ele></trkpt>
<trkpt lat="51.88315" lon="7.67818"><ele>65</ele></trkpt>
<trkpt lat="51.88397" lon="7.67510"><ele>62</ele></trkpt>
<trkpt lat="51.88488" lon="7.67134"><ele>62</ele></trkpt>
<trkpt lat="51.88492" lon="7.67101"><ele>63</ele></trkpt>
<trkpt lat="51.88508" lon="7.67010"><ele>60</ele></trkpt>
<trkpt lat="51.88522" lon="7.66984"><ele>62</ele></trkpt>
<trkpt lat="51.88552" lon="7.66969"><ele>62</ele></trkpt>
<trkpt lat="51.88563" lon="7.66991"><ele>60</ele></trkpt>
<trkpt lat="51.88680" lon="7.67134"><ele>59</ele></trkpt>
<trkpt lat="51.88884" lon="7.66713"><ele>60</ele></trkpt>
<trkpt lat="51.88915" lon="7.66665"><ele>60</ele></trkpt>
<trkpt lat="51.88979" lon="7.66510"><ele>60</ele></trkpt>
<trkpt lat="51.88999" lon="7.66536"><ele>60</ele></trkpt>
<trkpt lat="51.89015" lon="7.66545"><ele>59</ele></trkpt>
<trkpt lat="51.89082" lon="7.66543"><ele>59</ele></trkpt>
<trkpt lat="51.89157" lon="7.66520"><ele>60</ele></trkpt>
<trkpt lat="51.89579" lon="7.66278"><ele>57</ele></trkpt>
<trkpt lat="51.89585" lon="7.66233"><ele>57</ele></trkpt>
<trkpt lat="51.89630" lon="7.66243"><ele>58</ele></trkpt>
<trkpt lat="51.89693" lon="7.66248"><ele>58</ele></trkpt>
<trkpt lat="51.89792" lon="7.66239"><ele>57</ele></trkpt>
<trkpt lat="51.89877" lon="7.66216"><ele>57</ele></trkpt>
<trkpt lat="51.89986" lon="7.66163"><ele>57</ele></trkpt>
<trkpt lat="51.90053" lon="7.66119"><ele>57</ele></trkpt>
<trkpt lat="51.90252" lon="7.65966"><ele>58</ele></trkpt>
<trkpt lat="51.90373" lon="7.65862"><ele>57</ele></trkpt>
<trkpt lat="51.90396" lon="7.65853"><ele>58</ele></trkpt>
<trkpt lat="51.90584" lon="7.65675"><ele>58</ele></trkpt>
<trkpt lat="51.90610" lon="7.65653"><ele>58</ele></trkpt>
<trkpt lat="51.90619" lon="7.65654"><ele>59</ele></trkpt>
<trkpt lat="51.90707" lon="7.65587"><ele>58</ele></trkpt>
<trkpt lat="51.90712" lon="7.65590"><ele>59</ele></trkpt>
<trkpt lat="51.91044" lon="7.65311"><ele>59</ele></trkpt>
<trkpt lat="51.91114" lon="7.65257"><ele>59</ele></trkpt>
<trkpt lat="51.91163" lon="7.65225"><ele>59</ele></trkpt>
<trkpt lat="51.91277" lon="7.65162"><ele>59</ele></trkpt>
<trkpt lat="51.91342" lon="7.65143"><ele>59</ele></trkpt>
<trkpt lat="51.91596" lon="7.65003"><ele>58</ele></trkpt>
<trkpt lat="51.91849" lon="7.64872"><ele>58</ele></trkpt>
<trkpt lat="51.91869" lon="7.64852"><ele>58</ele></trkpt>
<trkpt lat="51.92221" lon="7.64664"><ele>58</ele></trkpt>
<trkpt lat="51.92240" lon="7.64650"><ele>58</ele></trkpt>
<trkpt lat="51.92445" lon="7.64540"><ele>57</ele></trkpt>
<trkpt lat="51.92555" lon="7.64471"><ele>58</ele></trkpt>
<trkpt lat="51.92576" lon="7.64463"><ele>58</ele></trkpt>
<trkpt lat="51.92716" lon="7.64387"><ele>58</ele></trkpt>
<trkpt lat="51.92774" lon="7.64345"><ele>59</ele></trkpt>
<trkpt lat="51.92867" lon="7.64293"><ele>59</ele></trkpt>
<trkpt lat="51.92976" lon="7.64217"><ele>59</ele></trkpt>
<trkpt lat="51.92995" lon="7.64208"><ele>59</ele></trkpt>
<trkpt lat="51.93009" lon="7.64194"><ele>58</ele></trkpt>
<trkpt lat="51.93168" lon="7.64082"><ele>59</ele></trkpt>
<trkpt lat="51.93189" lon="7.64072"><ele>58</ele></trkpt>
<trkpt lat="51.93206" lon="7.64056"><ele>58</ele></trkpt>
<trkpt lat="51.93363" lon="7.63959"><ele>58</ele></trkpt>
<trkpt lat="51.93367" lon="7.63959"><ele>59</ele></trkpt>
<trkpt lat="51.93432" lon="7.64071"><ele>60</ele></trkpt>
<trkpt lat="51.93440" lon="7.64079"><ele>59</ele></trkpt>
<trkpt lat="51.93448" lon="7.64067"><ele>60</ele></trkpt>
<trkpt lat="51.93458" lon="7.64083"><ele>59</ele></trkpt>
<trkpt lat="51.93464" lon="7.64072"><ele>59</ele></trkpt>
<trkpt lat="51.93483" lon="7.64056"><ele>59</ele></trkpt>
<trkpt lat="51.93519" lon="7.64042"><ele>59</ele></trkpt>
<trkpt lat="51.93550" lon="7.64048"><ele>59</ele></trkpt>
<trkpt lat="51.93577" lon="7.64066"><ele>59</ele></trkpt>
<trkpt lat="51.93596" lon="7.64089"><ele>59</ele></trkpt>
<trkpt lat="51.93703" lon="7.64265"><ele>58</ele></trkpt>
<trkpt lat="51.93950" lon="7.63904"><ele>60</ele></trkpt>
<trkpt lat="51.93961" lon="7.63892"><ele>60</ele></trkpt>
<trkpt lat="51.93977" lon="7.63885"><ele>58</ele></trkpt>
<trkpt lat="51.94034" lon="7.63906"><ele>58</ele></trkpt>
<trkpt lat="51.94045" lon="7.63898"><ele>57</ele></trkpt>
<trkpt lat="51.94127" lon="7.63941"><ele>57</ele></trkpt>
<trkpt lat="51.94189" lon="7.63981"><ele>58</ele></trkpt>
<trkpt lat="51.94248" lon="7.64029"><ele>57</ele></trkpt>
<trkpt lat="51.94358" lon="7.64131"><ele>57</ele></trkpt>
<trkpt lat="51.94481" lon="7.64254"><ele>57</ele></trkpt>
<trkpt lat="51.94552" lon="7.64329"><ele>57</ele></trkpt>
<trkpt lat="51.94647" lon="7.64439"><ele>57</ele></trkpt>
<trkpt lat="51.94647" lon="7.64461"><ele>58</ele></trkpt>
<trkpt lat="51.94621" lon="7.64501"><ele>60</ele></trkpt>
<trkpt lat="51.94590" lon="7.64536"><ele>60</ele></trkpt>
<trkpt lat="51.94573" lon="7.64548"><ele>60</ele></trkpt>
<trkpt lat="51.94564" lon="7.64549"><ele>60</ele></trkpt>
<trkpt lat="51.94639" lon="7.64447"><ele>58</ele></trkpt>
<trkpt lat="51.94833" lon="7.64143"><ele>57</ele></trkpt>
<trkpt lat="51.94877" lon="7.64055"><ele>57</ele></trkpt>
<trkpt lat="51.94909" lon="7.63972"><ele>58</ele></trkpt>
<trkpt lat="51.94951" lon="7.63896"><ele>57</ele></trkpt>
<trkpt lat="51.95057" lon="7.63755"><ele>58</ele></trkpt>
<trkpt lat="51.95148" lon="7.63819"><ele>58</ele></trkpt>
<trkpt lat="51.95257" lon="7.63656"><ele>57</ele></trkpt>
<trkpt lat="51.95300" lon="7.63676"><ele>57</ele></trkpt>
<trkpt lat="51.95292" lon="7.63593"><ele>59</ele></trkpt>
<trkpt lat="51.95311" lon="7.63398"><ele>58</ele></trkpt>
<trkpt lat="51.95376" lon="7.63284"><ele>58</ele></trkpt>
<trkpt lat="51.95381" lon="7.63268"><ele>58</ele></trkpt>
<trkpt lat="51.95366" lon="7.63259"><ele>58</ele></trkpt>
<trkpt lat="51.95356" lon="7.63290"><ele>58</ele></trkpt>
<trkpt lat="51.95320" lon="7.63353"><ele>58</ele></trkpt>
<trkpt lat="51.95316" lon="7.63348"><ele>58</ele></trkpt>
<trkpt lat="51.95282" lon="7.63339"><ele>60</ele></trkpt>
    </trkseg>
  </trk>
</gpx>
