<?xml version="1.0" encoding="UTF-8"?>
<gpx version="1.1" creator="Gravel Kompass" xmlns="http://www.topografix.com/GPX/1/1">
  <metadata><name>München – Haltern am See: Von der Isar ins Münsterland – Etappe 10</name></metadata>
  <trk>
    <name>Etappe 10: Fulda – Rotenburg an der Fulda</name>
    <trkseg>
<trkpt lat="50.55250" lon="9.68350"><ele>274</ele></trkpt>
<trkpt lat="50.55446" lon="9.68100"><ele>275</ele></trkpt>
<trkpt lat="50.55317" lon="9.67847"><ele>268</ele></trkpt>
<trkpt lat="50.55419" lon="9.67717"><ele>271</ele></trkpt>
<trkpt lat="50.55374" lon="9.67625"><ele>269</ele></trkpt>
<trkpt lat="50.55322" lon="9.67552"><ele>266</ele></trkpt>
<trkpt lat="50.55315" lon="9.67534"><ele>266</ele></trkpt>
<trkpt lat="50.55317" lon="9.67514"><ele>265</ele></trkpt>
<trkpt lat="50.55385" lon="9.67442"><ele>262</ele></trkpt>
<trkpt lat="50.55398" lon="9.67437"><ele>261</ele></trkpt>
<trkpt lat="50.55527" lon="9.67310"><ele>266</ele></trkpt>
<trkpt lat="50.55532" lon="9.67295"><ele>266</ele></trkpt>
<trkpt lat="50.55544" lon="9.67286"><ele>267</ele></trkpt>
<trkpt lat="50.55579" lon="9.67275"><ele>269</ele></trkpt>
<trkpt lat="50.55604" lon="9.67281"><ele>270</ele></trkpt>
<trkpt lat="50.55622" lon="9.67293"><ele>271</ele></trkpt>
<trkpt lat="50.55624" lon="9.67278"><ele>271</ele></trkpt>
<trkpt lat="50.55668" lon="9.67275"><ele>273</ele></trkpt>
<trkpt lat="50.55685" lon="9.67218"><ele>272</ele></trkpt>
<trkpt lat="50.55702" lon="9.67216"><ele>273</ele></trkpt>
<trkpt lat="50.55713" lon="9.67236"><ele>274</ele></trkpt>
<trkpt lat="50.55724" lon="9.67243"><ele>276</ele></trkpt>
<trkpt lat="50.55751" lon="9.67226"><ele>278</ele></trkpt>
<trkpt lat="50.55756" lon="9.67214"><ele>278</ele></trkpt>
<trkpt lat="50.55808" lon="9.67149"><ele>281</ele></trkpt>
<trkpt lat="50.55886" lon="9.67011"><ele>280</ele></trkpt>
<trkpt lat="50.55979" lon="9.66892"><ele>280</ele></trkpt>
<trkpt lat="50.56066" lon="9.66706"><ele>277</ele></trkpt>
<trkpt lat="50.56166" lon="9.66510"><ele>271</ele></trkpt>
<trkpt lat="50.56179" lon="9.66507"><ele>272</ele></trkpt>
<trkpt lat="50.56214" lon="9.66418"><ele>267</ele></trkpt>
<trkpt lat="50.56308" lon="9.66248"><ele>262</ele></trkpt>
<trkpt lat="50.56323" lon="9.66229"><ele>261</ele></trkpt>
<trkpt lat="50.56356" lon="9.66203"><ele>260</ele></trkpt>
<trkpt lat="50.56382" lon="9.66176"><ele>258</ele></trkpt>
<trkpt lat="50.56402" lon="9.66154"><ele>257</ele></trkpt>
<trkpt lat="50.56432" lon="9.66106"><ele>253</ele></trkpt>
<trkpt lat="50.56428" lon="9.66085"><ele>252</ele></trkpt>
<trkpt lat="50.56417" lon="9.66048"><ele>250</ele></trkpt>
<trkpt lat="50.56373" lon="9.65953"><ele>247</ele></trkpt>
<trkpt lat="50.56362" lon="9.65924"><ele>247</ele></trkpt>
<trkpt lat="50.56360" lon="9.65899"><ele>248</ele></trkpt>
<trkpt lat="50.56363" lon="9.65868"><ele>248</ele></trkpt>
<trkpt lat="50.56439" lon="9.65657"><ele>246</ele></trkpt>
<trkpt lat="50.56734" lon="9.64800"><ele>244</ele></trkpt>
<trkpt lat="50.56801" lon="9.64593"><ele>243</ele></trkpt>
<trkpt lat="50.56811" lon="9.64576"><ele>243</ele></trkpt>
<trkpt lat="50.57085" lon="9.64282"><ele>242</ele></trkpt>
<trkpt lat="50.57121" lon="9.64262"><ele>242</ele></trkpt>
<trkpt lat="50.57131" lon="9.64246"><ele>242</ele></trkpt>
<trkpt lat="50.57139" lon="9.64207"><ele>242</ele></trkpt>
<trkpt lat="50.57151" lon="9.64187"><ele>242</ele></trkpt>
<trkpt lat="50.57222" lon="9.64128"><ele>242</ele></trkpt>
<trkpt lat="50.57233" lon="9.64124"><ele>242</ele></trkpt>
<trkpt lat="50.57245" lon="9.64128"><ele>242</ele></trkpt>
<trkpt lat="50.57249" lon="9.64125"><ele>242</ele></trkpt>
<trkpt lat="50.57263" lon="9.64088"><ele>242</ele></trkpt>
<trkpt lat="50.57270" lon="9.64078"><ele>242</ele></trkpt>
<trkpt lat="50.57339" lon="9.64021"><ele>242</ele></trkpt>
<trkpt lat="50.57344" lon="9.64002"><ele>241</ele></trkpt>
<trkpt lat="50.57350" lon="9.63992"><ele>242</ele></trkpt>
<trkpt lat="50.57408" lon="9.63943"><ele>241</ele></trkpt>
<trkpt lat="50.57490" lon="9.63925"><ele>241</ele></trkpt>
<trkpt lat="50.57535" lon="9.63946"><ele>241</ele></trkpt>
<trkpt lat="50.57553" lon="9.63961"><ele>241</ele></trkpt>
<trkpt lat="50.57562" lon="9.64028"><ele>242</ele></trkpt>
<trkpt lat="50.57569" lon="9.64052"><ele>242</ele></trkpt>
<trkpt lat="50.57579" lon="9.64069"><ele>242</ele></trkpt>
<trkpt lat="50.57638" lon="9.64080"><ele>242</ele></trkpt>
<trkpt lat="50.57770" lon="9.64156"><ele>244</ele></trkpt>
<trkpt lat="50.57807" lon="9.64211"><ele>248</ele></trkpt>
<trkpt lat="50.57878" lon="9.64271"><ele>247</ele></trkpt>
<trkpt lat="50.57913" lon="9.64313"><ele>246</ele></trkpt>
<trkpt lat="50.57939" lon="9.64352"><ele>246</ele></trkpt>
<trkpt lat="50.57950" lon="9.64358"><ele>246</ele></trkpt>
<trkpt lat="50.57977" lon="9.64361"><ele>245</ele></trkpt>
<trkpt lat="50.57982" lon="9.64369"><ele>245</ele></trkpt>
<trkpt lat="50.58047" lon="9.64425"><ele>246</ele></trkpt>
<trkpt lat="50.58052" lon="9.64422"><ele>246</ele></trkpt>
<trkpt lat="50.58050" lon="9.64403"><ele>244</ele></trkpt>
<trkpt lat="50.58052" lon="9.64384"><ele>243</ele></trkpt>
<trkpt lat="50.58060" lon="9.64353"><ele>242</ele></trkpt>
<trkpt lat="50.58067" lon="9.64340"><ele>241</ele></trkpt>
<trkpt lat="50.58075" lon="9.64336"><ele>241</ele></trkpt>
<trkpt lat="50.58092" lon="9.64339"><ele>241</ele></trkpt>
<trkpt lat="50.58143" lon="9.64355"><ele>240</ele></trkpt>
<trkpt lat="50.58148" lon="9.64334"><ele>239</ele></trkpt>
<trkpt lat="50.58178" lon="9.64265"><ele>239</ele></trkpt>
<trkpt lat="50.58179" lon="9.64251"><ele>239</ele></trkpt>
<trkpt lat="50.58176" lon="9.64224"><ele>239</ele></trkpt>
<trkpt lat="50.58174" lon="9.64143"><ele>240</ele></trkpt>
<trkpt lat="50.58168" lon="9.64072"><ele>240</ele></trkpt>
<trkpt lat="50.58187" lon="9.64077"><ele>240</ele></trkpt>
<trkpt lat="50.58507" lon="9.64235"><ele>238</ele></trkpt>
<trkpt lat="50.58678" lon="9.64376"><ele>238</ele></trkpt>
<trkpt lat="50.58684" lon="9.64377"><ele>238</ele></trkpt>
<trkpt lat="50.58690" lon="9.64369"><ele>238</ele></trkpt>
<trkpt lat="50.58706" lon="9.64306"><ele>238</ele></trkpt>
<trkpt lat="50.58715" lon="9.64290"><ele>241</ele></trkpt>
<trkpt lat="50.58731" lon="9.64282"><ele>243</ele></trkpt>
<trkpt lat="50.58784" lon="9.64276"><ele>247</ele></trkpt>
<trkpt lat="50.58832" lon="9.64257"><ele>250</ele></trkpt>
<trkpt lat="50.58853" lon="9.64263"><ele>250</ele></trkpt>
<trkpt lat="50.58922" lon="9.64316"><ele>243</ele></trkpt>
<trkpt lat="50.58945" lon="9.64326"><ele>240</ele></trkpt>
<trkpt lat="50.58964" lon="9.64324"><ele>240</ele></trkpt>
<trkpt lat="50.59026" lon="9.64293"><ele>240</ele></trkpt>
<trkpt lat="50.59058" lon="9.64289"><ele>240</ele></trkpt>
<trkpt lat="50.59110" lon="9.64291"><ele>240</ele></trkpt>
<trkpt lat="50.59126" lon="9.64287"><ele>239</ele></trkpt>
<trkpt lat="50.59169" lon="9.64264"><ele>241</ele></trkpt>
<trkpt lat="50.59202" lon="9.64260"><ele>241</ele></trkpt>
<trkpt lat="50.59257" lon="9.64271"><ele>240</ele></trkpt>
<trkpt lat="50.59337" lon="9.64294"><ele>240</ele></trkpt>
<trkpt lat="50.59393" lon="9.64320"><ele>238</ele></trkpt>
<trkpt lat="50.59516" lon="9.64349"><ele>237</ele></trkpt>
<trkpt lat="50.59570" lon="9.64366"><ele>238</ele></trkpt>
<trkpt lat="50.59591" lon="9.64356"><ele>238</ele></trkpt>
<trkpt lat="50.59799" lon="9.64153"><ele>237</ele></trkpt>
<trkpt lat="50.59813" lon="9.64133"><ele>237</ele></trkpt>
<trkpt lat="50.59862" lon="9.64030"><ele>238</ele></trkpt>
<trkpt lat="50.59903" lon="9.63999"><ele>236</ele></trkpt>
<trkpt lat="50.59935" lon="9.63986"><ele>238</ele></trkpt>
<trkpt lat="50.59954" lon="9.63986"><ele>238</ele></trkpt>
<trkpt lat="50.59961" lon="9.63924"><ele>239</ele></trkpt>
<trkpt lat="50.59978" lon="9.63846"><ele>245</ele></trkpt>
<trkpt lat="50.60068" lon="9.63884"><ele>250</ele></trkpt>
<trkpt lat="50.60177" lon="9.63944"><ele>252</ele></trkpt>
<trkpt lat="50.60189" lon="9.63959"><ele>252</ele></trkpt>
<trkpt lat="50.60211" lon="9.64013"><ele>250</ele></trkpt>
<trkpt lat="50.60269" lon="9.63912"><ele>254</ele></trkpt>
<trkpt lat="50.60314" lon="9.63789"><ele>249</ele></trkpt>
<trkpt lat="50.60327" lon="9.63764"><ele>247</ele></trkpt>
<trkpt lat="50.60389" lon="9.63673"><ele>237</ele></trkpt>
<trkpt lat="50.60498" lon="9.63546"><ele>234</ele></trkpt>
<trkpt lat="50.60510" lon="9.63537"><ele>233</ele></trkpt>
<trkpt lat="50.60561" lon="9.63521"><ele>234</ele></trkpt>
<trkpt lat="50.60571" lon="9.63514"><ele>233</ele></trkpt>
<trkpt lat="50.60659" lon="9.63333"><ele>237</ele></trkpt>
<trkpt lat="50.60674" lon="9.63296"><ele>239</ele></trkpt>
<trkpt lat="50.60730" lon="9.62872"><ele>238</ele></trkpt>
<trkpt lat="50.60725" lon="9.62719"><ele>236</ele></trkpt>
<trkpt lat="50.60717" lon="9.62645"><ele>234</ele></trkpt>
<trkpt lat="50.60695" lon="9.62531"><ele>233</ele></trkpt>
<trkpt lat="50.60688" lon="9.62515"><ele>232</ele></trkpt>
<trkpt lat="50.60684" lon="9.62488"><ele>232</ele></trkpt>
<trkpt lat="50.60660" lon="9.62439"><ele>231</ele></trkpt>
<trkpt lat="50.60654" lon="9.62417"><ele>231</ele></trkpt>
<trkpt lat="50.60655" lon="9.62396"><ele>230</ele></trkpt>
<trkpt lat="50.60670" lon="9.62357"><ele>231</ele></trkpt>
<trkpt lat="50.60674" lon="9.62335"><ele>232</ele></trkpt>
<trkpt lat="50.60665" lon="9.62245"><ele>232</ele></trkpt>
<trkpt lat="50.60665" lon="9.62218"><ele>232</ele></trkpt>
<trkpt lat="50.60677" lon="9.62185"><ele>232</ele></trkpt>
<trkpt lat="50.60733" lon="9.62062"><ele>235</ele></trkpt>
<trkpt lat="50.60739" lon="9.62056"><ele>236</ele></trkpt>
<trkpt lat="50.60739" lon="9.61940"><ele>240</ele></trkpt>
<trkpt lat="50.60764" lon="9.61902"><ele>244</ele></trkpt>
<trkpt lat="50.60808" lon="9.61782"><ele>251</ele></trkpt>
<trkpt lat="50.60824" lon="9.61699"><ele>250</ele></trkpt>
<trkpt lat="50.60845" lon="9.61717"><ele>251</ele></trkpt>
<trkpt lat="50.60861" lon="9.61741"><ele>251</ele></trkpt>
<trkpt lat="50.60879" lon="9.61749"><ele>251</ele></trkpt>
<trkpt lat="50.60897" lon="9.61748"><ele>251</ele></trkpt>
<trkpt lat="50.60892" lon="9.61704"><ele>253</ele></trkpt>
<trkpt lat="50.60894" lon="9.61684"><ele>253</ele></trkpt>
<trkpt lat="50.60903" lon="9.61662"><ele>253</ele></trkpt>
<trkpt lat="50.60935" lon="9.61602"><ele>252</ele></trkpt>
<trkpt lat="50.60957" lon="9.61570"><ele>251</ele></trkpt>
<trkpt lat="50.60996" lon="9.61530"><ele>249</ele></trkpt>
<trkpt lat="50.61036" lon="9.61504"><ele>248</ele></trkpt>
<trkpt lat="50.61063" lon="9.61493"><ele>248</ele></trkpt>
<trkpt lat="50.61096" lon="9.61486"><ele>248</ele></trkpt>
<trkpt lat="50.61127" lon="9.61467"><ele>246</ele></trkpt>
<trkpt lat="50.61171" lon="9.61452"><ele>245</ele></trkpt>
<trkpt lat="50.61201" lon="9.61449"><ele>246</ele></trkpt>
<trkpt lat="50.61239" lon="9.61419"><ele>240</ele></trkpt>
<trkpt lat="50.61300" lon="9.61389"><ele>235</ele></trkpt>
<trkpt lat="50.61346" lon="9.61374"><ele>233</ele></trkpt>
<trkpt lat="50.61385" lon="9.61367"><ele>232</ele></trkpt>
<trkpt lat="50.61393" lon="9.61358"><ele>232</ele></trkpt>
<trkpt lat="50.61416" lon="9.61352"><ele>232</ele></trkpt>
<trkpt lat="50.61460" lon="9.61349"><ele>233</ele></trkpt>
<trkpt lat="50.61517" lon="9.61361"><ele>232</ele></trkpt>
<trkpt lat="50.61562" lon="9.61381"><ele>233</ele></trkpt>
<trkpt lat="50.61692" lon="9.61455"><ele>233</ele></trkpt>
<trkpt lat="50.61725" lon="9.61467"><ele>233</ele></trkpt>
<trkpt lat="50.61772" lon="9.61471"><ele>232</ele></trkpt>
<trkpt lat="50.61817" lon="9.61464"><ele>232</ele></trkpt>
<trkpt lat="50.61840" lon="9.61455"><ele>232</ele></trkpt>
<trkpt lat="50.61885" lon="9.61428"><ele>231</ele></trkpt>
<trkpt lat="50.61908" lon="9.61407"><ele>232</ele></trkpt>
<trkpt lat="50.61934" lon="9.61378"><ele>232</ele></trkpt>
<trkpt lat="50.61956" lon="9.61346"><ele>232</ele></trkpt>
<trkpt lat="50.62042" lon="9.61196"><ele>231</ele></trkpt>
<trkpt lat="50.62076" lon="9.61148"><ele>230</ele></trkpt>
<trkpt lat="50.62124" lon="9.61096"><ele>230</ele></trkpt>
<trkpt lat="50.62139" lon="9.61075"><ele>229</ele></trkpt>
<trkpt lat="50.62161" lon="9.61026"><ele>229</ele></trkpt>
<trkpt lat="50.62170" lon="9.61017"><ele>229</ele></trkpt>
<trkpt lat="50.62314" lon="9.61074"><ele>230</ele></trkpt>
<trkpt lat="50.62327" lon="9.61068"><ele>232</ele></trkpt>
<trkpt lat="50.62372" lon="9.61026"><ele>234</ele></trkpt>
<trkpt lat="50.62395" lon="9.60986"><ele>234</ele></trkpt>
<trkpt lat="50.62408" lon="9.60940"><ele>234</ele></trkpt>
<trkpt lat="50.62412" lon="9.60882"><ele>232</ele></trkpt>
<trkpt lat="50.62420" lon="9.60828"><ele>230</ele></trkpt>
<trkpt lat="50.62444" lon="9.60711"><ele>230</ele></trkpt>
<trkpt lat="50.62479" lon="9.60434"><ele>231</ele></trkpt>
<trkpt lat="50.62496" lon="9.60198"><ele>230</ele></trkpt>
<trkpt lat="50.62512" lon="9.60026"><ele>232</ele></trkpt>
<trkpt lat="50.62517" lon="9.60004"><ele>232</ele></trkpt>
<trkpt lat="50.62531" lon="9.59954"><ele>232</ele></trkpt>
<trkpt lat="50.62655" lon="9.59686"><ele>232</ele></trkpt>
<trkpt lat="50.62661" lon="9.59686"><ele>233</ele></trkpt>
<trkpt lat="50.62777" lon="9.59830"><ele>240</ele></trkpt>
<trkpt lat="50.63304" lon="9.58702"><ele>226</ele></trkpt>
<trkpt lat="50.63357" lon="9.58580"><ele>226</ele></trkpt>
<trkpt lat="50.63370" lon="9.58599"><ele>226</ele></trkpt>
<trkpt lat="50.63536" lon="9.58749"><ele>226</ele></trkpt>
<trkpt lat="50.63549" lon="9.58751"><ele>227</ele></trkpt>
<trkpt lat="50.63590" lon="9.58691"><ele>227</ele></trkpt>
<trkpt lat="50.63663" lon="9.58550"><ele>226</ele></trkpt>
<trkpt lat="50.63711" lon="9.58475"><ele>228</ele></trkpt>
<trkpt lat="50.63744" lon="9.58399"><ele>226</ele></trkpt>
<trkpt lat="50.63802" lon="9.58228"><ele>228</ele></trkpt>
<trkpt lat="50.63836" lon="9.58155"><ele>226</ele></trkpt>
<trkpt lat="50.63879" lon="9.58093"><ele>226</ele></trkpt>
<trkpt lat="50.63907" lon="9.58064"><ele>226</ele></trkpt>
<trkpt lat="50.63940" lon="9.58037"><ele>226</ele></trkpt>
<trkpt lat="50.63976" lon="9.58024"><ele>227</ele></trkpt>
<trkpt lat="50.64029" lon="9.58020"><ele>227</ele></trkpt>
<trkpt lat="50.64094" lon="9.58037"><ele>226</ele></trkpt>
<trkpt lat="50.64134" lon="9.58054"><ele>227</ele></trkpt>
<trkpt lat="50.64194" lon="9.58102"><ele>227</ele></trkpt>
<trkpt lat="50.64219" lon="9.58129"><ele>227</ele></trkpt>
<trkpt lat="50.64313" lon="9.58249"><ele>227</ele></trkpt>
<trkpt lat="50.64360" lon="9.58350"><ele>226</ele></trkpt>
<trkpt lat="50.64374" lon="9.58388"><ele>226</ele></trkpt>
<trkpt lat="50.64406" lon="9.58533"><ele>226</ele></trkpt>
<trkpt lat="50.64413" lon="9.58589"><ele>226</ele></trkpt>
<trkpt lat="50.64412" lon="9.58618"><ele>226</ele></trkpt>
<trkpt lat="50.64403" lon="9.58689"><ele>227</ele></trkpt>
<trkpt lat="50.64391" lon="9.58735"><ele>227</ele></trkpt>
<trkpt lat="50.64389" lon="9.58755"><ele>227</ele></trkpt>
<trkpt lat="50.64391" lon="9.58785"><ele>228</ele></trkpt>
<trkpt lat="50.64399" lon="9.58810"><ele>227</ele></trkpt>
<trkpt lat="50.64407" lon="9.58822"><ele>227</ele></trkpt>
<trkpt lat="50.64420" lon="9.58832"><ele>227</ele></trkpt>
<trkpt lat="50.64515" lon="9.58902"><ele>225</ele></trkpt>
<trkpt lat="50.64534" lon="9.58921"><ele>226</ele></trkpt>
<trkpt lat="50.64556" lon="9.58952"><ele>225</ele></trkpt>
<trkpt lat="50.64573" lon="9.58990"><ele>224</ele></trkpt>
<trkpt lat="50.64653" lon="9.59242"><ele>224</ele></trkpt>
<trkpt lat="50.64703" lon="9.59342"><ele>224</ele></trkpt>
<trkpt lat="50.64793" lon="9.59476"><ele>224</ele></trkpt>
<trkpt lat="50.64897" lon="9.59371"><ele>224</ele></trkpt>
<trkpt lat="50.64929" lon="9.59348"><ele>224</ele></trkpt>
<trkpt lat="50.64938" lon="9.59350"><ele>223</ele></trkpt>
<trkpt lat="50.65445" lon="9.60200"><ele>222</ele></trkpt>
<trkpt lat="50.65559" lon="9.60130"><ele>222</ele></trkpt>
<trkpt lat="50.65584" lon="9.60106"><ele>224</ele></trkpt>
<trkpt lat="50.65593" lon="9.60088"><ele>222</ele></trkpt>
<trkpt lat="50.65617" lon="9.59986"><ele>222</ele></trkpt>
<trkpt lat="50.65632" lon="9.59963"><ele>222</ele></trkpt>
<trkpt lat="50.65682" lon="9.59937"><ele>222</ele></trkpt>
<trkpt lat="50.65693" lon="9.59925"><ele>223</ele></trkpt>
<trkpt lat="50.65720" lon="9.59947"><ele>223</ele></trkpt>
<trkpt lat="50.65738" lon="9.59946"><ele>223</ele></trkpt>
<trkpt lat="50.65758" lon="9.59999"><ele>223</ele></trkpt>
<trkpt lat="50.65797" lon="9.60137"><ele>222</ele></trkpt>
<trkpt lat="50.65853" lon="9.60219"><ele>222</ele></trkpt>
<trkpt lat="50.65884" lon="9.60256"><ele>221</ele></trkpt>
<trkpt lat="50.65932" lon="9.60324"><ele>222</ele></trkpt>
<trkpt lat="50.65994" lon="9.60402"><ele>224</ele></trkpt>
<trkpt lat="50.66053" lon="9.60495"><ele>224</ele></trkpt>
<trkpt lat="50.66078" lon="9.60524"><ele>223</ele></trkpt>
<trkpt lat="50.66203" lon="9.60632"><ele>223</ele></trkpt>
<trkpt lat="50.66279" lon="9.60675"><ele>223</ele></trkpt>
<trkpt lat="50.66322" lon="9.60681"><ele>224</ele></trkpt>
<trkpt lat="50.66342" lon="9.60678"><ele>224</ele></trkpt>
<trkpt lat="50.66358" lon="9.60667"><ele>224</ele></trkpt>
<trkpt lat="50.66414" lon="9.60600"><ele>224</ele></trkpt>
<trkpt lat="50.66447" lon="9.60573"><ele>224</ele></trkpt>
<trkpt lat="50.66549" lon="9.60517"><ele>224</ele></trkpt>
<trkpt lat="50.66605" lon="9.60478"><ele>224</ele></trkpt>
<trkpt lat="50.66642" lon="9.60446"><ele>224</ele></trkpt>
<trkpt lat="50.66709" lon="9.60371"><ele>230</ele></trkpt>
<trkpt lat="50.66785" lon="9.60310"><ele>233</ele></trkpt>
<trkpt lat="50.66830" lon="9.60266"><ele>234</ele></trkpt>
<trkpt lat="50.67010" lon="9.60154"><ele>228</ele></trkpt>
<trkpt lat="50.67073" lon="9.60085"><ele>226</ele></trkpt>
<trkpt lat="50.67092" lon="9.60058"><ele>224</ele></trkpt>
<trkpt lat="50.67128" lon="9.59994"><ele>224</ele></trkpt>
<trkpt lat="50.67208" lon="9.59830"><ele>225</ele></trkpt>
<trkpt lat="50.67219" lon="9.59816"><ele>225</ele></trkpt>
<trkpt lat="50.67320" lon="9.59729"><ele>222</ele></trkpt>
<trkpt lat="50.67400" lon="9.59653"><ele>222</ele></trkpt>
<trkpt lat="50.67603" lon="9.59482"><ele>224</ele></trkpt>
<trkpt lat="50.67699" lon="9.59388"><ele>224</ele></trkpt>
<trkpt lat="50.67744" lon="9.59357"><ele>224</ele></trkpt>
<trkpt lat="50.67783" lon="9.59335"><ele>224</ele></trkpt>
<trkpt lat="50.67872" lon="9.59301"><ele>224</ele></trkpt>
<trkpt lat="50.68051" lon="9.59311"><ele>222</ele></trkpt>
<trkpt lat="50.68087" lon="9.59305"><ele>222</ele></trkpt>
<trkpt lat="50.68212" lon="9.59271"><ele>221</ele></trkpt>
<trkpt lat="50.68259" lon="9.59248"><ele>221</ele></trkpt>
<trkpt lat="50.68277" lon="9.59232"><ele>220</ele></trkpt>
<trkpt lat="50.68294" lon="9.59209"><ele>221</ele></trkpt>
<trkpt lat="50.68309" lon="9.59179"><ele>222</ele></trkpt>
<trkpt lat="50.68317" lon="9.59141"><ele>222</ele></trkpt>
<trkpt lat="50.68313" lon="9.59093"><ele>222</ele></trkpt>
<trkpt lat="50.68283" lon="9.58858"><ele>222</ele></trkpt>
<trkpt lat="50.68322" lon="9.58832"><ele>218</ele></trkpt>
<trkpt lat="50.68328" lon="9.58819"><ele>219</ele></trkpt>
<trkpt lat="50.68334" lon="9.58826"><ele>219</ele></trkpt>
<trkpt lat="50.68351" lon="9.58865"><ele>219</ele></trkpt>
<trkpt lat="50.68379" lon="9.58971"><ele>219</ele></trkpt>
<trkpt lat="50.68400" lon="9.59006"><ele>219</ele></trkpt>
<trkpt lat="50.68420" lon="9.59022"><ele>219</ele></trkpt>
<trkpt lat="50.68454" lon="9.59037"><ele>219</ele></trkpt>
<trkpt lat="50.68476" lon="9.59077"><ele>219</ele></trkpt>
<trkpt lat="50.68567" lon="9.59208"><ele>219</ele></trkpt>
<trkpt lat="50.68596" lon="9.59237"><ele>219</ele></trkpt>
<trkpt lat="50.68638" lon="9.59267"><ele>219</ele></trkpt>
<trkpt lat="50.68656" lon="9.59275"><ele>220</ele></trkpt>
<trkpt lat="50.68754" lon="9.59283"><ele>220</ele></trkpt>
<trkpt lat="50.68836" lon="9.59267"><ele>218</ele></trkpt>
<trkpt lat="50.68862" lon="9.59258"><ele>218</ele></trkpt>
<trkpt lat="50.68906" lon="9.59236"><ele>219</ele></trkpt>
<trkpt lat="50.69038" lon="9.59138"><ele>219</ele></trkpt>
<trkpt lat="50.69098" lon="9.59106"><ele>219</ele></trkpt>
<trkpt lat="50.69135" lon="9.59098"><ele>219</ele></trkpt>
<trkpt lat="50.69169" lon="9.59100"><ele>219</ele></trkpt>
<trkpt lat="50.69202" lon="9.59108"><ele>219</ele></trkpt>
<trkpt lat="50.69393" lon="9.59180"><ele>218</ele></trkpt>
<trkpt lat="50.69431" lon="9.59190"><ele>218</ele></trkpt>
<trkpt lat="50.69490" lon="9.59197"><ele>218</ele></trkpt>
<trkpt lat="50.69491" lon="9.59204"><ele>218</ele></trkpt>
<trkpt lat="50.69495" lon="9.59209"><ele>218</ele></trkpt>
<trkpt lat="50.69521" lon="9.59214"><ele>218</ele></trkpt>
<trkpt lat="50.69529" lon="9.59228"><ele>218</ele></trkpt>
<trkpt lat="50.69531" lon="9.59244"><ele>217</ele></trkpt>
<trkpt lat="50.69530" lon="9.59266"><ele>218</ele></trkpt>
<trkpt lat="50.69525" lon="9.59287"><ele>218</ele></trkpt>
<trkpt lat="50.69508" lon="9.59330"><ele>218</ele></trkpt>
<trkpt lat="50.69508" lon="9.59338"><ele>217</ele></trkpt>
<trkpt lat="50.69540" lon="9.59418"><ele>217</ele></trkpt>
<trkpt lat="50.69548" lon="9.59447"><ele>218</ele></trkpt>
<trkpt lat="50.69634" lon="9.59431"><ele>218</ele></trkpt>
<trkpt lat="50.69685" lon="9.59412"><ele>217</ele></trkpt>
<trkpt lat="50.69690" lon="9.59417"><ele>217</ele></trkpt>
<trkpt lat="50.69699" lon="9.59450"><ele>218</ele></trkpt>
<trkpt lat="50.69728" lon="9.59566"><ele>222</ele></trkpt>
<trkpt lat="50.69758" lon="9.59524"><ele>222</ele></trkpt>
<trkpt lat="50.69774" lon="9.59508"><ele>222</ele></trkpt>
<trkpt lat="50.69971" lon="9.59352"><ele>220</ele></trkpt>
<trkpt lat="50.70109" lon="9.59313"><ele>220</ele></trkpt>
<trkpt lat="50.70144" lon="9.59295"><ele>220</ele></trkpt>
<trkpt lat="50.70198" lon="9.59255"><ele>220</ele></trkpt>
<trkpt lat="50.70266" lon="9.59235"><ele>221</ele></trkpt>
<trkpt lat="50.70337" lon="9.59143"><ele>220</ele></trkpt>
<trkpt lat="50.70352" lon="9.59128"><ele>221</ele></trkpt>
<trkpt lat="50.70447" lon="9.59059"><ele>222</ele></trkpt>
<trkpt lat="50.70511" lon="9.58999"><ele>221</ele></trkpt>
<trkpt lat="50.70557" lon="9.58961"><ele>221</ele></trkpt>
<trkpt lat="50.70604" lon="9.58931"><ele>220</ele></trkpt>
<trkpt lat="50.70813" lon="9.58831"><ele>223</ele></trkpt>
<trkpt lat="50.70854" lon="9.58820"><ele>223</ele></trkpt>
<trkpt lat="50.70908" lon="9.58814"><ele>224</ele></trkpt>
<trkpt lat="50.71240" lon="9.58710"><ele>220</ele></trkpt>
<trkpt lat="50.71341" lon="9.58700"><ele>219</ele></trkpt>
<trkpt lat="50.71402" lon="9.58687"><ele>218</ele></trkpt>
<trkpt lat="50.71421" lon="9.58691"><ele>218</ele></trkpt>
<trkpt lat="50.71471" lon="9.58717"><ele>217</ele></trkpt>
<trkpt lat="50.71520" lon="9.58715"><ele>218</ele></trkpt>
<trkpt lat="50.71593" lon="9.58685"><ele>217</ele></trkpt>
<trkpt lat="50.71682" lon="9.58659"><ele>217</ele></trkpt>
<trkpt lat="50.71778" lon="9.58644"><ele>218</ele></trkpt>
<trkpt lat="50.71802" lon="9.58627"><ele>218</ele></trkpt>
<trkpt lat="50.71824" lon="9.58619"><ele>220</ele></trkpt>
<trkpt lat="50.71946" lon="9.58548"><ele>218</ele></trkpt>
<trkpt lat="50.71995" lon="9.58532"><ele>218</ele></trkpt>
<trkpt lat="50.72108" lon="9.58535"><ele>219</ele></trkpt>
<trkpt lat="50.72242" lon="9.58517"><ele>218</ele></trkpt>
<trkpt lat="50.72358" lon="9.58516"><ele>217</ele></trkpt>
<trkpt lat="50.72540" lon="9.58507"><ele>218</ele></trkpt>
<trkpt lat="50.72565" lon="9.58513"><ele>219</ele></trkpt>
<trkpt lat="50.72630" lon="9.58546"><ele>218</ele></trkpt>
<trkpt lat="50.72755" lon="9.58635"><ele>216</ele></trkpt>
<trkpt lat="50.72790" lon="9.58680"><ele>216</ele></trkpt>
<trkpt lat="50.72854" lon="9.58734"><ele>218</ele></trkpt>
<trkpt lat="50.72901" lon="9.58760"><ele>218</ele></trkpt>
<trkpt lat="50.72925" lon="9.58766"><ele>218</ele></trkpt>
<trkpt lat="50.72977" lon="9.58770"><ele>216</ele></trkpt>
<trkpt lat="50.73045" lon="9.58767"><ele>217</ele></trkpt>
<trkpt lat="50.73114" lon="9.58759"><ele>218</ele></trkpt>
<trkpt lat="50.73228" lon="9.58731"><ele>217</ele></trkpt>
<trkpt lat="50.73314" lon="9.58704"><ele>217</ele></trkpt>
<trkpt lat="50.73655" lon="9.58568"><ele>216</ele></trkpt>
<trkpt lat="50.73704" lon="9.58561"><ele>216</ele></trkpt>
<trkpt lat="50.73786" lon="9.58566"><ele>216</ele></trkpt>
<trkpt lat="50.73858" lon="9.58579"><ele>218</ele></trkpt>
<trkpt lat="50.74071" lon="9.58583"><ele>215</ele></trkpt>
<trkpt lat="50.74134" lon="9.58596"><ele>214</ele></trkpt>
<trkpt lat="50.74178" lon="9.58610"><ele>215</ele></trkpt>
<trkpt lat="50.74219" lon="9.58633"><ele>216</ele></trkpt>
<trkpt lat="50.74317" lon="9.58721"><ele>216</ele></trkpt>
<trkpt lat="50.74364" lon="9.58730"><ele>216</ele></trkpt>
<trkpt lat="50.74401" lon="9.58639"><ele>216</ele></trkpt>
<trkpt lat="50.74430" lon="9.58641"><ele>216</ele></trkpt>
<trkpt lat="50.74455" lon="9.58626"><ele>216</ele></trkpt>
<trkpt lat="50.74509" lon="9.58567"><ele>216</ele></trkpt>
<trkpt lat="50.74518" lon="9.58552"><ele>216</ele></trkpt>
<trkpt lat="50.74539" lon="9.58536"><ele>216</ele></trkpt>
<trkpt lat="50.74546" lon="9.58526"><ele>215</ele></trkpt>
<trkpt lat="50.74550" lon="9.58510"><ele>214</ele></trkpt>
<trkpt lat="50.74567" lon="9.58350"><ele>214</ele></trkpt>
<trkpt lat="50.74568" lon="9.58137"><ele>215</ele></trkpt>
<trkpt lat="50.74663" lon="9.58113"><ele>215</ele></trkpt>
<trkpt lat="50.74750" lon="9.58084"><ele>215</ele></trkpt>
<trkpt lat="50.74820" lon="9.58031"><ele>215</ele></trkpt>
<trkpt lat="50.74930" lon="9.57912"><ele>214</ele></trkpt>
<trkpt lat="50.74981" lon="9.57866"><ele>215</ele></trkpt>
<trkpt lat="50.75149" lon="9.57783"><ele>215</ele></trkpt>
<trkpt lat="50.75192" lon="9.57770"><ele>215</ele></trkpt>
<trkpt lat="50.75242" lon="9.57765"><ele>215</ele></trkpt>
<trkpt lat="50.75284" lon="9.57773"><ele>215</ele></trkpt>
<trkpt lat="50.75433" lon="9.57836"><ele>217</ele></trkpt>
<trkpt lat="50.75643" lon="9.57939"><ele>213</ele></trkpt>
<trkpt lat="50.75673" lon="9.57944"><ele>214</ele></trkpt>
<trkpt lat="50.75711" lon="9.57957"><ele>214</ele></trkpt>
<trkpt lat="50.75930" lon="9.57920"><ele>216</ele></trkpt>
<trkpt lat="50.76120" lon="9.57868"><ele>214</ele></trkpt>
<trkpt lat="50.76452" lon="9.57795"><ele>214</ele></trkpt>
<trkpt lat="50.76482" lon="9.57801"><ele>212</ele></trkpt>
<trkpt lat="50.76508" lon="9.57784"><ele>213</ele></trkpt>
<trkpt lat="50.76570" lon="9.57782"><ele>213</ele></trkpt>
<trkpt lat="50.76604" lon="9.57788"><ele>213</ele></trkpt>
<trkpt lat="50.76662" lon="9.57814"><ele>212</ele></trkpt>
<trkpt lat="50.76729" lon="9.57868"><ele>212</ele></trkpt>
<trkpt lat="50.77023" lon="9.58190"><ele>213</ele></trkpt>
<trkpt lat="50.77031" lon="9.58195"><ele>213</ele></trkpt>
<trkpt lat="50.77045" lon="9.58191"><ele>214</ele></trkpt>
<trkpt lat="50.77094" lon="9.58229"><ele>214</ele></trkpt>
<trkpt lat="50.77114" lon="9.58273"><ele>212</ele></trkpt>
<trkpt lat="50.77124" lon="9.58280"><ele>212</ele></trkpt>
<trkpt lat="50.77162" lon="9.58302"><ele>212</ele></trkpt>
<trkpt lat="50.77199" lon="9.58316"><ele>212</ele></trkpt>
<trkpt lat="50.77228" lon="9.58321"><ele>212</ele></trkpt>
<trkpt lat="50.77360" lon="9.58321"><ele>214</ele></trkpt>
<trkpt lat="50.77361" lon="9.58335"><ele>215</ele></trkpt>
<trkpt lat="50.77372" lon="9.58349"><ele>214</ele></trkpt>
<trkpt lat="50.77430" lon="9.58366"><ele>213</ele></trkpt>
<trkpt lat="50.77456" lon="9.58384"><ele>214</ele></trkpt>
<trkpt lat="50.77481" lon="9.58411"><ele>214</ele></trkpt>
<trkpt lat="50.77508" lon="9.58448"><ele>213</ele></trkpt>
<trkpt lat="50.77588" lon="9.58573"><ele>214</ele></trkpt>
<trkpt lat="50.77592" lon="9.58587"><ele>214</ele></trkpt>
<trkpt lat="50.77593" lon="9.58602"><ele>214</ele></trkpt>
<trkpt lat="50.77604" lon="9.58606"><ele>214</ele></trkpt>
<trkpt lat="50.77679" lon="9.58757"><ele>212</ele></trkpt>
<trkpt lat="50.77758" lon="9.58882"><ele>212</ele></trkpt>
<trkpt lat="50.77839" lon="9.58978"><ele>212</ele></trkpt>
<trkpt lat="50.77902" lon="9.59034"><ele>212</ele></trkpt>
<trkpt lat="50.77948" lon="9.59064"><ele>212</ele></trkpt>
<trkpt lat="50.78018" lon="9.59100"><ele>211</ele></trkpt>
<trkpt lat="50.78074" lon="9.59112"><ele>212</ele></trkpt>
<trkpt lat="50.78147" lon="9.59149"><ele>212</ele></trkpt>
<trkpt lat="50.78208" lon="9.59165"><ele>211</ele></trkpt>
<trkpt lat="50.78431" lon="9.59266"><ele>213</ele></trkpt>
<trkpt lat="50.78595" lon="9.59356"><ele>213</ele></trkpt>
<trkpt lat="50.78658" lon="9.59383"><ele>214</ele></trkpt>
<trkpt lat="50.78577" lon="9.59630"><ele>211</ele></trkpt>
<trkpt lat="50.78576" lon="9.59641"><ele>210</ele></trkpt>
<trkpt lat="50.78578" lon="9.59649"><ele>210</ele></trkpt>
<trkpt lat="50.78935" lon="9.59942"><ele>209</ele></trkpt>
<trkpt lat="50.78956" lon="9.59952"><ele>209</ele></trkpt>
<trkpt lat="50.78891" lon="9.60185"><ele>209</ele></trkpt>
<trkpt lat="50.79391" lon="9.60581"><ele>208</ele></trkpt>
<trkpt lat="50.79615" lon="9.60769"><ele>208</ele></trkpt>
<trkpt lat="50.79622" lon="9.60777"><ele>208</ele></trkpt>
<trkpt lat="50.79623" lon="9.60832"><ele>208</ele></trkpt>
<trkpt lat="50.79628" lon="9.60854"><ele>208</ele></trkpt>
<trkpt lat="50.79649" lon="9.60927"><ele>208</ele></trkpt>
<trkpt lat="50.79666" lon="9.60978"><ele>208</ele></trkpt>
<trkpt lat="50.79675" lon="9.60990"><ele>208</ele></trkpt>
<trkpt lat="50.79735" lon="9.61037"><ele>208</ele></trkpt>
<trkpt lat="50.79765" lon="9.61092"><ele>209</ele></trkpt>
<trkpt lat="50.79867" lon="9.60958"><ele>208</ele></trkpt>
<trkpt lat="50.79874" lon="9.60944"><ele>208</ele></trkpt>
<trkpt lat="50.79881" lon="9.60964"><ele>209</ele></trkpt>
<trkpt lat="50.79881" lon="9.60983"><ele>209</ele></trkpt>
<trkpt lat="50.79867" lon="9.61053"><ele>209</ele></trkpt>
<trkpt lat="50.79871" lon="9.61070"><ele>209</ele></trkpt>
<trkpt lat="50.79882" lon="9.61088"><ele>208</ele></trkpt>
<trkpt lat="50.79904" lon="9.61089"><ele>208</ele></trkpt>
<trkpt lat="50.79999" lon="9.61064"><ele>209</ele></trkpt>
<trkpt lat="50.80068" lon="9.61129"><ele>209</ele></trkpt>
<trkpt lat="50.80095" lon="9.61147"><ele>210</ele></trkpt>
<trkpt lat="50.80107" lon="9.61146"><ele>210</ele></trkpt>
<trkpt lat="50.80158" lon="9.61278"><ele>208</ele></trkpt>
<trkpt lat="50.80182" lon="9.61374"><ele>208</ele></trkpt>
<trkpt lat="50.80184" lon="9.61394"><ele>208</ele></trkpt>
<trkpt lat="50.80174" lon="9.61482"><ele>208</ele></trkpt>
<trkpt lat="50.80176" lon="9.61494"><ele>208</ele></trkpt>
<trkpt lat="50.80182" lon="9.61501"><ele>208</ele></trkpt>
<trkpt lat="50.80209" lon="9.61506"><ele>208</ele></trkpt>
<trkpt lat="50.80239" lon="9.61521"><ele>208</ele></trkpt>
<trkpt lat="50.80351" lon="9.61580"><ele>209</ele></trkpt>
<trkpt lat="50.80476" lon="9.61654"><ele>210</ele></trkpt>
<trkpt lat="50.80528" lon="9.61693"><ele>211</ele></trkpt>
<trkpt lat="50.80559" lon="9.61722"><ele>211</ele></trkpt>
<trkpt lat="50.80593" lon="9.61762"><ele>210</ele></trkpt>
<trkpt lat="50.80644" lon="9.61831"><ele>209</ele></trkpt>
<trkpt lat="50.80677" lon="9.61888"><ele>208</ele></trkpt>
<trkpt lat="50.80717" lon="9.61973"><ele>209</ele></trkpt>
<trkpt lat="50.80722" lon="9.61976"><ele>210</ele></trkpt>
<trkpt lat="50.80741" lon="9.61968"><ele>211</ele></trkpt>
<trkpt lat="50.80755" lon="9.61976"><ele>212</ele></trkpt>
<trkpt lat="50.80773" lon="9.62006"><ele>214</ele></trkpt>
<trkpt lat="50.80795" lon="9.62063"><ele>214</ele></trkpt>
<trkpt lat="50.80867" lon="9.62210"><ele>210</ele></trkpt>
<trkpt lat="50.80875" lon="9.62221"><ele>210</ele></trkpt>
<trkpt lat="50.80906" lon="9.62230"><ele>211</ele></trkpt>
<trkpt lat="50.80912" lon="9.62239"><ele>211</ele></trkpt>
<trkpt lat="50.80974" lon="9.62387"><ele>213</ele></trkpt>
<trkpt lat="50.80988" lon="9.62431"><ele>214</ele></trkpt>
<trkpt lat="50.80994" lon="9.62463"><ele>215</ele></trkpt>
<trkpt lat="50.80994" lon="9.62490"><ele>215</ele></trkpt>
<trkpt lat="50.81003" lon="9.62529"><ele>216</ele></trkpt>
<trkpt lat="50.81171" lon="9.63059"><ele>209</ele></trkpt>
<trkpt lat="50.81267" lon="9.63334"><ele>208</ele></trkpt>
<trkpt lat="50.81290" lon="9.63386"><ele>208</ele></trkpt>
<trkpt lat="50.81315" lon="9.63485"><ele>207</ele></trkpt>
<trkpt lat="50.81383" lon="9.63685"><ele>206</ele></trkpt>
<trkpt lat="50.81424" lon="9.63778"><ele>207</ele></trkpt>
<trkpt lat="50.81471" lon="9.63862"><ele>206</ele></trkpt>
<trkpt lat="50.81568" lon="9.64027"><ele>207</ele></trkpt>
<trkpt lat="50.81597" lon="9.64063"><ele>207</ele></trkpt>
<trkpt lat="50.81582" lon="9.64088"><ele>207</ele></trkpt>
<trkpt lat="50.81584" lon="9.64099"><ele>206</ele></trkpt>
<trkpt lat="50.81602" lon="9.64124"><ele>206</ele></trkpt>
<trkpt lat="50.81779" lon="9.64427"><ele>206</ele></trkpt>
<trkpt lat="50.81819" lon="9.64487"><ele>205</ele></trkpt>
<trkpt lat="50.82190" lon="9.65114"><ele>207</ele></trkpt>
<trkpt lat="50.82209" lon="9.65170"><ele>208</ele></trkpt>
<trkpt lat="50.82246" lon="9.65214"><ele>207</ele></trkpt>
<trkpt lat="50.82263" lon="9.65240"><ele>206</ele></trkpt>
<trkpt lat="50.82621" lon="9.65849"><ele>206</ele></trkpt>
<trkpt lat="50.82682" lon="9.65959"><ele>205</ele></trkpt>
<trkpt lat="50.82690" lon="9.65986"><ele>205</ele></trkpt>
<trkpt lat="50.82693" lon="9.66012"><ele>205</ele></trkpt>
<trkpt lat="50.82702" lon="9.66035"><ele>205</ele></trkpt>
<trkpt lat="50.82717" lon="9.66059"><ele>204</ele></trkpt>
<trkpt lat="50.82738" lon="9.66067"><ele>205</ele></trkpt>
<trkpt lat="50.82750" lon="9.66081"><ele>205</ele></trkpt>
<trkpt lat="50.82864" lon="9.66288"><ele>204</ele></trkpt>
<trkpt lat="50.83028" lon="9.66602"><ele>207</ele></trkpt>
<trkpt lat="50.83075" lon="9.66684"><ele>207</ele></trkpt>
<trkpt lat="50.83150" lon="9.66779"><ele>206</ele></trkpt>
<trkpt lat="50.83274" lon="9.66914"><ele>207</ele></trkpt>
<trkpt lat="50.83309" lon="9.66960"><ele>207</ele></trkpt>
<trkpt lat="50.83321" lon="9.66932"><ele>207</ele></trkpt>
<trkpt lat="50.83418" lon="9.67049"><ele>205</ele></trkpt>
<trkpt lat="50.83485" lon="9.67122"><ele>203</ele></trkpt>
<trkpt lat="50.83631" lon="9.66995"><ele>204</ele></trkpt>
<trkpt lat="50.83716" lon="9.66988"><ele>204</ele></trkpt>
<trkpt lat="50.83754" lon="9.66954"><ele>204</ele></trkpt>
<trkpt lat="50.83785" lon="9.66942"><ele>204</ele></trkpt>
<trkpt lat="50.83814" lon="9.66943"><ele>204</ele></trkpt>
<trkpt lat="50.83819" lon="9.66862"><ele>206</ele></trkpt>
<trkpt lat="50.83825" lon="9.66845"><ele>208</ele></trkpt>
<trkpt lat="50.83833" lon="9.66841"><ele>208</ele></trkpt>
<trkpt lat="50.83995" lon="9.66915"><ele>208</ele></trkpt>
<trkpt lat="50.84045" lon="9.66901"><ele>212</ele></trkpt>
<trkpt lat="50.84092" lon="9.66911"><ele>217</ele></trkpt>
<trkpt lat="50.84145" lon="9.66948"><ele>221</ele></trkpt>
<trkpt lat="50.84248" lon="9.66988"><ele>228</ele></trkpt>
<trkpt lat="50.84280" lon="9.67010"><ele>229</ele></trkpt>
<trkpt lat="50.84263" lon="9.67042"><ele>226</ele></trkpt>
<trkpt lat="50.84266" lon="9.67060"><ele>226</ele></trkpt>
<trkpt lat="50.84328" lon="9.67137"><ele>230</ele></trkpt>
<trkpt lat="50.84349" lon="9.67149"><ele>231</ele></trkpt>
<trkpt lat="50.84490" lon="9.67206"><ele>232</ele></trkpt>
<trkpt lat="50.84530" lon="9.67205"><ele>230</ele></trkpt>
<trkpt lat="50.84539" lon="9.67197"><ele>227</ele></trkpt>
<trkpt lat="50.84571" lon="9.67059"><ele>227</ele></trkpt>
<trkpt lat="50.84586" lon="9.67029"><ele>226</ele></trkpt>
<trkpt lat="50.84614" lon="9.67011"><ele>224</ele></trkpt>
<trkpt lat="50.84622" lon="9.67023"><ele>225</ele></trkpt>
<trkpt lat="50.84661" lon="9.66997"><ele>226</ele></trkpt>
<trkpt lat="50.84669" lon="9.66981"><ele>226</ele></trkpt>
<trkpt lat="50.84676" lon="9.66946"><ele>228</ele></trkpt>
<trkpt lat="50.84680" lon="9.66897"><ele>230</ele></trkpt>
<trkpt lat="50.84680" lon="9.66809"><ele>232</ele></trkpt>
<trkpt lat="50.84683" lon="9.66781"><ele>232</ele></trkpt>
<trkpt lat="50.84735" lon="9.66442"><ele>239</ele></trkpt>
<trkpt lat="50.84743" lon="9.66276"><ele>244</ele></trkpt>
<trkpt lat="50.84749" lon="9.66212"><ele>247</ele></trkpt>
<trkpt lat="50.84768" lon="9.66153"><ele>248</ele></trkpt>
<trkpt lat="50.84795" lon="9.66097"><ele>250</ele></trkpt>
<trkpt lat="50.84812" lon="9.66073"><ele>252</ele></trkpt>
<trkpt lat="50.84878" lon="9.66009"><ele>259</ele></trkpt>
<trkpt lat="50.84929" lon="9.65981"><ele>263</ele></trkpt>
<trkpt lat="50.85115" lon="9.65916"><ele>276</ele></trkpt>
<trkpt lat="50.85146" lon="9.65888"><ele>278</ele></trkpt>
<trkpt lat="50.85168" lon="9.65882"><ele>281</ele></trkpt>
<trkpt lat="50.85177" lon="9.65868"><ele>279</ele></trkpt>
<trkpt lat="50.85177" lon="9.65851"><ele>279</ele></trkpt>
<trkpt lat="50.85170" lon="9.65840"><ele>281</ele></trkpt>
<trkpt lat="50.85161" lon="9.65834"><ele>282</ele></trkpt>
<trkpt lat="50.85003" lon="9.65794"><ele>289</ele></trkpt>
<trkpt lat="50.84932" lon="9.65759"><ele>293</ele></trkpt>
<trkpt lat="50.84924" lon="9.65748"><ele>294</ele></trkpt>
<trkpt lat="50.84920" lon="9.65734"><ele>296</ele></trkpt>
<trkpt lat="50.84923" lon="9.65725"><ele>297</ele></trkpt>
<trkpt lat="50.84997" lon="9.65736"><ele>303</ele></trkpt>
<trkpt lat="50.85012" lon="9.65734"><ele>304</ele></trkpt>
<trkpt lat="50.85035" lon="9.65727"><ele>305</ele></trkpt>
<trkpt lat="50.85138" lon="9.65665"><ele>312</ele></trkpt>
<trkpt lat="50.85170" lon="9.65658"><ele>316</ele></trkpt>
<trkpt lat="50.85239" lon="9.65669"><ele>319</ele></trkpt>
<trkpt lat="50.85291" lon="9.65670"><ele>322</ele></trkpt>
<trkpt lat="50.85328" lon="9.65658"><ele>326</ele></trkpt>
<trkpt lat="50.85340" lon="9.65661"><ele>328</ele></trkpt>
<trkpt lat="50.85350" lon="9.65673"><ele>328</ele></trkpt>
<trkpt lat="50.85364" lon="9.65732"><ele>330</ele></trkpt>
<trkpt lat="50.85376" lon="9.65762"><ele>332</ele></trkpt>
<trkpt lat="50.85422" lon="9.65815"><ele>335</ele></trkpt>
<trkpt lat="50.85449" lon="9.65839"><ele>338</ele></trkpt>
<trkpt lat="50.85476" lon="9.65844"><ele>340</ele></trkpt>
<trkpt lat="50.85497" lon="9.65837"><ele>341</ele></trkpt>
<trkpt lat="50.85528" lon="9.65809"><ele>343</ele></trkpt>
<trkpt lat="50.85556" lon="9.65778"><ele>346</ele></trkpt>
<trkpt lat="50.85586" lon="9.65761"><ele>348</ele></trkpt>
<trkpt lat="50.85609" lon="9.65756"><ele>350</ele></trkpt>
<trkpt lat="50.85617" lon="9.65761"><ele>351</ele></trkpt>
<trkpt lat="50.85623" lon="9.65770"><ele>352</ele></trkpt>
<trkpt lat="50.85630" lon="9.65829"><ele>353</ele></trkpt>
<trkpt lat="50.85636" lon="9.65854"><ele>354</ele></trkpt>
<trkpt lat="50.85675" lon="9.65946"><ele>360</ele></trkpt>
<trkpt lat="50.85688" lon="9.65984"><ele>362</ele></trkpt>
<trkpt lat="50.85692" lon="9.66016"><ele>363</ele></trkpt>
<trkpt lat="50.85684" lon="9.66084"><ele>364</ele></trkpt>
<trkpt lat="50.85688" lon="9.66207"><ele>369</ele></trkpt>
<trkpt lat="50.85684" lon="9.66296"><ele>373</ele></trkpt>
<trkpt lat="50.85698" lon="9.66331"><ele>375</ele></trkpt>
<trkpt lat="50.85709" lon="9.66348"><ele>376</ele></trkpt>
<trkpt lat="50.85727" lon="9.66357"><ele>376</ele></trkpt>
<trkpt lat="50.85742" lon="9.66542"><ele>366</ele></trkpt>
<trkpt lat="50.85742" lon="9.66564"><ele>365</ele></trkpt>
<trkpt lat="50.85729" lon="9.66605"><ele>363</ele></trkpt>
<trkpt lat="50.85727" lon="9.66700"><ele>360</ele></trkpt>
<trkpt lat="50.85733" lon="9.66775"><ele>359</ele></trkpt>
<trkpt lat="50.85747" lon="9.66865"><ele>360</ele></trkpt>
<trkpt lat="50.85859" lon="9.67145"><ele>356</ele></trkpt>
<trkpt lat="50.85876" lon="9.67206"><ele>354</ele></trkpt>
<trkpt lat="50.85905" lon="9.67338"><ele>349</ele></trkpt>
<trkpt lat="50.85907" lon="9.67383"><ele>348</ele></trkpt>
<trkpt lat="50.85945" lon="9.67633"><ele>339</ele></trkpt>
<trkpt lat="50.85957" lon="9.67614"><ele>339</ele></trkpt>
<trkpt lat="50.86017" lon="9.67578"><ele>334</ele></trkpt>
<trkpt lat="50.85957" lon="9.67614"><ele>339</ele></trkpt>
<trkpt lat="50.85945" lon="9.67633"><ele>339</ele></trkpt>
<trkpt lat="50.85996" lon="9.67956"><ele>320</ele></trkpt>
<trkpt lat="50.86022" lon="9.68168"><ele>313</ele></trkpt>
<trkpt lat="50.86023" lon="9.68520"><ele>303</ele></trkpt>
<trkpt lat="50.86025" lon="9.68577"><ele>303</ele></trkpt>
<trkpt lat="50.86038" lon="9.68692"><ele>300</ele></trkpt>
<trkpt lat="50.86050" lon="9.68743"><ele>298</ele></trkpt>
<trkpt lat="50.86084" lon="9.68840"><ele>291</ele></trkpt>
<trkpt lat="50.86099" lon="9.68896"><ele>289</ele></trkpt>
<trkpt lat="50.86119" lon="9.69000"><ele>280</ele></trkpt>
<trkpt lat="50.86133" lon="9.69047"><ele>278</ele></trkpt>
<trkpt lat="50.86166" lon="9.69115"><ele>274</ele></trkpt>
<trkpt lat="50.86181" lon="9.69160"><ele>270</ele></trkpt>
<trkpt lat="50.86182" lon="9.69192"><ele>267</ele></trkpt>
<trkpt lat="50.86178" lon="9.69204"><ele>266</ele></trkpt>
<trkpt lat="50.86182" lon="9.69248"><ele>263</ele></trkpt>
<trkpt lat="50.86194" lon="9.69309"><ele>260</ele></trkpt>
<trkpt lat="50.86230" lon="9.69429"><ele>248</ele></trkpt>
<trkpt lat="50.86262" lon="9.69510"><ele>238</ele></trkpt>
<trkpt lat="50.86269" lon="9.69511"><ele>239</ele></trkpt>
<trkpt lat="50.86338" lon="9.69449"><ele>236</ele></trkpt>
<trkpt lat="50.86362" lon="9.69528"><ele>230</ele></trkpt>
<trkpt lat="50.86377" lon="9.69561"><ele>228</ele></trkpt>
<trkpt lat="50.86403" lon="9.69600"><ele>226</ele></trkpt>
<trkpt lat="50.86436" lon="9.69639"><ele>226</ele></trkpt>
<trkpt lat="50.86345" lon="9.69885"><ele>209</ele></trkpt>
<trkpt lat="50.86409" lon="9.69943"><ele>209</ele></trkpt>
<trkpt lat="50.86471" lon="9.70015"><ele>208</ele></trkpt>
<trkpt lat="50.86385" lon="9.70131"><ele>206</ele></trkpt>
<trkpt lat="50.86467" lon="9.70227"><ele>206</ele></trkpt>
<trkpt lat="50.86485" lon="9.70258"><ele>206</ele></trkpt>
<trkpt lat="50.86491" lon="9.70279"><ele>206</ele></trkpt>
<trkpt lat="50.86503" lon="9.70404"><ele>204</ele></trkpt>
<trkpt lat="50.86512" lon="9.70619"><ele>204</ele></trkpt>
<trkpt lat="50.86522" lon="9.70730"><ele>202</ele></trkpt>
<trkpt lat="50.86540" lon="9.70867"><ele>202</ele></trkpt>
<trkpt lat="50.86557" lon="9.70965"><ele>202</ele></trkpt>
<trkpt lat="50.86584" lon="9.71057"><ele>202</ele></trkpt>
<trkpt lat="50.86595" lon="9.71119"><ele>202</ele></trkpt>
<trkpt lat="50.86595" lon="9.71178"><ele>202</ele></trkpt>
<trkpt lat="50.86602" lon="9.71231"><ele>202</ele></trkpt>
<trkpt lat="50.86618" lon="9.71286"><ele>201</ele></trkpt>
<trkpt lat="50.86629" lon="9.71306"><ele>201</ele></trkpt>
<trkpt lat="50.86643" lon="9.71319"><ele>200</ele></trkpt>
<trkpt lat="50.86641" lon="9.71330"><ele>198</ele></trkpt>
<trkpt lat="50.86632" lon="9.71337"><ele>199</ele></trkpt>
<trkpt lat="50.86552" lon="9.71702"><ele>201</ele></trkpt>
<trkpt lat="50.86552" lon="9.71717"><ele>201</ele></trkpt>
<trkpt lat="50.86500" lon="9.72002"><ele>201</ele></trkpt>
<trkpt lat="50.86521" lon="9.72014"><ele>202</ele></trkpt>
<trkpt lat="50.86534" lon="9.72013"><ele>201</ele></trkpt>
<trkpt lat="50.86548" lon="9.72036"><ele>201</ele></trkpt>
<trkpt lat="50.86628" lon="9.72111"><ele>201</ele></trkpt>
<trkpt lat="50.86787" lon="9.72308"><ele>200</ele></trkpt>
<trkpt lat="50.86865" lon="9.72371"><ele>200</ele></trkpt>
<trkpt lat="50.86920" lon="9.72403"><ele>200</ele></trkpt>
<trkpt lat="50.86992" lon="9.72429"><ele>200</ele></trkpt>
<trkpt lat="50.87035" lon="9.72426"><ele>199</ele></trkpt>
<trkpt lat="50.87096" lon="9.72431"><ele>200</ele></trkpt>
<trkpt lat="50.87163" lon="9.72424"><ele>200</ele></trkpt>
<trkpt lat="50.87313" lon="9.72376"><ele>200</ele></trkpt>
<trkpt lat="50.87463" lon="9.72318"><ele>200</ele></trkpt>
<trkpt lat="50.87632" lon="9.72284"><ele>200</ele></trkpt>
<trkpt lat="50.87716" lon="9.72281"><ele>200</ele></trkpt>
<trkpt lat="50.87813" lon="9.72305"><ele>200</ele></trkpt>
<trkpt lat="50.87849" lon="9.72331"><ele>200</ele></trkpt>
<trkpt lat="50.88170" lon="9.72477"><ele>202</ele></trkpt>
<trkpt lat="50.88202" lon="9.72486"><ele>203</ele></trkpt>
<trkpt lat="50.88265" lon="9.72482"><ele>203</ele></trkpt>
<trkpt lat="50.88340" lon="9.72463"><ele>204</ele></trkpt>
<trkpt lat="50.88387" lon="9.72461"><ele>204</ele></trkpt>
<trkpt lat="50.88450" lon="9.72478"><ele>204</ele></trkpt>
<trkpt lat="50.88507" lon="9.72508"><ele>203</ele></trkpt>
<trkpt lat="50.88513" lon="9.72504"><ele>202</ele></trkpt>
<trkpt lat="50.88516" lon="9.72496"><ele>202</ele></trkpt>
<trkpt lat="50.88515" lon="9.72485"><ele>202</ele></trkpt>
<trkpt lat="50.88509" lon="9.72474"><ele>202</ele></trkpt>
<trkpt lat="50.88516" lon="9.72457"><ele>203</ele></trkpt>
<trkpt lat="50.88559" lon="9.72531"><ele>202</ele></trkpt>
<trkpt lat="50.88577" lon="9.72555"><ele>201</ele></trkpt>
<trkpt lat="50.88596" lon="9.72573"><ele>200</ele></trkpt>
<trkpt lat="50.88629" lon="9.72594"><ele>200</ele></trkpt>
<trkpt lat="50.88717" lon="9.72639"><ele>200</ele></trkpt>
<trkpt lat="50.88759" lon="9.72667"><ele>202</ele></trkpt>
<trkpt lat="50.88827" lon="9.72725"><ele>203</ele></trkpt>
<trkpt lat="50.88939" lon="9.72853"><ele>203</ele></trkpt>
<trkpt lat="50.88988" lon="9.72919"><ele>204</ele></trkpt>
<trkpt lat="50.89052" lon="9.73019"><ele>204</ele></trkpt>
<trkpt lat="50.89113" lon="9.73136"><ele>202</ele></trkpt>
<trkpt lat="50.89411" lon="9.73769"><ele>201</ele></trkpt>
<trkpt lat="50.89437" lon="9.73813"><ele>200</ele></trkpt>
<trkpt lat="50.89516" lon="9.73922"><ele>201</ele></trkpt>
<trkpt lat="50.89559" lon="9.73990"><ele>200</ele></trkpt>
<trkpt lat="50.89608" lon="9.74078"><ele>201</ele></trkpt>
<trkpt lat="50.89690" lon="9.74213"><ele>200</ele></trkpt>
<trkpt lat="50.89742" lon="9.74312"><ele>199</ele></trkpt>
<trkpt lat="50.89865" lon="9.74511"><ele>199</ele></trkpt>
<trkpt lat="50.89890" lon="9.74534"><ele>199</ele></trkpt>
<trkpt lat="50.89893" lon="9.74550"><ele>199</ele></trkpt>
<trkpt lat="50.89927" lon="9.74606"><ele>199</ele></trkpt>
<trkpt lat="50.89936" lon="9.74617"><ele>199</ele></trkpt>
<trkpt lat="50.89980" lon="9.74641"><ele>200</ele></trkpt>
<trkpt lat="50.90075" lon="9.74672"><ele>202</ele></trkpt>
<trkpt lat="50.90097" lon="9.74688"><ele>202</ele></trkpt>
<trkpt lat="50.90142" lon="9.74741"><ele>202</ele></trkpt>
<trkpt lat="50.90164" lon="9.74760"><ele>202</ele></trkpt>
<trkpt lat="50.90182" lon="9.74789"><ele>201</ele></trkpt>
<trkpt lat="50.90188" lon="9.74817"><ele>198</ele></trkpt>
<trkpt lat="50.90217" lon="9.74819"><ele>200</ele></trkpt>
<trkpt lat="50.90245" lon="9.74832"><ele>202</ele></trkpt>
<trkpt lat="50.90270" lon="9.74851"><ele>202</ele></trkpt>
<trkpt lat="50.90275" lon="9.74860"><ele>202</ele></trkpt>
<trkpt lat="50.90279" lon="9.74875"><ele>201</ele></trkpt>
<trkpt lat="50.90275" lon="9.75003"><ele>202</ele></trkpt>
<trkpt lat="50.90279" lon="9.75034"><ele>202</ele></trkpt>
<trkpt lat="50.90304" lon="9.75156"><ele>196</ele></trkpt>
<trkpt lat="50.90318" lon="9.75147"><ele>196</ele></trkpt>
<trkpt lat="50.90336" lon="9.75099"><ele>196</ele></trkpt>
<trkpt lat="50.90342" lon="9.75091"><ele>196</ele></trkpt>
<trkpt lat="50.90349" lon="9.75088"><ele>196</ele></trkpt>
<trkpt lat="50.90432" lon="9.75154"><ele>196</ele></trkpt>
<trkpt lat="50.90444" lon="9.75155"><ele>196</ele></trkpt>
<trkpt lat="50.90448" lon="9.75144"><ele>196</ele></trkpt>
<trkpt lat="50.90456" lon="9.74982"><ele>197</ele></trkpt>
<trkpt lat="50.90461" lon="9.74974"><ele>197</ele></trkpt>
<trkpt lat="50.90467" lon="9.74974"><ele>197</ele></trkpt>
<trkpt lat="50.90624" lon="9.75091"><ele>196</ele></trkpt>
<trkpt lat="50.90730" lon="9.75206"><ele>196</ele></trkpt>
<trkpt lat="50.90758" lon="9.75223"><ele>196</ele></trkpt>
<trkpt lat="50.90793" lon="9.75237"><ele>195</ele></trkpt>
<trkpt lat="50.90810" lon="9.75239"><ele>195</ele></trkpt>
<trkpt lat="50.90868" lon="9.75235"><ele>195</ele></trkpt>
<trkpt lat="50.90960" lon="9.75220"><ele>196</ele></trkpt>
<trkpt lat="50.91275" lon="9.75243"><ele>195</ele></trkpt>
<trkpt lat="50.91693" lon="9.75235"><ele>194</ele></trkpt>
<trkpt lat="50.91737" lon="9.75228"><ele>194</ele></trkpt>
<trkpt lat="50.91748" lon="9.75232"><ele>194</ele></trkpt>
<trkpt lat="50.91805" lon="9.75293"><ele>192</ele></trkpt>
<trkpt lat="50.91866" lon="9.75289"><ele>193</ele></trkpt>
<trkpt lat="50.91892" lon="9.75292"><ele>193</ele></trkpt>
<trkpt lat="50.91926" lon="9.75306"><ele>194</ele></trkpt>
<trkpt lat="50.91949" lon="9.75322"><ele>193</ele></trkpt>
<trkpt lat="50.91984" lon="9.75359"><ele>194</ele></trkpt>
<trkpt lat="50.92003" lon="9.75385"><ele>194</ele></trkpt>
<trkpt lat="50.92124" lon="9.75610"><ele>194</ele></trkpt>
<trkpt lat="50.92128" lon="9.75642"><ele>194</ele></trkpt>
<trkpt lat="50.92114" lon="9.75803"><ele>194</ele></trkpt>
<trkpt lat="50.92114" lon="9.75826"><ele>194</ele></trkpt>
<trkpt lat="50.92174" lon="9.75982"><ele>195</ele></trkpt>
<trkpt lat="50.92219" lon="9.75904"><ele>195</ele></trkpt>
<trkpt lat="50.92243" lon="9.75911"><ele>196</ele></trkpt>
<trkpt lat="50.92260" lon="9.75950"><ele>195</ele></trkpt>
<trkpt lat="50.92276" lon="9.75967"><ele>196</ele></trkpt>
<trkpt lat="50.92289" lon="9.75995"><ele>196</ele></trkpt>
<trkpt lat="50.92297" lon="9.76036"><ele>198</ele></trkpt>
<trkpt lat="50.92291" lon="9.76046"><ele>198</ele></trkpt>
<trkpt lat="50.92281" lon="9.76050"><ele>200</ele></trkpt>
<trkpt lat="50.92276" lon="9.76047"><ele>201</ele></trkpt>
<trkpt lat="50.92274" lon="9.76038"><ele>202</ele></trkpt>
<trkpt lat="50.92321" lon="9.76025"><ele>201</ele></trkpt>
<trkpt lat="50.92353" lon="9.75995"><ele>201</ele></trkpt>
<trkpt lat="50.92365" lon="9.75974"><ele>201</ele></trkpt>
<trkpt lat="50.92377" lon="9.75944"><ele>201</ele></trkpt>
<trkpt lat="50.92382" lon="9.75916"><ele>202</ele></trkpt>
<trkpt lat="50.92384" lon="9.75882"><ele>202</ele></trkpt>
<trkpt lat="50.92390" lon="9.75884"><ele>203</ele></trkpt>
<trkpt lat="50.92392" lon="9.75892"><ele>203</ele></trkpt>
<trkpt lat="50.92388" lon="9.75930"><ele>202</ele></trkpt>
<trkpt lat="50.92378" lon="9.75984"><ele>198</ele></trkpt>
<trkpt lat="50.92379" lon="9.76000"><ele>198</ele></trkpt>
<trkpt lat="50.92390" lon="9.76030"><ele>196</ele></trkpt>
<trkpt lat="50.92433" lon="9.76107"><ele>195</ele></trkpt>
<trkpt lat="50.92423" lon="9.76117"><ele>195</ele></trkpt>
<trkpt lat="50.92572" lon="9.76423"><ele>195</ele></trkpt>
<trkpt lat="50.92625" lon="9.76520"><ele>200</ele></trkpt>
<trkpt lat="50.92666" lon="9.76651"><ele>198</ele></trkpt>
<trkpt lat="50.92711" lon="9.76748"><ele>199</ele></trkpt>
<trkpt lat="50.92800" lon="9.76972"><ele>200</ele></trkpt>
<trkpt lat="50.92842" lon="9.77051"><ele>201</ele></trkpt>
<trkpt lat="50.92879" lon="9.77107"><ele>200</ele></trkpt>
<trkpt lat="50.92916" lon="9.77145"><ele>199</ele></trkpt>
<trkpt lat="50.92963" lon="9.77182"><ele>200</ele></trkpt>
<trkpt lat="50.92992" lon="9.77197"><ele>198</ele></trkpt>
<trkpt lat="50.93051" lon="9.77209"><ele>199</ele></trkpt>
<trkpt lat="50.93116" lon="9.77212"><ele>198</ele></trkpt>
<trkpt lat="50.93218" lon="9.77210"><ele>197</ele></trkpt>
<trkpt lat="50.93258" lon="9.77202"><ele>197</ele></trkpt>
<trkpt lat="50.93290" lon="9.77163"><ele>201</ele></trkpt>
<trkpt lat="50.93315" lon="9.77155"><ele>200</ele></trkpt>
<trkpt lat="50.93333" lon="9.77134"><ele>199</ele></trkpt>
<trkpt lat="50.93358" lon="9.77126"><ele>199</ele></trkpt>
<trkpt lat="50.93376" lon="9.77129"><ele>198</ele></trkpt>
<trkpt lat="50.93404" lon="9.77153"><ele>198</ele></trkpt>
<trkpt lat="50.93441" lon="9.77225"><ele>196</ele></trkpt>
<trkpt lat="50.93458" lon="9.77245"><ele>196</ele></trkpt>
<trkpt lat="50.93486" lon="9.77261"><ele>196</ele></trkpt>
<trkpt lat="50.93539" lon="9.77270"><ele>196</ele></trkpt>
<trkpt lat="50.93560" lon="9.77281"><ele>197</ele></trkpt>
<trkpt lat="50.93659" lon="9.77369"><ele>196</ele></trkpt>
<trkpt lat="50.93689" lon="9.77403"><ele>195</ele></trkpt>
<trkpt lat="50.93747" lon="9.77489"><ele>194</ele></trkpt>
<trkpt lat="50.93788" lon="9.77532"><ele>193</ele></trkpt>
<trkpt lat="50.93857" lon="9.77581"><ele>193</ele></trkpt>
<trkpt lat="50.93918" lon="9.77615"><ele>193</ele></trkpt>
<trkpt lat="50.93920" lon="9.77636"><ele>193</ele></trkpt>
<trkpt lat="50.93932" lon="9.77648"><ele>193</ele></trkpt>
<trkpt lat="50.93985" lon="9.77637"><ele>193</ele></trkpt>
<trkpt lat="50.94002" lon="9.77637"><ele>193</ele></trkpt>
<trkpt lat="50.94026" lon="9.77644"><ele>194</ele></trkpt>
<trkpt lat="50.94226" lon="9.77752"><ele>192</ele></trkpt>
<trkpt lat="50.94238" lon="9.77755"><ele>192</ele></trkpt>
<trkpt lat="50.94499" lon="9.77740"><ele>192</ele></trkpt>
<trkpt lat="50.94598" lon="9.77718"><ele>194</ele></trkpt>
<trkpt lat="50.94608" lon="9.77728"><ele>193</ele></trkpt>
<trkpt lat="50.94713" lon="9.77903"><ele>192</ele></trkpt>
<trkpt lat="50.94720" lon="9.78010"><ele>192</ele></trkpt>
<trkpt lat="50.94719" lon="9.78108"><ele>192</ele></trkpt>
<trkpt lat="50.94722" lon="9.78127"><ele>192</ele></trkpt>
<trkpt lat="50.94853" lon="9.78329"><ele>192</ele></trkpt>
<trkpt lat="50.94979" lon="9.78417"><ele>192</ele></trkpt>
<trkpt lat="50.95022" lon="9.78453"><ele>192</ele></trkpt>
<trkpt lat="50.95038" lon="9.78489"><ele>191</ele></trkpt>
<trkpt lat="50.95046" lon="9.78528"><ele>191</ele></trkpt>
<trkpt lat="50.95050" lon="9.78596"><ele>192</ele></trkpt>
<trkpt lat="50.95311" lon="9.78911"><ele>190</ele></trkpt>
<trkpt lat="50.95359" lon="9.78929"><ele>190</ele></trkpt>
<trkpt lat="50.95412" lon="9.78766"><ele>192</ele></trkpt>
<trkpt lat="50.95425" lon="9.78775"><ele>192</ele></trkpt>
<trkpt lat="50.95450" lon="9.78802"><ele>192</ele></trkpt>
<trkpt lat="50.95476" lon="9.78869"><ele>194</ele></trkpt>
<trkpt lat="50.95481" lon="9.78874"><ele>194</ele></trkpt>
<trkpt lat="50.95496" lon="9.78873"><ele>194</ele></trkpt>
<trkpt lat="50.95519" lon="9.78813"><ele>195</ele></trkpt>
<trkpt lat="50.95572" lon="9.78711"><ele>193</ele></trkpt>
<trkpt lat="50.95586" lon="9.78669"><ele>193</ele></trkpt>
<trkpt lat="50.95600" lon="9.78596"><ele>194</ele></trkpt>
<trkpt lat="50.95641" lon="9.78516"><ele>194</ele></trkpt>
<trkpt lat="50.95646" lon="9.78481"><ele>195</ele></trkpt>
<trkpt lat="50.95727" lon="9.78484"><ele>196</ele></trkpt>
<trkpt lat="50.95720" lon="9.78412"><ele>197</ele></trkpt>
<trkpt lat="50.95735" lon="9.78405"><ele>198</ele></trkpt>
<trkpt lat="50.95754" lon="9.78356"><ele>199</ele></trkpt>
<trkpt lat="50.95785" lon="9.78251"><ele>199</ele></trkpt>
<trkpt lat="50.95860" lon="9.78301"><ele>191</ele></trkpt>
<trkpt lat="50.95880" lon="9.78227"><ele>193</ele></trkpt>
<trkpt lat="50.95906" lon="9.78188"><ele>193</ele></trkpt>
<trkpt lat="50.95954" lon="9.78135"><ele>192</ele></trkpt>
<trkpt lat="50.96068" lon="9.78032"><ele>193</ele></trkpt>
<trkpt lat="50.96124" lon="9.77956"><ele>192</ele></trkpt>
<trkpt lat="50.96323" lon="9.77602"><ele>192</ele></trkpt>
<trkpt lat="50.96443" lon="9.77444"><ele>191</ele></trkpt>
<trkpt lat="50.96585" lon="9.77299"><ele>190</ele></trkpt>
<trkpt lat="50.96690" lon="9.77218"><ele>192</ele></trkpt>
<trkpt lat="50.96816" lon="9.77139"><ele>190</ele></trkpt>
<trkpt lat="50.96882" lon="9.77091"><ele>191</ele></trkpt>
<trkpt lat="50.96904" lon="9.77081"><ele>190</ele></trkpt>
<trkpt lat="50.96932" lon="9.77050"><ele>191</ele></trkpt>
<trkpt lat="50.96986" lon="9.77015"><ele>191</ele></trkpt>
<trkpt lat="50.97021" lon="9.76986"><ele>191</ele></trkpt>
<trkpt lat="50.97053" lon="9.76951"><ele>190</ele></trkpt>
<trkpt lat="50.97142" lon="9.76844"><ele>190</ele></trkpt>
<trkpt lat="50.97215" lon="9.76730"><ele>190</ele></trkpt>
<trkpt lat="50.97276" lon="9.76676"><ele>189</ele></trkpt>
<trkpt lat="50.97345" lon="9.76593"><ele>192</ele></trkpt>
<trkpt lat="50.97419" lon="9.76537"><ele>190</ele></trkpt>
<trkpt lat="50.97468" lon="9.76507"><ele>189</ele></trkpt>
<trkpt lat="50.97573" lon="9.76400"><ele>192</ele></trkpt>
<trkpt lat="50.97616" lon="9.76363"><ele>192</ele></trkpt>
<trkpt lat="50.97663" lon="9.76331"><ele>192</ele></trkpt>
<trkpt lat="50.97707" lon="9.76295"><ele>192</ele></trkpt>
<trkpt lat="50.97859" lon="9.76114"><ele>190</ele></trkpt>
<trkpt lat="50.97885" lon="9.76104"><ele>191</ele></trkpt>
<trkpt lat="50.98006" lon="9.76108"><ele>189</ele></trkpt>
<trkpt lat="50.98038" lon="9.76095"><ele>191</ele></trkpt>
<trkpt lat="50.98114" lon="9.76045"><ele>188</ele></trkpt>
<trkpt lat="50.98144" lon="9.76016"><ele>188</ele></trkpt>
<trkpt lat="50.98168" lon="9.75976"><ele>188</ele></trkpt>
<trkpt lat="50.98249" lon="9.75795"><ele>189</ele></trkpt>
<trkpt lat="50.98393" lon="9.75531"><ele>189</ele></trkpt>
<trkpt lat="50.98449" lon="9.75307"><ele>190</ele></trkpt>
<trkpt lat="50.98456" lon="9.75289"><ele>190</ele></trkpt>
<trkpt lat="50.98566" lon="9.75129"><ele>192</ele></trkpt>
<trkpt lat="50.98602" lon="9.75243"><ele>190</ele></trkpt>
<trkpt lat="50.98629" lon="9.75311"><ele>189</ele></trkpt>
<trkpt lat="50.98668" lon="9.75388"><ele>189</ele></trkpt>
<trkpt lat="50.98741" lon="9.75515"><ele>188</ele></trkpt>
<trkpt lat="50.98781" lon="9.75548"><ele>187</ele></trkpt>
<trkpt lat="50.98826" lon="9.75577"><ele>187</ele></trkpt>
<trkpt lat="50.98925" lon="9.75608"><ele>186</ele></trkpt>
<trkpt lat="50.98942" lon="9.75609"><ele>186</ele></trkpt>
<trkpt lat="50.98973" lon="9.75579"><ele>186</ele></trkpt>
<trkpt lat="50.99017" lon="9.75413"><ele>185</ele></trkpt>
<trkpt lat="50.99037" lon="9.75256"><ele>186</ele></trkpt>
<trkpt lat="50.99038" lon="9.75125"><ele>186</ele></trkpt>
<trkpt lat="50.99044" lon="9.74933"><ele>186</ele></trkpt>
<trkpt lat="50.99046" lon="9.74905"><ele>186</ele></trkpt>
<trkpt lat="50.99074" lon="9.74728"><ele>188</ele></trkpt>
<trkpt lat="50.99089" lon="9.74682"><ele>188</ele></trkpt>
<trkpt lat="50.99124" lon="9.74614"><ele>188</ele></trkpt>
<trkpt lat="50.99228" lon="9.74388"><ele>186</ele></trkpt>
<trkpt lat="50.99322" lon="9.74100"><ele>186</ele></trkpt>
<trkpt lat="50.99361" lon="9.73951"><ele>186</ele></trkpt>
<trkpt lat="50.99372" lon="9.73893"><ele>186</ele></trkpt>
<trkpt lat="50.99388" lon="9.73878"><ele>186</ele></trkpt>
<trkpt lat="50.99408" lon="9.73847"><ele>186</ele></trkpt>
<trkpt lat="50.99413" lon="9.73822"><ele>186</ele></trkpt>
<trkpt lat="50.99413" lon="9.73802"><ele>186</ele></trkpt>
<trkpt lat="50.99419" lon="9.73792"><ele>186</ele></trkpt>
<trkpt lat="50.99434" lon="9.73755"><ele>186</ele></trkpt>
<trkpt lat="50.99457" lon="9.73620"><ele>185</ele></trkpt>
<trkpt lat="50.99461" lon="9.73483"><ele>185</ele></trkpt>
<trkpt lat="50.99477" lon="9.73415"><ele>186</ele></trkpt>
<trkpt lat="50.99499" lon="9.73365"><ele>186</ele></trkpt>
<trkpt lat="50.99526" lon="9.73284"><ele>186</ele></trkpt>
<trkpt lat="50.99538" lon="9.73231"><ele>185</ele></trkpt>
<trkpt lat="50.99546" lon="9.73147"><ele>185</ele></trkpt>
<trkpt lat="50.99553" lon="9.73019"><ele>186</ele></trkpt>
<trkpt lat="50.99578" lon="9.72877"><ele>184</ele></trkpt>
<trkpt lat="50.99592" lon="9.72824"><ele>184</ele></trkpt>
<trkpt lat="50.99652" lon="9.72723"><ele>183</ele></trkpt>
    </trkseg>
  </trk>
</gpx>
