<?xml version="1.0" encoding="UTF-8"?>
<gpx version="1.1" creator="Gravel Kompass" xmlns="http://www.topografix.com/GPX/1/1">
  <metadata><name>München–Haltern am See: Romantische Straße, Taubertal, Main, Lahn &amp; Ruhr – Etappe 2</name></metadata>
  <trk>
    <name>Etappe 2: Donauwörth – Rothenburg ob der Tauber</name>
    <trkseg>
<trkpt lat="48.71893" lon="10.77872"><ele>412</ele></trkpt>
<trkpt lat="48.71891" lon="10.77878"><ele>412</ele></trkpt>
<trkpt lat="48.71936" lon="10.77914"><ele>410</ele></trkpt>
<trkpt lat="48.71939" lon="10.77905"><ele>410</ele></trkpt>
<trkpt lat="48.71991" lon="10.77959"><ele>406</ele></trkpt>
<trkpt lat="48.72017" lon="10.78047"><ele>404</ele></trkpt>
<trkpt lat="48.72079" lon="10.78013"><ele>406</ele></trkpt>
<trkpt lat="48.72100" lon="10.77996"><ele>407</ele></trkpt>
<trkpt lat="48.72131" lon="10.77936"><ele>407</ele></trkpt>
<trkpt lat="48.72145" lon="10.77896"><ele>408</ele></trkpt>
<trkpt lat="48.72214" lon="10.77643"><ele>408</ele></trkpt>
<trkpt lat="48.72238" lon="10.77572"><ele>406</ele></trkpt>
<trkpt lat="48.72271" lon="10.77506"><ele>405</ele></trkpt>
<trkpt lat="48.72294" lon="10.77468"><ele>404</ele></trkpt>
<trkpt lat="48.72333" lon="10.77414"><ele>404</ele></trkpt>
<trkpt lat="48.72402" lon="10.77349"><ele>404</ele></trkpt>
<trkpt lat="48.72420" lon="10.77327"><ele>404</ele></trkpt>
<trkpt lat="48.72425" lon="10.77308"><ele>402</ele></trkpt>
<trkpt lat="48.72482" lon="10.77271"><ele>404</ele></trkpt>
<trkpt lat="48.72494" lon="10.77270"><ele>404</ele></trkpt>
<trkpt lat="48.72501" lon="10.77258"><ele>405</ele></trkpt>
<trkpt lat="48.72510" lon="10.77264"><ele>405</ele></trkpt>
<trkpt lat="48.72520" lon="10.77262"><ele>405</ele></trkpt>
<trkpt lat="48.72612" lon="10.77177"><ele>404</ele></trkpt>
<trkpt lat="48.72626" lon="10.77151"><ele>404</ele></trkpt>
<trkpt lat="48.72626" lon="10.77125"><ele>404</ele></trkpt>
<trkpt lat="48.72631" lon="10.77097"><ele>404</ele></trkpt>
<trkpt lat="48.72638" lon="10.77073"><ele>404</ele></trkpt>
<trkpt lat="48.72758" lon="10.76848"><ele>403</ele></trkpt>
<trkpt lat="48.72809" lon="10.76768"><ele>403</ele></trkpt>
<trkpt lat="48.72875" lon="10.76699"><ele>406</ele></trkpt>
<trkpt lat="48.73128" lon="10.76022"><ele>409</ele></trkpt>
<trkpt lat="48.73187" lon="10.75825"><ele>408</ele></trkpt>
<trkpt lat="48.73222" lon="10.75653"><ele>409</ele></trkpt>
<trkpt lat="48.73241" lon="10.75530"><ele>410</ele></trkpt>
<trkpt lat="48.73253" lon="10.75404"><ele>410</ele></trkpt>
<trkpt lat="48.73259" lon="10.75293"><ele>409</ele></trkpt>
<trkpt lat="48.73259" lon="10.75179"><ele>409</ele></trkpt>
<trkpt lat="48.73248" lon="10.74969"><ele>410</ele></trkpt>
<trkpt lat="48.73232" lon="10.74847"><ele>409</ele></trkpt>
<trkpt lat="48.73211" lon="10.74724"><ele>409</ele></trkpt>
<trkpt lat="48.73171" lon="10.74554"><ele>410</ele></trkpt>
<trkpt lat="48.73135" lon="10.74438"><ele>408</ele></trkpt>
<trkpt lat="48.73090" lon="10.74314"><ele>409</ele></trkpt>
<trkpt lat="48.73051" lon="10.74221"><ele>408</ele></trkpt>
<trkpt lat="48.72970" lon="10.74054"><ele>410</ele></trkpt>
<trkpt lat="48.72922" lon="10.73961"><ele>412</ele></trkpt>
<trkpt lat="48.72878" lon="10.73956"><ele>408</ele></trkpt>
<trkpt lat="48.72819" lon="10.73928"><ele>407</ele></trkpt>
<trkpt lat="48.72786" lon="10.73866"><ele>409</ele></trkpt>
<trkpt lat="48.72773" lon="10.73850"><ele>410</ele></trkpt>
<trkpt lat="48.72712" lon="10.73805"><ele>408</ele></trkpt>
<trkpt lat="48.72697" lon="10.73790"><ele>408</ele></trkpt>
<trkpt lat="48.72679" lon="10.73764"><ele>408</ele></trkpt>
<trkpt lat="48.72666" lon="10.73735"><ele>408</ele></trkpt>
<trkpt lat="48.72636" lon="10.73609"><ele>410</ele></trkpt>
<trkpt lat="48.72609" lon="10.73516"><ele>410</ele></trkpt>
<trkpt lat="48.72530" lon="10.73288"><ele>410</ele></trkpt>
<trkpt lat="48.72512" lon="10.73228"><ele>409</ele></trkpt>
<trkpt lat="48.72492" lon="10.73144"><ele>408</ele></trkpt>
<trkpt lat="48.72478" lon="10.73062"><ele>409</ele></trkpt>
<trkpt lat="48.72470" lon="10.72993"><ele>409</ele></trkpt>
<trkpt lat="48.72465" lon="10.72916"><ele>409</ele></trkpt>
<trkpt lat="48.72466" lon="10.72767"><ele>407</ele></trkpt>
<trkpt lat="48.72473" lon="10.72677"><ele>407</ele></trkpt>
<trkpt lat="48.72493" lon="10.72564"><ele>407</ele></trkpt>
<trkpt lat="48.72525" lon="10.72435"><ele>407</ele></trkpt>
<trkpt lat="48.72563" lon="10.72312"><ele>407</ele></trkpt>
<trkpt lat="48.72588" lon="10.72262"><ele>406</ele></trkpt>
<trkpt lat="48.72620" lon="10.72236"><ele>405</ele></trkpt>
<trkpt lat="48.72634" lon="10.72230"><ele>405</ele></trkpt>
<trkpt lat="48.72655" lon="10.72230"><ele>404</ele></trkpt>
<trkpt lat="48.72725" lon="10.72247"><ele>403</ele></trkpt>
<trkpt lat="48.72832" lon="10.72265"><ele>404</ele></trkpt>
<trkpt lat="48.72905" lon="10.72293"><ele>403</ele></trkpt>
<trkpt lat="48.72956" lon="10.72294"><ele>402</ele></trkpt>
<trkpt lat="48.73067" lon="10.72282"><ele>403</ele></trkpt>
<trkpt lat="48.73057" lon="10.72084"><ele>403</ele></trkpt>
<trkpt lat="48.73058" lon="10.72046"><ele>402</ele></trkpt>
<trkpt lat="48.73063" lon="10.72021"><ele>402</ele></trkpt>
<trkpt lat="48.73071" lon="10.71989"><ele>402</ele></trkpt>
<trkpt lat="48.73088" lon="10.71949"><ele>403</ele></trkpt>
<trkpt lat="48.73123" lon="10.71881"><ele>403</ele></trkpt>
<trkpt lat="48.73151" lon="10.71845"><ele>403</ele></trkpt>
<trkpt lat="48.73174" lon="10.71826"><ele>404</ele></trkpt>
<trkpt lat="48.73253" lon="10.71818"><ele>403</ele></trkpt>
<trkpt lat="48.73298" lon="10.71803"><ele>403</ele></trkpt>
<trkpt lat="48.73546" lon="10.71658"><ele>405</ele></trkpt>
<trkpt lat="48.73754" lon="10.71550"><ele>404</ele></trkpt>
<trkpt lat="48.73914" lon="10.71479"><ele>403</ele></trkpt>
<trkpt lat="48.73959" lon="10.71466"><ele>403</ele></trkpt>
<trkpt lat="48.74074" lon="10.71470"><ele>404</ele></trkpt>
<trkpt lat="48.74116" lon="10.71467"><ele>404</ele></trkpt>
<trkpt lat="48.74349" lon="10.71430"><ele>406</ele></trkpt>
<trkpt lat="48.74396" lon="10.71427"><ele>406</ele></trkpt>
<trkpt lat="48.74450" lon="10.71439"><ele>408</ele></trkpt>
<trkpt lat="48.74509" lon="10.71468"><ele>408</ele></trkpt>
<trkpt lat="48.74638" lon="10.71544"><ele>409</ele></trkpt>
<trkpt lat="48.74678" lon="10.71560"><ele>409</ele></trkpt>
<trkpt lat="48.74858" lon="10.71590"><ele>412</ele></trkpt>
<trkpt lat="48.75107" lon="10.71662"><ele>413</ele></trkpt>
<trkpt lat="48.75151" lon="10.71667"><ele>415</ele></trkpt>
<trkpt lat="48.75203" lon="10.71660"><ele>414</ele></trkpt>
<trkpt lat="48.75270" lon="10.71625"><ele>413</ele></trkpt>
<trkpt lat="48.75309" lon="10.71617"><ele>412</ele></trkpt>
<trkpt lat="48.75331" lon="10.71622"><ele>411</ele></trkpt>
<trkpt lat="48.75368" lon="10.71642"><ele>408</ele></trkpt>
<trkpt lat="48.75383" lon="10.71644"><ele>407</ele></trkpt>
<trkpt lat="48.75401" lon="10.71639"><ele>406</ele></trkpt>
<trkpt lat="48.75423" lon="10.71620"><ele>405</ele></trkpt>
<trkpt lat="48.75490" lon="10.71539"><ele>403</ele></trkpt>
<trkpt lat="48.75495" lon="10.71519"><ele>403</ele></trkpt>
<trkpt lat="48.75495" lon="10.71479"><ele>404</ele></trkpt>
<trkpt lat="48.75532" lon="10.71478"><ele>404</ele></trkpt>
<trkpt lat="48.75561" lon="10.71483"><ele>405</ele></trkpt>
<trkpt lat="48.75597" lon="10.71501"><ele>403</ele></trkpt>
<trkpt lat="48.75630" lon="10.71473"><ele>404</ele></trkpt>
<trkpt lat="48.75670" lon="10.71450"><ele>404</ele></trkpt>
<trkpt lat="48.75782" lon="10.71428"><ele>405</ele></trkpt>
<trkpt lat="48.75869" lon="10.71376"><ele>410</ele></trkpt>
<trkpt lat="48.75918" lon="10.71300"><ele>413</ele></trkpt>
<trkpt lat="48.75929" lon="10.71274"><ele>413</ele></trkpt>
<trkpt lat="48.75942" lon="10.71274"><ele>412</ele></trkpt>
<trkpt lat="48.75956" lon="10.71267"><ele>412</ele></trkpt>
<trkpt lat="48.76065" lon="10.71149"><ele>408</ele></trkpt>
<trkpt lat="48.76080" lon="10.71137"><ele>407</ele></trkpt>
<trkpt lat="48.76090" lon="10.71138"><ele>407</ele></trkpt>
<trkpt lat="48.76094" lon="10.71126"><ele>407</ele></trkpt>
<trkpt lat="48.76123" lon="10.71099"><ele>407</ele></trkpt>
<trkpt lat="48.76185" lon="10.71011"><ele>406</ele></trkpt>
<trkpt lat="48.76255" lon="10.70924"><ele>406</ele></trkpt>
<trkpt lat="48.76362" lon="10.70805"><ele>406</ele></trkpt>
<trkpt lat="48.76419" lon="10.70748"><ele>407</ele></trkpt>
<trkpt lat="48.76476" lon="10.70697"><ele>408</ele></trkpt>
<trkpt lat="48.76585" lon="10.70608"><ele>407</ele></trkpt>
<trkpt lat="48.76624" lon="10.70581"><ele>407</ele></trkpt>
<trkpt lat="48.76648" lon="10.70551"><ele>408</ele></trkpt>
<trkpt lat="48.76657" lon="10.70547"><ele>408</ele></trkpt>
<trkpt lat="48.76675" lon="10.70551"><ele>408</ele></trkpt>
<trkpt lat="48.76685" lon="10.70548"><ele>408</ele></trkpt>
<trkpt lat="48.76751" lon="10.70508"><ele>407</ele></trkpt>
<trkpt lat="48.76762" lon="10.70497"><ele>407</ele></trkpt>
<trkpt lat="48.76778" lon="10.70471"><ele>408</ele></trkpt>
<trkpt lat="48.76907" lon="10.70401"><ele>408</ele></trkpt>
<trkpt lat="48.76955" lon="10.70399"><ele>407</ele></trkpt>
<trkpt lat="48.76972" lon="10.70394"><ele>408</ele></trkpt>
<trkpt lat="48.77344" lon="10.70198"><ele>408</ele></trkpt>
<trkpt lat="48.77399" lon="10.70176"><ele>407</ele></trkpt>
<trkpt lat="48.77437" lon="10.70166"><ele>406</ele></trkpt>
<trkpt lat="48.77474" lon="10.70163"><ele>406</ele></trkpt>
<trkpt lat="48.77554" lon="10.70164"><ele>407</ele></trkpt>
<trkpt lat="48.77666" lon="10.70173"><ele>406</ele></trkpt>
<trkpt lat="48.77732" lon="10.70173"><ele>406</ele></trkpt>
<trkpt lat="48.77765" lon="10.70166"><ele>406</ele></trkpt>
<trkpt lat="48.77824" lon="10.70143"><ele>406</ele></trkpt>
<trkpt lat="48.77863" lon="10.70104"><ele>406</ele></trkpt>
<trkpt lat="48.77878" lon="10.70094"><ele>406</ele></trkpt>
<trkpt lat="48.77910" lon="10.70083"><ele>406</ele></trkpt>
<trkpt lat="48.77940" lon="10.70056"><ele>405</ele></trkpt>
<trkpt lat="48.77969" lon="10.70022"><ele>406</ele></trkpt>
<trkpt lat="48.78005" lon="10.69972"><ele>405</ele></trkpt>
<trkpt lat="48.78024" lon="10.69942"><ele>405</ele></trkpt>
<trkpt lat="48.78061" lon="10.69867"><ele>405</ele></trkpt>
<trkpt lat="48.78113" lon="10.69728"><ele>408</ele></trkpt>
<trkpt lat="48.78121" lon="10.69701"><ele>407</ele></trkpt>
<trkpt lat="48.78137" lon="10.69614"><ele>406</ele></trkpt>
<trkpt lat="48.78176" lon="10.69483"><ele>409</ele></trkpt>
<trkpt lat="48.78177" lon="10.69465"><ele>410</ele></trkpt>
<trkpt lat="48.78168" lon="10.69417"><ele>409</ele></trkpt>
<trkpt lat="48.78225" lon="10.69345"><ele>409</ele></trkpt>
<trkpt lat="48.78254" lon="10.69297"><ele>409</ele></trkpt>
<trkpt lat="48.78324" lon="10.69118"><ele>409</ele></trkpt>
<trkpt lat="48.78333" lon="10.69099"><ele>410</ele></trkpt>
<trkpt lat="48.78342" lon="10.69096"><ele>408</ele></trkpt>
<trkpt lat="48.78346" lon="10.69080"><ele>409</ele></trkpt>
<trkpt lat="48.78390" lon="10.69004"><ele>407</ele></trkpt>
<trkpt lat="48.78424" lon="10.68980"><ele>407</ele></trkpt>
<trkpt lat="48.78470" lon="10.68962"><ele>407</ele></trkpt>
<trkpt lat="48.78525" lon="10.68913"><ele>406</ele></trkpt>
<trkpt lat="48.78572" lon="10.68896"><ele>408</ele></trkpt>
<trkpt lat="48.78619" lon="10.68895"><ele>409</ele></trkpt>
<trkpt lat="48.78630" lon="10.68900"><ele>408</ele></trkpt>
<trkpt lat="48.78676" lon="10.68942"><ele>406</ele></trkpt>
<trkpt lat="48.78704" lon="10.68941"><ele>407</ele></trkpt>
<trkpt lat="48.78717" lon="10.68894"><ele>410</ele></trkpt>
<trkpt lat="48.78727" lon="10.68885"><ele>410</ele></trkpt>
<trkpt lat="48.78758" lon="10.68880"><ele>412</ele></trkpt>
<trkpt lat="48.78779" lon="10.68863"><ele>415</ele></trkpt>
<trkpt lat="48.78799" lon="10.68860"><ele>418</ele></trkpt>
<trkpt lat="48.78816" lon="10.68864"><ele>419</ele></trkpt>
<trkpt lat="48.78817" lon="10.68859"><ele>420</ele></trkpt>
<trkpt lat="48.78837" lon="10.68865"><ele>422</ele></trkpt>
<trkpt lat="48.78870" lon="10.68866"><ele>428</ele></trkpt>
<trkpt lat="48.78875" lon="10.68862"><ele>430</ele></trkpt>
<trkpt lat="48.78910" lon="10.68790"><ele>439</ele></trkpt>
<trkpt lat="48.78900" lon="10.68639"><ele>444</ele></trkpt>
<trkpt lat="48.78906" lon="10.68633"><ele>444</ele></trkpt>
<trkpt lat="48.78907" lon="10.68620"><ele>445</ele></trkpt>
<trkpt lat="48.78913" lon="10.68606"><ele>445</ele></trkpt>
<trkpt lat="48.78920" lon="10.68599"><ele>444</ele></trkpt>
<trkpt lat="48.78934" lon="10.68595"><ele>443</ele></trkpt>
<trkpt lat="48.78960" lon="10.68565"><ele>441</ele></trkpt>
<trkpt lat="48.78983" lon="10.68528"><ele>440</ele></trkpt>
<trkpt lat="48.79012" lon="10.68472"><ele>441</ele></trkpt>
<trkpt lat="48.79046" lon="10.68425"><ele>438</ele></trkpt>
<trkpt lat="48.79055" lon="10.68397"><ele>435</ele></trkpt>
<trkpt lat="48.79055" lon="10.68355"><ele>432</ele></trkpt>
<trkpt lat="48.79043" lon="10.68292"><ele>432</ele></trkpt>
<trkpt lat="48.79044" lon="10.68245"><ele>430</ele></trkpt>
<trkpt lat="48.79048" lon="10.68213"><ele>428</ele></trkpt>
<trkpt lat="48.79053" lon="10.68202"><ele>426</ele></trkpt>
<trkpt lat="48.79044" lon="10.68187"><ele>429</ele></trkpt>
<trkpt lat="48.79001" lon="10.68169"><ele>428</ele></trkpt>
<trkpt lat="48.78993" lon="10.68149"><ele>431</ele></trkpt>
<trkpt lat="48.78993" lon="10.68134"><ele>431</ele></trkpt>
<trkpt lat="48.79001" lon="10.68095"><ele>429</ele></trkpt>
<trkpt lat="48.79001" lon="10.68073"><ele>429</ele></trkpt>
<trkpt lat="48.78993" lon="10.67800"><ele>426</ele></trkpt>
<trkpt lat="48.78988" lon="10.67465"><ele>425</ele></trkpt>
<trkpt lat="48.78972" lon="10.67220"><ele>431</ele></trkpt>
<trkpt lat="48.78971" lon="10.67162"><ele>432</ele></trkpt>
<trkpt lat="48.78970" lon="10.67079"><ele>432</ele></trkpt>
<trkpt lat="48.78980" lon="10.67001"><ele>428</ele></trkpt>
<trkpt lat="48.78993" lon="10.66925"><ele>425</ele></trkpt>
<trkpt lat="48.79030" lon="10.66763"><ele>420</ele></trkpt>
<trkpt lat="48.79077" lon="10.66663"><ele>414</ele></trkpt>
<trkpt lat="48.79083" lon="10.66641"><ele>413</ele></trkpt>
<trkpt lat="48.79138" lon="10.66559"><ele>410</ele></trkpt>
<trkpt lat="48.79189" lon="10.66492"><ele>409</ele></trkpt>
<trkpt lat="48.79267" lon="10.66403"><ele>408</ele></trkpt>
<trkpt lat="48.79478" lon="10.66179"><ele>410</ele></trkpt>
<trkpt lat="48.79562" lon="10.66078"><ele>411</ele></trkpt>
<trkpt lat="48.79591" lon="10.66038"><ele>412</ele></trkpt>
<trkpt lat="48.79627" lon="10.65973"><ele>413</ele></trkpt>
<trkpt lat="48.79660" lon="10.65903"><ele>414</ele></trkpt>
<trkpt lat="48.79662" lon="10.65867"><ele>414</ele></trkpt>
<trkpt lat="48.79673" lon="10.65844"><ele>414</ele></trkpt>
<trkpt lat="48.79696" lon="10.65826"><ele>414</ele></trkpt>
<trkpt lat="48.79728" lon="10.65734"><ele>413</ele></trkpt>
<trkpt lat="48.79751" lon="10.65654"><ele>413</ele></trkpt>
<trkpt lat="48.79765" lon="10.65584"><ele>414</ele></trkpt>
<trkpt lat="48.79781" lon="10.65484"><ele>414</ele></trkpt>
<trkpt lat="48.79792" lon="10.65377"><ele>416</ele></trkpt>
<trkpt lat="48.79787" lon="10.65357"><ele>416</ele></trkpt>
<trkpt lat="48.79750" lon="10.65290"><ele>417</ele></trkpt>
<trkpt lat="48.79749" lon="10.65265"><ele>417</ele></trkpt>
<trkpt lat="48.79752" lon="10.65252"><ele>418</ele></trkpt>
<trkpt lat="48.79776" lon="10.65273"><ele>417</ele></trkpt>
<trkpt lat="48.79781" lon="10.65260"><ele>417</ele></trkpt>
<trkpt lat="48.79800" lon="10.65252"><ele>416</ele></trkpt>
<trkpt lat="48.79804" lon="10.65235"><ele>416</ele></trkpt>
<trkpt lat="48.79823" lon="10.64995"><ele>420</ele></trkpt>
<trkpt lat="48.79852" lon="10.64526"><ele>428</ele></trkpt>
<trkpt lat="48.79912" lon="10.63763"><ele>425</ele></trkpt>
<trkpt lat="48.79906" lon="10.63744"><ele>424</ele></trkpt>
<trkpt lat="48.79894" lon="10.63738"><ele>423</ele></trkpt>
<trkpt lat="48.79738" lon="10.63782"><ele>426</ele></trkpt>
<trkpt lat="48.79727" lon="10.63787"><ele>426</ele></trkpt>
<trkpt lat="48.79716" lon="10.63802"><ele>426</ele></trkpt>
<trkpt lat="48.79707" lon="10.63805"><ele>426</ele></trkpt>
<trkpt lat="48.79699" lon="10.63764"><ele>426</ele></trkpt>
<trkpt lat="48.79705" lon="10.63748"><ele>426</ele></trkpt>
<trkpt lat="48.79726" lon="10.63746"><ele>425</ele></trkpt>
<trkpt lat="48.79789" lon="10.63721"><ele>424</ele></trkpt>
<trkpt lat="48.79803" lon="10.63710"><ele>423</ele></trkpt>
<trkpt lat="48.79810" lon="10.63697"><ele>423</ele></trkpt>
<trkpt lat="48.79812" lon="10.63682"><ele>422</ele></trkpt>
<trkpt lat="48.79807" lon="10.63636"><ele>422</ele></trkpt>
<trkpt lat="48.79810" lon="10.63597"><ele>422</ele></trkpt>
<trkpt lat="48.79816" lon="10.63562"><ele>421</ele></trkpt>
<trkpt lat="48.79835" lon="10.63512"><ele>420</ele></trkpt>
<trkpt lat="48.79837" lon="10.63501"><ele>420</ele></trkpt>
<trkpt lat="48.79841" lon="10.63258"><ele>418</ele></trkpt>
<trkpt lat="48.79819" lon="10.62860"><ele>419</ele></trkpt>
<trkpt lat="48.80001" lon="10.62840"><ele>418</ele></trkpt>
<trkpt lat="48.80014" lon="10.62763"><ele>418</ele></trkpt>
<trkpt lat="48.80042" lon="10.62535"><ele>419</ele></trkpt>
<trkpt lat="48.80100" lon="10.61953"><ele>418</ele></trkpt>
<trkpt lat="48.80135" lon="10.61648"><ele>418</ele></trkpt>
<trkpt lat="48.80195" lon="10.61056"><ele>418</ele></trkpt>
<trkpt lat="48.80196" lon="10.61043"><ele>418</ele></trkpt>
<trkpt lat="48.80180" lon="10.61006"><ele>418</ele></trkpt>
<trkpt lat="48.80178" lon="10.60984"><ele>418</ele></trkpt>
<trkpt lat="48.80185" lon="10.60969"><ele>417</ele></trkpt>
<trkpt lat="48.80201" lon="10.60957"><ele>417</ele></trkpt>
<trkpt lat="48.80207" lon="10.60943"><ele>418</ele></trkpt>
<trkpt lat="48.80246" lon="10.60685"><ele>415</ele></trkpt>
<trkpt lat="48.80278" lon="10.60554"><ele>413</ele></trkpt>
<trkpt lat="48.80310" lon="10.60462"><ele>412</ele></trkpt>
<trkpt lat="48.80351" lon="10.60364"><ele>413</ele></trkpt>
<trkpt lat="48.80431" lon="10.60190"><ele>412</ele></trkpt>
<trkpt lat="48.80439" lon="10.60185"><ele>412</ele></trkpt>
<trkpt lat="48.80532" lon="10.59983"><ele>412</ele></trkpt>
<trkpt lat="48.80593" lon="10.59836"><ele>414</ele></trkpt>
<trkpt lat="48.80646" lon="10.59725"><ele>414</ele></trkpt>
<trkpt lat="48.80707" lon="10.59586"><ele>416</ele></trkpt>
<trkpt lat="48.80979" lon="10.58908"><ele>414</ele></trkpt>
<trkpt lat="48.80988" lon="10.58895"><ele>414</ele></trkpt>
<trkpt lat="48.81038" lon="10.58770"><ele>413</ele></trkpt>
<trkpt lat="48.81047" lon="10.58765"><ele>413</ele></trkpt>
<trkpt lat="48.81120" lon="10.58580"><ele>414</ele></trkpt>
<trkpt lat="48.81211" lon="10.58377"><ele>417</ele></trkpt>
<trkpt lat="48.81217" lon="10.58361"><ele>418</ele></trkpt>
<trkpt lat="48.81208" lon="10.58352"><ele>417</ele></trkpt>
<trkpt lat="48.81250" lon="10.58244"><ele>418</ele></trkpt>
<trkpt lat="48.81547" lon="10.57496"><ele>420</ele></trkpt>
<trkpt lat="48.81613" lon="10.57322"><ele>421</ele></trkpt>
<trkpt lat="48.81709" lon="10.57086"><ele>421</ele></trkpt>
<trkpt lat="48.82064" lon="10.56189"><ele>420</ele></trkpt>
<trkpt lat="48.82140" lon="10.55991"><ele>418</ele></trkpt>
<trkpt lat="48.82277" lon="10.55655"><ele>418</ele></trkpt>
<trkpt lat="48.82290" lon="10.55616"><ele>417</ele></trkpt>
<trkpt lat="48.82291" lon="10.55599"><ele>417</ele></trkpt>
<trkpt lat="48.82285" lon="10.55558"><ele>417</ele></trkpt>
<trkpt lat="48.82287" lon="10.55497"><ele>417</ele></trkpt>
<trkpt lat="48.82303" lon="10.55292"><ele>418</ele></trkpt>
<trkpt lat="48.82337" lon="10.55331"><ele>418</ele></trkpt>
<trkpt lat="48.82342" lon="10.55325"><ele>417</ele></trkpt>
<trkpt lat="48.82377" lon="10.55360"><ele>418</ele></trkpt>
<trkpt lat="48.82388" lon="10.55356"><ele>418</ele></trkpt>
<trkpt lat="48.82405" lon="10.55326"><ele>418</ele></trkpt>
<trkpt lat="48.82496" lon="10.55097"><ele>419</ele></trkpt>
<trkpt lat="48.82625" lon="10.54755"><ele>421</ele></trkpt>
<trkpt lat="48.82626" lon="10.54747"><ele>421</ele></trkpt>
<trkpt lat="48.82619" lon="10.54680"><ele>422</ele></trkpt>
<trkpt lat="48.82651" lon="10.54673"><ele>421</ele></trkpt>
<trkpt lat="48.82665" lon="10.54653"><ele>422</ele></trkpt>
<trkpt lat="48.83173" lon="10.53402"><ele>422</ele></trkpt>
<trkpt lat="48.83199" lon="10.53331"><ele>422</ele></trkpt>
<trkpt lat="48.83196" lon="10.53298"><ele>421</ele></trkpt>
<trkpt lat="48.83212" lon="10.53305"><ele>423</ele></trkpt>
<trkpt lat="48.83236" lon="10.53330"><ele>422</ele></trkpt>
<trkpt lat="48.83287" lon="10.53202"><ele>422</ele></trkpt>
<trkpt lat="48.83329" lon="10.53106"><ele>422</ele></trkpt>
<trkpt lat="48.83379" lon="10.52965"><ele>424</ele></trkpt>
<trkpt lat="48.83575" lon="10.52475"><ele>424</ele></trkpt>
<trkpt lat="48.83583" lon="10.52467"><ele>424</ele></trkpt>
<trkpt lat="48.83588" lon="10.52468"><ele>424</ele></trkpt>
<trkpt lat="48.83611" lon="10.52481"><ele>424</ele></trkpt>
<trkpt lat="48.83691" lon="10.52573"><ele>422</ele></trkpt>
<trkpt lat="48.83731" lon="10.52527"><ele>422</ele></trkpt>
<trkpt lat="48.83743" lon="10.52509"><ele>422</ele></trkpt>
<trkpt lat="48.83749" lon="10.52491"><ele>421</ele></trkpt>
<trkpt lat="48.83751" lon="10.52453"><ele>421</ele></trkpt>
<trkpt lat="48.83769" lon="10.52444"><ele>422</ele></trkpt>
<trkpt lat="48.83784" lon="10.52416"><ele>422</ele></trkpt>
<trkpt lat="48.83900" lon="10.52116"><ele>423</ele></trkpt>
<trkpt lat="48.83959" lon="10.51954"><ele>425</ele></trkpt>
<trkpt lat="48.83967" lon="10.51918"><ele>425</ele></trkpt>
<trkpt lat="48.83964" lon="10.51867"><ele>425</ele></trkpt>
<trkpt lat="48.83951" lon="10.51810"><ele>427</ele></trkpt>
<trkpt lat="48.83932" lon="10.51694"><ele>426</ele></trkpt>
<trkpt lat="48.83927" lon="10.51646"><ele>427</ele></trkpt>
<trkpt lat="48.83929" lon="10.51603"><ele>428</ele></trkpt>
<trkpt lat="48.83941" lon="10.51548"><ele>427</ele></trkpt>
<trkpt lat="48.83952" lon="10.51512"><ele>428</ele></trkpt>
<trkpt lat="48.84138" lon="10.51038"><ele>430</ele></trkpt>
<trkpt lat="48.84187" lon="10.50919"><ele>430</ele></trkpt>
<trkpt lat="48.84199" lon="10.50899"><ele>430</ele></trkpt>
<trkpt lat="48.84220" lon="10.50839"><ele>430</ele></trkpt>
<trkpt lat="48.84281" lon="10.50687"><ele>430</ele></trkpt>
<trkpt lat="48.84293" lon="10.50670"><ele>431</ele></trkpt>
<trkpt lat="48.84300" lon="10.50635"><ele>431</ele></trkpt>
<trkpt lat="48.84360" lon="10.50484"><ele>431</ele></trkpt>
<trkpt lat="48.84374" lon="10.50451"><ele>431</ele></trkpt>
<trkpt lat="48.84386" lon="10.50434"><ele>431</ele></trkpt>
<trkpt lat="48.84408" lon="10.50420"><ele>432</ele></trkpt>
<trkpt lat="48.84414" lon="10.50410"><ele>432</ele></trkpt>
<trkpt lat="48.84410" lon="10.50409"><ele>432</ele></trkpt>
<trkpt lat="48.84399" lon="10.50389"><ele>432</ele></trkpt>
<trkpt lat="48.84400" lon="10.50355"><ele>432</ele></trkpt>
<trkpt lat="48.84471" lon="10.50171"><ele>432</ele></trkpt>
<trkpt lat="48.84419" lon="10.50106"><ele>432</ele></trkpt>
<trkpt lat="48.84475" lon="10.49950"><ele>432</ele></trkpt>
<trkpt lat="48.84477" lon="10.49940"><ele>432</ele></trkpt>
<trkpt lat="48.84475" lon="10.49853"><ele>432</ele></trkpt>
<trkpt lat="48.84468" lon="10.49817"><ele>432</ele></trkpt>
<trkpt lat="48.84424" lon="10.49674"><ele>433</ele></trkpt>
<trkpt lat="48.84372" lon="10.49488"><ele>435</ele></trkpt>
<trkpt lat="48.84510" lon="10.49399"><ele>434</ele></trkpt>
<trkpt lat="48.84558" lon="10.49372"><ele>434</ele></trkpt>
<trkpt lat="48.84562" lon="10.49381"><ele>434</ele></trkpt>
<trkpt lat="48.84720" lon="10.49289"><ele>435</ele></trkpt>
<trkpt lat="48.84743" lon="10.49289"><ele>436</ele></trkpt>
<trkpt lat="48.84813" lon="10.49350"><ele>436</ele></trkpt>
<trkpt lat="48.84848" lon="10.49253"><ele>437</ele></trkpt>
<trkpt lat="48.84877" lon="10.49186"><ele>436</ele></trkpt>
<trkpt lat="48.84935" lon="10.49021"><ele>435</ele></trkpt>
<trkpt lat="48.84954" lon="10.48988"><ele>435</ele></trkpt>
<trkpt lat="48.84985" lon="10.48945"><ele>434</ele></trkpt>
<trkpt lat="48.84992" lon="10.48931"><ele>433</ele></trkpt>
<trkpt lat="48.85021" lon="10.48786"><ele>432</ele></trkpt>
<trkpt lat="48.85083" lon="10.48811"><ele>432</ele></trkpt>
<trkpt lat="48.85099" lon="10.48819"><ele>432</ele></trkpt>
<trkpt lat="48.85100" lon="10.48826"><ele>432</ele></trkpt>
<trkpt lat="48.85116" lon="10.48833"><ele>431</ele></trkpt>
<trkpt lat="48.85162" lon="10.48821"><ele>432</ele></trkpt>
<trkpt lat="48.85187" lon="10.48810"><ele>430</ele></trkpt>
<trkpt lat="48.85267" lon="10.48746"><ele>428</ele></trkpt>
<trkpt lat="48.85317" lon="10.48633"><ele>427</ele></trkpt>
<trkpt lat="48.85353" lon="10.48542"><ele>428</ele></trkpt>
<trkpt lat="48.85363" lon="10.48533"><ele>428</ele></trkpt>
<trkpt lat="48.85374" lon="10.48512"><ele>428</ele></trkpt>
<trkpt lat="48.85384" lon="10.48491"><ele>428</ele></trkpt>
<trkpt lat="48.85386" lon="10.48478"><ele>428</ele></trkpt>
<trkpt lat="48.85481" lon="10.48279"><ele>428</ele></trkpt>
<trkpt lat="48.85677" lon="10.47798"><ele>428</ele></trkpt>
<trkpt lat="48.85746" lon="10.47647"><ele>427</ele></trkpt>
<trkpt lat="48.85782" lon="10.47575"><ele>427</ele></trkpt>
<trkpt lat="48.85847" lon="10.47484"><ele>428</ele></trkpt>
<trkpt lat="48.85907" lon="10.47376"><ele>429</ele></trkpt>
<trkpt lat="48.85965" lon="10.47305"><ele>430</ele></trkpt>
<trkpt lat="48.86010" lon="10.47229"><ele>430</ele></trkpt>
<trkpt lat="48.86057" lon="10.47162"><ele>430</ele></trkpt>
<trkpt lat="48.86074" lon="10.47156"><ele>431</ele></trkpt>
<trkpt lat="48.86105" lon="10.47155"><ele>431</ele></trkpt>
<trkpt lat="48.86186" lon="10.47205"><ele>432</ele></trkpt>
<trkpt lat="48.86224" lon="10.47220"><ele>433</ele></trkpt>
<trkpt lat="48.86315" lon="10.47239"><ele>433</ele></trkpt>
<trkpt lat="48.86487" lon="10.47265"><ele>430</ele></trkpt>
<trkpt lat="48.86661" lon="10.47282"><ele>431</ele></trkpt>
<trkpt lat="48.86830" lon="10.47311"><ele>431</ele></trkpt>
<trkpt lat="48.86901" lon="10.47331"><ele>430</ele></trkpt>
<trkpt lat="48.86908" lon="10.47339"><ele>430</ele></trkpt>
<trkpt lat="48.86916" lon="10.47362"><ele>431</ele></trkpt>
<trkpt lat="48.86944" lon="10.47372"><ele>430</ele></trkpt>
<trkpt lat="48.86962" lon="10.47356"><ele>430</ele></trkpt>
<trkpt lat="48.86976" lon="10.47353"><ele>430</ele></trkpt>
<trkpt lat="48.87164" lon="10.47420"><ele>432</ele></trkpt>
<trkpt lat="48.87359" lon="10.47471"><ele>429</ele></trkpt>
<trkpt lat="48.87392" lon="10.47478"><ele>428</ele></trkpt>
<trkpt lat="48.87491" lon="10.47473"><ele>428</ele></trkpt>
<trkpt lat="48.87494" lon="10.47460"><ele>428</ele></trkpt>
<trkpt lat="48.87524" lon="10.47469"><ele>428</ele></trkpt>
<trkpt lat="48.87579" lon="10.47499"><ele>430</ele></trkpt>
<trkpt lat="48.87593" lon="10.47500"><ele>430</ele></trkpt>
<trkpt lat="48.87609" lon="10.47492"><ele>430</ele></trkpt>
<trkpt lat="48.87658" lon="10.47429"><ele>432</ele></trkpt>
<trkpt lat="48.87678" lon="10.47419"><ele>433</ele></trkpt>
<trkpt lat="48.87738" lon="10.47407"><ele>434</ele></trkpt>
<trkpt lat="48.87781" lon="10.47388"><ele>434</ele></trkpt>
<trkpt lat="48.87783" lon="10.47373"><ele>434</ele></trkpt>
<trkpt lat="48.87855" lon="10.47365"><ele>436</ele></trkpt>
<trkpt lat="48.87961" lon="10.47366"><ele>435</ele></trkpt>
<trkpt lat="48.88060" lon="10.47393"><ele>433</ele></trkpt>
<trkpt lat="48.88144" lon="10.47428"><ele>432</ele></trkpt>
<trkpt lat="48.88244" lon="10.47505"><ele>430</ele></trkpt>
<trkpt lat="48.88337" lon="10.47570"><ele>432</ele></trkpt>
<trkpt lat="48.88395" lon="10.47604"><ele>434</ele></trkpt>
<trkpt lat="48.88394" lon="10.47618"><ele>434</ele></trkpt>
<trkpt lat="48.88482" lon="10.47641"><ele>436</ele></trkpt>
<trkpt lat="48.88524" lon="10.47670"><ele>437</ele></trkpt>
<trkpt lat="48.88557" lon="10.47682"><ele>436</ele></trkpt>
<trkpt lat="48.88648" lon="10.47702"><ele>439</ele></trkpt>
<trkpt lat="48.88695" lon="10.47698"><ele>440</ele></trkpt>
<trkpt lat="48.88701" lon="10.47691"><ele>440</ele></trkpt>
<trkpt lat="48.88729" lon="10.47623"><ele>444</ele></trkpt>
<trkpt lat="48.88776" lon="10.47645"><ele>444</ele></trkpt>
<trkpt lat="48.88921" lon="10.47651"><ele>449</ele></trkpt>
<trkpt lat="48.88937" lon="10.47659"><ele>449</ele></trkpt>
<trkpt lat="48.88959" lon="10.47679"><ele>449</ele></trkpt>
<trkpt lat="48.88982" lon="10.47689"><ele>449</ele></trkpt>
<trkpt lat="48.89093" lon="10.47705"><ele>446</ele></trkpt>
<trkpt lat="48.89285" lon="10.47765"><ele>440</ele></trkpt>
<trkpt lat="48.89286" lon="10.47754"><ele>440</ele></trkpt>
<trkpt lat="48.89352" lon="10.47771"><ele>439</ele></trkpt>
<trkpt lat="48.89443" lon="10.47784"><ele>437</ele></trkpt>
<trkpt lat="48.89557" lon="10.47790"><ele>433</ele></trkpt>
<trkpt lat="48.89711" lon="10.47788"><ele>428</ele></trkpt>
<trkpt lat="48.89742" lon="10.47797"><ele>428</ele></trkpt>
<trkpt lat="48.89763" lon="10.47814"><ele>428</ele></trkpt>
<trkpt lat="48.89778" lon="10.47834"><ele>428</ele></trkpt>
<trkpt lat="48.89790" lon="10.47871"><ele>429</ele></trkpt>
<trkpt lat="48.89786" lon="10.47878"><ele>430</ele></trkpt>
<trkpt lat="48.89791" lon="10.47918"><ele>428</ele></trkpt>
<trkpt lat="48.89806" lon="10.47921"><ele>427</ele></trkpt>
<trkpt lat="48.89843" lon="10.47916"><ele>428</ele></trkpt>
<trkpt lat="48.89850" lon="10.47918"><ele>428</ele></trkpt>
<trkpt lat="48.89862" lon="10.47936"><ele>428</ele></trkpt>
<trkpt lat="48.89867" lon="10.47954"><ele>428</ele></trkpt>
<trkpt lat="48.89894" lon="10.48147"><ele>428</ele></trkpt>
<trkpt lat="48.89918" lon="10.48389"><ele>427</ele></trkpt>
<trkpt lat="48.89931" lon="10.48666"><ele>428</ele></trkpt>
<trkpt lat="48.90017" lon="10.48661"><ele>432</ele></trkpt>
<trkpt lat="48.90035" lon="10.48672"><ele>433</ele></trkpt>
<trkpt lat="48.90048" lon="10.48661"><ele>434</ele></trkpt>
<trkpt lat="48.90136" lon="10.48661"><ele>437</ele></trkpt>
<trkpt lat="48.90130" lon="10.48711"><ele>437</ele></trkpt>
<trkpt lat="48.90120" lon="10.48762"><ele>437</ele></trkpt>
<trkpt lat="48.90075" lon="10.48886"><ele>436</ele></trkpt>
<trkpt lat="48.90104" lon="10.48887"><ele>436</ele></trkpt>
<trkpt lat="48.90099" lon="10.49254"><ele>435</ele></trkpt>
<trkpt lat="48.90155" lon="10.49261"><ele>435</ele></trkpt>
<trkpt lat="48.90322" lon="10.49252"><ele>433</ele></trkpt>
<trkpt lat="48.90439" lon="10.49234"><ele>433</ele></trkpt>
<trkpt lat="48.90450" lon="10.49240"><ele>433</ele></trkpt>
<trkpt lat="48.90519" lon="10.49236"><ele>434</ele></trkpt>
<trkpt lat="48.90679" lon="10.49257"><ele>435</ele></trkpt>
<trkpt lat="48.90781" lon="10.49254"><ele>433</ele></trkpt>
<trkpt lat="48.90954" lon="10.49223"><ele>430</ele></trkpt>
<trkpt lat="48.90968" lon="10.49217"><ele>430</ele></trkpt>
<trkpt lat="48.91435" lon="10.49153"><ele>426</ele></trkpt>
<trkpt lat="48.91494" lon="10.49153"><ele>426</ele></trkpt>
<trkpt lat="48.91656" lon="10.49217"><ele>426</ele></trkpt>
<trkpt lat="48.91722" lon="10.49229"><ele>426</ele></trkpt>
<trkpt lat="48.91892" lon="10.49244"><ele>428</ele></trkpt>
<trkpt lat="48.92026" lon="10.49250"><ele>433</ele></trkpt>
<trkpt lat="48.92120" lon="10.49245"><ele>437</ele></trkpt>
<trkpt lat="48.92188" lon="10.49251"><ele>439</ele></trkpt>
<trkpt lat="48.92245" lon="10.49264"><ele>441</ele></trkpt>
<trkpt lat="48.92271" lon="10.49256"><ele>442</ele></trkpt>
<trkpt lat="48.92297" lon="10.49275"><ele>440</ele></trkpt>
<trkpt lat="48.92415" lon="10.49305"><ele>434</ele></trkpt>
<trkpt lat="48.92459" lon="10.49323"><ele>433</ele></trkpt>
<trkpt lat="48.92658" lon="10.49431"><ele>428</ele></trkpt>
<trkpt lat="48.92688" lon="10.49441"><ele>428</ele></trkpt>
<trkpt lat="48.92726" lon="10.49445"><ele>428</ele></trkpt>
<trkpt lat="48.92805" lon="10.49436"><ele>428</ele></trkpt>
<trkpt lat="48.92814" lon="10.49441"><ele>428</ele></trkpt>
<trkpt lat="48.92824" lon="10.49435"><ele>428</ele></trkpt>
<trkpt lat="48.92826" lon="10.49376"><ele>428</ele></trkpt>
<trkpt lat="48.92830" lon="10.49351"><ele>428</ele></trkpt>
<trkpt lat="48.92875" lon="10.49202"><ele>428</ele></trkpt>
<trkpt lat="48.92883" lon="10.49158"><ele>429</ele></trkpt>
<trkpt lat="48.92887" lon="10.49104"><ele>429</ele></trkpt>
<trkpt lat="48.92902" lon="10.49107"><ele>428</ele></trkpt>
<trkpt lat="48.92910" lon="10.49112"><ele>428</ele></trkpt>
<trkpt lat="48.92945" lon="10.49153"><ele>428</ele></trkpt>
<trkpt lat="48.92955" lon="10.49134"><ele>431</ele></trkpt>
<trkpt lat="48.92958" lon="10.49095"><ele>431</ele></trkpt>
<trkpt lat="48.92969" lon="10.49054"><ele>430</ele></trkpt>
<trkpt lat="48.92977" lon="10.49045"><ele>431</ele></trkpt>
<trkpt lat="48.93013" lon="10.48962"><ele>434</ele></trkpt>
<trkpt lat="48.93033" lon="10.48933"><ele>432</ele></trkpt>
<trkpt lat="48.93091" lon="10.48877"><ele>432</ele></trkpt>
<trkpt lat="48.93213" lon="10.48823"><ele>436</ele></trkpt>
<trkpt lat="48.93255" lon="10.48787"><ele>432</ele></trkpt>
<trkpt lat="48.93346" lon="10.48665"><ele>433</ele></trkpt>
<trkpt lat="48.93369" lon="10.48624"><ele>433</ele></trkpt>
<trkpt lat="48.93413" lon="10.48530"><ele>432</ele></trkpt>
<trkpt lat="48.93409" lon="10.48497"><ele>430</ele></trkpt>
<trkpt lat="48.93394" lon="10.48463"><ele>430</ele></trkpt>
<trkpt lat="48.93376" lon="10.48430"><ele>432</ele></trkpt>
<trkpt lat="48.93370" lon="10.48396"><ele>433</ele></trkpt>
<trkpt lat="48.93423" lon="10.48320"><ele>437</ele></trkpt>
<trkpt lat="48.93495" lon="10.48236"><ele>436</ele></trkpt>
<trkpt lat="48.93503" lon="10.48222"><ele>437</ele></trkpt>
<trkpt lat="48.93515" lon="10.48176"><ele>439</ele></trkpt>
<trkpt lat="48.93522" lon="10.48167"><ele>439</ele></trkpt>
<trkpt lat="48.93615" lon="10.48125"><ele>437</ele></trkpt>
<trkpt lat="48.93686" lon="10.48085"><ele>436</ele></trkpt>
<trkpt lat="48.93710" lon="10.48065"><ele>436</ele></trkpt>
<trkpt lat="48.93736" lon="10.48031"><ele>436</ele></trkpt>
<trkpt lat="48.93753" lon="10.47991"><ele>435</ele></trkpt>
<trkpt lat="48.93755" lon="10.47974"><ele>436</ele></trkpt>
<trkpt lat="48.93746" lon="10.47925"><ele>436</ele></trkpt>
<trkpt lat="48.93786" lon="10.47918"><ele>434</ele></trkpt>
<trkpt lat="48.93811" lon="10.47903"><ele>434</ele></trkpt>
<trkpt lat="48.93832" lon="10.47881"><ele>434</ele></trkpt>
<trkpt lat="48.93816" lon="10.47804"><ele>436</ele></trkpt>
<trkpt lat="48.93811" lon="10.47754"><ele>436</ele></trkpt>
<trkpt lat="48.93832" lon="10.47612"><ele>438</ele></trkpt>
<trkpt lat="48.93840" lon="10.47542"><ele>438</ele></trkpt>
<trkpt lat="48.93843" lon="10.47385"><ele>439</ele></trkpt>
<trkpt lat="48.93854" lon="10.47326"><ele>440</ele></trkpt>
<trkpt lat="48.93975" lon="10.47042"><ele>445</ele></trkpt>
<trkpt lat="48.94059" lon="10.46918"><ele>446</ele></trkpt>
<trkpt lat="48.94148" lon="10.46672"><ele>448</ele></trkpt>
<trkpt lat="48.94176" lon="10.46613"><ele>450</ele></trkpt>
<trkpt lat="48.94220" lon="10.46537"><ele>450</ele></trkpt>
<trkpt lat="48.94288" lon="10.46591"><ele>451</ele></trkpt>
<trkpt lat="48.94317" lon="10.46601"><ele>451</ele></trkpt>
<trkpt lat="48.94373" lon="10.46602"><ele>452</ele></trkpt>
<trkpt lat="48.94524" lon="10.46588"><ele>462</ele></trkpt>
<trkpt lat="48.94559" lon="10.46594"><ele>464</ele></trkpt>
<trkpt lat="48.94618" lon="10.46639"><ele>468</ele></trkpt>
<trkpt lat="48.94674" lon="10.46703"><ele>468</ele></trkpt>
<trkpt lat="48.94852" lon="10.46842"><ele>456</ele></trkpt>
<trkpt lat="48.95047" lon="10.47044"><ele>458</ele></trkpt>
<trkpt lat="48.95125" lon="10.47111"><ele>453</ele></trkpt>
<trkpt lat="48.95163" lon="10.47136"><ele>451</ele></trkpt>
<trkpt lat="48.95200" lon="10.47143"><ele>450</ele></trkpt>
<trkpt lat="48.95216" lon="10.47140"><ele>449</ele></trkpt>
<trkpt lat="48.95325" lon="10.47100"><ele>442</ele></trkpt>
<trkpt lat="48.95336" lon="10.47100"><ele>441</ele></trkpt>
<trkpt lat="48.95351" lon="10.47108"><ele>441</ele></trkpt>
<trkpt lat="48.95358" lon="10.47119"><ele>440</ele></trkpt>
<trkpt lat="48.95363" lon="10.47137"><ele>440</ele></trkpt>
<trkpt lat="48.95367" lon="10.47190"><ele>440</ele></trkpt>
<trkpt lat="48.95401" lon="10.47189"><ele>440</ele></trkpt>
<trkpt lat="48.95440" lon="10.47204"><ele>442</ele></trkpt>
<trkpt lat="48.95454" lon="10.47202"><ele>443</ele></trkpt>
<trkpt lat="48.95530" lon="10.47165"><ele>446</ele></trkpt>
<trkpt lat="48.95601" lon="10.47081"><ele>446</ele></trkpt>
<trkpt lat="48.95660" lon="10.47053"><ele>446</ele></trkpt>
<trkpt lat="48.95711" lon="10.47034"><ele>445</ele></trkpt>
<trkpt lat="48.95771" lon="10.47020"><ele>444</ele></trkpt>
<trkpt lat="48.95825" lon="10.47017"><ele>442</ele></trkpt>
<trkpt lat="48.95868" lon="10.47010"><ele>440</ele></trkpt>
<trkpt lat="48.95924" lon="10.46984"><ele>438</ele></trkpt>
<trkpt lat="48.95952" lon="10.46952"><ele>439</ele></trkpt>
<trkpt lat="48.96097" lon="10.46721"><ele>449</ele></trkpt>
<trkpt lat="48.96142" lon="10.46661"><ele>452</ele></trkpt>
<trkpt lat="48.96195" lon="10.46608"><ele>454</ele></trkpt>
<trkpt lat="48.96584" lon="10.46298"><ele>452</ele></trkpt>
<trkpt lat="48.96641" lon="10.46246"><ele>452</ele></trkpt>
<trkpt lat="48.96675" lon="10.46209"><ele>453</ele></trkpt>
<trkpt lat="48.96854" lon="10.45990"><ele>454</ele></trkpt>
<trkpt lat="48.96874" lon="10.45963"><ele>454</ele></trkpt>
<trkpt lat="48.96900" lon="10.45910"><ele>454</ele></trkpt>
<trkpt lat="48.96996" lon="10.45666"><ele>450</ele></trkpt>
<trkpt lat="48.97007" lon="10.45646"><ele>450</ele></trkpt>
<trkpt lat="48.97019" lon="10.45639"><ele>450</ele></trkpt>
<trkpt lat="48.97030" lon="10.45665"><ele>449</ele></trkpt>
<trkpt lat="48.97067" lon="10.45712"><ele>446</ele></trkpt>
<trkpt lat="48.97108" lon="10.45751"><ele>445</ele></trkpt>
<trkpt lat="48.97194" lon="10.45806"><ele>445</ele></trkpt>
<trkpt lat="48.97215" lon="10.45757"><ele>444</ele></trkpt>
<trkpt lat="48.97250" lon="10.45691"><ele>444</ele></trkpt>
<trkpt lat="48.97294" lon="10.45626"><ele>445</ele></trkpt>
<trkpt lat="48.97324" lon="10.45588"><ele>446</ele></trkpt>
<trkpt lat="48.97397" lon="10.45517"><ele>446</ele></trkpt>
<trkpt lat="48.97437" lon="10.45488"><ele>446</ele></trkpt>
<trkpt lat="48.97504" lon="10.45451"><ele>447</ele></trkpt>
<trkpt lat="48.97493" lon="10.45389"><ele>445</ele></trkpt>
<trkpt lat="48.97495" lon="10.45209"><ele>447</ele></trkpt>
<trkpt lat="48.97601" lon="10.45213"><ele>447</ele></trkpt>
<trkpt lat="48.97623" lon="10.45219"><ele>447</ele></trkpt>
<trkpt lat="48.97661" lon="10.45216"><ele>447</ele></trkpt>
<trkpt lat="48.97681" lon="10.45203"><ele>447</ele></trkpt>
<trkpt lat="48.97731" lon="10.45147"><ele>448</ele></trkpt>
<trkpt lat="48.97766" lon="10.45097"><ele>448</ele></trkpt>
<trkpt lat="48.97814" lon="10.45021"><ele>449</ele></trkpt>
<trkpt lat="48.97845" lon="10.44959"><ele>449</ele></trkpt>
<trkpt lat="48.97913" lon="10.44719"><ele>450</ele></trkpt>
<trkpt lat="48.98111" lon="10.44342"><ele>450</ele></trkpt>
<trkpt lat="48.98133" lon="10.44318"><ele>450</ele></trkpt>
<trkpt lat="48.98202" lon="10.44142"><ele>451</ele></trkpt>
<trkpt lat="48.98237" lon="10.44077"><ele>452</ele></trkpt>
<trkpt lat="48.98267" lon="10.44041"><ele>452</ele></trkpt>
<trkpt lat="48.98377" lon="10.43930"><ele>452</ele></trkpt>
<trkpt lat="48.98425" lon="10.43862"><ele>453</ele></trkpt>
<trkpt lat="48.98446" lon="10.43818"><ele>453</ele></trkpt>
<trkpt lat="48.98467" lon="10.43765"><ele>454</ele></trkpt>
<trkpt lat="48.98466" lon="10.43755"><ele>454</ele></trkpt>
<trkpt lat="48.98436" lon="10.43726"><ele>455</ele></trkpt>
<trkpt lat="48.98371" lon="10.43690"><ele>458</ele></trkpt>
<trkpt lat="48.98360" lon="10.43680"><ele>459</ele></trkpt>
<trkpt lat="48.98422" lon="10.43524"><ele>460</ele></trkpt>
<trkpt lat="48.98441" lon="10.43479"><ele>460</ele></trkpt>
<trkpt lat="48.98468" lon="10.43431"><ele>460</ele></trkpt>
<trkpt lat="48.98504" lon="10.43378"><ele>459</ele></trkpt>
<trkpt lat="48.98631" lon="10.43251"><ele>460</ele></trkpt>
<trkpt lat="48.98673" lon="10.43193"><ele>462</ele></trkpt>
<trkpt lat="48.98702" lon="10.43137"><ele>463</ele></trkpt>
<trkpt lat="48.98723" lon="10.43084"><ele>464</ele></trkpt>
<trkpt lat="48.98743" lon="10.43018"><ele>465</ele></trkpt>
<trkpt lat="48.98762" lon="10.42933"><ele>467</ele></trkpt>
<trkpt lat="48.98787" lon="10.42766"><ele>469</ele></trkpt>
<trkpt lat="48.98793" lon="10.42768"><ele>469</ele></trkpt>
<trkpt lat="48.98805" lon="10.42692"><ele>470</ele></trkpt>
<trkpt lat="48.98811" lon="10.42685"><ele>470</ele></trkpt>
<trkpt lat="48.98824" lon="10.42617"><ele>470</ele></trkpt>
<trkpt lat="48.98866" lon="10.42479"><ele>471</ele></trkpt>
<trkpt lat="48.98890" lon="10.42419"><ele>472</ele></trkpt>
<trkpt lat="48.98934" lon="10.42334"><ele>472</ele></trkpt>
<trkpt lat="48.98983" lon="10.42263"><ele>473</ele></trkpt>
<trkpt lat="48.99082" lon="10.42158"><ele>477</ele></trkpt>
<trkpt lat="48.99146" lon="10.42102"><ele>481</ele></trkpt>
<trkpt lat="48.99169" lon="10.42085"><ele>481</ele></trkpt>
<trkpt lat="48.99252" lon="10.41989"><ele>479</ele></trkpt>
<trkpt lat="48.99317" lon="10.41892"><ele>476</ele></trkpt>
<trkpt lat="48.99353" lon="10.41831"><ele>476</ele></trkpt>
<trkpt lat="48.99439" lon="10.41658"><ele>474</ele></trkpt>
<trkpt lat="48.99481" lon="10.41585"><ele>473</ele></trkpt>
<trkpt lat="48.99513" lon="10.41538"><ele>472</ele></trkpt>
<trkpt lat="48.99552" lon="10.41491"><ele>469</ele></trkpt>
<trkpt lat="48.99588" lon="10.41457"><ele>465</ele></trkpt>
<trkpt lat="48.99647" lon="10.41418"><ele>465</ele></trkpt>
<trkpt lat="48.99710" lon="10.41390"><ele>461</ele></trkpt>
<trkpt lat="48.99753" lon="10.41379"><ele>459</ele></trkpt>
<trkpt lat="49.00243" lon="10.41369"><ele>454</ele></trkpt>
<trkpt lat="49.00292" lon="10.41361"><ele>455</ele></trkpt>
<trkpt lat="49.00388" lon="10.41357"><ele>456</ele></trkpt>
<trkpt lat="49.00530" lon="10.41357"><ele>456</ele></trkpt>
<trkpt lat="49.00702" lon="10.41368"><ele>456</ele></trkpt>
<trkpt lat="49.00751" lon="10.41365"><ele>454</ele></trkpt>
<trkpt lat="49.00810" lon="10.41346"><ele>453</ele></trkpt>
<trkpt lat="49.00871" lon="10.41305"><ele>452</ele></trkpt>
<trkpt lat="49.00938" lon="10.41268"><ele>451</ele></trkpt>
<trkpt lat="49.00954" lon="10.41252"><ele>450</ele></trkpt>
<trkpt lat="49.01013" lon="10.41173"><ele>451</ele></trkpt>
<trkpt lat="49.01062" lon="10.41128"><ele>451</ele></trkpt>
<trkpt lat="49.01078" lon="10.41119"><ele>451</ele></trkpt>
<trkpt lat="49.01111" lon="10.41121"><ele>451</ele></trkpt>
<trkpt lat="49.01150" lon="10.41134"><ele>451</ele></trkpt>
<trkpt lat="49.01169" lon="10.41133"><ele>451</ele></trkpt>
<trkpt lat="49.01189" lon="10.41122"><ele>450</ele></trkpt>
<trkpt lat="49.01229" lon="10.41068"><ele>450</ele></trkpt>
<trkpt lat="49.01241" lon="10.41072"><ele>449</ele></trkpt>
<trkpt lat="49.01258" lon="10.41057"><ele>448</ele></trkpt>
<trkpt lat="49.01314" lon="10.40980"><ele>447</ele></trkpt>
<trkpt lat="49.01364" lon="10.40920"><ele>448</ele></trkpt>
<trkpt lat="49.01368" lon="10.40907"><ele>447</ele></trkpt>
<trkpt lat="49.01429" lon="10.40818"><ele>447</ele></trkpt>
<trkpt lat="49.01772" lon="10.40257"><ele>446</ele></trkpt>
<trkpt lat="49.01800" lon="10.40176"><ele>446</ele></trkpt>
<trkpt lat="49.01814" lon="10.40145"><ele>446</ele></trkpt>
<trkpt lat="49.01815" lon="10.40134"><ele>446</ele></trkpt>
<trkpt lat="49.01942" lon="10.40013"><ele>444</ele></trkpt>
<trkpt lat="49.02039" lon="10.39942"><ele>443</ele></trkpt>
<trkpt lat="49.02122" lon="10.39889"><ele>443</ele></trkpt>
<trkpt lat="49.02183" lon="10.39859"><ele>442</ele></trkpt>
<trkpt lat="49.02296" lon="10.39812"><ele>443</ele></trkpt>
<trkpt lat="49.02319" lon="10.39808"><ele>443</ele></trkpt>
<trkpt lat="49.02326" lon="10.39768"><ele>444</ele></trkpt>
<trkpt lat="49.02324" lon="10.39752"><ele>444</ele></trkpt>
<trkpt lat="49.02316" lon="10.39743"><ele>444</ele></trkpt>
<trkpt lat="49.02302" lon="10.39735"><ele>444</ele></trkpt>
<trkpt lat="49.02289" lon="10.39713"><ele>445</ele></trkpt>
<trkpt lat="49.02437" lon="10.39648"><ele>446</ele></trkpt>
<trkpt lat="49.02524" lon="10.39599"><ele>445</ele></trkpt>
<trkpt lat="49.02630" lon="10.39514"><ele>444</ele></trkpt>
<trkpt lat="49.02676" lon="10.39470"><ele>444</ele></trkpt>
<trkpt lat="49.02674" lon="10.39462"><ele>444</ele></trkpt>
<trkpt lat="49.02720" lon="10.39431"><ele>443</ele></trkpt>
<trkpt lat="49.02750" lon="10.39416"><ele>442</ele></trkpt>
<trkpt lat="49.02766" lon="10.39402"><ele>441</ele></trkpt>
<trkpt lat="49.02776" lon="10.39386"><ele>441</ele></trkpt>
<trkpt lat="49.02779" lon="10.39371"><ele>440</ele></trkpt>
<trkpt lat="49.02785" lon="10.39259"><ele>439</ele></trkpt>
<trkpt lat="49.02789" lon="10.39235"><ele>439</ele></trkpt>
<trkpt lat="49.02801" lon="10.39199"><ele>439</ele></trkpt>
<trkpt lat="49.02755" lon="10.39171"><ele>442</ele></trkpt>
<trkpt lat="49.02729" lon="10.39140"><ele>445</ele></trkpt>
<trkpt lat="49.02684" lon="10.39068"><ele>444</ele></trkpt>
<trkpt lat="49.02643" lon="10.39014"><ele>443</ele></trkpt>
<trkpt lat="49.02631" lon="10.39005"><ele>443</ele></trkpt>
<trkpt lat="49.02622" lon="10.39005"><ele>443</ele></trkpt>
<trkpt lat="49.02625" lon="10.38986"><ele>443</ele></trkpt>
<trkpt lat="49.02614" lon="10.38958"><ele>443</ele></trkpt>
<trkpt lat="49.02613" lon="10.38946"><ele>443</ele></trkpt>
<trkpt lat="49.02615" lon="10.38936"><ele>442</ele></trkpt>
<trkpt lat="49.02690" lon="10.38807"><ele>438</ele></trkpt>
<trkpt lat="49.02741" lon="10.38727"><ele>436</ele></trkpt>
<trkpt lat="49.02749" lon="10.38727"><ele>436</ele></trkpt>
<trkpt lat="49.02763" lon="10.38735"><ele>434</ele></trkpt>
<trkpt lat="49.02780" lon="10.38680"><ele>434</ele></trkpt>
<trkpt lat="49.02829" lon="10.38603"><ele>434</ele></trkpt>
<trkpt lat="49.02829" lon="10.38593"><ele>434</ele></trkpt>
<trkpt lat="49.02820" lon="10.38574"><ele>434</ele></trkpt>
<trkpt lat="49.02823" lon="10.38562"><ele>434</ele></trkpt>
<trkpt lat="49.02862" lon="10.38503"><ele>435</ele></trkpt>
<trkpt lat="49.02864" lon="10.38496"><ele>435</ele></trkpt>
<trkpt lat="49.02865" lon="10.38478"><ele>436</ele></trkpt>
<trkpt lat="49.02830" lon="10.38423"><ele>434</ele></trkpt>
<trkpt lat="49.02821" lon="10.38397"><ele>434</ele></trkpt>
<trkpt lat="49.02817" lon="10.38363"><ele>435</ele></trkpt>
<trkpt lat="49.02807" lon="10.38144"><ele>436</ele></trkpt>
<trkpt lat="49.02819" lon="10.37853"><ele>435</ele></trkpt>
<trkpt lat="49.02826" lon="10.37786"><ele>436</ele></trkpt>
<trkpt lat="49.02846" lon="10.37680"><ele>436</ele></trkpt>
<trkpt lat="49.02869" lon="10.37587"><ele>436</ele></trkpt>
<trkpt lat="49.02895" lon="10.37508"><ele>436</ele></trkpt>
<trkpt lat="49.02922" lon="10.37460"><ele>436</ele></trkpt>
<trkpt lat="49.02947" lon="10.37421"><ele>436</ele></trkpt>
<trkpt lat="49.03038" lon="10.37296"><ele>436</ele></trkpt>
<trkpt lat="49.03076" lon="10.37225"><ele>435</ele></trkpt>
<trkpt lat="49.03408" lon="10.36461"><ele>436</ele></trkpt>
<trkpt lat="49.03486" lon="10.36274"><ele>438</ele></trkpt>
<trkpt lat="49.03491" lon="10.36223"><ele>439</ele></trkpt>
<trkpt lat="49.03489" lon="10.36161"><ele>440</ele></trkpt>
<trkpt lat="49.03495" lon="10.36153"><ele>440</ele></trkpt>
<trkpt lat="49.03509" lon="10.36149"><ele>440</ele></trkpt>
<trkpt lat="49.03526" lon="10.36122"><ele>440</ele></trkpt>
<trkpt lat="49.03647" lon="10.35831"><ele>441</ele></trkpt>
<trkpt lat="49.03704" lon="10.35700"><ele>440</ele></trkpt>
<trkpt lat="49.03723" lon="10.35661"><ele>441</ele></trkpt>
<trkpt lat="49.03759" lon="10.35638"><ele>440</ele></trkpt>
<trkpt lat="49.03956" lon="10.35537"><ele>438</ele></trkpt>
<trkpt lat="49.03971" lon="10.35668"><ele>437</ele></trkpt>
<trkpt lat="49.04008" lon="10.35640"><ele>438</ele></trkpt>
<trkpt lat="49.04174" lon="10.35472"><ele>438</ele></trkpt>
<trkpt lat="49.04203" lon="10.35434"><ele>438</ele></trkpt>
<trkpt lat="49.04267" lon="10.35314"><ele>438</ele></trkpt>
<trkpt lat="49.04304" lon="10.35251"><ele>439</ele></trkpt>
<trkpt lat="49.04316" lon="10.35257"><ele>438</ele></trkpt>
<trkpt lat="49.04375" lon="10.35171"><ele>438</ele></trkpt>
<trkpt lat="49.04402" lon="10.35141"><ele>439</ele></trkpt>
<trkpt lat="49.04477" lon="10.35070"><ele>439</ele></trkpt>
<trkpt lat="49.04561" lon="10.35004"><ele>440</ele></trkpt>
<trkpt lat="49.04690" lon="10.34864"><ele>439</ele></trkpt>
<trkpt lat="49.04812" lon="10.34777"><ele>440</ele></trkpt>
<trkpt lat="49.04856" lon="10.34740"><ele>439</ele></trkpt>
<trkpt lat="49.04895" lon="10.34702"><ele>439</ele></trkpt>
<trkpt lat="49.04961" lon="10.34626"><ele>439</ele></trkpt>
<trkpt lat="49.05000" lon="10.34556"><ele>440</ele></trkpt>
<trkpt lat="49.05043" lon="10.34467"><ele>440</ele></trkpt>
<trkpt lat="49.05080" lon="10.34380"><ele>440</ele></trkpt>
<trkpt lat="49.05124" lon="10.34248"><ele>440</ele></trkpt>
<trkpt lat="49.05196" lon="10.33975"><ele>441</ele></trkpt>
<trkpt lat="49.05225" lon="10.33891"><ele>440</ele></trkpt>
<trkpt lat="49.05253" lon="10.33833"><ele>439</ele></trkpt>
<trkpt lat="49.05295" lon="10.33770"><ele>438</ele></trkpt>
<trkpt lat="49.05316" lon="10.33754"><ele>438</ele></trkpt>
<trkpt lat="49.05339" lon="10.33723"><ele>439</ele></trkpt>
<trkpt lat="49.05354" lon="10.33711"><ele>438</ele></trkpt>
<trkpt lat="49.05406" lon="10.33681"><ele>438</ele></trkpt>
<trkpt lat="49.05433" lon="10.33682"><ele>438</ele></trkpt>
<trkpt lat="49.05444" lon="10.33661"><ele>439</ele></trkpt>
<trkpt lat="49.05595" lon="10.33560"><ele>438</ele></trkpt>
<trkpt lat="49.05682" lon="10.33484"><ele>438</ele></trkpt>
<trkpt lat="49.05738" lon="10.33426"><ele>439</ele></trkpt>
<trkpt lat="49.05745" lon="10.33412"><ele>439</ele></trkpt>
<trkpt lat="49.05827" lon="10.33313"><ele>440</ele></trkpt>
<trkpt lat="49.05893" lon="10.33210"><ele>441</ele></trkpt>
<trkpt lat="49.05938" lon="10.33148"><ele>441</ele></trkpt>
<trkpt lat="49.06079" lon="10.32986"><ele>440</ele></trkpt>
<trkpt lat="49.06121" lon="10.32940"><ele>440</ele></trkpt>
<trkpt lat="49.06213" lon="10.32852"><ele>439</ele></trkpt>
<trkpt lat="49.06217" lon="10.32853"><ele>439</ele></trkpt>
<trkpt lat="49.06253" lon="10.32813"><ele>439</ele></trkpt>
<trkpt lat="49.06287" lon="10.32768"><ele>440</ele></trkpt>
<trkpt lat="49.06323" lon="10.32728"><ele>440</ele></trkpt>
<trkpt lat="49.06365" lon="10.32698"><ele>440</ele></trkpt>
<trkpt lat="49.06397" lon="10.32668"><ele>438</ele></trkpt>
<trkpt lat="49.06461" lon="10.32584"><ele>439</ele></trkpt>
<trkpt lat="49.06462" lon="10.32578"><ele>439</ele></trkpt>
<trkpt lat="49.06497" lon="10.32536"><ele>439</ele></trkpt>
<trkpt lat="49.06509" lon="10.32536"><ele>439</ele></trkpt>
<trkpt lat="49.06515" lon="10.32543"><ele>439</ele></trkpt>
<trkpt lat="49.06526" lon="10.32531"><ele>439</ele></trkpt>
<trkpt lat="49.06523" lon="10.32523"><ele>439</ele></trkpt>
<trkpt lat="49.06528" lon="10.32502"><ele>439</ele></trkpt>
<trkpt lat="49.06526" lon="10.32499"><ele>439</ele></trkpt>
<trkpt lat="49.06565" lon="10.32448"><ele>439</ele></trkpt>
<trkpt lat="49.06602" lon="10.32382"><ele>439</ele></trkpt>
<trkpt lat="49.06688" lon="10.32295"><ele>440</ele></trkpt>
<trkpt lat="49.06751" lon="10.32221"><ele>440</ele></trkpt>
<trkpt lat="49.06833" lon="10.32148"><ele>441</ele></trkpt>
<trkpt lat="49.06891" lon="10.32014"><ele>441</ele></trkpt>
<trkpt lat="49.06916" lon="10.31912"><ele>441</ele></trkpt>
<trkpt lat="49.06924" lon="10.31913"><ele>441</ele></trkpt>
<trkpt lat="49.06970" lon="10.31887"><ele>441</ele></trkpt>
<trkpt lat="49.07012" lon="10.31873"><ele>442</ele></trkpt>
<trkpt lat="49.07168" lon="10.31855"><ele>445</ele></trkpt>
<trkpt lat="49.07192" lon="10.31870"><ele>443</ele></trkpt>
<trkpt lat="49.07261" lon="10.31935"><ele>444</ele></trkpt>
<trkpt lat="49.07328" lon="10.31973"><ele>447</ele></trkpt>
<trkpt lat="49.07352" lon="10.31993"><ele>448</ele></trkpt>
<trkpt lat="49.07420" lon="10.32070"><ele>446</ele></trkpt>
<trkpt lat="49.07455" lon="10.32102"><ele>444</ele></trkpt>
<trkpt lat="49.07474" lon="10.32115"><ele>444</ele></trkpt>
<trkpt lat="49.07515" lon="10.32129"><ele>445</ele></trkpt>
<trkpt lat="49.07592" lon="10.32131"><ele>444</ele></trkpt>
<trkpt lat="49.07636" lon="10.32127"><ele>443</ele></trkpt>
<trkpt lat="49.07651" lon="10.32132"><ele>443</ele></trkpt>
<trkpt lat="49.07702" lon="10.32124"><ele>443</ele></trkpt>
<trkpt lat="49.07716" lon="10.32136"><ele>441</ele></trkpt>
<trkpt lat="49.07722" lon="10.32154"><ele>440</ele></trkpt>
<trkpt lat="49.07732" lon="10.32165"><ele>440</ele></trkpt>
<trkpt lat="49.07761" lon="10.32168"><ele>438</ele></trkpt>
<trkpt lat="49.07768" lon="10.32161"><ele>439</ele></trkpt>
<trkpt lat="49.07782" lon="10.32131"><ele>440</ele></trkpt>
<trkpt lat="49.07808" lon="10.32090"><ele>441</ele></trkpt>
<trkpt lat="49.07817" lon="10.32067"><ele>442</ele></trkpt>
<trkpt lat="49.07858" lon="10.32040"><ele>441</ele></trkpt>
<trkpt lat="49.07917" lon="10.31987"><ele>440</ele></trkpt>
<trkpt lat="49.07936" lon="10.31962"><ele>440</ele></trkpt>
<trkpt lat="49.07955" lon="10.31916"><ele>440</ele></trkpt>
<trkpt lat="49.07978" lon="10.31822"><ele>440</ele></trkpt>
<trkpt lat="49.08019" lon="10.31761"><ele>440</ele></trkpt>
<trkpt lat="49.08117" lon="10.31638"><ele>440</ele></trkpt>
<trkpt lat="49.08241" lon="10.31534"><ele>441</ele></trkpt>
<trkpt lat="49.08336" lon="10.31466"><ele>442</ele></trkpt>
<trkpt lat="49.08434" lon="10.31375"><ele>444</ele></trkpt>
<trkpt lat="49.08507" lon="10.31285"><ele>448</ele></trkpt>
<trkpt lat="49.08527" lon="10.31255"><ele>446</ele></trkpt>
<trkpt lat="49.08560" lon="10.31184"><ele>444</ele></trkpt>
<trkpt lat="49.08584" lon="10.31150"><ele>444</ele></trkpt>
<trkpt lat="49.08622" lon="10.31126"><ele>445</ele></trkpt>
<trkpt lat="49.08633" lon="10.31114"><ele>446</ele></trkpt>
<trkpt lat="49.08650" lon="10.31084"><ele>446</ele></trkpt>
<trkpt lat="49.08690" lon="10.31046"><ele>446</ele></trkpt>
<trkpt lat="49.08779" lon="10.30982"><ele>442</ele></trkpt>
<trkpt lat="49.08948" lon="10.30781"><ele>441</ele></trkpt>
<trkpt lat="49.08966" lon="10.30754"><ele>441</ele></trkpt>
<trkpt lat="49.09027" lon="10.30626"><ele>441</ele></trkpt>
<trkpt lat="49.09062" lon="10.30581"><ele>441</ele></trkpt>
<trkpt lat="49.09091" lon="10.30557"><ele>441</ele></trkpt>
<trkpt lat="49.09165" lon="10.30533"><ele>441</ele></trkpt>
<trkpt lat="49.09190" lon="10.30519"><ele>440</ele></trkpt>
<trkpt lat="49.09207" lon="10.30496"><ele>440</ele></trkpt>
<trkpt lat="49.09291" lon="10.30361"><ele>442</ele></trkpt>
<trkpt lat="49.09316" lon="10.30316"><ele>441</ele></trkpt>
<trkpt lat="49.09361" lon="10.30213"><ele>441</ele></trkpt>
<trkpt lat="49.09380" lon="10.30188"><ele>442</ele></trkpt>
<trkpt lat="49.09460" lon="10.30137"><ele>441</ele></trkpt>
<trkpt lat="49.09507" lon="10.30100"><ele>442</ele></trkpt>
<trkpt lat="49.09540" lon="10.30069"><ele>442</ele></trkpt>
<trkpt lat="49.09635" lon="10.29958"><ele>440</ele></trkpt>
<trkpt lat="49.09698" lon="10.29914"><ele>441</ele></trkpt>
<trkpt lat="49.09741" lon="10.29860"><ele>441</ele></trkpt>
<trkpt lat="49.09789" lon="10.29787"><ele>443</ele></trkpt>
<trkpt lat="49.09835" lon="10.29707"><ele>444</ele></trkpt>
<trkpt lat="49.09848" lon="10.29666"><ele>444</ele></trkpt>
<trkpt lat="49.09859" lon="10.29602"><ele>443</ele></trkpt>
<trkpt lat="49.09867" lon="10.29573"><ele>444</ele></trkpt>
<trkpt lat="49.09933" lon="10.29524"><ele>444</ele></trkpt>
<trkpt lat="49.09987" lon="10.29492"><ele>443</ele></trkpt>
<trkpt lat="49.10022" lon="10.29484"><ele>443</ele></trkpt>
<trkpt lat="49.10106" lon="10.29478"><ele>443</ele></trkpt>
<trkpt lat="49.10162" lon="10.29468"><ele>444</ele></trkpt>
<trkpt lat="49.10167" lon="10.29521"><ele>443</ele></trkpt>
<trkpt lat="49.10175" lon="10.29565"><ele>442</ele></trkpt>
<trkpt lat="49.10312" lon="10.29977"><ele>444</ele></trkpt>
<trkpt lat="49.10406" lon="10.30209"><ele>453</ele></trkpt>
<trkpt lat="49.10412" lon="10.30235"><ele>454</ele></trkpt>
<trkpt lat="49.10413" lon="10.30260"><ele>456</ele></trkpt>
<trkpt lat="49.10412" lon="10.30279"><ele>457</ele></trkpt>
<trkpt lat="49.10398" lon="10.30341"><ele>462</ele></trkpt>
<trkpt lat="49.10391" lon="10.30427"><ele>470</ele></trkpt>
<trkpt lat="49.10395" lon="10.30448"><ele>470</ele></trkpt>
<trkpt lat="49.10425" lon="10.30523"><ele>474</ele></trkpt>
<trkpt lat="49.10431" lon="10.30531"><ele>475</ele></trkpt>
<trkpt lat="49.10456" lon="10.30540"><ele>478</ele></trkpt>
<trkpt lat="49.10530" lon="10.30545"><ele>482</ele></trkpt>
<trkpt lat="49.10531" lon="10.30535"><ele>482</ele></trkpt>
<trkpt lat="49.10578" lon="10.30477"><ele>483</ele></trkpt>
<trkpt lat="49.10675" lon="10.30386"><ele>484</ele></trkpt>
<trkpt lat="49.10725" lon="10.30544"><ele>489</ele></trkpt>
<trkpt lat="49.10735" lon="10.30605"><ele>489</ele></trkpt>
<trkpt lat="49.10809" lon="10.30565"><ele>489</ele></trkpt>
<trkpt lat="49.10892" lon="10.30558"><ele>488</ele></trkpt>
<trkpt lat="49.10968" lon="10.30564"><ele>488</ele></trkpt>
<trkpt lat="49.11094" lon="10.30588"><ele>488</ele></trkpt>
<trkpt lat="49.11162" lon="10.30609"><ele>484</ele></trkpt>
<trkpt lat="49.11194" lon="10.30626"><ele>484</ele></trkpt>
<trkpt lat="49.11296" lon="10.30695"><ele>486</ele></trkpt>
<trkpt lat="49.11309" lon="10.30715"><ele>486</ele></trkpt>
<trkpt lat="49.11322" lon="10.30727"><ele>486</ele></trkpt>
<trkpt lat="49.11383" lon="10.30737"><ele>486</ele></trkpt>
<trkpt lat="49.11411" lon="10.30728"><ele>486</ele></trkpt>
<trkpt lat="49.11425" lon="10.30753"><ele>486</ele></trkpt>
<trkpt lat="49.11536" lon="10.30711"><ele>486</ele></trkpt>
<trkpt lat="49.11571" lon="10.30701"><ele>486</ele></trkpt>
<trkpt lat="49.11652" lon="10.30689"><ele>488</ele></trkpt>
<trkpt lat="49.11679" lon="10.30679"><ele>488</ele></trkpt>
<trkpt lat="49.11713" lon="10.30652"><ele>488</ele></trkpt>
<trkpt lat="49.11812" lon="10.30545"><ele>489</ele></trkpt>
<trkpt lat="49.11833" lon="10.30533"><ele>490</ele></trkpt>
<trkpt lat="49.11862" lon="10.30528"><ele>490</ele></trkpt>
<trkpt lat="49.12044" lon="10.30574"><ele>488</ele></trkpt>
<trkpt lat="49.12081" lon="10.30576"><ele>487</ele></trkpt>
<trkpt lat="49.12103" lon="10.30568"><ele>486</ele></trkpt>
<trkpt lat="49.12115" lon="10.30554"><ele>486</ele></trkpt>
<trkpt lat="49.12150" lon="10.30503"><ele>485</ele></trkpt>
<trkpt lat="49.12157" lon="10.30481"><ele>485</ele></trkpt>
<trkpt lat="49.12258" lon="10.30471"><ele>484</ele></trkpt>
<trkpt lat="49.12283" lon="10.30464"><ele>483</ele></trkpt>
<trkpt lat="49.12310" lon="10.30447"><ele>483</ele></trkpt>
<trkpt lat="49.12323" lon="10.30448"><ele>483</ele></trkpt>
<trkpt lat="49.12330" lon="10.30458"><ele>483</ele></trkpt>
<trkpt lat="49.12335" lon="10.30482"><ele>483</ele></trkpt>
<trkpt lat="49.12370" lon="10.30703"><ele>482</ele></trkpt>
<trkpt lat="49.12396" lon="10.30852"><ele>481</ele></trkpt>
<trkpt lat="49.12401" lon="10.30864"><ele>481</ele></trkpt>
<trkpt lat="49.12681" lon="10.30979"><ele>477</ele></trkpt>
<trkpt lat="49.12700" lon="10.30987"><ele>479</ele></trkpt>
<trkpt lat="49.12726" lon="10.31007"><ele>481</ele></trkpt>
<trkpt lat="49.12737" lon="10.31003"><ele>482</ele></trkpt>
<trkpt lat="49.12840" lon="10.31046"><ele>488</ele></trkpt>
<trkpt lat="49.12861" lon="10.31052"><ele>488</ele></trkpt>
<trkpt lat="49.12934" lon="10.31052"><ele>492</ele></trkpt>
<trkpt lat="49.13051" lon="10.31086"><ele>485</ele></trkpt>
<trkpt lat="49.13105" lon="10.31096"><ele>483</ele></trkpt>
<trkpt lat="49.13141" lon="10.31112"><ele>481</ele></trkpt>
<trkpt lat="49.13214" lon="10.31127"><ele>477</ele></trkpt>
<trkpt lat="49.13336" lon="10.31180"><ele>480</ele></trkpt>
<trkpt lat="49.13405" lon="10.31220"><ele>484</ele></trkpt>
<trkpt lat="49.13462" lon="10.31261"><ele>488</ele></trkpt>
<trkpt lat="49.13600" lon="10.31342"><ele>495</ele></trkpt>
<trkpt lat="49.13746" lon="10.31461"><ele>494</ele></trkpt>
<trkpt lat="49.13898" lon="10.31516"><ele>493</ele></trkpt>
<trkpt lat="49.13951" lon="10.31541"><ele>493</ele></trkpt>
<trkpt lat="49.14020" lon="10.31582"><ele>490</ele></trkpt>
<trkpt lat="49.14155" lon="10.31612"><ele>486</ele></trkpt>
<trkpt lat="49.14247" lon="10.31647"><ele>481</ele></trkpt>
<trkpt lat="49.14304" lon="10.31679"><ele>476</ele></trkpt>
<trkpt lat="49.14447" lon="10.31717"><ele>477</ele></trkpt>
<trkpt lat="49.14502" lon="10.31737"><ele>475</ele></trkpt>
<trkpt lat="49.14516" lon="10.31745"><ele>474</ele></trkpt>
<trkpt lat="49.14545" lon="10.31774"><ele>472</ele></trkpt>
<trkpt lat="49.14620" lon="10.31863"><ele>467</ele></trkpt>
<trkpt lat="49.14665" lon="10.31911"><ele>467</ele></trkpt>
<trkpt lat="49.14695" lon="10.31928"><ele>468</ele></trkpt>
<trkpt lat="49.14704" lon="10.31929"><ele>468</ele></trkpt>
<trkpt lat="49.14710" lon="10.31924"><ele>469</ele></trkpt>
<trkpt lat="49.14717" lon="10.31904"><ele>468</ele></trkpt>
<trkpt lat="49.14732" lon="10.31888"><ele>466</ele></trkpt>
<trkpt lat="49.14746" lon="10.31880"><ele>465</ele></trkpt>
<trkpt lat="49.14962" lon="10.31805"><ele>464</ele></trkpt>
<trkpt lat="49.14965" lon="10.31823"><ele>465</ele></trkpt>
<trkpt lat="49.14976" lon="10.31850"><ele>466</ele></trkpt>
<trkpt lat="49.14988" lon="10.31920"><ele>466</ele></trkpt>
<trkpt lat="49.14989" lon="10.32025"><ele>464</ele></trkpt>
<trkpt lat="49.15086" lon="10.32108"><ele>465</ele></trkpt>
<trkpt lat="49.15118" lon="10.32146"><ele>463</ele></trkpt>
<trkpt lat="49.15140" lon="10.32174"><ele>462</ele></trkpt>
<trkpt lat="49.15162" lon="10.32211"><ele>460</ele></trkpt>
<trkpt lat="49.15204" lon="10.32299"><ele>464</ele></trkpt>
<trkpt lat="49.15275" lon="10.32426"><ele>466</ele></trkpt>
<trkpt lat="49.15335" lon="10.32507"><ele>464</ele></trkpt>
<trkpt lat="49.15352" lon="10.32525"><ele>462</ele></trkpt>
<trkpt lat="49.15386" lon="10.32554"><ele>460</ele></trkpt>
<trkpt lat="49.15424" lon="10.32577"><ele>460</ele></trkpt>
<trkpt lat="49.15463" lon="10.32592"><ele>459</ele></trkpt>
<trkpt lat="49.15521" lon="10.32601"><ele>460</ele></trkpt>
<trkpt lat="49.15569" lon="10.32599"><ele>460</ele></trkpt>
<trkpt lat="49.15629" lon="10.32579"><ele>460</ele></trkpt>
<trkpt lat="49.15653" lon="10.32556"><ele>460</ele></trkpt>
<trkpt lat="49.15666" lon="10.32548"><ele>459</ele></trkpt>
<trkpt lat="49.15669" lon="10.32540"><ele>459</ele></trkpt>
<trkpt lat="49.15667" lon="10.32513"><ele>460</ele></trkpt>
<trkpt lat="49.15690" lon="10.32509"><ele>459</ele></trkpt>
<trkpt lat="49.15725" lon="10.32514"><ele>458</ele></trkpt>
<trkpt lat="49.15964" lon="10.32322"><ele>450</ele></trkpt>
<trkpt lat="49.15988" lon="10.32314"><ele>450</ele></trkpt>
<trkpt lat="49.16012" lon="10.32312"><ele>450</ele></trkpt>
<trkpt lat="49.16038" lon="10.32319"><ele>450</ele></trkpt>
<trkpt lat="49.16086" lon="10.32362"><ele>450</ele></trkpt>
<trkpt lat="49.16130" lon="10.32389"><ele>452</ele></trkpt>
<trkpt lat="49.16353" lon="10.32487"><ele>451</ele></trkpt>
<trkpt lat="49.16430" lon="10.32511"><ele>449</ele></trkpt>
<trkpt lat="49.16555" lon="10.32521"><ele>449</ele></trkpt>
<trkpt lat="49.16597" lon="10.32510"><ele>450</ele></trkpt>
<trkpt lat="49.16645" lon="10.32489"><ele>448</ele></trkpt>
<trkpt lat="49.16688" lon="10.32588"><ele>447</ele></trkpt>
<trkpt lat="49.16653" lon="10.32634"><ele>447</ele></trkpt>
<trkpt lat="49.16699" lon="10.32819"><ele>444</ele></trkpt>
<trkpt lat="49.16732" lon="10.32939"><ele>446</ele></trkpt>
<trkpt lat="49.16742" lon="10.33002"><ele>447</ele></trkpt>
<trkpt lat="49.16765" lon="10.33054"><ele>449</ele></trkpt>
<trkpt lat="49.16785" lon="10.33138"><ele>451</ele></trkpt>
<trkpt lat="49.16802" lon="10.33129"><ele>452</ele></trkpt>
<trkpt lat="49.16834" lon="10.33122"><ele>454</ele></trkpt>
<trkpt lat="49.16841" lon="10.33126"><ele>454</ele></trkpt>
<trkpt lat="49.16866" lon="10.33164"><ele>455</ele></trkpt>
<trkpt lat="49.16875" lon="10.33170"><ele>456</ele></trkpt>
<trkpt lat="49.16891" lon="10.33168"><ele>456</ele></trkpt>
<trkpt lat="49.16900" lon="10.33160"><ele>456</ele></trkpt>
<trkpt lat="49.16908" lon="10.33147"><ele>457</ele></trkpt>
<trkpt lat="49.16946" lon="10.33033"><ele>456</ele></trkpt>
<trkpt lat="49.16985" lon="10.32971"><ele>456</ele></trkpt>
<trkpt lat="49.17028" lon="10.32913"><ele>457</ele></trkpt>
<trkpt lat="49.17047" lon="10.32895"><ele>458</ele></trkpt>
<trkpt lat="49.17174" lon="10.32804"><ele>454</ele></trkpt>
<trkpt lat="49.17206" lon="10.32759"><ele>452</ele></trkpt>
<trkpt lat="49.17243" lon="10.32672"><ele>452</ele></trkpt>
<trkpt lat="49.17261" lon="10.32639"><ele>451</ele></trkpt>
<trkpt lat="49.17282" lon="10.32614"><ele>451</ele></trkpt>
<trkpt lat="49.17320" lon="10.32577"><ele>450</ele></trkpt>
<trkpt lat="49.17344" lon="10.32563"><ele>451</ele></trkpt>
<trkpt lat="49.17395" lon="10.32551"><ele>452</ele></trkpt>
<trkpt lat="49.17477" lon="10.32522"><ele>455</ele></trkpt>
<trkpt lat="49.17603" lon="10.32465"><ele>459</ele></trkpt>
<trkpt lat="49.17615" lon="10.32465"><ele>460</ele></trkpt>
<trkpt lat="49.17636" lon="10.32471"><ele>460</ele></trkpt>
<trkpt lat="49.17665" lon="10.32490"><ele>461</ele></trkpt>
<trkpt lat="49.17710" lon="10.32557"><ele>464</ele></trkpt>
<trkpt lat="49.17736" lon="10.32584"><ele>466</ele></trkpt>
<trkpt lat="49.17753" lon="10.32596"><ele>467</ele></trkpt>
<trkpt lat="49.17755" lon="10.32575"><ele>466</ele></trkpt>
<trkpt lat="49.17750" lon="10.32516"><ele>462</ele></trkpt>
<trkpt lat="49.17750" lon="10.32499"><ele>462</ele></trkpt>
<trkpt lat="49.17756" lon="10.32482"><ele>460</ele></trkpt>
<trkpt lat="49.17766" lon="10.32469"><ele>460</ele></trkpt>
<trkpt lat="49.17819" lon="10.32442"><ele>459</ele></trkpt>
<trkpt lat="49.17890" lon="10.32389"><ele>460</ele></trkpt>
<trkpt lat="49.17983" lon="10.32358"><ele>462</ele></trkpt>
<trkpt lat="49.17999" lon="10.32356"><ele>464</ele></trkpt>
<trkpt lat="49.18067" lon="10.32365"><ele>461</ele></trkpt>
<trkpt lat="49.18148" lon="10.32356"><ele>458</ele></trkpt>
<trkpt lat="49.18210" lon="10.32367"><ele>454</ele></trkpt>
<trkpt lat="49.18229" lon="10.32375"><ele>454</ele></trkpt>
<trkpt lat="49.18266" lon="10.32414"><ele>454</ele></trkpt>
<trkpt lat="49.18310" lon="10.32443"><ele>453</ele></trkpt>
<trkpt lat="49.18307" lon="10.32469"><ele>454</ele></trkpt>
<trkpt lat="49.18307" lon="10.32517"><ele>456</ele></trkpt>
<trkpt lat="49.18312" lon="10.32549"><ele>456</ele></trkpt>
<trkpt lat="49.18325" lon="10.32574"><ele>456</ele></trkpt>
<trkpt lat="49.18340" lon="10.32587"><ele>456</ele></trkpt>
<trkpt lat="49.18386" lon="10.32590"><ele>457</ele></trkpt>
<trkpt lat="49.18525" lon="10.32546"><ele>450</ele></trkpt>
<trkpt lat="49.18547" lon="10.32532"><ele>449</ele></trkpt>
<trkpt lat="49.18619" lon="10.32472"><ele>448</ele></trkpt>
<trkpt lat="49.18656" lon="10.32458"><ele>449</ele></trkpt>
<trkpt lat="49.18748" lon="10.32426"><ele>449</ele></trkpt>
<trkpt lat="49.18809" lon="10.32431"><ele>450</ele></trkpt>
<trkpt lat="49.18851" lon="10.32427"><ele>450</ele></trkpt>
<trkpt lat="49.18958" lon="10.32369"><ele>451</ele></trkpt>
<trkpt lat="49.18995" lon="10.32342"><ele>451</ele></trkpt>
<trkpt lat="49.19048" lon="10.32294"><ele>451</ele></trkpt>
<trkpt lat="49.19072" lon="10.32280"><ele>451</ele></trkpt>
<trkpt lat="49.19215" lon="10.32226"><ele>452</ele></trkpt>
<trkpt lat="49.19232" lon="10.32213"><ele>452</ele></trkpt>
<trkpt lat="49.19240" lon="10.32192"><ele>452</ele></trkpt>
<trkpt lat="49.19250" lon="10.32206"><ele>452</ele></trkpt>
<trkpt lat="49.19262" lon="10.32216"><ele>451</ele></trkpt>
<trkpt lat="49.19355" lon="10.32240"><ele>452</ele></trkpt>
<trkpt lat="49.19403" lon="10.32264"><ele>453</ele></trkpt>
<trkpt lat="49.19438" lon="10.32296"><ele>453</ele></trkpt>
<trkpt lat="49.19464" lon="10.32328"><ele>454</ele></trkpt>
<trkpt lat="49.19525" lon="10.32438"><ele>455</ele></trkpt>
<trkpt lat="49.19548" lon="10.32462"><ele>454</ele></trkpt>
<trkpt lat="49.19586" lon="10.32486"><ele>454</ele></trkpt>
<trkpt lat="49.19604" lon="10.32491"><ele>454</ele></trkpt>
<trkpt lat="49.19672" lon="10.32496"><ele>454</ele></trkpt>
<trkpt lat="49.19712" lon="10.32506"><ele>454</ele></trkpt>
<trkpt lat="49.19750" lon="10.32523"><ele>454</ele></trkpt>
<trkpt lat="49.19839" lon="10.32586"><ele>455</ele></trkpt>
<trkpt lat="49.19870" lon="10.32599"><ele>455</ele></trkpt>
<trkpt lat="49.19917" lon="10.32612"><ele>455</ele></trkpt>
<trkpt lat="49.20255" lon="10.32681"><ele>453</ele></trkpt>
<trkpt lat="49.20266" lon="10.32548"><ele>452</ele></trkpt>
<trkpt lat="49.20292" lon="10.32356"><ele>451</ele></trkpt>
<trkpt lat="49.20302" lon="10.32326"><ele>450</ele></trkpt>
<trkpt lat="49.20318" lon="10.32302"><ele>450</ele></trkpt>
<trkpt lat="49.20380" lon="10.32246"><ele>450</ele></trkpt>
<trkpt lat="49.20471" lon="10.32180"><ele>451</ele></trkpt>
<trkpt lat="49.20491" lon="10.32159"><ele>451</ele></trkpt>
<trkpt lat="49.20534" lon="10.32094"><ele>452</ele></trkpt>
<trkpt lat="49.20558" lon="10.32077"><ele>454</ele></trkpt>
<trkpt lat="49.20613" lon="10.32053"><ele>457</ele></trkpt>
<trkpt lat="49.20605" lon="10.32008"><ele>456</ele></trkpt>
<trkpt lat="49.20580" lon="10.31937"><ele>454</ele></trkpt>
<trkpt lat="49.20577" lon="10.31898"><ele>452</ele></trkpt>
<trkpt lat="49.20588" lon="10.31860"><ele>450</ele></trkpt>
<trkpt lat="49.20636" lon="10.31744"><ele>451</ele></trkpt>
<trkpt lat="49.20652" lon="10.31695"><ele>451</ele></trkpt>
<trkpt lat="49.20782" lon="10.31656"><ele>454</ele></trkpt>
<trkpt lat="49.20842" lon="10.31646"><ele>452</ele></trkpt>
<trkpt lat="49.20948" lon="10.31607"><ele>453</ele></trkpt>
<trkpt lat="49.20963" lon="10.31608"><ele>453</ele></trkpt>
<trkpt lat="49.20998" lon="10.31595"><ele>453</ele></trkpt>
<trkpt lat="49.21057" lon="10.31585"><ele>453</ele></trkpt>
<trkpt lat="49.21204" lon="10.31545"><ele>453</ele></trkpt>
<trkpt lat="49.21227" lon="10.31517"><ele>453</ele></trkpt>
<trkpt lat="49.21445" lon="10.30953"><ele>455</ele></trkpt>
<trkpt lat="49.21593" lon="10.30505"><ele>455</ele></trkpt>
<trkpt lat="49.21637" lon="10.30380"><ele>455</ele></trkpt>
<trkpt lat="49.21712" lon="10.30441"><ele>455</ele></trkpt>
<trkpt lat="49.21732" lon="10.30461"><ele>455</ele></trkpt>
<trkpt lat="49.21769" lon="10.30513"><ele>456</ele></trkpt>
<trkpt lat="49.21784" lon="10.30519"><ele>456</ele></trkpt>
<trkpt lat="49.21830" lon="10.30520"><ele>458</ele></trkpt>
<trkpt lat="49.21846" lon="10.30529"><ele>459</ele></trkpt>
<trkpt lat="49.21879" lon="10.30509"><ele>461</ele></trkpt>
<trkpt lat="49.21899" lon="10.30481"><ele>462</ele></trkpt>
<trkpt lat="49.21908" lon="10.30455"><ele>462</ele></trkpt>
<trkpt lat="49.21921" lon="10.30402"><ele>464</ele></trkpt>
<trkpt lat="49.21936" lon="10.30357"><ele>466</ele></trkpt>
<trkpt lat="49.21957" lon="10.30324"><ele>468</ele></trkpt>
<trkpt lat="49.21976" lon="10.30305"><ele>470</ele></trkpt>
<trkpt lat="49.22035" lon="10.30274"><ele>471</ele></trkpt>
<trkpt lat="49.22054" lon="10.30256"><ele>470</ele></trkpt>
<trkpt lat="49.22097" lon="10.30188"><ele>470</ele></trkpt>
<trkpt lat="49.22115" lon="10.30169"><ele>470</ele></trkpt>
<trkpt lat="49.22144" lon="10.30149"><ele>470</ele></trkpt>
<trkpt lat="49.22324" lon="10.30052"><ele>475</ele></trkpt>
<trkpt lat="49.22417" lon="10.29984"><ele>473</ele></trkpt>
<trkpt lat="49.22451" lon="10.29966"><ele>474</ele></trkpt>
<trkpt lat="49.22484" lon="10.29962"><ele>474</ele></trkpt>
<trkpt lat="49.22588" lon="10.29963"><ele>473</ele></trkpt>
<trkpt lat="49.22622" lon="10.29954"><ele>474</ele></trkpt>
<trkpt lat="49.22644" lon="10.29941"><ele>475</ele></trkpt>
<trkpt lat="49.22667" lon="10.29916"><ele>476</ele></trkpt>
<trkpt lat="49.22746" lon="10.29752"><ele>480</ele></trkpt>
<trkpt lat="49.22760" lon="10.29728"><ele>480</ele></trkpt>
<trkpt lat="49.22780" lon="10.29709"><ele>482</ele></trkpt>
<trkpt lat="49.22803" lon="10.29696"><ele>484</ele></trkpt>
<trkpt lat="49.22903" lon="10.29669"><ele>483</ele></trkpt>
<trkpt lat="49.23060" lon="10.29633"><ele>479</ele></trkpt>
<trkpt lat="49.23143" lon="10.29594"><ele>473</ele></trkpt>
<trkpt lat="49.23175" lon="10.29573"><ele>472</ele></trkpt>
<trkpt lat="49.23445" lon="10.29345"><ele>470</ele></trkpt>
<trkpt lat="49.23552" lon="10.29282"><ele>469</ele></trkpt>
<trkpt lat="49.23776" lon="10.29063"><ele>470</ele></trkpt>
<trkpt lat="49.23800" lon="10.29044"><ele>469</ele></trkpt>
<trkpt lat="49.23851" lon="10.29013"><ele>468</ele></trkpt>
<trkpt lat="49.23923" lon="10.28985"><ele>468</ele></trkpt>
<trkpt lat="49.23949" lon="10.28964"><ele>468</ele></trkpt>
<trkpt lat="49.24013" lon="10.28891"><ele>469</ele></trkpt>
<trkpt lat="49.24089" lon="10.28822"><ele>473</ele></trkpt>
<trkpt lat="49.24152" lon="10.28773"><ele>469</ele></trkpt>
<trkpt lat="49.24207" lon="10.28740"><ele>468</ele></trkpt>
<trkpt lat="49.24391" lon="10.28663"><ele>468</ele></trkpt>
<trkpt lat="49.24595" lon="10.28614"><ele>466</ele></trkpt>
<trkpt lat="49.24629" lon="10.28632"><ele>466</ele></trkpt>
<trkpt lat="49.24652" lon="10.28635"><ele>466</ele></trkpt>
<trkpt lat="49.24655" lon="10.28621"><ele>466</ele></trkpt>
<trkpt lat="49.24661" lon="10.28610"><ele>467</ele></trkpt>
<trkpt lat="49.24713" lon="10.28559"><ele>469</ele></trkpt>
<trkpt lat="49.24718" lon="10.28570"><ele>469</ele></trkpt>
<trkpt lat="49.24794" lon="10.28567"><ele>470</ele></trkpt>
<trkpt lat="49.24934" lon="10.28523"><ele>468</ele></trkpt>
<trkpt lat="49.25041" lon="10.28504"><ele>470</ele></trkpt>
<trkpt lat="49.25087" lon="10.28505"><ele>472</ele></trkpt>
<trkpt lat="49.25188" lon="10.28524"><ele>472</ele></trkpt>
<trkpt lat="49.25303" lon="10.28523"><ele>470</ele></trkpt>
<trkpt lat="49.25363" lon="10.28425"><ele>471</ele></trkpt>
<trkpt lat="49.25373" lon="10.28387"><ele>471</ele></trkpt>
<trkpt lat="49.25385" lon="10.28303"><ele>471</ele></trkpt>
<trkpt lat="49.25396" lon="10.28268"><ele>472</ele></trkpt>
<trkpt lat="49.25409" lon="10.28247"><ele>472</ele></trkpt>
<trkpt lat="49.25420" lon="10.28257"><ele>472</ele></trkpt>
<trkpt lat="49.25436" lon="10.28264"><ele>472</ele></trkpt>
<trkpt lat="49.25532" lon="10.28276"><ele>474</ele></trkpt>
<trkpt lat="49.25584" lon="10.28256"><ele>476</ele></trkpt>
<trkpt lat="49.25625" lon="10.28233"><ele>478</ele></trkpt>
<trkpt lat="49.25691" lon="10.28168"><ele>482</ele></trkpt>
<trkpt lat="49.25722" lon="10.28147"><ele>484</ele></trkpt>
<trkpt lat="49.25726" lon="10.28154"><ele>485</ele></trkpt>
<trkpt lat="49.25835" lon="10.28183"><ele>497</ele></trkpt>
<trkpt lat="49.25855" lon="10.28182"><ele>500</ele></trkpt>
<trkpt lat="49.25880" lon="10.28169"><ele>504</ele></trkpt>
<trkpt lat="49.25912" lon="10.28139"><ele>509</ele></trkpt>
<trkpt lat="49.25918" lon="10.28127"><ele>510</ele></trkpt>
<trkpt lat="49.25923" lon="10.28088"><ele>511</ele></trkpt>
<trkpt lat="49.25932" lon="10.28066"><ele>511</ele></trkpt>
<trkpt lat="49.25975" lon="10.27999"><ele>515</ele></trkpt>
<trkpt lat="49.26050" lon="10.27920"><ele>520</ele></trkpt>
<trkpt lat="49.26083" lon="10.27907"><ele>523</ele></trkpt>
<trkpt lat="49.26117" lon="10.27859"><ele>525</ele></trkpt>
<trkpt lat="49.26223" lon="10.27764"><ele>528</ele></trkpt>
<trkpt lat="49.26273" lon="10.27712"><ele>526</ele></trkpt>
<trkpt lat="49.26291" lon="10.27686"><ele>526</ele></trkpt>
<trkpt lat="49.26404" lon="10.27494"><ele>524</ele></trkpt>
<trkpt lat="49.26440" lon="10.27443"><ele>522</ele></trkpt>
<trkpt lat="49.26566" lon="10.27314"><ele>520</ele></trkpt>
<trkpt lat="49.26628" lon="10.27244"><ele>522</ele></trkpt>
<trkpt lat="49.26724" lon="10.27108"><ele>523</ele></trkpt>
<trkpt lat="49.26740" lon="10.27091"><ele>524</ele></trkpt>
<trkpt lat="49.26786" lon="10.27051"><ele>524</ele></trkpt>
<trkpt lat="49.26935" lon="10.26971"><ele>525</ele></trkpt>
<trkpt lat="49.26963" lon="10.26959"><ele>524</ele></trkpt>
<trkpt lat="49.27004" lon="10.26929"><ele>524</ele></trkpt>
<trkpt lat="49.27144" lon="10.26793"><ele>522</ele></trkpt>
<trkpt lat="49.27354" lon="10.26611"><ele>518</ele></trkpt>
<trkpt lat="49.27421" lon="10.26557"><ele>515</ele></trkpt>
<trkpt lat="49.27471" lon="10.26535"><ele>511</ele></trkpt>
<trkpt lat="49.27501" lon="10.26516"><ele>507</ele></trkpt>
<trkpt lat="49.27519" lon="10.26494"><ele>503</ele></trkpt>
<trkpt lat="49.27517" lon="10.26484"><ele>503</ele></trkpt>
<trkpt lat="49.27564" lon="10.26463"><ele>500</ele></trkpt>
<trkpt lat="49.27590" lon="10.26445"><ele>499</ele></trkpt>
<trkpt lat="49.27609" lon="10.26421"><ele>500</ele></trkpt>
<trkpt lat="49.27624" lon="10.26389"><ele>500</ele></trkpt>
<trkpt lat="49.27643" lon="10.26280"><ele>504</ele></trkpt>
<trkpt lat="49.27649" lon="10.26263"><ele>504</ele></trkpt>
<trkpt lat="49.27667" lon="10.26230"><ele>506</ele></trkpt>
<trkpt lat="49.27686" lon="10.26212"><ele>508</ele></trkpt>
<trkpt lat="49.27706" lon="10.26200"><ele>510</ele></trkpt>
<trkpt lat="49.27825" lon="10.26185"><ele>516</ele></trkpt>
<trkpt lat="49.27853" lon="10.26178"><ele>516</ele></trkpt>
<trkpt lat="49.27892" lon="10.26155"><ele>514</ele></trkpt>
<trkpt lat="49.28006" lon="10.26041"><ele>509</ele></trkpt>
<trkpt lat="49.28041" lon="10.26001"><ele>508</ele></trkpt>
<trkpt lat="49.28084" lon="10.25924"><ele>503</ele></trkpt>
<trkpt lat="49.28132" lon="10.25892"><ele>501</ele></trkpt>
<trkpt lat="49.28203" lon="10.25824"><ele>498</ele></trkpt>
<trkpt lat="49.28220" lon="10.25796"><ele>496</ele></trkpt>
<trkpt lat="49.28275" lon="10.25682"><ele>491</ele></trkpt>
<trkpt lat="49.28307" lon="10.25657"><ele>492</ele></trkpt>
<trkpt lat="49.28323" lon="10.25638"><ele>493</ele></trkpt>
<trkpt lat="49.28334" lon="10.25637"><ele>493</ele></trkpt>
<trkpt lat="49.28347" lon="10.25643"><ele>493</ele></trkpt>
<trkpt lat="49.28359" lon="10.25662"><ele>492</ele></trkpt>
<trkpt lat="49.28375" lon="10.25645"><ele>493</ele></trkpt>
<trkpt lat="49.28388" lon="10.25629"><ele>494</ele></trkpt>
<trkpt lat="49.28415" lon="10.25583"><ele>496</ele></trkpt>
<trkpt lat="49.28421" lon="10.25549"><ele>497</ele></trkpt>
<trkpt lat="49.28425" lon="10.25459"><ele>500</ele></trkpt>
<trkpt lat="49.28442" lon="10.25357"><ele>503</ele></trkpt>
<trkpt lat="49.28493" lon="10.25340"><ele>500</ele></trkpt>
<trkpt lat="49.28506" lon="10.25345"><ele>498</ele></trkpt>
<trkpt lat="49.28533" lon="10.25366"><ele>493</ele></trkpt>
<trkpt lat="49.28549" lon="10.25373"><ele>491</ele></trkpt>
<trkpt lat="49.28564" lon="10.25374"><ele>489</ele></trkpt>
<trkpt lat="49.28586" lon="10.25361"><ele>486</ele></trkpt>
<trkpt lat="49.28597" lon="10.25347"><ele>484</ele></trkpt>
<trkpt lat="49.28618" lon="10.25303"><ele>479</ele></trkpt>
<trkpt lat="49.28645" lon="10.25178"><ele>472</ele></trkpt>
<trkpt lat="49.28661" lon="10.25126"><ele>470</ele></trkpt>
<trkpt lat="49.28792" lon="10.24912"><ele>461</ele></trkpt>
<trkpt lat="49.28809" lon="10.24901"><ele>458</ele></trkpt>
<trkpt lat="49.28828" lon="10.24897"><ele>455</ele></trkpt>
<trkpt lat="49.28838" lon="10.24900"><ele>453</ele></trkpt>
<trkpt lat="49.28848" lon="10.24909"><ele>452</ele></trkpt>
<trkpt lat="49.28863" lon="10.24942"><ele>452</ele></trkpt>
<trkpt lat="49.28876" lon="10.25005"><ele>450</ele></trkpt>
<trkpt lat="49.28886" lon="10.25026"><ele>448</ele></trkpt>
<trkpt lat="49.28902" lon="10.25047"><ele>445</ele></trkpt>
<trkpt lat="49.28922" lon="10.24998"><ele>446</ele></trkpt>
<trkpt lat="49.28939" lon="10.24968"><ele>445</ele></trkpt>
<trkpt lat="49.29001" lon="10.24894"><ele>440</ele></trkpt>
<trkpt lat="49.29031" lon="10.24853"><ele>439</ele></trkpt>
<trkpt lat="49.29056" lon="10.24811"><ele>439</ele></trkpt>
<trkpt lat="49.29089" lon="10.24735"><ele>440</ele></trkpt>
<trkpt lat="49.29178" lon="10.24462"><ele>434</ele></trkpt>
<trkpt lat="49.29197" lon="10.24393"><ele>434</ele></trkpt>
<trkpt lat="49.29204" lon="10.24337"><ele>436</ele></trkpt>
<trkpt lat="49.29205" lon="10.24281"><ele>434</ele></trkpt>
<trkpt lat="49.29194" lon="10.24174"><ele>429</ele></trkpt>
<trkpt lat="49.29192" lon="10.24127"><ele>429</ele></trkpt>
<trkpt lat="49.29200" lon="10.24047"><ele>428</ele></trkpt>
<trkpt lat="49.29209" lon="10.24005"><ele>426</ele></trkpt>
<trkpt lat="49.29245" lon="10.23897"><ele>427</ele></trkpt>
<trkpt lat="49.29267" lon="10.23840"><ele>427</ele></trkpt>
<trkpt lat="49.29294" lon="10.23787"><ele>425</ele></trkpt>
<trkpt lat="49.29339" lon="10.23716"><ele>422</ele></trkpt>
<trkpt lat="49.29377" lon="10.23671"><ele>420</ele></trkpt>
<trkpt lat="49.29558" lon="10.23478"><ele>415</ele></trkpt>
<trkpt lat="49.29583" lon="10.23444"><ele>414</ele></trkpt>
<trkpt lat="49.29644" lon="10.23343"><ele>412</ele></trkpt>
<trkpt lat="49.29699" lon="10.23218"><ele>410</ele></trkpt>
<trkpt lat="49.29763" lon="10.23026"><ele>408</ele></trkpt>
<trkpt lat="49.29838" lon="10.22777"><ele>405</ele></trkpt>
<trkpt lat="49.29861" lon="10.22715"><ele>405</ele></trkpt>
<trkpt lat="49.29894" lon="10.22589"><ele>405</ele></trkpt>
<trkpt lat="49.29897" lon="10.22568"><ele>404</ele></trkpt>
<trkpt lat="49.29898" lon="10.22533"><ele>404</ele></trkpt>
<trkpt lat="49.29864" lon="10.22350"><ele>407</ele></trkpt>
<trkpt lat="49.29863" lon="10.22336"><ele>407</ele></trkpt>
<trkpt lat="49.29866" lon="10.22312"><ele>407</ele></trkpt>
<trkpt lat="49.29872" lon="10.22305"><ele>406</ele></trkpt>
<trkpt lat="49.29938" lon="10.22279"><ele>404</ele></trkpt>
<trkpt lat="49.29973" lon="10.22273"><ele>403</ele></trkpt>
<trkpt lat="49.29994" lon="10.22264"><ele>402</ele></trkpt>
<trkpt lat="49.30025" lon="10.22238"><ele>401</ele></trkpt>
<trkpt lat="49.30050" lon="10.22203"><ele>402</ele></trkpt>
<trkpt lat="49.30113" lon="10.22051"><ele>404</ele></trkpt>
<trkpt lat="49.30167" lon="10.21893"><ele>403</ele></trkpt>
<trkpt lat="49.30230" lon="10.21724"><ele>406</ele></trkpt>
<trkpt lat="49.30250" lon="10.21689"><ele>404</ele></trkpt>
<trkpt lat="49.30267" lon="10.21667"><ele>403</ele></trkpt>
<trkpt lat="49.30335" lon="10.21607"><ele>400</ele></trkpt>
<trkpt lat="49.30375" lon="10.21552"><ele>401</ele></trkpt>
<trkpt lat="49.30413" lon="10.21468"><ele>400</ele></trkpt>
<trkpt lat="49.30435" lon="10.21409"><ele>401</ele></trkpt>
<trkpt lat="49.30462" lon="10.21312"><ele>400</ele></trkpt>
<trkpt lat="49.30522" lon="10.21183"><ele>398</ele></trkpt>
<trkpt lat="49.30538" lon="10.21128"><ele>397</ele></trkpt>
<trkpt lat="49.30551" lon="10.21043"><ele>395</ele></trkpt>
<trkpt lat="49.30601" lon="10.20824"><ele>395</ele></trkpt>
<trkpt lat="49.30606" lon="10.20748"><ele>397</ele></trkpt>
<trkpt lat="49.30602" lon="10.20597"><ele>396</ele></trkpt>
<trkpt lat="49.30606" lon="10.20526"><ele>395</ele></trkpt>
<trkpt lat="49.30649" lon="10.20182"><ele>390</ele></trkpt>
<trkpt lat="49.30666" lon="10.20002"><ele>389</ele></trkpt>
<trkpt lat="49.30675" lon="10.19951"><ele>389</ele></trkpt>
<trkpt lat="49.30724" lon="10.19789"><ele>389</ele></trkpt>
<trkpt lat="49.30780" lon="10.19624"><ele>390</ele></trkpt>
<trkpt lat="49.30822" lon="10.19488"><ele>388</ele></trkpt>
<trkpt lat="49.30866" lon="10.19309"><ele>388</ele></trkpt>
<trkpt lat="49.30880" lon="10.19244"><ele>387</ele></trkpt>
<trkpt lat="49.30904" lon="10.19101"><ele>390</ele></trkpt>
<trkpt lat="49.30905" lon="10.19066"><ele>392</ele></trkpt>
<trkpt lat="49.30901" lon="10.18973"><ele>392</ele></trkpt>
<trkpt lat="49.30905" lon="10.18916"><ele>392</ele></trkpt>
<trkpt lat="49.30914" lon="10.18862"><ele>392</ele></trkpt>
<trkpt lat="49.30935" lon="10.18789"><ele>392</ele></trkpt>
<trkpt lat="49.30943" lon="10.18786"><ele>393</ele></trkpt>
<trkpt lat="49.30968" lon="10.18798"><ele>394</ele></trkpt>
<trkpt lat="49.31039" lon="10.18810"><ele>389</ele></trkpt>
<trkpt lat="49.31070" lon="10.18828"><ele>386</ele></trkpt>
<trkpt lat="49.31099" lon="10.18857"><ele>384</ele></trkpt>
<trkpt lat="49.31108" lon="10.18852"><ele>383</ele></trkpt>
<trkpt lat="49.31171" lon="10.18849"><ele>379</ele></trkpt>
<trkpt lat="49.31235" lon="10.18817"><ele>378</ele></trkpt>
<trkpt lat="49.31305" lon="10.18855"><ele>379</ele></trkpt>
<trkpt lat="49.31327" lon="10.18858"><ele>378</ele></trkpt>
<trkpt lat="49.31352" lon="10.18845"><ele>379</ele></trkpt>
<trkpt lat="49.31399" lon="10.18792"><ele>380</ele></trkpt>
<trkpt lat="49.31434" lon="10.18758"><ele>380</ele></trkpt>
<trkpt lat="49.31443" lon="10.18737"><ele>381</ele></trkpt>
<trkpt lat="49.31445" lon="10.18691"><ele>382</ele></trkpt>
<trkpt lat="49.31573" lon="10.18687"><ele>380</ele></trkpt>
<trkpt lat="49.31645" lon="10.18706"><ele>379</ele></trkpt>
<trkpt lat="49.31698" lon="10.18735"><ele>379</ele></trkpt>
<trkpt lat="49.31746" lon="10.18778"><ele>382</ele></trkpt>
<trkpt lat="49.31813" lon="10.18852"><ele>383</ele></trkpt>
<trkpt lat="49.31827" lon="10.18885"><ele>382</ele></trkpt>
<trkpt lat="49.31853" lon="10.18913"><ele>382</ele></trkpt>
<trkpt lat="49.31872" lon="10.18934"><ele>382</ele></trkpt>
<trkpt lat="49.31912" lon="10.18964"><ele>381</ele></trkpt>
<trkpt lat="49.32366" lon="10.19205"><ele>381</ele></trkpt>
<trkpt lat="49.32433" lon="10.19234"><ele>380</ele></trkpt>
<trkpt lat="49.32484" lon="10.19250"><ele>379</ele></trkpt>
<trkpt lat="49.32587" lon="10.19269"><ele>379</ele></trkpt>
<trkpt lat="49.32867" lon="10.19292"><ele>376</ele></trkpt>
<trkpt lat="49.33037" lon="10.19306"><ele>376</ele></trkpt>
<trkpt lat="49.33060" lon="10.19297"><ele>376</ele></trkpt>
<trkpt lat="49.33384" lon="10.19353"><ele>374</ele></trkpt>
<trkpt lat="49.33525" lon="10.19369"><ele>380</ele></trkpt>
<trkpt lat="49.33615" lon="10.19386"><ele>375</ele></trkpt>
<trkpt lat="49.34303" lon="10.19451"><ele>370</ele></trkpt>
<trkpt lat="49.34329" lon="10.19452"><ele>370</ele></trkpt>
<trkpt lat="49.34370" lon="10.19446"><ele>370</ele></trkpt>
<trkpt lat="49.34412" lon="10.19461"><ele>371</ele></trkpt>
<trkpt lat="49.34618" lon="10.19479"><ele>376</ele></trkpt>
<trkpt lat="49.34659" lon="10.19477"><ele>377</ele></trkpt>
<trkpt lat="49.34686" lon="10.19470"><ele>378</ele></trkpt>
<trkpt lat="49.34788" lon="10.19422"><ele>379</ele></trkpt>
<trkpt lat="49.34950" lon="10.19423"><ele>374</ele></trkpt>
<trkpt lat="49.34990" lon="10.19406"><ele>374</ele></trkpt>
<trkpt lat="49.35065" lon="10.19360"><ele>378</ele></trkpt>
<trkpt lat="49.35102" lon="10.19355"><ele>378</ele></trkpt>
<trkpt lat="49.35225" lon="10.19352"><ele>374</ele></trkpt>
<trkpt lat="49.35276" lon="10.19369"><ele>374</ele></trkpt>
<trkpt lat="49.35322" lon="10.19390"><ele>372</ele></trkpt>
<trkpt lat="49.35325" lon="10.19427"><ele>371</ele></trkpt>
<trkpt lat="49.35323" lon="10.19443"><ele>371</ele></trkpt>
<trkpt lat="49.35327" lon="10.19455"><ele>371</ele></trkpt>
<trkpt lat="49.35366" lon="10.19423"><ele>371</ele></trkpt>
<trkpt lat="49.35392" lon="10.19414"><ele>371</ele></trkpt>
<trkpt lat="49.35475" lon="10.19400"><ele>371</ele></trkpt>
<trkpt lat="49.35710" lon="10.19319"><ele>376</ele></trkpt>
<trkpt lat="49.35842" lon="10.19292"><ele>380</ele></trkpt>
<trkpt lat="49.35877" lon="10.19281"><ele>380</ele></trkpt>
<trkpt lat="49.35931" lon="10.19252"><ele>378</ele></trkpt>
<trkpt lat="49.36086" lon="10.19196"><ele>370</ele></trkpt>
<trkpt lat="49.36093" lon="10.19186"><ele>370</ele></trkpt>
<trkpt lat="49.36113" lon="10.19203"><ele>370</ele></trkpt>
<trkpt lat="49.36144" lon="10.19221"><ele>369</ele></trkpt>
<trkpt lat="49.36172" lon="10.19229"><ele>369</ele></trkpt>
<trkpt lat="49.36204" lon="10.19227"><ele>369</ele></trkpt>
<trkpt lat="49.36235" lon="10.19206"><ele>371</ele></trkpt>
<trkpt lat="49.36233" lon="10.19198"><ele>370</ele></trkpt>
<trkpt lat="49.36236" lon="10.19190"><ele>370</ele></trkpt>
<trkpt lat="49.36266" lon="10.19115"><ele>368</ele></trkpt>
<trkpt lat="49.36275" lon="10.19068"><ele>366</ele></trkpt>
<trkpt lat="49.36283" lon="10.18991"><ele>365</ele></trkpt>
<trkpt lat="49.36282" lon="10.18943"><ele>364</ele></trkpt>
<trkpt lat="49.36271" lon="10.18899"><ele>365</ele></trkpt>
<trkpt lat="49.36230" lon="10.18827"><ele>361</ele></trkpt>
<trkpt lat="49.36218" lon="10.18797"><ele>362</ele></trkpt>
<trkpt lat="49.36209" lon="10.18765"><ele>364</ele></trkpt>
<trkpt lat="49.36191" lon="10.18668"><ele>361</ele></trkpt>
<trkpt lat="49.36184" lon="10.18599"><ele>360</ele></trkpt>
<trkpt lat="49.36186" lon="10.18561"><ele>361</ele></trkpt>
<trkpt lat="49.36211" lon="10.18431"><ele>362</ele></trkpt>
<trkpt lat="49.36221" lon="10.18394"><ele>360</ele></trkpt>
<trkpt lat="49.36245" lon="10.18335"><ele>360</ele></trkpt>
<trkpt lat="49.36237" lon="10.18305"><ele>358</ele></trkpt>
<trkpt lat="49.36243" lon="10.18287"><ele>359</ele></trkpt>
<trkpt lat="49.36251" lon="10.18275"><ele>359</ele></trkpt>
<trkpt lat="49.36282" lon="10.18246"><ele>358</ele></trkpt>
<trkpt lat="49.36313" lon="10.18231"><ele>358</ele></trkpt>
<trkpt lat="49.36346" lon="10.18231"><ele>358</ele></trkpt>
<trkpt lat="49.36394" lon="10.18258"><ele>357</ele></trkpt>
<trkpt lat="49.36432" lon="10.18263"><ele>360</ele></trkpt>
<trkpt lat="49.36493" lon="10.18314"><ele>360</ele></trkpt>
<trkpt lat="49.36547" lon="10.18346"><ele>359</ele></trkpt>
<trkpt lat="49.36572" lon="10.18356"><ele>359</ele></trkpt>
<trkpt lat="49.36591" lon="10.18356"><ele>359</ele></trkpt>
<trkpt lat="49.36606" lon="10.18350"><ele>358</ele></trkpt>
<trkpt lat="49.36617" lon="10.18340"><ele>359</ele></trkpt>
<trkpt lat="49.36645" lon="10.18292"><ele>358</ele></trkpt>
<trkpt lat="49.36712" lon="10.18272"><ele>355</ele></trkpt>
<trkpt lat="49.36718" lon="10.18267"><ele>355</ele></trkpt>
<trkpt lat="49.36733" lon="10.18242"><ele>354</ele></trkpt>
<trkpt lat="49.36748" lon="10.18200"><ele>355</ele></trkpt>
<trkpt lat="49.36830" lon="10.18012"><ele>354</ele></trkpt>
<trkpt lat="49.36861" lon="10.17949"><ele>356</ele></trkpt>
<trkpt lat="49.36900" lon="10.17881"><ele>354</ele></trkpt>
<trkpt lat="49.36912" lon="10.17852"><ele>354</ele></trkpt>
<trkpt lat="49.36970" lon="10.17665"><ele>354</ele></trkpt>
<trkpt lat="49.36965" lon="10.17653"><ele>354</ele></trkpt>
<trkpt lat="49.36958" lon="10.17620"><ele>356</ele></trkpt>
<trkpt lat="49.36940" lon="10.17621"><ele>356</ele></trkpt>
<trkpt lat="49.36915" lon="10.17638"><ele>359</ele></trkpt>
<trkpt lat="49.36904" lon="10.17665"><ele>359</ele></trkpt>
<trkpt lat="49.36899" lon="10.17741"><ele>362</ele></trkpt>
<trkpt lat="49.36893" lon="10.17758"><ele>363</ele></trkpt>
<trkpt lat="49.36885" lon="10.17771"><ele>364</ele></trkpt>
<trkpt lat="49.36874" lon="10.17780"><ele>365</ele></trkpt>
<trkpt lat="49.36851" lon="10.17782"><ele>368</ele></trkpt>
<trkpt lat="49.36834" lon="10.17774"><ele>371</ele></trkpt>
<trkpt lat="49.36823" lon="10.17756"><ele>374</ele></trkpt>
<trkpt lat="49.36816" lon="10.17740"><ele>376</ele></trkpt>
<trkpt lat="49.36816" lon="10.17609"><ele>376</ele></trkpt>
<trkpt lat="49.36812" lon="10.17573"><ele>378</ele></trkpt>
<trkpt lat="49.36798" lon="10.17501"><ele>381</ele></trkpt>
<trkpt lat="49.36777" lon="10.17423"><ele>384</ele></trkpt>
<trkpt lat="49.36759" lon="10.17327"><ele>390</ele></trkpt>
<trkpt lat="49.36751" lon="10.17252"><ele>392</ele></trkpt>
<trkpt lat="49.36747" lon="10.17065"><ele>401</ele></trkpt>
<trkpt lat="49.36753" lon="10.16919"><ele>405</ele></trkpt>
<trkpt lat="49.36597" lon="10.16795"><ele>424</ele></trkpt>
<trkpt lat="49.36581" lon="10.16796"><ele>425</ele></trkpt>
<trkpt lat="49.36559" lon="10.16805"><ele>427</ele></trkpt>
<trkpt lat="49.36533" lon="10.16822"><ele>429</ele></trkpt>
<trkpt lat="49.36441" lon="10.16892"><ele>425</ele></trkpt>
<trkpt lat="49.36411" lon="10.16930"><ele>423</ele></trkpt>
<trkpt lat="49.36385" lon="10.16884"><ele>423</ele></trkpt>
<trkpt lat="49.36324" lon="10.16756"><ele>422</ele></trkpt>
<trkpt lat="49.36283" lon="10.16607"><ele>422</ele></trkpt>
<trkpt lat="49.36282" lon="10.16587"><ele>423</ele></trkpt>
<trkpt lat="49.36285" lon="10.16576"><ele>423</ele></trkpt>
<trkpt lat="49.36294" lon="10.16565"><ele>424</ele></trkpt>
<trkpt lat="49.36387" lon="10.16511"><ele>430</ele></trkpt>
<trkpt lat="49.36444" lon="10.16471"><ele>434</ele></trkpt>
<trkpt lat="49.36506" lon="10.16440"><ele>436</ele></trkpt>
<trkpt lat="49.36513" lon="10.16423"><ele>436</ele></trkpt>
<trkpt lat="49.36512" lon="10.16406"><ele>436</ele></trkpt>
<trkpt lat="49.36497" lon="10.16345"><ele>438</ele></trkpt>
    </trkseg>
  </trk>
</gpx>
