<?xml version="1.0" encoding="UTF-8"?>
<gpx version="1.1" creator="Gravel Kompass" xmlns="http://www.topografix.com/GPX/1/1">
  <metadata><name>München – Haltern am See: Von der Isar ins Münsterland – Etappe 8</name></metadata>
  <trk>
    <name>Etappe 8: Schweinfurt – Bad Neustadt an der Saale</name>
    <trkseg>
<trkpt lat="50.04918" lon="10.23057"><ele>231</ele></trkpt>
<trkpt lat="50.04909" lon="10.23070"><ele>231</ele></trkpt>
<trkpt lat="50.04913" lon="10.23083"><ele>231</ele></trkpt>
<trkpt lat="50.04957" lon="10.23135"><ele>227</ele></trkpt>
<trkpt lat="50.05005" lon="10.23126"><ele>226</ele></trkpt>
<trkpt lat="50.05009" lon="10.23121"><ele>226</ele></trkpt>
<trkpt lat="50.05025" lon="10.23116"><ele>224</ele></trkpt>
<trkpt lat="50.05096" lon="10.23100"><ele>224</ele></trkpt>
<trkpt lat="50.05215" lon="10.23061"><ele>222</ele></trkpt>
<trkpt lat="50.05295" lon="10.22917"><ele>226</ele></trkpt>
<trkpt lat="50.05305" lon="10.22930"><ele>226</ele></trkpt>
<trkpt lat="50.05467" lon="10.22654"><ele>239</ele></trkpt>
<trkpt lat="50.05519" lon="10.22571"><ele>243</ele></trkpt>
<trkpt lat="50.05589" lon="10.22469"><ele>247</ele></trkpt>
<trkpt lat="50.05688" lon="10.22346"><ele>252</ele></trkpt>
<trkpt lat="50.05877" lon="10.22153"><ele>248</ele></trkpt>
<trkpt lat="50.05905" lon="10.22129"><ele>247</ele></trkpt>
<trkpt lat="50.05907" lon="10.22125"><ele>247</ele></trkpt>
<trkpt lat="50.05899" lon="10.22105"><ele>249</ele></trkpt>
<trkpt lat="50.05969" lon="10.22031"><ele>244</ele></trkpt>
<trkpt lat="50.05977" lon="10.22017"><ele>244</ele></trkpt>
<trkpt lat="50.05980" lon="10.21999"><ele>245</ele></trkpt>
<trkpt lat="50.06015" lon="10.21973"><ele>243</ele></trkpt>
<trkpt lat="50.06040" lon="10.21928"><ele>243</ele></trkpt>
<trkpt lat="50.06074" lon="10.21897"><ele>241</ele></trkpt>
<trkpt lat="50.06124" lon="10.21796"><ele>241</ele></trkpt>
<trkpt lat="50.06202" lon="10.21652"><ele>242</ele></trkpt>
<trkpt lat="50.06264" lon="10.21559"><ele>244</ele></trkpt>
<trkpt lat="50.06326" lon="10.21486"><ele>244</ele></trkpt>
<trkpt lat="50.06383" lon="10.21219"><ele>247</ele></trkpt>
<trkpt lat="50.06393" lon="10.21140"><ele>249</ele></trkpt>
<trkpt lat="50.06410" lon="10.21062"><ele>250</ele></trkpt>
<trkpt lat="50.06435" lon="10.20890"><ele>252</ele></trkpt>
<trkpt lat="50.06450" lon="10.20815"><ele>252</ele></trkpt>
<trkpt lat="50.06467" lon="10.20700"><ele>254</ele></trkpt>
<trkpt lat="50.06507" lon="10.20553"><ele>256</ele></trkpt>
<trkpt lat="50.06533" lon="10.20442"><ele>258</ele></trkpt>
<trkpt lat="50.06555" lon="10.20392"><ele>259</ele></trkpt>
<trkpt lat="50.06738" lon="10.20446"><ele>268</ele></trkpt>
<trkpt lat="50.06837" lon="10.20486"><ele>272</ele></trkpt>
<trkpt lat="50.06857" lon="10.20486"><ele>272</ele></trkpt>
<trkpt lat="50.06938" lon="10.20520"><ele>275</ele></trkpt>
<trkpt lat="50.06982" lon="10.20543"><ele>276</ele></trkpt>
<trkpt lat="50.06995" lon="10.20535"><ele>278</ele></trkpt>
<trkpt lat="50.07052" lon="10.20410"><ele>280</ele></trkpt>
<trkpt lat="50.07061" lon="10.20397"><ele>280</ele></trkpt>
<trkpt lat="50.07082" lon="10.20439"><ele>280</ele></trkpt>
<trkpt lat="50.07088" lon="10.20436"><ele>280</ele></trkpt>
<trkpt lat="50.07109" lon="10.20397"><ele>280</ele></trkpt>
<trkpt lat="50.07134" lon="10.20371"><ele>280</ele></trkpt>
<trkpt lat="50.07189" lon="10.20329"><ele>279</ele></trkpt>
<trkpt lat="50.07229" lon="10.20309"><ele>280</ele></trkpt>
<trkpt lat="50.07720" lon="10.20167"><ele>286</ele></trkpt>
<trkpt lat="50.07793" lon="10.20179"><ele>289</ele></trkpt>
<trkpt lat="50.07875" lon="10.20208"><ele>292</ele></trkpt>
<trkpt lat="50.07917" lon="10.20201"><ele>293</ele></trkpt>
<trkpt lat="50.08124" lon="10.20021"><ele>300</ele></trkpt>
<trkpt lat="50.08336" lon="10.19831"><ele>307</ele></trkpt>
<trkpt lat="50.08369" lon="10.19798"><ele>304</ele></trkpt>
<trkpt lat="50.08381" lon="10.19767"><ele>302</ele></trkpt>
<trkpt lat="50.08390" lon="10.19702"><ele>299</ele></trkpt>
<trkpt lat="50.08397" lon="10.19683"><ele>298</ele></trkpt>
<trkpt lat="50.08540" lon="10.19425"><ele>300</ele></trkpt>
<trkpt lat="50.08589" lon="10.19362"><ele>302</ele></trkpt>
<trkpt lat="50.08632" lon="10.19275"><ele>303</ele></trkpt>
<trkpt lat="50.08733" lon="10.19125"><ele>303</ele></trkpt>
<trkpt lat="50.08817" lon="10.19020"><ele>302</ele></trkpt>
<trkpt lat="50.08927" lon="10.18901"><ele>303</ele></trkpt>
<trkpt lat="50.09029" lon="10.18781"><ele>298</ele></trkpt>
<trkpt lat="50.09044" lon="10.18734"><ele>297</ele></trkpt>
<trkpt lat="50.09131" lon="10.18633"><ele>293</ele></trkpt>
<trkpt lat="50.09170" lon="10.18609"><ele>291</ele></trkpt>
<trkpt lat="50.09220" lon="10.18549"><ele>289</ele></trkpt>
<trkpt lat="50.09229" lon="10.18548"><ele>289</ele></trkpt>
<trkpt lat="50.09243" lon="10.18558"><ele>290</ele></trkpt>
<trkpt lat="50.09254" lon="10.18536"><ele>290</ele></trkpt>
<trkpt lat="50.09233" lon="10.18500"><ele>288</ele></trkpt>
<trkpt lat="50.09281" lon="10.18422"><ele>284</ele></trkpt>
<trkpt lat="50.09318" lon="10.18346"><ele>284</ele></trkpt>
<trkpt lat="50.09358" lon="10.18237"><ele>278</ele></trkpt>
<trkpt lat="50.09383" lon="10.18137"><ele>274</ele></trkpt>
<trkpt lat="50.09407" lon="10.17976"><ele>268</ele></trkpt>
<trkpt lat="50.09436" lon="10.17641"><ele>265</ele></trkpt>
<trkpt lat="50.09417" lon="10.17628"><ele>264</ele></trkpt>
<trkpt lat="50.09379" lon="10.17612"><ele>265</ele></trkpt>
<trkpt lat="50.09363" lon="10.17394"><ele>263</ele></trkpt>
<trkpt lat="50.09380" lon="10.17282"><ele>262</ele></trkpt>
<trkpt lat="50.09424" lon="10.17217"><ele>262</ele></trkpt>
<trkpt lat="50.09429" lon="10.17205"><ele>262</ele></trkpt>
<trkpt lat="50.09433" lon="10.17174"><ele>261</ele></trkpt>
<trkpt lat="50.09436" lon="10.17033"><ele>259</ele></trkpt>
<trkpt lat="50.09434" lon="10.16960"><ele>260</ele></trkpt>
<trkpt lat="50.09415" lon="10.16783"><ele>258</ele></trkpt>
<trkpt lat="50.09398" lon="10.16531"><ele>257</ele></trkpt>
<trkpt lat="50.09414" lon="10.16236"><ele>255</ele></trkpt>
<trkpt lat="50.09414" lon="10.16102"><ele>254</ele></trkpt>
<trkpt lat="50.09412" lon="10.16087"><ele>254</ele></trkpt>
<trkpt lat="50.09584" lon="10.16115"><ele>269</ele></trkpt>
<trkpt lat="50.09597" lon="10.16121"><ele>272</ele></trkpt>
<trkpt lat="50.09623" lon="10.16145"><ele>276</ele></trkpt>
<trkpt lat="50.09638" lon="10.16152"><ele>278</ele></trkpt>
<trkpt lat="50.09757" lon="10.16186"><ele>290</ele></trkpt>
<trkpt lat="50.09873" lon="10.16248"><ele>299</ele></trkpt>
<trkpt lat="50.09930" lon="10.16270"><ele>299</ele></trkpt>
<trkpt lat="50.09951" lon="10.16283"><ele>299</ele></trkpt>
<trkpt lat="50.09970" lon="10.16303"><ele>300</ele></trkpt>
<trkpt lat="50.09997" lon="10.16366"><ele>300</ele></trkpt>
<trkpt lat="50.10011" lon="10.16386"><ele>300</ele></trkpt>
<trkpt lat="50.10027" lon="10.16402"><ele>300</ele></trkpt>
<trkpt lat="50.10050" lon="10.16409"><ele>300</ele></trkpt>
<trkpt lat="50.10138" lon="10.16404"><ele>302</ele></trkpt>
<trkpt lat="50.10162" lon="10.16391"><ele>302</ele></trkpt>
<trkpt lat="50.10215" lon="10.16348"><ele>300</ele></trkpt>
<trkpt lat="50.10244" lon="10.16343"><ele>298</ele></trkpt>
<trkpt lat="50.10487" lon="10.16350"><ele>301</ele></trkpt>
<trkpt lat="50.10504" lon="10.16354"><ele>302</ele></trkpt>
<trkpt lat="50.10531" lon="10.16378"><ele>304</ele></trkpt>
<trkpt lat="50.10550" lon="10.16380"><ele>303</ele></trkpt>
<trkpt lat="50.10560" lon="10.16377"><ele>303</ele></trkpt>
<trkpt lat="50.10580" lon="10.16348"><ele>300</ele></trkpt>
<trkpt lat="50.10599" lon="10.16340"><ele>299</ele></trkpt>
<trkpt lat="50.10724" lon="10.16331"><ele>292</ele></trkpt>
<trkpt lat="50.10829" lon="10.16293"><ele>297</ele></trkpt>
<trkpt lat="50.10893" lon="10.16279"><ele>294</ele></trkpt>
<trkpt lat="50.10935" lon="10.16275"><ele>292</ele></trkpt>
<trkpt lat="50.10995" lon="10.16257"><ele>288</ele></trkpt>
<trkpt lat="50.11100" lon="10.16202"><ele>299</ele></trkpt>
<trkpt lat="50.11213" lon="10.16166"><ele>310</ele></trkpt>
<trkpt lat="50.11269" lon="10.16142"><ele>312</ele></trkpt>
<trkpt lat="50.11353" lon="10.16070"><ele>304</ele></trkpt>
<trkpt lat="50.11406" lon="10.16014"><ele>296</ele></trkpt>
<trkpt lat="50.11440" lon="10.15988"><ele>293</ele></trkpt>
<trkpt lat="50.11468" lon="10.15979"><ele>288</ele></trkpt>
<trkpt lat="50.11494" lon="10.15980"><ele>285</ele></trkpt>
<trkpt lat="50.11552" lon="10.15934"><ele>280</ele></trkpt>
<trkpt lat="50.11587" lon="10.15897"><ele>282</ele></trkpt>
<trkpt lat="50.11624" lon="10.15843"><ele>286</ele></trkpt>
<trkpt lat="50.11672" lon="10.15788"><ele>290</ele></trkpt>
<trkpt lat="50.11726" lon="10.15744"><ele>296</ele></trkpt>
<trkpt lat="50.11816" lon="10.15687"><ele>305</ele></trkpt>
<trkpt lat="50.11845" lon="10.15662"><ele>306</ele></trkpt>
<trkpt lat="50.11870" lon="10.15637"><ele>304</ele></trkpt>
<trkpt lat="50.11933" lon="10.15546"><ele>290</ele></trkpt>
<trkpt lat="50.11960" lon="10.15521"><ele>284</ele></trkpt>
<trkpt lat="50.11996" lon="10.15497"><ele>274</ele></trkpt>
<trkpt lat="50.12015" lon="10.15457"><ele>268</ele></trkpt>
<trkpt lat="50.12004" lon="10.15404"><ele>268</ele></trkpt>
<trkpt lat="50.12007" lon="10.15389"><ele>267</ele></trkpt>
<trkpt lat="50.12030" lon="10.15371"><ele>266</ele></trkpt>
<trkpt lat="50.12051" lon="10.15344"><ele>266</ele></trkpt>
<trkpt lat="50.12061" lon="10.15339"><ele>266</ele></trkpt>
<trkpt lat="50.12099" lon="10.15273"><ele>270</ele></trkpt>
<trkpt lat="50.12229" lon="10.15216"><ele>283</ele></trkpt>
<trkpt lat="50.12367" lon="10.15137"><ele>290</ele></trkpt>
<trkpt lat="50.12430" lon="10.15091"><ele>295</ele></trkpt>
<trkpt lat="50.12592" lon="10.15010"><ele>302</ele></trkpt>
<trkpt lat="50.12737" lon="10.14964"><ele>306</ele></trkpt>
<trkpt lat="50.12734" lon="10.14821"><ele>298</ele></trkpt>
<trkpt lat="50.12730" lon="10.14801"><ele>296</ele></trkpt>
<trkpt lat="50.12667" lon="10.14677"><ele>284</ele></trkpt>
<trkpt lat="50.12656" lon="10.14630"><ele>283</ele></trkpt>
<trkpt lat="50.12656" lon="10.14608"><ele>282</ele></trkpt>
<trkpt lat="50.12697" lon="10.14644"><ele>282</ele></trkpt>
<trkpt lat="50.12713" lon="10.14652"><ele>282</ele></trkpt>
<trkpt lat="50.12730" lon="10.14650"><ele>283</ele></trkpt>
<trkpt lat="50.12741" lon="10.14642"><ele>283</ele></trkpt>
<trkpt lat="50.12895" lon="10.14385"><ele>287</ele></trkpt>
<trkpt lat="50.12911" lon="10.14371"><ele>287</ele></trkpt>
<trkpt lat="50.13225" lon="10.14223"><ele>289</ele></trkpt>
<trkpt lat="50.13268" lon="10.14209"><ele>289</ele></trkpt>
<trkpt lat="50.13306" lon="10.14223"><ele>289</ele></trkpt>
<trkpt lat="50.13439" lon="10.14257"><ele>289</ele></trkpt>
<trkpt lat="50.13467" lon="10.14268"><ele>290</ele></trkpt>
<trkpt lat="50.13484" lon="10.14281"><ele>290</ele></trkpt>
<trkpt lat="50.13508" lon="10.14308"><ele>290</ele></trkpt>
<trkpt lat="50.13603" lon="10.14453"><ele>290</ele></trkpt>
<trkpt lat="50.13614" lon="10.14459"><ele>290</ele></trkpt>
<trkpt lat="50.13762" lon="10.14484"><ele>292</ele></trkpt>
<trkpt lat="50.13819" lon="10.14388"><ele>293</ele></trkpt>
<trkpt lat="50.13830" lon="10.14362"><ele>293</ele></trkpt>
<trkpt lat="50.13893" lon="10.14058"><ele>298</ele></trkpt>
<trkpt lat="50.13945" lon="10.13838"><ele>299</ele></trkpt>
<trkpt lat="50.13963" lon="10.13817"><ele>299</ele></trkpt>
<trkpt lat="50.13998" lon="10.13793"><ele>300</ele></trkpt>
<trkpt lat="50.14038" lon="10.13755"><ele>303</ele></trkpt>
<trkpt lat="50.14066" lon="10.13743"><ele>302</ele></trkpt>
<trkpt lat="50.14079" lon="10.13743"><ele>302</ele></trkpt>
<trkpt lat="50.14104" lon="10.13753"><ele>303</ele></trkpt>
<trkpt lat="50.14160" lon="10.13828"><ele>303</ele></trkpt>
<trkpt lat="50.14255" lon="10.13907"><ele>304</ele></trkpt>
<trkpt lat="50.14312" lon="10.13960"><ele>304</ele></trkpt>
<trkpt lat="50.14428" lon="10.13997"><ele>308</ele></trkpt>
<trkpt lat="50.14459" lon="10.14003"><ele>310</ele></trkpt>
<trkpt lat="50.14482" lon="10.14018"><ele>310</ele></trkpt>
<trkpt lat="50.14650" lon="10.14222"><ele>302</ele></trkpt>
<trkpt lat="50.14871" lon="10.14020"><ele>304</ele></trkpt>
<trkpt lat="50.14998" lon="10.13855"><ele>307</ele></trkpt>
<trkpt lat="50.15125" lon="10.13707"><ele>315</ele></trkpt>
<trkpt lat="50.15435" lon="10.13317"><ele>335</ele></trkpt>
<trkpt lat="50.15419" lon="10.13044"><ele>335</ele></trkpt>
<trkpt lat="50.15532" lon="10.12825"><ele>337</ele></trkpt>
<trkpt lat="50.15550" lon="10.12800"><ele>338</ele></trkpt>
<trkpt lat="50.15580" lon="10.12771"><ele>339</ele></trkpt>
<trkpt lat="50.15658" lon="10.12621"><ele>340</ele></trkpt>
<trkpt lat="50.15707" lon="10.12645"><ele>339</ele></trkpt>
<trkpt lat="50.15729" lon="10.12651"><ele>338</ele></trkpt>
<trkpt lat="50.15849" lon="10.12664"><ele>332</ele></trkpt>
<trkpt lat="50.15868" lon="10.12529"><ele>332</ele></trkpt>
<trkpt lat="50.15892" lon="10.12445"><ele>334</ele></trkpt>
<trkpt lat="50.15912" lon="10.12346"><ele>336</ele></trkpt>
<trkpt lat="50.15925" lon="10.12252"><ele>337</ele></trkpt>
<trkpt lat="50.15922" lon="10.12242"><ele>337</ele></trkpt>
<trkpt lat="50.15829" lon="10.12226"><ele>343</ele></trkpt>
<trkpt lat="50.15924" lon="10.12111"><ele>344</ele></trkpt>
<trkpt lat="50.15984" lon="10.12006"><ele>346</ele></trkpt>
<trkpt lat="50.15996" lon="10.11993"><ele>346</ele></trkpt>
<trkpt lat="50.16016" lon="10.11975"><ele>346</ele></trkpt>
<trkpt lat="50.16087" lon="10.11937"><ele>346</ele></trkpt>
<trkpt lat="50.16104" lon="10.11921"><ele>346</ele></trkpt>
<trkpt lat="50.16199" lon="10.11780"><ele>342</ele></trkpt>
<trkpt lat="50.16338" lon="10.11532"><ele>333</ele></trkpt>
<trkpt lat="50.16369" lon="10.11491"><ele>332</ele></trkpt>
<trkpt lat="50.16742" lon="10.11059"><ele>298</ele></trkpt>
<trkpt lat="50.16775" lon="10.11028"><ele>295</ele></trkpt>
<trkpt lat="50.16854" lon="10.10971"><ele>288</ele></trkpt>
<trkpt lat="50.16821" lon="10.10823"><ele>287</ele></trkpt>
<trkpt lat="50.16806" lon="10.10790"><ele>285</ele></trkpt>
<trkpt lat="50.16789" lon="10.10770"><ele>282</ele></trkpt>
<trkpt lat="50.16692" lon="10.10726"><ele>274</ele></trkpt>
<trkpt lat="50.16669" lon="10.10694"><ele>272</ele></trkpt>
<trkpt lat="50.16640" lon="10.10625"><ele>270</ele></trkpt>
<trkpt lat="50.16618" lon="10.10558"><ele>269</ele></trkpt>
<trkpt lat="50.16601" lon="10.10484"><ele>268</ele></trkpt>
<trkpt lat="50.16600" lon="10.10448"><ele>266</ele></trkpt>
<trkpt lat="50.16603" lon="10.10411"><ele>266</ele></trkpt>
<trkpt lat="50.16626" lon="10.10310"><ele>261</ele></trkpt>
<trkpt lat="50.16627" lon="10.10197"><ele>258</ele></trkpt>
<trkpt lat="50.16623" lon="10.10173"><ele>256</ele></trkpt>
<trkpt lat="50.16577" lon="10.10015"><ele>253</ele></trkpt>
<trkpt lat="50.16569" lon="10.09963"><ele>251</ele></trkpt>
<trkpt lat="50.16571" lon="10.09792"><ele>246</ele></trkpt>
<trkpt lat="50.16573" lon="10.09751"><ele>244</ele></trkpt>
<trkpt lat="50.16677" lon="10.09470"><ele>239</ele></trkpt>
<trkpt lat="50.16698" lon="10.09442"><ele>239</ele></trkpt>
<trkpt lat="50.16713" lon="10.09435"><ele>239</ele></trkpt>
<trkpt lat="50.16760" lon="10.09426"><ele>240</ele></trkpt>
<trkpt lat="50.16658" lon="10.09152"><ele>237</ele></trkpt>
<trkpt lat="50.16711" lon="10.09083"><ele>236</ele></trkpt>
<trkpt lat="50.16797" lon="10.08986"><ele>236</ele></trkpt>
<trkpt lat="50.16822" lon="10.08950"><ele>235</ele></trkpt>
<trkpt lat="50.16819" lon="10.08929"><ele>236</ele></trkpt>
<trkpt lat="50.16844" lon="10.08851"><ele>235</ele></trkpt>
<trkpt lat="50.16859" lon="10.08777"><ele>234</ele></trkpt>
<trkpt lat="50.16861" lon="10.08683"><ele>232</ele></trkpt>
<trkpt lat="50.16895" lon="10.08682"><ele>230</ele></trkpt>
<trkpt lat="50.16910" lon="10.08696"><ele>229</ele></trkpt>
<trkpt lat="50.16923" lon="10.08701"><ele>229</ele></trkpt>
<trkpt lat="50.16998" lon="10.08700"><ele>228</ele></trkpt>
<trkpt lat="50.17037" lon="10.08739"><ele>229</ele></trkpt>
<trkpt lat="50.17048" lon="10.08770"><ele>230</ele></trkpt>
<trkpt lat="50.17049" lon="10.08803"><ele>230</ele></trkpt>
<trkpt lat="50.17097" lon="10.08704"><ele>230</ele></trkpt>
<trkpt lat="50.17109" lon="10.08670"><ele>231</ele></trkpt>
<trkpt lat="50.17127" lon="10.08590"><ele>238</ele></trkpt>
<trkpt lat="50.17138" lon="10.08576"><ele>240</ele></trkpt>
<trkpt lat="50.17228" lon="10.08524"><ele>247</ele></trkpt>
<trkpt lat="50.17238" lon="10.08538"><ele>246</ele></trkpt>
<trkpt lat="50.17281" lon="10.08575"><ele>240</ele></trkpt>
<trkpt lat="50.17395" lon="10.08506"><ele>248</ele></trkpt>
<trkpt lat="50.17483" lon="10.08433"><ele>250</ele></trkpt>
<trkpt lat="50.17533" lon="10.08382"><ele>247</ele></trkpt>
<trkpt lat="50.17557" lon="10.08484"><ele>248</ele></trkpt>
<trkpt lat="50.17567" lon="10.08497"><ele>249</ele></trkpt>
<trkpt lat="50.17606" lon="10.08462"><ele>248</ele></trkpt>
<trkpt lat="50.17647" lon="10.08412"><ele>244</ele></trkpt>
<trkpt lat="50.17673" lon="10.08367"><ele>242</ele></trkpt>
<trkpt lat="50.17733" lon="10.08217"><ele>233</ele></trkpt>
<trkpt lat="50.17750" lon="10.08160"><ele>230</ele></trkpt>
<trkpt lat="50.17760" lon="10.08150"><ele>231</ele></trkpt>
<trkpt lat="50.17860" lon="10.08097"><ele>230</ele></trkpt>
<trkpt lat="50.17883" lon="10.08105"><ele>230</ele></trkpt>
<trkpt lat="50.17994" lon="10.08122"><ele>232</ele></trkpt>
<trkpt lat="50.18028" lon="10.08123"><ele>233</ele></trkpt>
<trkpt lat="50.18098" lon="10.08110"><ele>234</ele></trkpt>
<trkpt lat="50.18260" lon="10.08023"><ele>226</ele></trkpt>
<trkpt lat="50.18353" lon="10.07985"><ele>224</ele></trkpt>
<trkpt lat="50.18503" lon="10.07932"><ele>226</ele></trkpt>
<trkpt lat="50.18582" lon="10.07895"><ele>223</ele></trkpt>
<trkpt lat="50.18597" lon="10.07898"><ele>221</ele></trkpt>
<trkpt lat="50.18635" lon="10.07949"><ele>226</ele></trkpt>
<trkpt lat="50.18650" lon="10.07950"><ele>226</ele></trkpt>
<trkpt lat="50.18683" lon="10.07931"><ele>222</ele></trkpt>
<trkpt lat="50.18709" lon="10.07909"><ele>220</ele></trkpt>
<trkpt lat="50.18751" lon="10.07900"><ele>219</ele></trkpt>
<trkpt lat="50.18816" lon="10.07929"><ele>215</ele></trkpt>
<trkpt lat="50.18819" lon="10.07942"><ele>215</ele></trkpt>
<trkpt lat="50.18816" lon="10.07957"><ele>216</ele></trkpt>
<trkpt lat="50.18817" lon="10.07979"><ele>217</ele></trkpt>
<trkpt lat="50.18820" lon="10.07985"><ele>217</ele></trkpt>
<trkpt lat="50.18829" lon="10.07982"><ele>216</ele></trkpt>
<trkpt lat="50.18835" lon="10.07973"><ele>215</ele></trkpt>
<trkpt lat="50.18835" lon="10.07956"><ele>214</ele></trkpt>
<trkpt lat="50.18845" lon="10.07939"><ele>215</ele></trkpt>
<trkpt lat="50.18831" lon="10.07857"><ele>212</ele></trkpt>
<trkpt lat="50.18831" lon="10.07830"><ele>210</ele></trkpt>
<trkpt lat="50.18833" lon="10.07796"><ele>208</ele></trkpt>
<trkpt lat="50.18853" lon="10.07708"><ele>205</ele></trkpt>
<trkpt lat="50.18853" lon="10.07691"><ele>205</ele></trkpt>
<trkpt lat="50.18899" lon="10.07695"><ele>204</ele></trkpt>
<trkpt lat="50.19053" lon="10.07758"><ele>203</ele></trkpt>
<trkpt lat="50.19077" lon="10.07776"><ele>204</ele></trkpt>
<trkpt lat="50.19087" lon="10.07779"><ele>204</ele></trkpt>
<trkpt lat="50.19089" lon="10.07787"><ele>204</ele></trkpt>
<trkpt lat="50.19098" lon="10.07796"><ele>204</ele></trkpt>
<trkpt lat="50.19276" lon="10.07952"><ele>217</ele></trkpt>
<trkpt lat="50.19387" lon="10.07991"><ele>216</ele></trkpt>
<trkpt lat="50.19471" lon="10.08058"><ele>217</ele></trkpt>
<trkpt lat="50.19486" lon="10.08063"><ele>216</ele></trkpt>
<trkpt lat="50.19548" lon="10.08027"><ele>213</ele></trkpt>
<trkpt lat="50.19583" lon="10.07994"><ele>211</ele></trkpt>
<trkpt lat="50.19605" lon="10.07960"><ele>209</ele></trkpt>
<trkpt lat="50.19647" lon="10.07846"><ele>204</ele></trkpt>
<trkpt lat="50.19658" lon="10.07804"><ele>202</ele></trkpt>
<trkpt lat="50.19684" lon="10.07791"><ele>201</ele></trkpt>
<trkpt lat="50.19658" lon="10.07804"><ele>202</ele></trkpt>
<trkpt lat="50.19658" lon="10.07755"><ele>200</ele></trkpt>
<trkpt lat="50.19706" lon="10.07732"><ele>200</ele></trkpt>
<trkpt lat="50.19758" lon="10.07690"><ele>200</ele></trkpt>
<trkpt lat="50.19761" lon="10.07717"><ele>201</ele></trkpt>
<trkpt lat="50.19840" lon="10.07838"><ele>204</ele></trkpt>
<trkpt lat="50.19920" lon="10.07933"><ele>207</ele></trkpt>
<trkpt lat="50.19944" lon="10.07917"><ele>207</ele></trkpt>
<trkpt lat="50.19955" lon="10.07919"><ele>207</ele></trkpt>
<trkpt lat="50.19958" lon="10.07910"><ele>207</ele></trkpt>
<trkpt lat="50.19983" lon="10.07885"><ele>206</ele></trkpt>
<trkpt lat="50.20016" lon="10.07858"><ele>205</ele></trkpt>
<trkpt lat="50.20069" lon="10.07827"><ele>205</ele></trkpt>
<trkpt lat="50.20080" lon="10.07828"><ele>205</ele></trkpt>
<trkpt lat="50.20102" lon="10.07886"><ele>205</ele></trkpt>
<trkpt lat="50.20156" lon="10.07952"><ele>206</ele></trkpt>
<trkpt lat="50.20192" lon="10.08004"><ele>208</ele></trkpt>
<trkpt lat="50.20209" lon="10.08037"><ele>209</ele></trkpt>
<trkpt lat="50.20297" lon="10.08301"><ele>216</ele></trkpt>
<trkpt lat="50.20421" lon="10.08166"><ele>220</ele></trkpt>
<trkpt lat="50.20498" lon="10.08265"><ele>225</ele></trkpt>
<trkpt lat="50.20540" lon="10.08281"><ele>227</ele></trkpt>
<trkpt lat="50.20584" lon="10.08329"><ele>230</ele></trkpt>
<trkpt lat="50.20598" lon="10.08333"><ele>230</ele></trkpt>
<trkpt lat="50.20612" lon="10.08331"><ele>231</ele></trkpt>
<trkpt lat="50.20665" lon="10.08303"><ele>234</ele></trkpt>
<trkpt lat="50.20690" lon="10.08299"><ele>234</ele></trkpt>
<trkpt lat="50.20703" lon="10.08306"><ele>235</ele></trkpt>
<trkpt lat="50.20772" lon="10.08374"><ele>238</ele></trkpt>
<trkpt lat="50.20786" lon="10.08380"><ele>239</ele></trkpt>
<trkpt lat="50.20799" lon="10.08381"><ele>240</ele></trkpt>
<trkpt lat="50.20799" lon="10.08403"><ele>240</ele></trkpt>
<trkpt lat="50.20852" lon="10.08423"><ele>242</ele></trkpt>
<trkpt lat="50.20880" lon="10.08424"><ele>244</ele></trkpt>
<trkpt lat="50.20895" lon="10.08420"><ele>246</ele></trkpt>
<trkpt lat="50.21034" lon="10.08346"><ele>256</ele></trkpt>
<trkpt lat="50.21075" lon="10.08470"><ele>263</ele></trkpt>
<trkpt lat="50.21077" lon="10.08490"><ele>264</ele></trkpt>
<trkpt lat="50.21088" lon="10.08503"><ele>264</ele></trkpt>
<trkpt lat="50.21159" lon="10.08459"><ele>259</ele></trkpt>
<trkpt lat="50.21233" lon="10.08429"><ele>257</ele></trkpt>
<trkpt lat="50.21320" lon="10.08367"><ele>259</ele></trkpt>
<trkpt lat="50.21380" lon="10.08341"><ele>265</ele></trkpt>
<trkpt lat="50.21410" lon="10.08344"><ele>268</ele></trkpt>
<trkpt lat="50.21534" lon="10.08322"><ele>266</ele></trkpt>
<trkpt lat="50.21550" lon="10.08315"><ele>263</ele></trkpt>
<trkpt lat="50.21562" lon="10.08303"><ele>262</ele></trkpt>
<trkpt lat="50.21605" lon="10.08238"><ele>256</ele></trkpt>
<trkpt lat="50.21681" lon="10.08115"><ele>246</ele></trkpt>
<trkpt lat="50.21700" lon="10.08095"><ele>244</ele></trkpt>
<trkpt lat="50.21804" lon="10.08021"><ele>236</ele></trkpt>
<trkpt lat="50.21961" lon="10.07882"><ele>240</ele></trkpt>
<trkpt lat="50.21987" lon="10.07843"><ele>240</ele></trkpt>
<trkpt lat="50.22111" lon="10.07584"><ele>249</ele></trkpt>
<trkpt lat="50.22131" lon="10.07557"><ele>251</ele></trkpt>
<trkpt lat="50.22231" lon="10.07479"><ele>256</ele></trkpt>
<trkpt lat="50.22298" lon="10.07432"><ele>256</ele></trkpt>
<trkpt lat="50.22324" lon="10.07407"><ele>254</ele></trkpt>
<trkpt lat="50.22354" lon="10.07386"><ele>252</ele></trkpt>
<trkpt lat="50.22387" lon="10.07368"><ele>250</ele></trkpt>
<trkpt lat="50.22444" lon="10.07348"><ele>249</ele></trkpt>
<trkpt lat="50.22611" lon="10.07356"><ele>244</ele></trkpt>
<trkpt lat="50.22665" lon="10.07344"><ele>240</ele></trkpt>
<trkpt lat="50.22701" lon="10.07347"><ele>239</ele></trkpt>
<trkpt lat="50.22793" lon="10.07382"><ele>234</ele></trkpt>
<trkpt lat="50.22801" lon="10.07390"><ele>234</ele></trkpt>
<trkpt lat="50.22811" lon="10.07410"><ele>234</ele></trkpt>
<trkpt lat="50.22830" lon="10.07541"><ele>230</ele></trkpt>
<trkpt lat="50.22861" lon="10.07695"><ele>222</ele></trkpt>
<trkpt lat="50.22879" lon="10.07927"><ele>222</ele></trkpt>
<trkpt lat="50.22888" lon="10.07943"><ele>221</ele></trkpt>
<trkpt lat="50.22966" lon="10.07960"><ele>215</ele></trkpt>
<trkpt lat="50.22966" lon="10.08061"><ele>215</ele></trkpt>
<trkpt lat="50.22959" lon="10.08136"><ele>215</ele></trkpt>
<trkpt lat="50.23114" lon="10.08272"><ele>222</ele></trkpt>
<trkpt lat="50.23152" lon="10.08300"><ele>229</ele></trkpt>
<trkpt lat="50.23209" lon="10.08327"><ele>238</ele></trkpt>
<trkpt lat="50.23300" lon="10.08399"><ele>250</ele></trkpt>
<trkpt lat="50.23309" lon="10.08398"><ele>250</ele></trkpt>
<trkpt lat="50.23391" lon="10.08350"><ele>256</ele></trkpt>
<trkpt lat="50.23423" lon="10.08327"><ele>254</ele></trkpt>
<trkpt lat="50.23474" lon="10.08428"><ele>257</ele></trkpt>
<trkpt lat="50.23482" lon="10.08448"><ele>258</ele></trkpt>
<trkpt lat="50.23501" lon="10.08531"><ele>260</ele></trkpt>
<trkpt lat="50.23524" lon="10.08650"><ele>266</ele></trkpt>
<trkpt lat="50.23544" lon="10.08730"><ele>270</ele></trkpt>
<trkpt lat="50.23572" lon="10.08786"><ele>273</ele></trkpt>
<trkpt lat="50.23688" lon="10.08977"><ele>278</ele></trkpt>
<trkpt lat="50.23721" lon="10.09047"><ele>278</ele></trkpt>
<trkpt lat="50.23736" lon="10.09091"><ele>279</ele></trkpt>
<trkpt lat="50.23748" lon="10.09145"><ele>280</ele></trkpt>
<trkpt lat="50.23757" lon="10.09210"><ele>282</ele></trkpt>
<trkpt lat="50.23768" lon="10.09387"><ele>285</ele></trkpt>
<trkpt lat="50.23773" lon="10.09435"><ele>286</ele></trkpt>
<trkpt lat="50.23803" lon="10.09620"><ele>287</ele></trkpt>
<trkpt lat="50.23830" lon="10.09742"><ele>289</ele></trkpt>
<trkpt lat="50.23842" lon="10.09932"><ele>293</ele></trkpt>
<trkpt lat="50.23882" lon="10.10261"><ele>296</ele></trkpt>
<trkpt lat="50.23883" lon="10.10345"><ele>294</ele></trkpt>
<trkpt lat="50.23879" lon="10.10468"><ele>292</ele></trkpt>
<trkpt lat="50.23863" lon="10.10711"><ele>292</ele></trkpt>
<trkpt lat="50.23877" lon="10.10849"><ele>287</ele></trkpt>
<trkpt lat="50.23891" lon="10.11081"><ele>279</ele></trkpt>
<trkpt lat="50.23909" lon="10.11245"><ele>270</ele></trkpt>
<trkpt lat="50.23897" lon="10.11397"><ele>265</ele></trkpt>
<trkpt lat="50.23894" lon="10.11686"><ele>280</ele></trkpt>
<trkpt lat="50.23882" lon="10.11734"><ele>284</ele></trkpt>
<trkpt lat="50.23853" lon="10.11803"><ele>287</ele></trkpt>
<trkpt lat="50.23841" lon="10.11843"><ele>288</ele></trkpt>
<trkpt lat="50.23831" lon="10.11998"><ele>290</ele></trkpt>
<trkpt lat="50.23825" lon="10.12036"><ele>290</ele></trkpt>
<trkpt lat="50.23812" lon="10.12074"><ele>290</ele></trkpt>
<trkpt lat="50.23821" lon="10.12084"><ele>291</ele></trkpt>
<trkpt lat="50.23859" lon="10.12216"><ele>303</ele></trkpt>
<trkpt lat="50.23861" lon="10.12278"><ele>305</ele></trkpt>
<trkpt lat="50.23892" lon="10.12333"><ele>311</ele></trkpt>
<trkpt lat="50.23929" lon="10.12370"><ele>316</ele></trkpt>
<trkpt lat="50.23926" lon="10.12381"><ele>315</ele></trkpt>
<trkpt lat="50.23929" lon="10.12402"><ele>314</ele></trkpt>
<trkpt lat="50.23940" lon="10.12440"><ele>310</ele></trkpt>
<trkpt lat="50.23952" lon="10.12467"><ele>308</ele></trkpt>
<trkpt lat="50.23965" lon="10.12488"><ele>308</ele></trkpt>
<trkpt lat="50.23979" lon="10.12494"><ele>309</ele></trkpt>
<trkpt lat="50.23994" lon="10.12519"><ele>308</ele></trkpt>
<trkpt lat="50.24007" lon="10.12525"><ele>309</ele></trkpt>
<trkpt lat="50.24031" lon="10.12552"><ele>310</ele></trkpt>
<trkpt lat="50.24062" lon="10.12575"><ele>313</ele></trkpt>
<trkpt lat="50.24084" lon="10.12602"><ele>314</ele></trkpt>
<trkpt lat="50.24110" lon="10.12645"><ele>317</ele></trkpt>
<trkpt lat="50.24149" lon="10.12749"><ele>321</ele></trkpt>
<trkpt lat="50.24172" lon="10.12850"><ele>323</ele></trkpt>
<trkpt lat="50.24171" lon="10.12865"><ele>323</ele></trkpt>
<trkpt lat="50.24153" lon="10.12893"><ele>323</ele></trkpt>
<trkpt lat="50.24145" lon="10.12912"><ele>323</ele></trkpt>
<trkpt lat="50.24144" lon="10.12979"><ele>324</ele></trkpt>
<trkpt lat="50.24149" lon="10.13008"><ele>326</ele></trkpt>
<trkpt lat="50.24191" lon="10.13223"><ele>329</ele></trkpt>
<trkpt lat="50.24205" lon="10.13272"><ele>330</ele></trkpt>
<trkpt lat="50.24235" lon="10.13328"><ele>331</ele></trkpt>
<trkpt lat="50.24264" lon="10.13397"><ele>331</ele></trkpt>
<trkpt lat="50.24292" lon="10.13547"><ele>335</ele></trkpt>
<trkpt lat="50.24329" lon="10.13716"><ele>334</ele></trkpt>
<trkpt lat="50.24336" lon="10.13747"><ele>333</ele></trkpt>
<trkpt lat="50.24351" lon="10.13791"><ele>332</ele></trkpt>
<trkpt lat="50.24524" lon="10.14132"><ele>325</ele></trkpt>
<trkpt lat="50.24582" lon="10.14228"><ele>324</ele></trkpt>
<trkpt lat="50.24650" lon="10.14394"><ele>322</ele></trkpt>
<trkpt lat="50.24678" lon="10.14475"><ele>320</ele></trkpt>
<trkpt lat="50.24701" lon="10.14569"><ele>319</ele></trkpt>
<trkpt lat="50.24972" lon="10.14374"><ele>324</ele></trkpt>
<trkpt lat="50.24994" lon="10.14375"><ele>323</ele></trkpt>
<trkpt lat="50.25064" lon="10.14401"><ele>322</ele></trkpt>
<trkpt lat="50.25157" lon="10.14411"><ele>324</ele></trkpt>
<trkpt lat="50.25464" lon="10.14337"><ele>336</ele></trkpt>
<trkpt lat="50.25556" lon="10.14319"><ele>332</ele></trkpt>
<trkpt lat="50.25566" lon="10.14328"><ele>330</ele></trkpt>
<trkpt lat="50.25604" lon="10.14629"><ele>322</ele></trkpt>
<trkpt lat="50.25626" lon="10.14910"><ele>308</ele></trkpt>
<trkpt lat="50.25638" lon="10.14986"><ele>307</ele></trkpt>
<trkpt lat="50.25660" lon="10.15088"><ele>305</ele></trkpt>
<trkpt lat="50.25697" lon="10.15208"><ele>301</ele></trkpt>
<trkpt lat="50.25709" lon="10.15229"><ele>300</ele></trkpt>
<trkpt lat="50.25738" lon="10.15256"><ele>300</ele></trkpt>
<trkpt lat="50.25748" lon="10.15269"><ele>300</ele></trkpt>
<trkpt lat="50.25755" lon="10.15281"><ele>300</ele></trkpt>
<trkpt lat="50.25772" lon="10.15330"><ele>300</ele></trkpt>
<trkpt lat="50.25802" lon="10.15367"><ele>300</ele></trkpt>
<trkpt lat="50.25801" lon="10.15377"><ele>300</ele></trkpt>
<trkpt lat="50.25767" lon="10.15432"><ele>298</ele></trkpt>
<trkpt lat="50.25756" lon="10.15459"><ele>298</ele></trkpt>
<trkpt lat="50.25750" lon="10.15492"><ele>300</ele></trkpt>
<trkpt lat="50.25749" lon="10.15528"><ele>300</ele></trkpt>
<trkpt lat="50.25757" lon="10.15600"><ele>302</ele></trkpt>
<trkpt lat="50.25774" lon="10.15607"><ele>302</ele></trkpt>
<trkpt lat="50.25774" lon="10.15693"><ele>306</ele></trkpt>
<trkpt lat="50.25857" lon="10.15737"><ele>308</ele></trkpt>
<trkpt lat="50.25891" lon="10.15747"><ele>307</ele></trkpt>
<trkpt lat="50.25960" lon="10.15752"><ele>308</ele></trkpt>
<trkpt lat="50.26065" lon="10.15782"><ele>310</ele></trkpt>
<trkpt lat="50.26107" lon="10.15804"><ele>311</ele></trkpt>
<trkpt lat="50.26158" lon="10.15844"><ele>312</ele></trkpt>
<trkpt lat="50.26198" lon="10.15881"><ele>312</ele></trkpt>
<trkpt lat="50.26416" lon="10.16109"><ele>315</ele></trkpt>
<trkpt lat="50.26516" lon="10.16291"><ele>307</ele></trkpt>
<trkpt lat="50.26675" lon="10.16617"><ele>300</ele></trkpt>
<trkpt lat="50.26681" lon="10.16623"><ele>300</ele></trkpt>
<trkpt lat="50.26724" lon="10.16702"><ele>297</ele></trkpt>
<trkpt lat="50.26756" lon="10.16780"><ele>295</ele></trkpt>
<trkpt lat="50.26770" lon="10.16805"><ele>294</ele></trkpt>
<trkpt lat="50.26837" lon="10.16892"><ele>291</ele></trkpt>
<trkpt lat="50.26897" lon="10.16958"><ele>290</ele></trkpt>
<trkpt lat="50.27020" lon="10.17059"><ele>286</ele></trkpt>
<trkpt lat="50.27157" lon="10.17152"><ele>285</ele></trkpt>
<trkpt lat="50.27173" lon="10.17168"><ele>284</ele></trkpt>
<trkpt lat="50.27200" lon="10.17215"><ele>283</ele></trkpt>
<trkpt lat="50.27224" lon="10.17273"><ele>280</ele></trkpt>
<trkpt lat="50.27239" lon="10.17325"><ele>278</ele></trkpt>
<trkpt lat="50.27262" lon="10.17505"><ele>271</ele></trkpt>
<trkpt lat="50.27270" lon="10.17536"><ele>269</ele></trkpt>
<trkpt lat="50.27349" lon="10.17747"><ele>262</ele></trkpt>
<trkpt lat="50.27369" lon="10.17796"><ele>260</ele></trkpt>
<trkpt lat="50.27381" lon="10.17810"><ele>258</ele></trkpt>
<trkpt lat="50.27397" lon="10.17816"><ele>256</ele></trkpt>
<trkpt lat="50.27436" lon="10.17806"><ele>252</ele></trkpt>
<trkpt lat="50.27442" lon="10.17809"><ele>251</ele></trkpt>
<trkpt lat="50.27448" lon="10.17816"><ele>250</ele></trkpt>
<trkpt lat="50.27459" lon="10.17853"><ele>247</ele></trkpt>
<trkpt lat="50.27459" lon="10.17865"><ele>247</ele></trkpt>
<trkpt lat="50.27473" lon="10.17923"><ele>242</ele></trkpt>
<trkpt lat="50.27474" lon="10.17959"><ele>241</ele></trkpt>
<trkpt lat="50.27485" lon="10.18015"><ele>239</ele></trkpt>
<trkpt lat="50.27476" lon="10.18068"><ele>236</ele></trkpt>
<trkpt lat="50.27474" lon="10.18117"><ele>235</ele></trkpt>
<trkpt lat="50.27466" lon="10.18125"><ele>235</ele></trkpt>
<trkpt lat="50.27481" lon="10.18197"><ele>233</ele></trkpt>
<trkpt lat="50.27481" lon="10.18208"><ele>233</ele></trkpt>
<trkpt lat="50.27466" lon="10.18294"><ele>231</ele></trkpt>
<trkpt lat="50.27454" lon="10.18424"><ele>230</ele></trkpt>
<trkpt lat="50.27504" lon="10.18426"><ele>230</ele></trkpt>
<trkpt lat="50.27504" lon="10.18462"><ele>230</ele></trkpt>
<trkpt lat="50.27453" lon="10.18472"><ele>230</ele></trkpt>
<trkpt lat="50.27476" lon="10.18610"><ele>229</ele></trkpt>
<trkpt lat="50.27526" lon="10.18821"><ele>229</ele></trkpt>
<trkpt lat="50.27528" lon="10.18903"><ele>233</ele></trkpt>
<trkpt lat="50.27536" lon="10.18922"><ele>234</ele></trkpt>
<trkpt lat="50.27562" lon="10.18901"><ele>234</ele></trkpt>
<trkpt lat="50.27706" lon="10.18828"><ele>234</ele></trkpt>
<trkpt lat="50.27864" lon="10.18791"><ele>234</ele></trkpt>
<trkpt lat="50.27929" lon="10.18772"><ele>234</ele></trkpt>
<trkpt lat="50.27979" lon="10.18751"><ele>234</ele></trkpt>
<trkpt lat="50.28018" lon="10.18718"><ele>232</ele></trkpt>
<trkpt lat="50.28034" lon="10.18700"><ele>232</ele></trkpt>
<trkpt lat="50.28076" lon="10.18637"><ele>232</ele></trkpt>
<trkpt lat="50.28085" lon="10.18637"><ele>232</ele></trkpt>
<trkpt lat="50.28101" lon="10.18615"><ele>232</ele></trkpt>
<trkpt lat="50.28122" lon="10.18602"><ele>233</ele></trkpt>
<trkpt lat="50.28171" lon="10.18581"><ele>232</ele></trkpt>
<trkpt lat="50.28240" lon="10.18565"><ele>232</ele></trkpt>
<trkpt lat="50.28294" lon="10.18567"><ele>233</ele></trkpt>
<trkpt lat="50.28427" lon="10.18586"><ele>231</ele></trkpt>
<trkpt lat="50.28443" lon="10.18600"><ele>232</ele></trkpt>
<trkpt lat="50.28542" lon="10.18609"><ele>231</ele></trkpt>
<trkpt lat="50.28564" lon="10.18621"><ele>231</ele></trkpt>
<trkpt lat="50.28613" lon="10.18634"><ele>230</ele></trkpt>
<trkpt lat="50.28621" lon="10.18639"><ele>230</ele></trkpt>
<trkpt lat="50.28627" lon="10.18649"><ele>230</ele></trkpt>
<trkpt lat="50.28633" lon="10.18675"><ele>230</ele></trkpt>
<trkpt lat="50.28649" lon="10.18701"><ele>230</ele></trkpt>
<trkpt lat="50.28672" lon="10.18719"><ele>232</ele></trkpt>
<trkpt lat="50.28693" lon="10.18719"><ele>233</ele></trkpt>
<trkpt lat="50.28730" lon="10.18705"><ele>235</ele></trkpt>
<trkpt lat="50.28772" lon="10.18700"><ele>236</ele></trkpt>
<trkpt lat="50.28800" lon="10.18705"><ele>238</ele></trkpt>
<trkpt lat="50.28836" lon="10.18719"><ele>238</ele></trkpt>
<trkpt lat="50.28912" lon="10.18770"><ele>238</ele></trkpt>
<trkpt lat="50.28919" lon="10.18771"><ele>238</ele></trkpt>
<trkpt lat="50.28918" lon="10.18753"><ele>238</ele></trkpt>
<trkpt lat="50.28980" lon="10.18753"><ele>236</ele></trkpt>
<trkpt lat="50.29024" lon="10.18771"><ele>234</ele></trkpt>
<trkpt lat="50.29150" lon="10.18852"><ele>231</ele></trkpt>
<trkpt lat="50.29176" lon="10.18862"><ele>230</ele></trkpt>
<trkpt lat="50.29205" lon="10.18856"><ele>230</ele></trkpt>
<trkpt lat="50.29287" lon="10.18798"><ele>229</ele></trkpt>
<trkpt lat="50.29299" lon="10.18794"><ele>228</ele></trkpt>
<trkpt lat="50.29338" lon="10.18793"><ele>228</ele></trkpt>
<trkpt lat="50.29345" lon="10.18814"><ele>229</ele></trkpt>
<trkpt lat="50.29366" lon="10.18999"><ele>232</ele></trkpt>
<trkpt lat="50.29373" lon="10.19012"><ele>232</ele></trkpt>
<trkpt lat="50.29555" lon="10.19267"><ele>233</ele></trkpt>
<trkpt lat="50.29561" lon="10.19274"><ele>233</ele></trkpt>
<trkpt lat="50.29570" lon="10.19274"><ele>233</ele></trkpt>
<trkpt lat="50.29592" lon="10.19245"><ele>232</ele></trkpt>
<trkpt lat="50.29615" lon="10.19274"><ele>232</ele></trkpt>
<trkpt lat="50.29670" lon="10.19309"><ele>233</ele></trkpt>
<trkpt lat="50.29803" lon="10.19439"><ele>233</ele></trkpt>
<trkpt lat="50.29863" lon="10.19492"><ele>233</ele></trkpt>
<trkpt lat="50.30222" lon="10.19762"><ele>230</ele></trkpt>
<trkpt lat="50.30222" lon="10.19772"><ele>229</ele></trkpt>
<trkpt lat="50.30274" lon="10.19808"><ele>231</ele></trkpt>
<trkpt lat="50.30312" lon="10.19844"><ele>232</ele></trkpt>
<trkpt lat="50.30347" lon="10.19895"><ele>232</ele></trkpt>
<trkpt lat="50.30362" lon="10.19922"><ele>232</ele></trkpt>
<trkpt lat="50.30435" lon="10.20098"><ele>232</ele></trkpt>
<trkpt lat="50.30448" lon="10.20118"><ele>232</ele></trkpt>
<trkpt lat="50.30501" lon="10.20252"><ele>232</ele></trkpt>
<trkpt lat="50.30513" lon="10.20279"><ele>232</ele></trkpt>
<trkpt lat="50.30523" lon="10.20289"><ele>232</ele></trkpt>
<trkpt lat="50.30529" lon="10.20320"><ele>232</ele></trkpt>
<trkpt lat="50.30544" lon="10.20338"><ele>232</ele></trkpt>
<trkpt lat="50.30653" lon="10.20573"><ele>232</ele></trkpt>
<trkpt lat="50.30576" lon="10.20658"><ele>234</ele></trkpt>
<trkpt lat="50.30515" lon="10.20718"><ele>236</ele></trkpt>
<trkpt lat="50.30423" lon="10.20799"><ele>238</ele></trkpt>
<trkpt lat="50.30425" lon="10.20822"><ele>238</ele></trkpt>
<trkpt lat="50.30417" lon="10.20854"><ele>240</ele></trkpt>
<trkpt lat="50.30418" lon="10.20863"><ele>240</ele></trkpt>
<trkpt lat="50.30438" lon="10.20922"><ele>241</ele></trkpt>
<trkpt lat="50.30454" lon="10.20938"><ele>242</ele></trkpt>
<trkpt lat="50.30466" lon="10.20973"><ele>243</ele></trkpt>
<trkpt lat="50.30481" lon="10.20998"><ele>244</ele></trkpt>
<trkpt lat="50.30478" lon="10.21004"><ele>244</ele></trkpt>
<trkpt lat="50.30477" lon="10.21076"><ele>250</ele></trkpt>
<trkpt lat="50.30484" lon="10.21112"><ele>252</ele></trkpt>
<trkpt lat="50.30485" lon="10.21139"><ele>255</ele></trkpt>
<trkpt lat="50.30492" lon="10.21160"><ele>257</ele></trkpt>
<trkpt lat="50.30531" lon="10.21173"><ele>257</ele></trkpt>
<trkpt lat="50.30565" lon="10.21190"><ele>256</ele></trkpt>
<trkpt lat="50.30605" lon="10.21218"><ele>255</ele></trkpt>
<trkpt lat="50.30633" lon="10.21249"><ele>255</ele></trkpt>
<trkpt lat="50.30745" lon="10.21391"><ele>253</ele></trkpt>
<trkpt lat="50.30748" lon="10.21410"><ele>254</ele></trkpt>
<trkpt lat="50.30762" lon="10.21412"><ele>253</ele></trkpt>
<trkpt lat="50.30797" lon="10.21455"><ele>252</ele></trkpt>
<trkpt lat="50.30820" lon="10.21488"><ele>253</ele></trkpt>
<trkpt lat="50.30856" lon="10.21578"><ele>255</ele></trkpt>
<trkpt lat="50.30874" lon="10.21600"><ele>256</ele></trkpt>
<trkpt lat="50.31011" lon="10.21732"><ele>253</ele></trkpt>
<trkpt lat="50.31189" lon="10.21920"><ele>260</ele></trkpt>
<trkpt lat="50.31267" lon="10.22032"><ele>257</ele></trkpt>
<trkpt lat="50.31305" lon="10.22112"><ele>255</ele></trkpt>
<trkpt lat="50.31322" lon="10.22175"><ele>254</ele></trkpt>
<trkpt lat="50.31327" lon="10.22177"><ele>253</ele></trkpt>
<trkpt lat="50.31334" lon="10.22188"><ele>252</ele></trkpt>
<trkpt lat="50.31335" lon="10.22225"><ele>248</ele></trkpt>
<trkpt lat="50.31346" lon="10.22228"><ele>246</ele></trkpt>
<trkpt lat="50.31391" lon="10.22198"><ele>240</ele></trkpt>
<trkpt lat="50.31404" lon="10.22197"><ele>239</ele></trkpt>
<trkpt lat="50.31419" lon="10.22206"><ele>237</ele></trkpt>
<trkpt lat="50.31447" lon="10.22247"><ele>233</ele></trkpt>
<trkpt lat="50.31486" lon="10.22214"><ele>232</ele></trkpt>
<trkpt lat="50.31517" lon="10.22227"><ele>230</ele></trkpt>
<trkpt lat="50.31526" lon="10.22223"><ele>230</ele></trkpt>
<trkpt lat="50.31531" lon="10.22213"><ele>230</ele></trkpt>
<trkpt lat="50.31550" lon="10.22283"><ele>231</ele></trkpt>
<trkpt lat="50.31546" lon="10.22340"><ele>231</ele></trkpt>
<trkpt lat="50.31558" lon="10.22362"><ele>231</ele></trkpt>
<trkpt lat="50.31677" lon="10.22428"><ele>234</ele></trkpt>
<trkpt lat="50.31842" lon="10.22570"><ele>235</ele></trkpt>
<trkpt lat="50.31934" lon="10.22643"><ele>232</ele></trkpt>
<trkpt lat="50.31941" lon="10.22633"><ele>232</ele></trkpt>
<trkpt lat="50.31950" lon="10.22632"><ele>232</ele></trkpt>
<trkpt lat="50.31979" lon="10.22648"><ele>232</ele></trkpt>
<trkpt lat="50.32007" lon="10.22587"><ele>228</ele></trkpt>
<trkpt lat="50.32006" lon="10.22574"><ele>228</ele></trkpt>
<trkpt lat="50.32011" lon="10.22552"><ele>228</ele></trkpt>
<trkpt lat="50.32019" lon="10.22534"><ele>228</ele></trkpt>
<trkpt lat="50.32029" lon="10.22526"><ele>228</ele></trkpt>
<trkpt lat="50.32032" lon="10.22499"><ele>228</ele></trkpt>
<trkpt lat="50.32041" lon="10.22460"><ele>227</ele></trkpt>
<trkpt lat="50.32075" lon="10.22390"><ele>227</ele></trkpt>
<trkpt lat="50.32097" lon="10.22353"><ele>228</ele></trkpt>
<trkpt lat="50.32103" lon="10.22302"><ele>228</ele></trkpt>
<trkpt lat="50.32171" lon="10.22233"><ele>228</ele></trkpt>
<trkpt lat="50.32178" lon="10.22219"><ele>228</ele></trkpt>
<trkpt lat="50.32201" lon="10.22196"><ele>228</ele></trkpt>
<trkpt lat="50.32254" lon="10.22196"><ele>228</ele></trkpt>
<trkpt lat="50.32322" lon="10.22170"><ele>228</ele></trkpt>
<trkpt lat="50.32368" lon="10.22138"><ele>228</ele></trkpt>
<trkpt lat="50.32381" lon="10.22116"><ele>228</ele></trkpt>
<trkpt lat="50.32386" lon="10.22098"><ele>228</ele></trkpt>
<trkpt lat="50.32389" lon="10.22066"><ele>230</ele></trkpt>
<trkpt lat="50.32388" lon="10.22049"><ele>231</ele></trkpt>
<trkpt lat="50.32355" lon="10.22026"><ele>230</ele></trkpt>
<trkpt lat="50.32339" lon="10.22026"><ele>230</ele></trkpt>
<trkpt lat="50.32336" lon="10.22041"><ele>230</ele></trkpt>
<trkpt lat="50.32318" lon="10.22078"><ele>230</ele></trkpt>
<trkpt lat="50.32313" lon="10.22100"><ele>230</ele></trkpt>
<trkpt lat="50.32255" lon="10.22073"><ele>230</ele></trkpt>
<trkpt lat="50.32210" lon="10.22035"><ele>228</ele></trkpt>
<trkpt lat="50.32178" lon="10.21995"><ele>228</ele></trkpt>
<trkpt lat="50.32164" lon="10.21971"><ele>229</ele></trkpt>
<trkpt lat="50.32161" lon="10.21926"><ele>228</ele></trkpt>
<trkpt lat="50.32169" lon="10.21899"><ele>229</ele></trkpt>
<trkpt lat="50.32146" lon="10.21851"><ele>228</ele></trkpt>
    </trkseg>
  </trk>
</gpx>
