<?xml version="1.0" encoding="UTF-8"?>
<gpx version="1.1" creator="Gravel Kompass" xmlns="http://www.topografix.com/GPX/1/1">
  <metadata><name>München–Haltern am See: Romantische Straße, Taubertal, Main, Lahn &amp; Ruhr – Etappe 1</name></metadata>
  <trk>
    <name>Etappe 1: München – Donauwörth</name>
    <trkseg>
<trkpt lat="48.13714" lon="11.57540"><ele>516</ele></trkpt>
<trkpt lat="48.13707" lon="11.57574"><ele>516</ele></trkpt>
<trkpt lat="48.13700" lon="11.57585"><ele>516</ele></trkpt>
<trkpt lat="48.13679" lon="11.57659"><ele>515</ele></trkpt>
<trkpt lat="48.13660" lon="11.57684"><ele>514</ele></trkpt>
<trkpt lat="48.13650" lon="11.57709"><ele>513</ele></trkpt>
<trkpt lat="48.13667" lon="11.57727"><ele>513</ele></trkpt>
<trkpt lat="48.13724" lon="11.57809"><ele>513</ele></trkpt>
<trkpt lat="48.13742" lon="11.57829"><ele>513</ele></trkpt>
<trkpt lat="48.13847" lon="11.57909"><ele>512</ele></trkpt>
<trkpt lat="48.13842" lon="11.57923"><ele>512</ele></trkpt>
<trkpt lat="48.13878" lon="11.57966"><ele>512</ele></trkpt>
<trkpt lat="48.13905" lon="11.57988"><ele>514</ele></trkpt>
<trkpt lat="48.13900" lon="11.58014"><ele>514</ele></trkpt>
<trkpt lat="48.14140" lon="11.58115"><ele>514</ele></trkpt>
<trkpt lat="48.14151" lon="11.58126"><ele>514</ele></trkpt>
<trkpt lat="48.14180" lon="11.58120"><ele>514</ele></trkpt>
<trkpt lat="48.14249" lon="11.57803"><ele>516</ele></trkpt>
<trkpt lat="48.14253" lon="11.57784"><ele>515</ele></trkpt>
<trkpt lat="48.14252" lon="11.57772"><ele>515</ele></trkpt>
<trkpt lat="48.14258" lon="11.57743"><ele>516</ele></trkpt>
<trkpt lat="48.14259" lon="11.57739"><ele>516</ele></trkpt>
<trkpt lat="48.14265" lon="11.57741"><ele>515</ele></trkpt>
<trkpt lat="48.14308" lon="11.57536"><ele>516</ele></trkpt>
<trkpt lat="48.14318" lon="11.57467"><ele>517</ele></trkpt>
<trkpt lat="48.14338" lon="11.57381"><ele>517</ele></trkpt>
<trkpt lat="48.14449" lon="11.56987"><ele>516</ele></trkpt>
<trkpt lat="48.14465" lon="11.56970"><ele>516</ele></trkpt>
<trkpt lat="48.14477" lon="11.56969"><ele>516</ele></trkpt>
<trkpt lat="48.14487" lon="11.56962"><ele>516</ele></trkpt>
<trkpt lat="48.14502" lon="11.56937"><ele>516</ele></trkpt>
<trkpt lat="48.14504" lon="11.56917"><ele>516</ele></trkpt>
<trkpt lat="48.14502" lon="11.56899"><ele>516</ele></trkpt>
<trkpt lat="48.14494" lon="11.56879"><ele>516</ele></trkpt>
<trkpt lat="48.14488" lon="11.56849"><ele>516</ele></trkpt>
<trkpt lat="48.14536" lon="11.56679"><ele>516</ele></trkpt>
<trkpt lat="48.14545" lon="11.56672"><ele>516</ele></trkpt>
<trkpt lat="48.14599" lon="11.56492"><ele>516</ele></trkpt>
<trkpt lat="48.14626" lon="11.56474"><ele>516</ele></trkpt>
<trkpt lat="48.14632" lon="11.56466"><ele>516</ele></trkpt>
<trkpt lat="48.14650" lon="11.56415"><ele>516</ele></trkpt>
<trkpt lat="48.14637" lon="11.56364"><ele>516</ele></trkpt>
<trkpt lat="48.14656" lon="11.56298"><ele>516</ele></trkpt>
<trkpt lat="48.14652" lon="11.56275"><ele>516</ele></trkpt>
<trkpt lat="48.14732" lon="11.55988"><ele>516</ele></trkpt>
<trkpt lat="48.14745" lon="11.55980"><ele>516</ele></trkpt>
<trkpt lat="48.14760" lon="11.55923"><ele>516</ele></trkpt>
<trkpt lat="48.14766" lon="11.55911"><ele>516</ele></trkpt>
<trkpt lat="48.14773" lon="11.55845"><ele>516</ele></trkpt>
<trkpt lat="48.14776" lon="11.55828"><ele>516</ele></trkpt>
<trkpt lat="48.14782" lon="11.55817"><ele>517</ele></trkpt>
<trkpt lat="48.14830" lon="11.55488"><ele>518</ele></trkpt>
<trkpt lat="48.15151" lon="11.53876"><ele>519</ele></trkpt>
<trkpt lat="48.15198" lon="11.53662"><ele>518</ele></trkpt>
<trkpt lat="48.15201" lon="11.53621"><ele>518</ele></trkpt>
<trkpt lat="48.15206" lon="11.53600"><ele>518</ele></trkpt>
<trkpt lat="48.15293" lon="11.53374"><ele>518</ele></trkpt>
<trkpt lat="48.15299" lon="11.53363"><ele>518</ele></trkpt>
<trkpt lat="48.15318" lon="11.53346"><ele>517</ele></trkpt>
<trkpt lat="48.15338" lon="11.53334"><ele>517</ele></trkpt>
<trkpt lat="48.15489" lon="11.53293"><ele>517</ele></trkpt>
<trkpt lat="48.15516" lon="11.53280"><ele>517</ele></trkpt>
<trkpt lat="48.15606" lon="11.53206"><ele>516</ele></trkpt>
<trkpt lat="48.15628" lon="11.53178"><ele>516</ele></trkpt>
<trkpt lat="48.15640" lon="11.53156"><ele>516</ele></trkpt>
<trkpt lat="48.15642" lon="11.53147"><ele>516</ele></trkpt>
<trkpt lat="48.15672" lon="11.53100"><ele>516</ele></trkpt>
<trkpt lat="48.15691" lon="11.53060"><ele>516</ele></trkpt>
<trkpt lat="48.15695" lon="11.53040"><ele>516</ele></trkpt>
<trkpt lat="48.15717" lon="11.52999"><ele>516</ele></trkpt>
<trkpt lat="48.15719" lon="11.52979"><ele>516</ele></trkpt>
<trkpt lat="48.15726" lon="11.52974"><ele>516</ele></trkpt>
<trkpt lat="48.15739" lon="11.52949"><ele>516</ele></trkpt>
<trkpt lat="48.15864" lon="11.52634"><ele>517</ele></trkpt>
<trkpt lat="48.15882" lon="11.52613"><ele>517</ele></trkpt>
<trkpt lat="48.15881" lon="11.52572"><ele>517</ele></trkpt>
<trkpt lat="48.15925" lon="11.52568"><ele>517</ele></trkpt>
<trkpt lat="48.15924" lon="11.52544"><ele>517</ele></trkpt>
<trkpt lat="48.15932" lon="11.52543"><ele>517</ele></trkpt>
<trkpt lat="48.16271" lon="11.52285"><ele>514</ele></trkpt>
<trkpt lat="48.16260" lon="11.52184"><ele>514</ele></trkpt>
<trkpt lat="48.16262" lon="11.52145"><ele>515</ele></trkpt>
<trkpt lat="48.16331" lon="11.52067"><ele>515</ele></trkpt>
<trkpt lat="48.16407" lon="11.52001"><ele>514</ele></trkpt>
<trkpt lat="48.16412" lon="11.52007"><ele>514</ele></trkpt>
<trkpt lat="48.16610" lon="11.51834"><ele>513</ele></trkpt>
<trkpt lat="48.16658" lon="11.51788"><ele>513</ele></trkpt>
<trkpt lat="48.16748" lon="11.51678"><ele>513</ele></trkpt>
<trkpt lat="48.16777" lon="11.51664"><ele>513</ele></trkpt>
<trkpt lat="48.16778" lon="11.51618"><ele>513</ele></trkpt>
<trkpt lat="48.16786" lon="11.51577"><ele>513</ele></trkpt>
<trkpt lat="48.16875" lon="11.51332"><ele>512</ele></trkpt>
<trkpt lat="48.16916" lon="11.51247"><ele>512</ele></trkpt>
<trkpt lat="48.16933" lon="11.51221"><ele>511</ele></trkpt>
<trkpt lat="48.16957" lon="11.51199"><ele>511</ele></trkpt>
<trkpt lat="48.17008" lon="11.51111"><ele>511</ele></trkpt>
<trkpt lat="48.17031" lon="11.51054"><ele>511</ele></trkpt>
<trkpt lat="48.17041" lon="11.51006"><ele>511</ele></trkpt>
<trkpt lat="48.17069" lon="11.50924"><ele>511</ele></trkpt>
<trkpt lat="48.17245" lon="11.50516"><ele>510</ele></trkpt>
<trkpt lat="48.17383" lon="11.50313"><ele>512</ele></trkpt>
<trkpt lat="48.17442" lon="11.50233"><ele>514</ele></trkpt>
<trkpt lat="48.17464" lon="11.50196"><ele>515</ele></trkpt>
<trkpt lat="48.17730" lon="11.49662"><ele>510</ele></trkpt>
<trkpt lat="48.17829" lon="11.49454"><ele>509</ele></trkpt>
<trkpt lat="48.17883" lon="11.49328"><ele>508</ele></trkpt>
<trkpt lat="48.17906" lon="11.49258"><ele>508</ele></trkpt>
<trkpt lat="48.17934" lon="11.49152"><ele>508</ele></trkpt>
<trkpt lat="48.17956" lon="11.49028"><ele>508</ele></trkpt>
<trkpt lat="48.17961" lon="11.48965"><ele>508</ele></trkpt>
<trkpt lat="48.17962" lon="11.48809"><ele>509</ele></trkpt>
<trkpt lat="48.17956" lon="11.48743"><ele>508</ele></trkpt>
<trkpt lat="48.17944" lon="11.48712"><ele>509</ele></trkpt>
<trkpt lat="48.17904" lon="11.48554"><ele>509</ele></trkpt>
<trkpt lat="48.17838" lon="11.48270"><ele>510</ele></trkpt>
<trkpt lat="48.17826" lon="11.48180"><ele>510</ele></trkpt>
<trkpt lat="48.17810" lon="11.47987"><ele>510</ele></trkpt>
<trkpt lat="48.17804" lon="11.47750"><ele>511</ele></trkpt>
<trkpt lat="48.17827" lon="11.47747"><ele>511</ele></trkpt>
<trkpt lat="48.17836" lon="11.47740"><ele>511</ele></trkpt>
<trkpt lat="48.17862" lon="11.47667"><ele>511</ele></trkpt>
<trkpt lat="48.17924" lon="11.47536"><ele>511</ele></trkpt>
<trkpt lat="48.17967" lon="11.47414"><ele>511</ele></trkpt>
<trkpt lat="48.18010" lon="11.47352"><ele>510</ele></trkpt>
<trkpt lat="48.18075" lon="11.47269"><ele>510</ele></trkpt>
<trkpt lat="48.18103" lon="11.47246"><ele>510</ele></trkpt>
<trkpt lat="48.18119" lon="11.47239"><ele>510</ele></trkpt>
<trkpt lat="48.18142" lon="11.47235"><ele>510</ele></trkpt>
<trkpt lat="48.18248" lon="11.47239"><ele>510</ele></trkpt>
<trkpt lat="48.18274" lon="11.47235"><ele>510</ele></trkpt>
<trkpt lat="48.18458" lon="11.47255"><ele>508</ele></trkpt>
<trkpt lat="48.18492" lon="11.47251"><ele>508</ele></trkpt>
<trkpt lat="48.18633" lon="11.47215"><ele>507</ele></trkpt>
<trkpt lat="48.18631" lon="11.47165"><ele>508</ele></trkpt>
<trkpt lat="48.18637" lon="11.47128"><ele>508</ele></trkpt>
<trkpt lat="48.18636" lon="11.47085"><ele>508</ele></trkpt>
<trkpt lat="48.18634" lon="11.47055"><ele>508</ele></trkpt>
<trkpt lat="48.18621" lon="11.47011"><ele>508</ele></trkpt>
<trkpt lat="48.18621" lon="11.46997"><ele>508</ele></trkpt>
<trkpt lat="48.18686" lon="11.46979"><ele>507</ele></trkpt>
<trkpt lat="48.18689" lon="11.46974"><ele>507</ele></trkpt>
<trkpt lat="48.18694" lon="11.46899"><ele>506</ele></trkpt>
<trkpt lat="48.18697" lon="11.46892"><ele>506</ele></trkpt>
<trkpt lat="48.18920" lon="11.46806"><ele>508</ele></trkpt>
<trkpt lat="48.18950" lon="11.46792"><ele>507</ele></trkpt>
<trkpt lat="48.18949" lon="11.46787"><ele>507</ele></trkpt>
<trkpt lat="48.18990" lon="11.46770"><ele>508</ele></trkpt>
<trkpt lat="48.18991" lon="11.46759"><ele>508</ele></trkpt>
<trkpt lat="48.19022" lon="11.46748"><ele>508</ele></trkpt>
<trkpt lat="48.19025" lon="11.46744"><ele>508</ele></trkpt>
<trkpt lat="48.19018" lon="11.46697"><ele>507</ele></trkpt>
<trkpt lat="48.19217" lon="11.46628"><ele>506</ele></trkpt>
<trkpt lat="48.19240" lon="11.46612"><ele>506</ele></trkpt>
<trkpt lat="48.19249" lon="11.46599"><ele>506</ele></trkpt>
<trkpt lat="48.19245" lon="11.46596"><ele>506</ele></trkpt>
<trkpt lat="48.19217" lon="11.46486"><ele>506</ele></trkpt>
<trkpt lat="48.19160" lon="11.46164"><ele>506</ele></trkpt>
<trkpt lat="48.19115" lon="11.45962"><ele>506</ele></trkpt>
<trkpt lat="48.19110" lon="11.45965"><ele>506</ele></trkpt>
<trkpt lat="48.19077" lon="11.45840"><ele>505</ele></trkpt>
<trkpt lat="48.19120" lon="11.45813"><ele>505</ele></trkpt>
<trkpt lat="48.19162" lon="11.45797"><ele>505</ele></trkpt>
<trkpt lat="48.19261" lon="11.45811"><ele>504</ele></trkpt>
<trkpt lat="48.19281" lon="11.45806"><ele>504</ele></trkpt>
<trkpt lat="48.19308" lon="11.45791"><ele>504</ele></trkpt>
<trkpt lat="48.19384" lon="11.45716"><ele>504</ele></trkpt>
<trkpt lat="48.19408" lon="11.45708"><ele>504</ele></trkpt>
<trkpt lat="48.19474" lon="11.45720"><ele>503</ele></trkpt>
<trkpt lat="48.19498" lon="11.45721"><ele>503</ele></trkpt>
<trkpt lat="48.19492" lon="11.45699"><ele>503</ele></trkpt>
<trkpt lat="48.19503" lon="11.45692"><ele>503</ele></trkpt>
<trkpt lat="48.19545" lon="11.45665"><ele>503</ele></trkpt>
<trkpt lat="48.19579" lon="11.45657"><ele>502</ele></trkpt>
<trkpt lat="48.19618" lon="11.45621"><ele>502</ele></trkpt>
<trkpt lat="48.19644" lon="11.45609"><ele>502</ele></trkpt>
<trkpt lat="48.19696" lon="11.45600"><ele>501</ele></trkpt>
<trkpt lat="48.19718" lon="11.45592"><ele>502</ele></trkpt>
<trkpt lat="48.19747" lon="11.45552"><ele>501</ele></trkpt>
<trkpt lat="48.19766" lon="11.45536"><ele>502</ele></trkpt>
<trkpt lat="48.19828" lon="11.45507"><ele>502</ele></trkpt>
<trkpt lat="48.19903" lon="11.45508"><ele>502</ele></trkpt>
<trkpt lat="48.19922" lon="11.45600"><ele>500</ele></trkpt>
<trkpt lat="48.19986" lon="11.45567"><ele>499</ele></trkpt>
<trkpt lat="48.20013" lon="11.45558"><ele>500</ele></trkpt>
<trkpt lat="48.20090" lon="11.45545"><ele>500</ele></trkpt>
<trkpt lat="48.20119" lon="11.45528"><ele>500</ele></trkpt>
<trkpt lat="48.20137" lon="11.45504"><ele>500</ele></trkpt>
<trkpt lat="48.20148" lon="11.45500"><ele>500</ele></trkpt>
<trkpt lat="48.20507" lon="11.45445"><ele>500</ele></trkpt>
<trkpt lat="48.20495" lon="11.45143"><ele>499</ele></trkpt>
<trkpt lat="48.20487" lon="11.45060"><ele>499</ele></trkpt>
<trkpt lat="48.20471" lon="11.44482"><ele>499</ele></trkpt>
<trkpt lat="48.20439" lon="11.44137"><ele>500</ele></trkpt>
<trkpt lat="48.20431" lon="11.43936"><ele>501</ele></trkpt>
<trkpt lat="48.20429" lon="11.43748"><ele>501</ele></trkpt>
<trkpt lat="48.20433" lon="11.43699"><ele>500</ele></trkpt>
<trkpt lat="48.20441" lon="11.43658"><ele>500</ele></trkpt>
<trkpt lat="48.20463" lon="11.43243"><ele>501</ele></trkpt>
<trkpt lat="48.20466" lon="11.43240"><ele>501</ele></trkpt>
<trkpt lat="48.20658" lon="11.43225"><ele>499</ele></trkpt>
<trkpt lat="48.20671" lon="11.43209"><ele>499</ele></trkpt>
<trkpt lat="48.20731" lon="11.43204"><ele>498</ele></trkpt>
<trkpt lat="48.20729" lon="11.43014"><ele>498</ele></trkpt>
<trkpt lat="48.20759" lon="11.42965"><ele>498</ele></trkpt>
<trkpt lat="48.20887" lon="11.42783"><ele>498</ele></trkpt>
<trkpt lat="48.20899" lon="11.42739"><ele>498</ele></trkpt>
<trkpt lat="48.20896" lon="11.42497"><ele>498</ele></trkpt>
<trkpt lat="48.20903" lon="11.42412"><ele>497</ele></trkpt>
<trkpt lat="48.21186" lon="11.41321"><ele>497</ele></trkpt>
<trkpt lat="48.21531" lon="11.39953"><ele>497</ele></trkpt>
<trkpt lat="48.21783" lon="11.38981"><ele>497</ele></trkpt>
<trkpt lat="48.21968" lon="11.38284"><ele>496</ele></trkpt>
<trkpt lat="48.21981" lon="11.38229"><ele>495</ele></trkpt>
<trkpt lat="48.21981" lon="11.38213"><ele>496</ele></trkpt>
<trkpt lat="48.21977" lon="11.38198"><ele>496</ele></trkpt>
<trkpt lat="48.21937" lon="11.38101"><ele>496</ele></trkpt>
<trkpt lat="48.21842" lon="11.37929"><ele>497</ele></trkpt>
<trkpt lat="48.21823" lon="11.37904"><ele>497</ele></trkpt>
<trkpt lat="48.21777" lon="11.37826"><ele>498</ele></trkpt>
<trkpt lat="48.21713" lon="11.37673"><ele>501</ele></trkpt>
<trkpt lat="48.21677" lon="11.37598"><ele>499</ele></trkpt>
<trkpt lat="48.21668" lon="11.37570"><ele>501</ele></trkpt>
<trkpt lat="48.21650" lon="11.37485"><ele>498</ele></trkpt>
<trkpt lat="48.21618" lon="11.37312"><ele>498</ele></trkpt>
<trkpt lat="48.21587" lon="11.37101"><ele>498</ele></trkpt>
<trkpt lat="48.21623" lon="11.37016"><ele>498</ele></trkpt>
<trkpt lat="48.21742" lon="11.36834"><ele>498</ele></trkpt>
<trkpt lat="48.21764" lon="11.36808"><ele>498</ele></trkpt>
<trkpt lat="48.21791" lon="11.36790"><ele>498</ele></trkpt>
<trkpt lat="48.21854" lon="11.36773"><ele>499</ele></trkpt>
<trkpt lat="48.21866" lon="11.36766"><ele>499</ele></trkpt>
<trkpt lat="48.21886" lon="11.36744"><ele>498</ele></trkpt>
<trkpt lat="48.22313" lon="11.35928"><ele>498</ele></trkpt>
<trkpt lat="48.22388" lon="11.35838"><ele>499</ele></trkpt>
<trkpt lat="48.22262" lon="11.35609"><ele>499</ele></trkpt>
<trkpt lat="48.22224" lon="11.35547"><ele>499</ele></trkpt>
<trkpt lat="48.22214" lon="11.35521"><ele>500</ele></trkpt>
<trkpt lat="48.22229" lon="11.35511"><ele>500</ele></trkpt>
<trkpt lat="48.22305" lon="11.35427"><ele>499</ele></trkpt>
<trkpt lat="48.22347" lon="11.35336"><ele>497</ele></trkpt>
<trkpt lat="48.22347" lon="11.35317"><ele>498</ele></trkpt>
<trkpt lat="48.22340" lon="11.35301"><ele>497</ele></trkpt>
<trkpt lat="48.22339" lon="11.35289"><ele>497</ele></trkpt>
<trkpt lat="48.22381" lon="11.35183"><ele>496</ele></trkpt>
<trkpt lat="48.22394" lon="11.35138"><ele>497</ele></trkpt>
<trkpt lat="48.22411" lon="11.34927"><ele>496</ele></trkpt>
<trkpt lat="48.22411" lon="11.34880"><ele>496</ele></trkpt>
<trkpt lat="48.22427" lon="11.34571"><ele>496</ele></trkpt>
<trkpt lat="48.22433" lon="11.34540"><ele>496</ele></trkpt>
<trkpt lat="48.22449" lon="11.34489"><ele>497</ele></trkpt>
<trkpt lat="48.22509" lon="11.34371"><ele>498</ele></trkpt>
<trkpt lat="48.22527" lon="11.34358"><ele>499</ele></trkpt>
<trkpt lat="48.22609" lon="11.34232"><ele>498</ele></trkpt>
<trkpt lat="48.22613" lon="11.34210"><ele>498</ele></trkpt>
<trkpt lat="48.22629" lon="11.34203"><ele>498</ele></trkpt>
<trkpt lat="48.22644" lon="11.34175"><ele>498</ele></trkpt>
<trkpt lat="48.22650" lon="11.34171"><ele>498</ele></trkpt>
<trkpt lat="48.22651" lon="11.34156"><ele>498</ele></trkpt>
<trkpt lat="48.22665" lon="11.34125"><ele>498</ele></trkpt>
<trkpt lat="48.22633" lon="11.34083"><ele>498</ele></trkpt>
<trkpt lat="48.22734" lon="11.33915"><ele>500</ele></trkpt>
<trkpt lat="48.22829" lon="11.33736"><ele>499</ele></trkpt>
<trkpt lat="48.22940" lon="11.33542"><ele>499</ele></trkpt>
<trkpt lat="48.22952" lon="11.33511"><ele>499</ele></trkpt>
<trkpt lat="48.22980" lon="11.33457"><ele>499</ele></trkpt>
<trkpt lat="48.22994" lon="11.33424"><ele>500</ele></trkpt>
<trkpt lat="48.23065" lon="11.33185"><ele>500</ele></trkpt>
<trkpt lat="48.23074" lon="11.33166"><ele>500</ele></trkpt>
<trkpt lat="48.23103" lon="11.33132"><ele>500</ele></trkpt>
<trkpt lat="48.23105" lon="11.33120"><ele>500</ele></trkpt>
<trkpt lat="48.23102" lon="11.33107"><ele>500</ele></trkpt>
<trkpt lat="48.23105" lon="11.33103"><ele>500</ele></trkpt>
<trkpt lat="48.23129" lon="11.33147"><ele>500</ele></trkpt>
<trkpt lat="48.23221" lon="11.33295"><ele>499</ele></trkpt>
<trkpt lat="48.23254" lon="11.33360"><ele>499</ele></trkpt>
<trkpt lat="48.23348" lon="11.33488"><ele>498</ele></trkpt>
<trkpt lat="48.23452" lon="11.33667"><ele>498</ele></trkpt>
<trkpt lat="48.23502" lon="11.33724"><ele>498</ele></trkpt>
<trkpt lat="48.23535" lon="11.33752"><ele>498</ele></trkpt>
<trkpt lat="48.23548" lon="11.33758"><ele>498</ele></trkpt>
<trkpt lat="48.23574" lon="11.33754"><ele>498</ele></trkpt>
<trkpt lat="48.23881" lon="11.33521"><ele>497</ele></trkpt>
<trkpt lat="48.23902" lon="11.33518"><ele>498</ele></trkpt>
<trkpt lat="48.23914" lon="11.33471"><ele>497</ele></trkpt>
<trkpt lat="48.23933" lon="11.33431"><ele>497</ele></trkpt>
<trkpt lat="48.24416" lon="11.32440"><ele>497</ele></trkpt>
<trkpt lat="48.24436" lon="11.32424"><ele>496</ele></trkpt>
<trkpt lat="48.24503" lon="11.32404"><ele>496</ele></trkpt>
<trkpt lat="48.24519" lon="11.32392"><ele>496</ele></trkpt>
<trkpt lat="48.24817" lon="11.31787"><ele>496</ele></trkpt>
<trkpt lat="48.24818" lon="11.31751"><ele>496</ele></trkpt>
<trkpt lat="48.24812" lon="11.31515"><ele>497</ele></trkpt>
<trkpt lat="48.24810" lon="11.31500"><ele>497</ele></trkpt>
<trkpt lat="48.24822" lon="11.31489"><ele>497</ele></trkpt>
<trkpt lat="48.24850" lon="11.31447"><ele>496</ele></trkpt>
<trkpt lat="48.24956" lon="11.31268"><ele>497</ele></trkpt>
<trkpt lat="48.24967" lon="11.31264"><ele>497</ele></trkpt>
<trkpt lat="48.24975" lon="11.31270"><ele>497</ele></trkpt>
<trkpt lat="48.25162" lon="11.31473"><ele>500</ele></trkpt>
<trkpt lat="48.25184" lon="11.31484"><ele>498</ele></trkpt>
<trkpt lat="48.25197" lon="11.31482"><ele>498</ele></trkpt>
<trkpt lat="48.25209" lon="11.31469"><ele>497</ele></trkpt>
<trkpt lat="48.25214" lon="11.31457"><ele>497</ele></trkpt>
<trkpt lat="48.25220" lon="11.31393"><ele>497</ele></trkpt>
<trkpt lat="48.25235" lon="11.31327"><ele>497</ele></trkpt>
<trkpt lat="48.25250" lon="11.31294"><ele>497</ele></trkpt>
<trkpt lat="48.25267" lon="11.31282"><ele>497</ele></trkpt>
<trkpt lat="48.25283" lon="11.31280"><ele>497</ele></trkpt>
<trkpt lat="48.25303" lon="11.31284"><ele>498</ele></trkpt>
<trkpt lat="48.25396" lon="11.31345"><ele>502</ele></trkpt>
<trkpt lat="48.25406" lon="11.31353"><ele>503</ele></trkpt>
<trkpt lat="48.25440" lon="11.31411"><ele>505</ele></trkpt>
<trkpt lat="48.25460" lon="11.31416"><ele>506</ele></trkpt>
<trkpt lat="48.25483" lon="11.31409"><ele>507</ele></trkpt>
<trkpt lat="48.25494" lon="11.31395"><ele>508</ele></trkpt>
<trkpt lat="48.25499" lon="11.31380"><ele>508</ele></trkpt>
<trkpt lat="48.25504" lon="11.31332"><ele>509</ele></trkpt>
<trkpt lat="48.25466" lon="11.31096"><ele>514</ele></trkpt>
<trkpt lat="48.25471" lon="11.31060"><ele>513</ele></trkpt>
<trkpt lat="48.25483" lon="11.31045"><ele>513</ele></trkpt>
<trkpt lat="48.25507" lon="11.31035"><ele>513</ele></trkpt>
<trkpt lat="48.25603" lon="11.31026"><ele>509</ele></trkpt>
<trkpt lat="48.25666" lon="11.31006"><ele>510</ele></trkpt>
<trkpt lat="48.25832" lon="11.31053"><ele>516</ele></trkpt>
<trkpt lat="48.25872" lon="11.30845"><ele>521</ele></trkpt>
<trkpt lat="48.25896" lon="11.30783"><ele>521</ele></trkpt>
<trkpt lat="48.25921" lon="11.30744"><ele>521</ele></trkpt>
<trkpt lat="48.26103" lon="11.30491"><ele>513</ele></trkpt>
<trkpt lat="48.26147" lon="11.30442"><ele>512</ele></trkpt>
<trkpt lat="48.26191" lon="11.30399"><ele>512</ele></trkpt>
<trkpt lat="48.26238" lon="11.30359"><ele>512</ele></trkpt>
<trkpt lat="48.26286" lon="11.30329"><ele>512</ele></trkpt>
<trkpt lat="48.26434" lon="11.30276"><ele>516</ele></trkpt>
<trkpt lat="48.26496" lon="11.30259"><ele>521</ele></trkpt>
<trkpt lat="48.26528" lon="11.30264"><ele>524</ele></trkpt>
<trkpt lat="48.26582" lon="11.30254"><ele>529</ele></trkpt>
<trkpt lat="48.26632" lon="11.30254"><ele>533</ele></trkpt>
<trkpt lat="48.26691" lon="11.30240"><ele>530</ele></trkpt>
<trkpt lat="48.26754" lon="11.30198"><ele>524</ele></trkpt>
<trkpt lat="48.26819" lon="11.30133"><ele>518</ele></trkpt>
<trkpt lat="48.26812" lon="11.30120"><ele>518</ele></trkpt>
<trkpt lat="48.26762" lon="11.29906"><ele>518</ele></trkpt>
<trkpt lat="48.26760" lon="11.29892"><ele>518</ele></trkpt>
<trkpt lat="48.26763" lon="11.29866"><ele>516</ele></trkpt>
<trkpt lat="48.26839" lon="11.29730"><ele>508</ele></trkpt>
<trkpt lat="48.26841" lon="11.29718"><ele>508</ele></trkpt>
<trkpt lat="48.26838" lon="11.29702"><ele>508</ele></trkpt>
<trkpt lat="48.26797" lon="11.29615"><ele>507</ele></trkpt>
<trkpt lat="48.26788" lon="11.29610"><ele>507</ele></trkpt>
<trkpt lat="48.26763" lon="11.29557"><ele>506</ele></trkpt>
<trkpt lat="48.26757" lon="11.29537"><ele>506</ele></trkpt>
<trkpt lat="48.26749" lon="11.29489"><ele>507</ele></trkpt>
<trkpt lat="48.26749" lon="11.29456"><ele>507</ele></trkpt>
<trkpt lat="48.26756" lon="11.29413"><ele>507</ele></trkpt>
<trkpt lat="48.26792" lon="11.29318"><ele>508</ele></trkpt>
<trkpt lat="48.26801" lon="11.29286"><ele>508</ele></trkpt>
<trkpt lat="48.26805" lon="11.29253"><ele>508</ele></trkpt>
<trkpt lat="48.26806" lon="11.29159"><ele>509</ele></trkpt>
<trkpt lat="48.26818" lon="11.29103"><ele>510</ele></trkpt>
<trkpt lat="48.26836" lon="11.29064"><ele>512</ele></trkpt>
<trkpt lat="48.26856" lon="11.29039"><ele>512</ele></trkpt>
<trkpt lat="48.26898" lon="11.29002"><ele>513</ele></trkpt>
<trkpt lat="48.26953" lon="11.28960"><ele>514</ele></trkpt>
<trkpt lat="48.27038" lon="11.28902"><ele>513</ele></trkpt>
<trkpt lat="48.27050" lon="11.28880"><ele>512</ele></trkpt>
<trkpt lat="48.27058" lon="11.28857"><ele>513</ele></trkpt>
<trkpt lat="48.27066" lon="11.28810"><ele>516</ele></trkpt>
<trkpt lat="48.27076" lon="11.28776"><ele>515</ele></trkpt>
<trkpt lat="48.27068" lon="11.28666"><ele>515</ele></trkpt>
<trkpt lat="48.27061" lon="11.28610"><ele>516</ele></trkpt>
<trkpt lat="48.27062" lon="11.28582"><ele>517</ele></trkpt>
<trkpt lat="48.27071" lon="11.28529"><ele>518</ele></trkpt>
<trkpt lat="48.27093" lon="11.28460"><ele>520</ele></trkpt>
<trkpt lat="48.27095" lon="11.28425"><ele>521</ele></trkpt>
<trkpt lat="48.27084" lon="11.28245"><ele>525</ele></trkpt>
<trkpt lat="48.27062" lon="11.28117"><ele>528</ele></trkpt>
<trkpt lat="48.27057" lon="11.28066"><ele>529</ele></trkpt>
<trkpt lat="48.27064" lon="11.27915"><ele>531</ele></trkpt>
<trkpt lat="48.27063" lon="11.27866"><ele>532</ele></trkpt>
<trkpt lat="48.27058" lon="11.27814"><ele>532</ele></trkpt>
<trkpt lat="48.26998" lon="11.27500"><ele>531</ele></trkpt>
<trkpt lat="48.26962" lon="11.27356"><ele>528</ele></trkpt>
<trkpt lat="48.26967" lon="11.27353"><ele>528</ele></trkpt>
<trkpt lat="48.26949" lon="11.27273"><ele>527</ele></trkpt>
<trkpt lat="48.26940" lon="11.27198"><ele>526</ele></trkpt>
<trkpt lat="48.26943" lon="11.27079"><ele>527</ele></trkpt>
<trkpt lat="48.26948" lon="11.27058"><ele>527</ele></trkpt>
<trkpt lat="48.26955" lon="11.27047"><ele>527</ele></trkpt>
<trkpt lat="48.26950" lon="11.27035"><ele>527</ele></trkpt>
<trkpt lat="48.26950" lon="11.27017"><ele>527</ele></trkpt>
<trkpt lat="48.26956" lon="11.26991"><ele>526</ele></trkpt>
<trkpt lat="48.26972" lon="11.26949"><ele>525</ele></trkpt>
<trkpt lat="48.26979" lon="11.26914"><ele>525</ele></trkpt>
<trkpt lat="48.26983" lon="11.26869"><ele>525</ele></trkpt>
<trkpt lat="48.26980" lon="11.26815"><ele>525</ele></trkpt>
<trkpt lat="48.26955" lon="11.26711"><ele>526</ele></trkpt>
<trkpt lat="48.26954" lon="11.26689"><ele>527</ele></trkpt>
<trkpt lat="48.26959" lon="11.26642"><ele>527</ele></trkpt>
<trkpt lat="48.26956" lon="11.26617"><ele>527</ele></trkpt>
<trkpt lat="48.26951" lon="11.26603"><ele>527</ele></trkpt>
<trkpt lat="48.26964" lon="11.26586"><ele>528</ele></trkpt>
<trkpt lat="48.26969" lon="11.26492"><ele>530</ele></trkpt>
<trkpt lat="48.26978" lon="11.26454"><ele>532</ele></trkpt>
<trkpt lat="48.27007" lon="11.26371"><ele>535</ele></trkpt>
<trkpt lat="48.27011" lon="11.26349"><ele>536</ele></trkpt>
<trkpt lat="48.27010" lon="11.26327"><ele>536</ele></trkpt>
<trkpt lat="48.27001" lon="11.26283"><ele>536</ele></trkpt>
<trkpt lat="48.26990" lon="11.26274"><ele>535</ele></trkpt>
<trkpt lat="48.26975" lon="11.26247"><ele>535</ele></trkpt>
<trkpt lat="48.26939" lon="11.26134"><ele>535</ele></trkpt>
<trkpt lat="48.26929" lon="11.26062"><ele>536</ele></trkpt>
<trkpt lat="48.26914" lon="11.25875"><ele>537</ele></trkpt>
<trkpt lat="48.26918" lon="11.25792"><ele>537</ele></trkpt>
<trkpt lat="48.26922" lon="11.25768"><ele>537</ele></trkpt>
<trkpt lat="48.26965" lon="11.25573"><ele>538</ele></trkpt>
<trkpt lat="48.26984" lon="11.25514"><ele>539</ele></trkpt>
<trkpt lat="48.27108" lon="11.25306"><ele>538</ele></trkpt>
<trkpt lat="48.27127" lon="11.25255"><ele>536</ele></trkpt>
<trkpt lat="48.27145" lon="11.25156"><ele>533</ele></trkpt>
<trkpt lat="48.27161" lon="11.25115"><ele>533</ele></trkpt>
<trkpt lat="48.27228" lon="11.25016"><ele>530</ele></trkpt>
<trkpt lat="48.27324" lon="11.24899"><ele>526</ele></trkpt>
<trkpt lat="48.27345" lon="11.24853"><ele>526</ele></trkpt>
<trkpt lat="48.27389" lon="11.24707"><ele>525</ele></trkpt>
<trkpt lat="48.27437" lon="11.24587"><ele>522</ele></trkpt>
<trkpt lat="48.27543" lon="11.24346"><ele>516</ele></trkpt>
<trkpt lat="48.27564" lon="11.24287"><ele>516</ele></trkpt>
<trkpt lat="48.27568" lon="11.24245"><ele>516</ele></trkpt>
<trkpt lat="48.27569" lon="11.24153"><ele>516</ele></trkpt>
<trkpt lat="48.27583" lon="11.24102"><ele>515</ele></trkpt>
<trkpt lat="48.27597" lon="11.24081"><ele>516</ele></trkpt>
<trkpt lat="48.27651" lon="11.24022"><ele>515</ele></trkpt>
<trkpt lat="48.27671" lon="11.23986"><ele>515</ele></trkpt>
<trkpt lat="48.27772" lon="11.23753"><ele>521</ele></trkpt>
<trkpt lat="48.27834" lon="11.23602"><ele>522</ele></trkpt>
<trkpt lat="48.27876" lon="11.23512"><ele>522</ele></trkpt>
<trkpt lat="48.27884" lon="11.23486"><ele>521</ele></trkpt>
<trkpt lat="48.27902" lon="11.23465"><ele>521</ele></trkpt>
<trkpt lat="48.27930" lon="11.23415"><ele>521</ele></trkpt>
<trkpt lat="48.28115" lon="11.23122"><ele>517</ele></trkpt>
<trkpt lat="48.28143" lon="11.23084"><ele>516</ele></trkpt>
<trkpt lat="48.28197" lon="11.23020"><ele>514</ele></trkpt>
<trkpt lat="48.28204" lon="11.23006"><ele>514</ele></trkpt>
<trkpt lat="48.28214" lon="11.22972"><ele>514</ele></trkpt>
<trkpt lat="48.28226" lon="11.22910"><ele>514</ele></trkpt>
<trkpt lat="48.28237" lon="11.22873"><ele>514</ele></trkpt>
<trkpt lat="48.28310" lon="11.22697"><ele>515</ele></trkpt>
<trkpt lat="48.28336" lon="11.22641"><ele>514</ele></trkpt>
<trkpt lat="48.28362" lon="11.22599"><ele>511</ele></trkpt>
<trkpt lat="48.28380" lon="11.22580"><ele>510</ele></trkpt>
<trkpt lat="48.28423" lon="11.22548"><ele>505</ele></trkpt>
<trkpt lat="48.28454" lon="11.22531"><ele>503</ele></trkpt>
<trkpt lat="48.28495" lon="11.22524"><ele>502</ele></trkpt>
<trkpt lat="48.28511" lon="11.22517"><ele>501</ele></trkpt>
<trkpt lat="48.28723" lon="11.22487"><ele>498</ele></trkpt>
<trkpt lat="48.28742" lon="11.22478"><ele>497</ele></trkpt>
<trkpt lat="48.28750" lon="11.22389"><ele>497</ele></trkpt>
<trkpt lat="48.28748" lon="11.22379"><ele>497</ele></trkpt>
<trkpt lat="48.28775" lon="11.22160"><ele>496</ele></trkpt>
<trkpt lat="48.28786" lon="11.22089"><ele>495</ele></trkpt>
<trkpt lat="48.28817" lon="11.22015"><ele>496</ele></trkpt>
<trkpt lat="48.28837" lon="11.21987"><ele>497</ele></trkpt>
<trkpt lat="48.28855" lon="11.21973"><ele>497</ele></trkpt>
<trkpt lat="48.28888" lon="11.21963"><ele>496</ele></trkpt>
<trkpt lat="48.28898" lon="11.21950"><ele>496</ele></trkpt>
<trkpt lat="48.28901" lon="11.21923"><ele>497</ele></trkpt>
<trkpt lat="48.28898" lon="11.21911"><ele>497</ele></trkpt>
<trkpt lat="48.28903" lon="11.21897"><ele>497</ele></trkpt>
<trkpt lat="48.28907" lon="11.21841"><ele>497</ele></trkpt>
<trkpt lat="48.28907" lon="11.21820"><ele>498</ele></trkpt>
<trkpt lat="48.28901" lon="11.21803"><ele>497</ele></trkpt>
<trkpt lat="48.28943" lon="11.21731"><ele>498</ele></trkpt>
<trkpt lat="48.29062" lon="11.21642"><ele>503</ele></trkpt>
<trkpt lat="48.29067" lon="11.21646"><ele>504</ele></trkpt>
<trkpt lat="48.29087" lon="11.21631"><ele>504</ele></trkpt>
<trkpt lat="48.29399" lon="11.21330"><ele>502</ele></trkpt>
<trkpt lat="48.29411" lon="11.21312"><ele>503</ele></trkpt>
<trkpt lat="48.29505" lon="11.21213"><ele>502</ele></trkpt>
<trkpt lat="48.29550" lon="11.21167"><ele>501</ele></trkpt>
<trkpt lat="48.29599" lon="11.21127"><ele>501</ele></trkpt>
<trkpt lat="48.29598" lon="11.21121"><ele>501</ele></trkpt>
<trkpt lat="48.29653" lon="11.21083"><ele>502</ele></trkpt>
<trkpt lat="48.29703" lon="11.21037"><ele>505</ele></trkpt>
<trkpt lat="48.29705" lon="11.21041"><ele>505</ele></trkpt>
<trkpt lat="48.29719" lon="11.21035"><ele>505</ele></trkpt>
<trkpt lat="48.29781" lon="11.20957"><ele>507</ele></trkpt>
<trkpt lat="48.29806" lon="11.20932"><ele>506</ele></trkpt>
<trkpt lat="48.29871" lon="11.20886"><ele>504</ele></trkpt>
<trkpt lat="48.29924" lon="11.20861"><ele>504</ele></trkpt>
<trkpt lat="48.29985" lon="11.20824"><ele>503</ele></trkpt>
<trkpt lat="48.30071" lon="11.20753"><ele>504</ele></trkpt>
<trkpt lat="48.30262" lon="11.20540"><ele>507</ele></trkpt>
<trkpt lat="48.30277" lon="11.20523"><ele>508</ele></trkpt>
<trkpt lat="48.30280" lon="11.20511"><ele>508</ele></trkpt>
<trkpt lat="48.30504" lon="11.20259"><ele>516</ele></trkpt>
<trkpt lat="48.30490" lon="11.20224"><ele>516</ele></trkpt>
<trkpt lat="48.30488" lon="11.20210"><ele>516</ele></trkpt>
<trkpt lat="48.30484" lon="11.19932"><ele>512</ele></trkpt>
<trkpt lat="48.30479" lon="11.19862"><ele>509</ele></trkpt>
<trkpt lat="48.30480" lon="11.19809"><ele>508</ele></trkpt>
<trkpt lat="48.30487" lon="11.19697"><ele>506</ele></trkpt>
<trkpt lat="48.30485" lon="11.19673"><ele>506</ele></trkpt>
<trkpt lat="48.30503" lon="11.19659"><ele>506</ele></trkpt>
<trkpt lat="48.30532" lon="11.19623"><ele>504</ele></trkpt>
<trkpt lat="48.30592" lon="11.19467"><ele>499</ele></trkpt>
<trkpt lat="48.30618" lon="11.19421"><ele>498</ele></trkpt>
<trkpt lat="48.30645" lon="11.19390"><ele>497</ele></trkpt>
<trkpt lat="48.30676" lon="11.19372"><ele>495</ele></trkpt>
<trkpt lat="48.30694" lon="11.19353"><ele>494</ele></trkpt>
<trkpt lat="48.30752" lon="11.19339"><ele>494</ele></trkpt>
<trkpt lat="48.30782" lon="11.19339"><ele>493</ele></trkpt>
<trkpt lat="48.30842" lon="11.19350"><ele>491</ele></trkpt>
<trkpt lat="48.30889" lon="11.19370"><ele>491</ele></trkpt>
<trkpt lat="48.30910" lon="11.19389"><ele>490</ele></trkpt>
<trkpt lat="48.30931" lon="11.19426"><ele>490</ele></trkpt>
<trkpt lat="48.30930" lon="11.19440"><ele>490</ele></trkpt>
<trkpt lat="48.30936" lon="11.19446"><ele>490</ele></trkpt>
<trkpt lat="48.30941" lon="11.19444"><ele>489</ele></trkpt>
<trkpt lat="48.30944" lon="11.19432"><ele>489</ele></trkpt>
<trkpt lat="48.30940" lon="11.19424"><ele>489</ele></trkpt>
<trkpt lat="48.31014" lon="11.19198"><ele>486</ele></trkpt>
<trkpt lat="48.31045" lon="11.19132"><ele>487</ele></trkpt>
<trkpt lat="48.31059" lon="11.19112"><ele>487</ele></trkpt>
<trkpt lat="48.31084" lon="11.19086"><ele>487</ele></trkpt>
<trkpt lat="48.31147" lon="11.19034"><ele>487</ele></trkpt>
<trkpt lat="48.31195" lon="11.18987"><ele>486</ele></trkpt>
<trkpt lat="48.31262" lon="11.18934"><ele>488</ele></trkpt>
<trkpt lat="48.31257" lon="11.18914"><ele>488</ele></trkpt>
<trkpt lat="48.31273" lon="11.18720"><ele>488</ele></trkpt>
<trkpt lat="48.31273" lon="11.18647"><ele>488</ele></trkpt>
<trkpt lat="48.31267" lon="11.18642"><ele>488</ele></trkpt>
<trkpt lat="48.31263" lon="11.18436"><ele>488</ele></trkpt>
<trkpt lat="48.31269" lon="11.18372"><ele>489</ele></trkpt>
<trkpt lat="48.31291" lon="11.18254"><ele>490</ele></trkpt>
<trkpt lat="48.31304" lon="11.18142"><ele>492</ele></trkpt>
<trkpt lat="48.31325" lon="11.17765"><ele>494</ele></trkpt>
<trkpt lat="48.31335" lon="11.17467"><ele>493</ele></trkpt>
<trkpt lat="48.31348" lon="11.17278"><ele>492</ele></trkpt>
<trkpt lat="48.31350" lon="11.17215"><ele>492</ele></trkpt>
<trkpt lat="48.31356" lon="11.17214"><ele>492</ele></trkpt>
<trkpt lat="48.31361" lon="11.17107"><ele>492</ele></trkpt>
<trkpt lat="48.31362" lon="11.17078"><ele>492</ele></trkpt>
<trkpt lat="48.31350" lon="11.16999"><ele>492</ele></trkpt>
<trkpt lat="48.31348" lon="11.16902"><ele>492</ele></trkpt>
<trkpt lat="48.31340" lon="11.16836"><ele>492</ele></trkpt>
<trkpt lat="48.31337" lon="11.16779"><ele>492</ele></trkpt>
<trkpt lat="48.31354" lon="11.16688"><ele>492</ele></trkpt>
<trkpt lat="48.31355" lon="11.16624"><ele>494</ele></trkpt>
<trkpt lat="48.31360" lon="11.16608"><ele>494</ele></trkpt>
<trkpt lat="48.31375" lon="11.16581"><ele>494</ele></trkpt>
<trkpt lat="48.31380" lon="11.16558"><ele>495</ele></trkpt>
<trkpt lat="48.31380" lon="11.16524"><ele>495</ele></trkpt>
<trkpt lat="48.31373" lon="11.16465"><ele>494</ele></trkpt>
<trkpt lat="48.31383" lon="11.16462"><ele>495</ele></trkpt>
<trkpt lat="48.31436" lon="11.16461"><ele>498</ele></trkpt>
<trkpt lat="48.31549" lon="11.16442"><ele>500</ele></trkpt>
<trkpt lat="48.31594" lon="11.16422"><ele>500</ele></trkpt>
<trkpt lat="48.31637" lon="11.16395"><ele>500</ele></trkpt>
<trkpt lat="48.31737" lon="11.16322"><ele>500</ele></trkpt>
<trkpt lat="48.31774" lon="11.16285"><ele>501</ele></trkpt>
<trkpt lat="48.31825" lon="11.16218"><ele>501</ele></trkpt>
<trkpt lat="48.31849" lon="11.16174"><ele>502</ele></trkpt>
<trkpt lat="48.31871" lon="11.16070"><ele>503</ele></trkpt>
<trkpt lat="48.31946" lon="11.15852"><ele>507</ele></trkpt>
<trkpt lat="48.31973" lon="11.15804"><ele>508</ele></trkpt>
<trkpt lat="48.31995" lon="11.15783"><ele>508</ele></trkpt>
<trkpt lat="48.32044" lon="11.15749"><ele>510</ele></trkpt>
<trkpt lat="48.32085" lon="11.15725"><ele>512</ele></trkpt>
<trkpt lat="48.32121" lon="11.15714"><ele>515</ele></trkpt>
<trkpt lat="48.32163" lon="11.15709"><ele>520</ele></trkpt>
<trkpt lat="48.32212" lon="11.15710"><ele>524</ele></trkpt>
<trkpt lat="48.32215" lon="11.15667"><ele>524</ele></trkpt>
<trkpt lat="48.32224" lon="11.15669"><ele>525</ele></trkpt>
<trkpt lat="48.32252" lon="11.15660"><ele>524</ele></trkpt>
<trkpt lat="48.32365" lon="11.15637"><ele>520</ele></trkpt>
<trkpt lat="48.32387" lon="11.15610"><ele>519</ele></trkpt>
<trkpt lat="48.32450" lon="11.15506"><ele>512</ele></trkpt>
<trkpt lat="48.32457" lon="11.15498"><ele>511</ele></trkpt>
<trkpt lat="48.32576" lon="11.15486"><ele>507</ele></trkpt>
<trkpt lat="48.32612" lon="11.15491"><ele>505</ele></trkpt>
<trkpt lat="48.32650" lon="11.15483"><ele>506</ele></trkpt>
<trkpt lat="48.32662" lon="11.15170"><ele>508</ele></trkpt>
<trkpt lat="48.32651" lon="11.15012"><ele>508</ele></trkpt>
<trkpt lat="48.32650" lon="11.14949"><ele>509</ele></trkpt>
<trkpt lat="48.32657" lon="11.14928"><ele>510</ele></trkpt>
<trkpt lat="48.32700" lon="11.14863"><ele>515</ele></trkpt>
<trkpt lat="48.32767" lon="11.14816"><ele>518</ele></trkpt>
<trkpt lat="48.32810" lon="11.14791"><ele>520</ele></trkpt>
<trkpt lat="48.32987" lon="11.14712"><ele>524</ele></trkpt>
<trkpt lat="48.33001" lon="11.14710"><ele>524</ele></trkpt>
<trkpt lat="48.33122" lon="11.14726"><ele>528</ele></trkpt>
<trkpt lat="48.33157" lon="11.14697"><ele>528</ele></trkpt>
<trkpt lat="48.33148" lon="11.14659"><ele>528</ele></trkpt>
<trkpt lat="48.33145" lon="11.14617"><ele>529</ele></trkpt>
<trkpt lat="48.33135" lon="11.14219"><ele>528</ele></trkpt>
<trkpt lat="48.33139" lon="11.14206"><ele>528</ele></trkpt>
<trkpt lat="48.33148" lon="11.14195"><ele>528</ele></trkpt>
<trkpt lat="48.33214" lon="11.14139"><ele>528</ele></trkpt>
<trkpt lat="48.33233" lon="11.14115"><ele>528</ele></trkpt>
<trkpt lat="48.33246" lon="11.14091"><ele>529</ele></trkpt>
<trkpt lat="48.33258" lon="11.14045"><ele>529</ele></trkpt>
<trkpt lat="48.33261" lon="11.14014"><ele>529</ele></trkpt>
<trkpt lat="48.33261" lon="11.13984"><ele>529</ele></trkpt>
<trkpt lat="48.33256" lon="11.13882"><ele>530</ele></trkpt>
<trkpt lat="48.33256" lon="11.13828"><ele>530</ele></trkpt>
<trkpt lat="48.33265" lon="11.13598"><ele>531</ele></trkpt>
<trkpt lat="48.33259" lon="11.13540"><ele>531</ele></trkpt>
<trkpt lat="48.33217" lon="11.13329"><ele>530</ele></trkpt>
<trkpt lat="48.33196" lon="11.13177"><ele>529</ele></trkpt>
<trkpt lat="48.33188" lon="11.13017"><ele>528</ele></trkpt>
<trkpt lat="48.33170" lon="11.12789"><ele>530</ele></trkpt>
<trkpt lat="48.33148" lon="11.12713"><ele>530</ele></trkpt>
<trkpt lat="48.33157" lon="11.12707"><ele>530</ele></trkpt>
<trkpt lat="48.33143" lon="11.12636"><ele>530</ele></trkpt>
<trkpt lat="48.33137" lon="11.12579"><ele>531</ele></trkpt>
<trkpt lat="48.33138" lon="11.12531"><ele>532</ele></trkpt>
<trkpt lat="48.33155" lon="11.12322"><ele>532</ele></trkpt>
<trkpt lat="48.33157" lon="11.12230"><ele>532</ele></trkpt>
<trkpt lat="48.33155" lon="11.12138"><ele>532</ele></trkpt>
<trkpt lat="48.33149" lon="11.12029"><ele>533</ele></trkpt>
<trkpt lat="48.33124" lon="11.11850"><ele>532</ele></trkpt>
<trkpt lat="48.33112" lon="11.11849"><ele>532</ele></trkpt>
<trkpt lat="48.33086" lon="11.11693"><ele>532</ele></trkpt>
<trkpt lat="48.33078" lon="11.11589"><ele>533</ele></trkpt>
<trkpt lat="48.33078" lon="11.11528"><ele>533</ele></trkpt>
<trkpt lat="48.33083" lon="11.11449"><ele>534</ele></trkpt>
<trkpt lat="48.33092" lon="11.11398"><ele>534</ele></trkpt>
<trkpt lat="48.33088" lon="11.11388"><ele>534</ele></trkpt>
<trkpt lat="48.33100" lon="11.11359"><ele>533</ele></trkpt>
<trkpt lat="48.33191" lon="11.11206"><ele>533</ele></trkpt>
<trkpt lat="48.33205" lon="11.11171"><ele>534</ele></trkpt>
<trkpt lat="48.33220" lon="11.11114"><ele>536</ele></trkpt>
<trkpt lat="48.33224" lon="11.11092"><ele>536</ele></trkpt>
<trkpt lat="48.33220" lon="11.11040"><ele>538</ele></trkpt>
<trkpt lat="48.33226" lon="11.11016"><ele>538</ele></trkpt>
<trkpt lat="48.33231" lon="11.10959"><ele>538</ele></trkpt>
<trkpt lat="48.33240" lon="11.10912"><ele>537</ele></trkpt>
<trkpt lat="48.33263" lon="11.10847"><ele>535</ele></trkpt>
<trkpt lat="48.33287" lon="11.10806"><ele>533</ele></trkpt>
<trkpt lat="48.33313" lon="11.10777"><ele>532</ele></trkpt>
<trkpt lat="48.33415" lon="11.10683"><ele>530</ele></trkpt>
<trkpt lat="48.33439" lon="11.10650"><ele>530</ele></trkpt>
<trkpt lat="48.33458" lon="11.10618"><ele>531</ele></trkpt>
<trkpt lat="48.33492" lon="11.10541"><ele>531</ele></trkpt>
<trkpt lat="48.33512" lon="11.10444"><ele>531</ele></trkpt>
<trkpt lat="48.33518" lon="11.10360"><ele>531</ele></trkpt>
<trkpt lat="48.33516" lon="11.10280"><ele>530</ele></trkpt>
<trkpt lat="48.33507" lon="11.10188"><ele>530</ele></trkpt>
<trkpt lat="48.33489" lon="11.10063"><ele>529</ele></trkpt>
<trkpt lat="48.33474" lon="11.10002"><ele>528</ele></trkpt>
<trkpt lat="48.33468" lon="11.09925"><ele>527</ele></trkpt>
<trkpt lat="48.33467" lon="11.09852"><ele>527</ele></trkpt>
<trkpt lat="48.33483" lon="11.09502"><ele>525</ele></trkpt>
<trkpt lat="48.33483" lon="11.09280"><ele>525</ele></trkpt>
<trkpt lat="48.33479" lon="11.09136"><ele>521</ele></trkpt>
<trkpt lat="48.33481" lon="11.09112"><ele>520</ele></trkpt>
<trkpt lat="48.33489" lon="11.09109"><ele>518</ele></trkpt>
<trkpt lat="48.33499" lon="11.09077"><ele>519</ele></trkpt>
<trkpt lat="48.33550" lon="11.08963"><ele>512</ele></trkpt>
<trkpt lat="48.33569" lon="11.08909"><ele>509</ele></trkpt>
<trkpt lat="48.33588" lon="11.08847"><ele>504</ele></trkpt>
<trkpt lat="48.33592" lon="11.08815"><ele>503</ele></trkpt>
<trkpt lat="48.33590" lon="11.08786"><ele>501</ele></trkpt>
<trkpt lat="48.33574" lon="11.08707"><ele>499</ele></trkpt>
<trkpt lat="48.33563" lon="11.08671"><ele>497</ele></trkpt>
<trkpt lat="48.33526" lon="11.08583"><ele>496</ele></trkpt>
<trkpt lat="48.33521" lon="11.08559"><ele>496</ele></trkpt>
<trkpt lat="48.33514" lon="11.08488"><ele>497</ele></trkpt>
<trkpt lat="48.33519" lon="11.08431"><ele>498</ele></trkpt>
<trkpt lat="48.33537" lon="11.08324"><ele>499</ele></trkpt>
<trkpt lat="48.33543" lon="11.08216"><ele>500</ele></trkpt>
<trkpt lat="48.33565" lon="11.08085"><ele>503</ele></trkpt>
<trkpt lat="48.33569" lon="11.08016"><ele>501</ele></trkpt>
<trkpt lat="48.33563" lon="11.07876"><ele>496</ele></trkpt>
<trkpt lat="48.33576" lon="11.07749"><ele>492</ele></trkpt>
<trkpt lat="48.33598" lon="11.07586"><ele>494</ele></trkpt>
<trkpt lat="48.33630" lon="11.07406"><ele>499</ele></trkpt>
<trkpt lat="48.33663" lon="11.07292"><ele>500</ele></trkpt>
<trkpt lat="48.33663" lon="11.07284"><ele>500</ele></trkpt>
<trkpt lat="48.33749" lon="11.07108"><ele>491</ele></trkpt>
<trkpt lat="48.33754" lon="11.07086"><ele>490</ele></trkpt>
<trkpt lat="48.33794" lon="11.07008"><ele>487</ele></trkpt>
<trkpt lat="48.33832" lon="11.06913"><ele>488</ele></trkpt>
<trkpt lat="48.33875" lon="11.06774"><ele>489</ele></trkpt>
<trkpt lat="48.33950" lon="11.06460"><ele>488</ele></trkpt>
<trkpt lat="48.33964" lon="11.06414"><ele>486</ele></trkpt>
<trkpt lat="48.33969" lon="11.06414"><ele>486</ele></trkpt>
<trkpt lat="48.33996" lon="11.06303"><ele>483</ele></trkpt>
<trkpt lat="48.34020" lon="11.06252"><ele>482</ele></trkpt>
<trkpt lat="48.34047" lon="11.06225"><ele>482</ele></trkpt>
<trkpt lat="48.34069" lon="11.06216"><ele>482</ele></trkpt>
<trkpt lat="48.34139" lon="11.06210"><ele>484</ele></trkpt>
<trkpt lat="48.34175" lon="11.06195"><ele>484</ele></trkpt>
<trkpt lat="48.34190" lon="11.06185"><ele>485</ele></trkpt>
<trkpt lat="48.34205" lon="11.06166"><ele>485</ele></trkpt>
<trkpt lat="48.34248" lon="11.06073"><ele>486</ele></trkpt>
<trkpt lat="48.34266" lon="11.06050"><ele>488</ele></trkpt>
<trkpt lat="48.34276" lon="11.06042"><ele>488</ele></trkpt>
<trkpt lat="48.34303" lon="11.06031"><ele>488</ele></trkpt>
<trkpt lat="48.34373" lon="11.06026"><ele>489</ele></trkpt>
<trkpt lat="48.34402" lon="11.06015"><ele>490</ele></trkpt>
<trkpt lat="48.34420" lon="11.06002"><ele>489</ele></trkpt>
<trkpt lat="48.34446" lon="11.05973"><ele>489</ele></trkpt>
<trkpt lat="48.34471" lon="11.05931"><ele>488</ele></trkpt>
<trkpt lat="48.34486" lon="11.05891"><ele>488</ele></trkpt>
<trkpt lat="48.34500" lon="11.05800"><ele>485</ele></trkpt>
<trkpt lat="48.34505" lon="11.05745"><ele>484</ele></trkpt>
<trkpt lat="48.34510" lon="11.05622"><ele>483</ele></trkpt>
<trkpt lat="48.34514" lon="11.05586"><ele>482</ele></trkpt>
<trkpt lat="48.34519" lon="11.05557"><ele>482</ele></trkpt>
<trkpt lat="48.34579" lon="11.05345"><ele>480</ele></trkpt>
<trkpt lat="48.34584" lon="11.05303"><ele>480</ele></trkpt>
<trkpt lat="48.34580" lon="11.05270"><ele>480</ele></trkpt>
<trkpt lat="48.34571" lon="11.05247"><ele>479</ele></trkpt>
<trkpt lat="48.34558" lon="11.05232"><ele>480</ele></trkpt>
<trkpt lat="48.34538" lon="11.05218"><ele>480</ele></trkpt>
<trkpt lat="48.34470" lon="11.05199"><ele>480</ele></trkpt>
<trkpt lat="48.34385" lon="11.05133"><ele>481</ele></trkpt>
<trkpt lat="48.34380" lon="11.05121"><ele>481</ele></trkpt>
<trkpt lat="48.34374" lon="11.05091"><ele>481</ele></trkpt>
<trkpt lat="48.34371" lon="11.05026"><ele>482</ele></trkpt>
<trkpt lat="48.34370" lon="11.04881"><ele>484</ele></trkpt>
<trkpt lat="48.34363" lon="11.04809"><ele>484</ele></trkpt>
<trkpt lat="48.34348" lon="11.04757"><ele>486</ele></trkpt>
<trkpt lat="48.34331" lon="11.04726"><ele>488</ele></trkpt>
<trkpt lat="48.34332" lon="11.04713"><ele>488</ele></trkpt>
<trkpt lat="48.34310" lon="11.04677"><ele>490</ele></trkpt>
<trkpt lat="48.34290" lon="11.04627"><ele>493</ele></trkpt>
<trkpt lat="48.34282" lon="11.04591"><ele>493</ele></trkpt>
<trkpt lat="48.34278" lon="11.04562"><ele>494</ele></trkpt>
<trkpt lat="48.34278" lon="11.04531"><ele>495</ele></trkpt>
<trkpt lat="48.34288" lon="11.04399"><ele>497</ele></trkpt>
<trkpt lat="48.34285" lon="11.04313"><ele>496</ele></trkpt>
<trkpt lat="48.34262" lon="11.03955"><ele>486</ele></trkpt>
<trkpt lat="48.34247" lon="11.03813"><ele>487</ele></trkpt>
<trkpt lat="48.34220" lon="11.03613"><ele>490</ele></trkpt>
<trkpt lat="48.34217" lon="11.03542"><ele>491</ele></trkpt>
<trkpt lat="48.34217" lon="11.03507"><ele>491</ele></trkpt>
<trkpt lat="48.34222" lon="11.03457"><ele>491</ele></trkpt>
<trkpt lat="48.34245" lon="11.03333"><ele>492</ele></trkpt>
<trkpt lat="48.34255" lon="11.03259"><ele>492</ele></trkpt>
<trkpt lat="48.34257" lon="11.03193"><ele>492</ele></trkpt>
<trkpt lat="48.34254" lon="11.03153"><ele>492</ele></trkpt>
<trkpt lat="48.34243" lon="11.03070"><ele>492</ele></trkpt>
<trkpt lat="48.34213" lon="11.02931"><ele>491</ele></trkpt>
<trkpt lat="48.34207" lon="11.02874"><ele>491</ele></trkpt>
<trkpt lat="48.34203" lon="11.02788"><ele>490</ele></trkpt>
<trkpt lat="48.34212" lon="11.02629"><ele>488</ele></trkpt>
<trkpt lat="48.34208" lon="11.02557"><ele>489</ele></trkpt>
<trkpt lat="48.34199" lon="11.02501"><ele>490</ele></trkpt>
<trkpt lat="48.34183" lon="11.02445"><ele>490</ele></trkpt>
<trkpt lat="48.34148" lon="11.02366"><ele>489</ele></trkpt>
<trkpt lat="48.34059" lon="11.02120"><ele>485</ele></trkpt>
<trkpt lat="48.34050" lon="11.02081"><ele>485</ele></trkpt>
<trkpt lat="48.34050" lon="11.02053"><ele>484</ele></trkpt>
<trkpt lat="48.34065" lon="11.01953"><ele>482</ele></trkpt>
<trkpt lat="48.34076" lon="11.01827"><ele>483</ele></trkpt>
<trkpt lat="48.34085" lon="11.01767"><ele>483</ele></trkpt>
<trkpt lat="48.34104" lon="11.01709"><ele>484</ele></trkpt>
<trkpt lat="48.34128" lon="11.01666"><ele>486</ele></trkpt>
<trkpt lat="48.34154" lon="11.01637"><ele>488</ele></trkpt>
<trkpt lat="48.34267" lon="11.01544"><ele>493</ele></trkpt>
<trkpt lat="48.34293" lon="11.01512"><ele>496</ele></trkpt>
<trkpt lat="48.34379" lon="11.01374"><ele>503</ele></trkpt>
<trkpt lat="48.34473" lon="11.01301"><ele>508</ele></trkpt>
<trkpt lat="48.34551" lon="11.01220"><ele>509</ele></trkpt>
<trkpt lat="48.34567" lon="11.01195"><ele>508</ele></trkpt>
<trkpt lat="48.34622" lon="11.01087"><ele>509</ele></trkpt>
<trkpt lat="48.34666" lon="11.00972"><ele>514</ele></trkpt>
<trkpt lat="48.34730" lon="11.00830"><ele>518</ele></trkpt>
<trkpt lat="48.34786" lon="11.00690"><ele>518</ele></trkpt>
<trkpt lat="48.34818" lon="11.00579"><ele>517</ele></trkpt>
<trkpt lat="48.34853" lon="11.00411"><ele>516</ele></trkpt>
<trkpt lat="48.34844" lon="11.00367"><ele>514</ele></trkpt>
<trkpt lat="48.34844" lon="11.00326"><ele>514</ele></trkpt>
<trkpt lat="48.34840" lon="11.00274"><ele>513</ele></trkpt>
<trkpt lat="48.34830" lon="11.00193"><ele>512</ele></trkpt>
<trkpt lat="48.34768" lon="10.99850"><ele>516</ele></trkpt>
<trkpt lat="48.34750" lon="10.99711"><ele>516</ele></trkpt>
<trkpt lat="48.34777" lon="10.99690"><ele>517</ele></trkpt>
<trkpt lat="48.34778" lon="10.99669"><ele>518</ele></trkpt>
<trkpt lat="48.34808" lon="10.99518"><ele>519</ele></trkpt>
<trkpt lat="48.34825" lon="10.99464"><ele>518</ele></trkpt>
<trkpt lat="48.34878" lon="10.99338"><ele>518</ele></trkpt>
<trkpt lat="48.34891" lon="10.99327"><ele>518</ele></trkpt>
<trkpt lat="48.34929" lon="10.99239"><ele>516</ele></trkpt>
<trkpt lat="48.34957" lon="10.99185"><ele>516</ele></trkpt>
<trkpt lat="48.35063" lon="10.99026"><ele>511</ele></trkpt>
<trkpt lat="48.35124" lon="10.98863"><ele>508</ele></trkpt>
<trkpt lat="48.35190" lon="10.98628"><ele>505</ele></trkpt>
<trkpt lat="48.35206" lon="10.98579"><ele>504</ele></trkpt>
<trkpt lat="48.35223" lon="10.98548"><ele>504</ele></trkpt>
<trkpt lat="48.35221" lon="10.98525"><ele>504</ele></trkpt>
<trkpt lat="48.35227" lon="10.98527"><ele>503</ele></trkpt>
<trkpt lat="48.35275" lon="10.98513"><ele>505</ele></trkpt>
<trkpt lat="48.35295" lon="10.98501"><ele>506</ele></trkpt>
<trkpt lat="48.35304" lon="10.98488"><ele>506</ele></trkpt>
<trkpt lat="48.35326" lon="10.98479"><ele>506</ele></trkpt>
<trkpt lat="48.35316" lon="10.98472"><ele>506</ele></trkpt>
<trkpt lat="48.35267" lon="10.98275"><ele>501</ele></trkpt>
<trkpt lat="48.35262" lon="10.98248"><ele>500</ele></trkpt>
<trkpt lat="48.35262" lon="10.98224"><ele>500</ele></trkpt>
<trkpt lat="48.35245" lon="10.98190"><ele>497</ele></trkpt>
<trkpt lat="48.35212" lon="10.98003"><ele>497</ele></trkpt>
<trkpt lat="48.35215" lon="10.97996"><ele>498</ele></trkpt>
<trkpt lat="48.35210" lon="10.97964"><ele>499</ele></trkpt>
<trkpt lat="48.35208" lon="10.97913"><ele>499</ele></trkpt>
<trkpt lat="48.35213" lon="10.97877"><ele>498</ele></trkpt>
<trkpt lat="48.35220" lon="10.97856"><ele>499</ele></trkpt>
<trkpt lat="48.35303" lon="10.97739"><ele>492</ele></trkpt>
<trkpt lat="48.35334" lon="10.97681"><ele>489</ele></trkpt>
<trkpt lat="48.35398" lon="10.97663"><ele>490</ele></trkpt>
<trkpt lat="48.35437" lon="10.97640"><ele>490</ele></trkpt>
<trkpt lat="48.35460" lon="10.97632"><ele>491</ele></trkpt>
<trkpt lat="48.35488" lon="10.97630"><ele>491</ele></trkpt>
<trkpt lat="48.35531" lon="10.97641"><ele>490</ele></trkpt>
<trkpt lat="48.35552" lon="10.97628"><ele>488</ele></trkpt>
<trkpt lat="48.35556" lon="10.97606"><ele>485</ele></trkpt>
<trkpt lat="48.35572" lon="10.97600"><ele>484</ele></trkpt>
<trkpt lat="48.35581" lon="10.97585"><ele>483</ele></trkpt>
<trkpt lat="48.35591" lon="10.97546"><ele>482</ele></trkpt>
<trkpt lat="48.35626" lon="10.97444"><ele>482</ele></trkpt>
<trkpt lat="48.35621" lon="10.97438"><ele>482</ele></trkpt>
<trkpt lat="48.35620" lon="10.97347"><ele>482</ele></trkpt>
<trkpt lat="48.35612" lon="10.97320"><ele>482</ele></trkpt>
<trkpt lat="48.35617" lon="10.97311"><ele>482</ele></trkpt>
<trkpt lat="48.35621" lon="10.97292"><ele>482</ele></trkpt>
<trkpt lat="48.35621" lon="10.97184"><ele>482</ele></trkpt>
<trkpt lat="48.35618" lon="10.97153"><ele>482</ele></trkpt>
<trkpt lat="48.35625" lon="10.97123"><ele>482</ele></trkpt>
<trkpt lat="48.35636" lon="10.96990"><ele>482</ele></trkpt>
<trkpt lat="48.35642" lon="10.96959"><ele>482</ele></trkpt>
<trkpt lat="48.35644" lon="10.96877"><ele>482</ele></trkpt>
<trkpt lat="48.35642" lon="10.96858"><ele>482</ele></trkpt>
<trkpt lat="48.35591" lon="10.96634"><ele>484</ele></trkpt>
<trkpt lat="48.35583" lon="10.96589"><ele>483</ele></trkpt>
<trkpt lat="48.35577" lon="10.96577"><ele>483</ele></trkpt>
<trkpt lat="48.35572" lon="10.96532"><ele>482</ele></trkpt>
<trkpt lat="48.35577" lon="10.96526"><ele>483</ele></trkpt>
<trkpt lat="48.35609" lon="10.96520"><ele>483</ele></trkpt>
<trkpt lat="48.35725" lon="10.96481"><ele>482</ele></trkpt>
<trkpt lat="48.35740" lon="10.96467"><ele>481</ele></trkpt>
<trkpt lat="48.35805" lon="10.96429"><ele>482</ele></trkpt>
<trkpt lat="48.35827" lon="10.96411"><ele>482</ele></trkpt>
<trkpt lat="48.35866" lon="10.96369"><ele>481</ele></trkpt>
<trkpt lat="48.35882" lon="10.96333"><ele>482</ele></trkpt>
<trkpt lat="48.35925" lon="10.96260"><ele>481</ele></trkpt>
<trkpt lat="48.35999" lon="10.96055"><ele>481</ele></trkpt>
<trkpt lat="48.36023" lon="10.96010"><ele>481</ele></trkpt>
<trkpt lat="48.36064" lon="10.95915"><ele>481</ele></trkpt>
<trkpt lat="48.36230" lon="10.95579"><ele>480</ele></trkpt>
<trkpt lat="48.36349" lon="10.95282"><ele>480</ele></trkpt>
<trkpt lat="48.36500" lon="10.94950"><ele>480</ele></trkpt>
<trkpt lat="48.36550" lon="10.94846"><ele>480</ele></trkpt>
<trkpt lat="48.36563" lon="10.94828"><ele>480</ele></trkpt>
<trkpt lat="48.36621" lon="10.94700"><ele>479</ele></trkpt>
<trkpt lat="48.36850" lon="10.94249"><ele>478</ele></trkpt>
<trkpt lat="48.36928" lon="10.94110"><ele>478</ele></trkpt>
<trkpt lat="48.36996" lon="10.93970"><ele>477</ele></trkpt>
<trkpt lat="48.37064" lon="10.93840"><ele>477</ele></trkpt>
<trkpt lat="48.37094" lon="10.93771"><ele>477</ele></trkpt>
<trkpt lat="48.37106" lon="10.93778"><ele>477</ele></trkpt>
<trkpt lat="48.37425" lon="10.93019"><ele>476</ele></trkpt>
<trkpt lat="48.37453" lon="10.92960"><ele>476</ele></trkpt>
<trkpt lat="48.37538" lon="10.92808"><ele>476</ele></trkpt>
<trkpt lat="48.37433" lon="10.92713"><ele>476</ele></trkpt>
<trkpt lat="48.37450" lon="10.92638"><ele>476</ele></trkpt>
<trkpt lat="48.37450" lon="10.92624"><ele>476</ele></trkpt>
<trkpt lat="48.37463" lon="10.92561"><ele>476</ele></trkpt>
<trkpt lat="48.37466" lon="10.92552"><ele>476</ele></trkpt>
<trkpt lat="48.37472" lon="10.92547"><ele>476</ele></trkpt>
<trkpt lat="48.37473" lon="10.92534"><ele>476</ele></trkpt>
<trkpt lat="48.37530" lon="10.92377"><ele>476</ele></trkpt>
<trkpt lat="48.37576" lon="10.92241"><ele>476</ele></trkpt>
<trkpt lat="48.37585" lon="10.92188"><ele>476</ele></trkpt>
<trkpt lat="48.37586" lon="10.92114"><ele>475</ele></trkpt>
<trkpt lat="48.37564" lon="10.91979"><ele>475</ele></trkpt>
<trkpt lat="48.37546" lon="10.91819"><ele>475</ele></trkpt>
<trkpt lat="48.37546" lon="10.91789"><ele>474</ele></trkpt>
<trkpt lat="48.37551" lon="10.91770"><ele>474</ele></trkpt>
<trkpt lat="48.37575" lon="10.91717"><ele>474</ele></trkpt>
<trkpt lat="48.37656" lon="10.91577"><ele>475</ele></trkpt>
<trkpt lat="48.37675" lon="10.91530"><ele>474</ele></trkpt>
<trkpt lat="48.37699" lon="10.91411"><ele>475</ele></trkpt>
<trkpt lat="48.37713" lon="10.91369"><ele>475</ele></trkpt>
<trkpt lat="48.37789" lon="10.91242"><ele>474</ele></trkpt>
<trkpt lat="48.38011" lon="10.90845"><ele>472</ele></trkpt>
<trkpt lat="48.38008" lon="10.90750"><ele>472</ele></trkpt>
<trkpt lat="48.38012" lon="10.90733"><ele>472</ele></trkpt>
<trkpt lat="48.38124" lon="10.90566"><ele>470</ele></trkpt>
<trkpt lat="48.38187" lon="10.90498"><ele>470</ele></trkpt>
<trkpt lat="48.38372" lon="10.90328"><ele>471</ele></trkpt>
<trkpt lat="48.38381" lon="10.90325"><ele>471</ele></trkpt>
<trkpt lat="48.38380" lon="10.90314"><ele>470</ele></trkpt>
<trkpt lat="48.38383" lon="10.90309"><ele>470</ele></trkpt>
<trkpt lat="48.38504" lon="10.90229"><ele>470</ele></trkpt>
<trkpt lat="48.38641" lon="10.90156"><ele>470</ele></trkpt>
<trkpt lat="48.38776" lon="10.90057"><ele>470</ele></trkpt>
<trkpt lat="48.38871" lon="10.89998"><ele>469</ele></trkpt>
<trkpt lat="48.38947" lon="10.89925"><ele>469</ele></trkpt>
<trkpt lat="48.39000" lon="10.89898"><ele>468</ele></trkpt>
<trkpt lat="48.39040" lon="10.89872"><ele>468</ele></trkpt>
<trkpt lat="48.39367" lon="10.89629"><ele>466</ele></trkpt>
<trkpt lat="48.39585" lon="10.89472"><ele>467</ele></trkpt>
<trkpt lat="48.39625" lon="10.89444"><ele>466</ele></trkpt>
<trkpt lat="48.39661" lon="10.89429"><ele>467</ele></trkpt>
<trkpt lat="48.39785" lon="10.89363"><ele>467</ele></trkpt>
<trkpt lat="48.39907" lon="10.89317"><ele>466</ele></trkpt>
<trkpt lat="48.40067" lon="10.89228"><ele>466</ele></trkpt>
<trkpt lat="48.40086" lon="10.89217"><ele>466</ele></trkpt>
<trkpt lat="48.40226" lon="10.89100"><ele>464</ele></trkpt>
<trkpt lat="48.40272" lon="10.89075"><ele>464</ele></trkpt>
<trkpt lat="48.40504" lon="10.88976"><ele>463</ele></trkpt>
<trkpt lat="48.40620" lon="10.88958"><ele>463</ele></trkpt>
<trkpt lat="48.40710" lon="10.88952"><ele>464</ele></trkpt>
<trkpt lat="48.40818" lon="10.88966"><ele>464</ele></trkpt>
<trkpt lat="48.41047" lon="10.88984"><ele>463</ele></trkpt>
<trkpt lat="48.41105" lon="10.88996"><ele>463</ele></trkpt>
<trkpt lat="48.41182" lon="10.89004"><ele>463</ele></trkpt>
<trkpt lat="48.41299" lon="10.89011"><ele>462</ele></trkpt>
<trkpt lat="48.41338" lon="10.89010"><ele>462</ele></trkpt>
<trkpt lat="48.41355" lon="10.88983"><ele>462</ele></trkpt>
<trkpt lat="48.41365" lon="10.88975"><ele>462</ele></trkpt>
<trkpt lat="48.41394" lon="10.88966"><ele>460</ele></trkpt>
<trkpt lat="48.41441" lon="10.88971"><ele>460</ele></trkpt>
<trkpt lat="48.41447" lon="10.88974"><ele>460</ele></trkpt>
<trkpt lat="48.41458" lon="10.88998"><ele>461</ele></trkpt>
<trkpt lat="48.41489" lon="10.89026"><ele>461</ele></trkpt>
<trkpt lat="48.41670" lon="10.89046"><ele>462</ele></trkpt>
<trkpt lat="48.41698" lon="10.89033"><ele>461</ele></trkpt>
<trkpt lat="48.41726" lon="10.89036"><ele>461</ele></trkpt>
<trkpt lat="48.41769" lon="10.89054"><ele>462</ele></trkpt>
<trkpt lat="48.41801" lon="10.89058"><ele>461</ele></trkpt>
<trkpt lat="48.41836" lon="10.89072"><ele>460</ele></trkpt>
<trkpt lat="48.41896" lon="10.89077"><ele>461</ele></trkpt>
<trkpt lat="48.41944" lon="10.89068"><ele>462</ele></trkpt>
<trkpt lat="48.42406" lon="10.89110"><ele>460</ele></trkpt>
<trkpt lat="48.42418" lon="10.89100"><ele>460</ele></trkpt>
<trkpt lat="48.42435" lon="10.89097"><ele>459</ele></trkpt>
<trkpt lat="48.42442" lon="10.89087"><ele>458</ele></trkpt>
<trkpt lat="48.42455" lon="10.89081"><ele>457</ele></trkpt>
<trkpt lat="48.42495" lon="10.89088"><ele>457</ele></trkpt>
<trkpt lat="48.42519" lon="10.89100"><ele>458</ele></trkpt>
<trkpt lat="48.42513" lon="10.89104"><ele>459</ele></trkpt>
<trkpt lat="48.42479" lon="10.89105"><ele>459</ele></trkpt>
<trkpt lat="48.42477" lon="10.89097"><ele>458</ele></trkpt>
<trkpt lat="48.42486" lon="10.88753"><ele>460</ele></trkpt>
<trkpt lat="48.42481" lon="10.88722"><ele>460</ele></trkpt>
<trkpt lat="48.42447" lon="10.88634"><ele>459</ele></trkpt>
<trkpt lat="48.42444" lon="10.88609"><ele>459</ele></trkpt>
<trkpt lat="48.42448" lon="10.88583"><ele>459</ele></trkpt>
<trkpt lat="48.42460" lon="10.88549"><ele>458</ele></trkpt>
<trkpt lat="48.42484" lon="10.88523"><ele>458</ele></trkpt>
<trkpt lat="48.42515" lon="10.88498"><ele>458</ele></trkpt>
<trkpt lat="48.42589" lon="10.88451"><ele>458</ele></trkpt>
<trkpt lat="48.42668" lon="10.88410"><ele>458</ele></trkpt>
<trkpt lat="48.42734" lon="10.88385"><ele>458</ele></trkpt>
<trkpt lat="48.42803" lon="10.88387"><ele>458</ele></trkpt>
<trkpt lat="48.42831" lon="10.88379"><ele>458</ele></trkpt>
<trkpt lat="48.42857" lon="10.88365"><ele>458</ele></trkpt>
<trkpt lat="48.42922" lon="10.88315"><ele>458</ele></trkpt>
<trkpt lat="48.42957" lon="10.88284"><ele>458</ele></trkpt>
<trkpt lat="48.42966" lon="10.88270"><ele>459</ele></trkpt>
<trkpt lat="48.42994" lon="10.88280"><ele>459</ele></trkpt>
<trkpt lat="48.43041" lon="10.88284"><ele>458</ele></trkpt>
<trkpt lat="48.43131" lon="10.88259"><ele>457</ele></trkpt>
<trkpt lat="48.43474" lon="10.88229"><ele>456</ele></trkpt>
<trkpt lat="48.43509" lon="10.88222"><ele>456</ele></trkpt>
<trkpt lat="48.43613" lon="10.88175"><ele>456</ele></trkpt>
<trkpt lat="48.43814" lon="10.88113"><ele>456</ele></trkpt>
<trkpt lat="48.43859" lon="10.88105"><ele>455</ele></trkpt>
<trkpt lat="48.44423" lon="10.87918"><ele>454</ele></trkpt>
<trkpt lat="48.44463" lon="10.87910"><ele>454</ele></trkpt>
<trkpt lat="48.44485" lon="10.87898"><ele>454</ele></trkpt>
<trkpt lat="48.44513" lon="10.87890"><ele>454</ele></trkpt>
<trkpt lat="48.44523" lon="10.87897"><ele>454</ele></trkpt>
<trkpt lat="48.44532" lon="10.87896"><ele>454</ele></trkpt>
<trkpt lat="48.44537" lon="10.87894"><ele>454</ele></trkpt>
<trkpt lat="48.44547" lon="10.87879"><ele>454</ele></trkpt>
<trkpt lat="48.44631" lon="10.87854"><ele>454</ele></trkpt>
<trkpt lat="48.44644" lon="10.87844"><ele>454</ele></trkpt>
<trkpt lat="48.44647" lon="10.87836"><ele>454</ele></trkpt>
<trkpt lat="48.44708" lon="10.87819"><ele>453</ele></trkpt>
<trkpt lat="48.44734" lon="10.87826"><ele>453</ele></trkpt>
<trkpt lat="48.44780" lon="10.87796"><ele>453</ele></trkpt>
<trkpt lat="48.44945" lon="10.87747"><ele>453</ele></trkpt>
<trkpt lat="48.45064" lon="10.87701"><ele>452</ele></trkpt>
<trkpt lat="48.45152" lon="10.87700"><ele>452</ele></trkpt>
<trkpt lat="48.45190" lon="10.87706"><ele>452</ele></trkpt>
<trkpt lat="48.45213" lon="10.87688"><ele>452</ele></trkpt>
<trkpt lat="48.45387" lon="10.87646"><ele>452</ele></trkpt>
<trkpt lat="48.45395" lon="10.87630"><ele>452</ele></trkpt>
<trkpt lat="48.45391" lon="10.87578"><ele>454</ele></trkpt>
<trkpt lat="48.45386" lon="10.87555"><ele>454</ele></trkpt>
<trkpt lat="48.45400" lon="10.87538"><ele>455</ele></trkpt>
<trkpt lat="48.45405" lon="10.87520"><ele>455</ele></trkpt>
<trkpt lat="48.45402" lon="10.87404"><ele>454</ele></trkpt>
<trkpt lat="48.45404" lon="10.87377"><ele>454</ele></trkpt>
<trkpt lat="48.45419" lon="10.87298"><ele>454</ele></trkpt>
<trkpt lat="48.45438" lon="10.87230"><ele>454</ele></trkpt>
<trkpt lat="48.45483" lon="10.87144"><ele>457</ele></trkpt>
<trkpt lat="48.45488" lon="10.87111"><ele>458</ele></trkpt>
<trkpt lat="48.45505" lon="10.87095"><ele>458</ele></trkpt>
<trkpt lat="48.45512" lon="10.87100"><ele>458</ele></trkpt>
<trkpt lat="48.45527" lon="10.87103"><ele>458</ele></trkpt>
<trkpt lat="48.45573" lon="10.87081"><ele>459</ele></trkpt>
<trkpt lat="48.45608" lon="10.87069"><ele>459</ele></trkpt>
<trkpt lat="48.45719" lon="10.87040"><ele>460</ele></trkpt>
<trkpt lat="48.45946" lon="10.86972"><ele>459</ele></trkpt>
<trkpt lat="48.45961" lon="10.86963"><ele>458</ele></trkpt>
<trkpt lat="48.45989" lon="10.86963"><ele>458</ele></trkpt>
<trkpt lat="48.46000" lon="10.86953"><ele>458</ele></trkpt>
<trkpt lat="48.46028" lon="10.86951"><ele>458</ele></trkpt>
<trkpt lat="48.46138" lon="10.86919"><ele>458</ele></trkpt>
<trkpt lat="48.46205" lon="10.86891"><ele>458</ele></trkpt>
<trkpt lat="48.46254" lon="10.86869"><ele>458</ele></trkpt>
<trkpt lat="48.46319" lon="10.86825"><ele>459</ele></trkpt>
<trkpt lat="48.46424" lon="10.86735"><ele>459</ele></trkpt>
<trkpt lat="48.46444" lon="10.86711"><ele>459</ele></trkpt>
<trkpt lat="48.46448" lon="10.86707"><ele>459</ele></trkpt>
<trkpt lat="48.46455" lon="10.86709"><ele>459</ele></trkpt>
<trkpt lat="48.46492" lon="10.86672"><ele>459</ele></trkpt>
<trkpt lat="48.46525" lon="10.86646"><ele>459</ele></trkpt>
<trkpt lat="48.46567" lon="10.86624"><ele>458</ele></trkpt>
<trkpt lat="48.46596" lon="10.86613"><ele>458</ele></trkpt>
<trkpt lat="48.46686" lon="10.86589"><ele>457</ele></trkpt>
<trkpt lat="48.46772" lon="10.86560"><ele>458</ele></trkpt>
<trkpt lat="48.46794" lon="10.86557"><ele>457</ele></trkpt>
<trkpt lat="48.46804" lon="10.86560"><ele>457</ele></trkpt>
<trkpt lat="48.46937" lon="10.86531"><ele>458</ele></trkpt>
<trkpt lat="48.47040" lon="10.86515"><ele>458</ele></trkpt>
<trkpt lat="48.47222" lon="10.86539"><ele>456</ele></trkpt>
<trkpt lat="48.47275" lon="10.86536"><ele>456</ele></trkpt>
<trkpt lat="48.47328" lon="10.86543"><ele>456</ele></trkpt>
<trkpt lat="48.47354" lon="10.86556"><ele>456</ele></trkpt>
<trkpt lat="48.47383" lon="10.86559"><ele>455</ele></trkpt>
<trkpt lat="48.47399" lon="10.86556"><ele>455</ele></trkpt>
<trkpt lat="48.47407" lon="10.86542"><ele>455</ele></trkpt>
<trkpt lat="48.47420" lon="10.86535"><ele>455</ele></trkpt>
<trkpt lat="48.47451" lon="10.86564"><ele>455</ele></trkpt>
<trkpt lat="48.47487" lon="10.86571"><ele>454</ele></trkpt>
<trkpt lat="48.47515" lon="10.86570"><ele>455</ele></trkpt>
<trkpt lat="48.47604" lon="10.86560"><ele>454</ele></trkpt>
<trkpt lat="48.47705" lon="10.86524"><ele>452</ele></trkpt>
<trkpt lat="48.47829" lon="10.86473"><ele>452</ele></trkpt>
<trkpt lat="48.48027" lon="10.86375"><ele>452</ele></trkpt>
<trkpt lat="48.48125" lon="10.86321"><ele>450</ele></trkpt>
<trkpt lat="48.48197" lon="10.86293"><ele>450</ele></trkpt>
<trkpt lat="48.48264" lon="10.86260"><ele>450</ele></trkpt>
<trkpt lat="48.48270" lon="10.86263"><ele>450</ele></trkpt>
<trkpt lat="48.48322" lon="10.86243"><ele>450</ele></trkpt>
<trkpt lat="48.48352" lon="10.86236"><ele>450</ele></trkpt>
<trkpt lat="48.48372" lon="10.86224"><ele>449</ele></trkpt>
<trkpt lat="48.48389" lon="10.86205"><ele>449</ele></trkpt>
<trkpt lat="48.48408" lon="10.86176"><ele>449</ele></trkpt>
<trkpt lat="48.48426" lon="10.86133"><ele>449</ele></trkpt>
<trkpt lat="48.48453" lon="10.86089"><ele>450</ele></trkpt>
<trkpt lat="48.48458" lon="10.86065"><ele>451</ele></trkpt>
<trkpt lat="48.48478" lon="10.86039"><ele>451</ele></trkpt>
<trkpt lat="48.48499" lon="10.86037"><ele>451</ele></trkpt>
<trkpt lat="48.48514" lon="10.86046"><ele>451</ele></trkpt>
<trkpt lat="48.48538" lon="10.86051"><ele>452</ele></trkpt>
<trkpt lat="48.48556" lon="10.86063"><ele>451</ele></trkpt>
<trkpt lat="48.48574" lon="10.86064"><ele>451</ele></trkpt>
<trkpt lat="48.48581" lon="10.86071"><ele>451</ele></trkpt>
<trkpt lat="48.48600" lon="10.86067"><ele>451</ele></trkpt>
<trkpt lat="48.48715" lon="10.85996"><ele>450</ele></trkpt>
<trkpt lat="48.48773" lon="10.85972"><ele>450</ele></trkpt>
<trkpt lat="48.48843" lon="10.85957"><ele>449</ele></trkpt>
<trkpt lat="48.48871" lon="10.85942"><ele>448</ele></trkpt>
<trkpt lat="48.48938" lon="10.85894"><ele>449</ele></trkpt>
<trkpt lat="48.49035" lon="10.85798"><ele>447</ele></trkpt>
<trkpt lat="48.49082" lon="10.85769"><ele>447</ele></trkpt>
<trkpt lat="48.49113" lon="10.85742"><ele>447</ele></trkpt>
<trkpt lat="48.49241" lon="10.85602"><ele>449</ele></trkpt>
<trkpt lat="48.49282" lon="10.85564"><ele>448</ele></trkpt>
<trkpt lat="48.49343" lon="10.85656"><ele>445</ele></trkpt>
<trkpt lat="48.49430" lon="10.85756"><ele>443</ele></trkpt>
<trkpt lat="48.49436" lon="10.85751"><ele>443</ele></trkpt>
<trkpt lat="48.49494" lon="10.85806"><ele>443</ele></trkpt>
<trkpt lat="48.49498" lon="10.85818"><ele>443</ele></trkpt>
<trkpt lat="48.49497" lon="10.85844"><ele>444</ele></trkpt>
<trkpt lat="48.49504" lon="10.85905"><ele>447</ele></trkpt>
<trkpt lat="48.49498" lon="10.86059"><ele>446</ele></trkpt>
<trkpt lat="48.49500" lon="10.86084"><ele>447</ele></trkpt>
<trkpt lat="48.49507" lon="10.86110"><ele>446</ele></trkpt>
<trkpt lat="48.49517" lon="10.86120"><ele>444</ele></trkpt>
<trkpt lat="48.49536" lon="10.86123"><ele>444</ele></trkpt>
<trkpt lat="48.49552" lon="10.86110"><ele>443</ele></trkpt>
<trkpt lat="48.49558" lon="10.86089"><ele>442</ele></trkpt>
<trkpt lat="48.49558" lon="10.86059"><ele>442</ele></trkpt>
<trkpt lat="48.49563" lon="10.86054"><ele>442</ele></trkpt>
<trkpt lat="48.49711" lon="10.86061"><ele>442</ele></trkpt>
<trkpt lat="48.49737" lon="10.86071"><ele>442</ele></trkpt>
<trkpt lat="48.49750" lon="10.86070"><ele>442</ele></trkpt>
<trkpt lat="48.49789" lon="10.86080"><ele>442</ele></trkpt>
<trkpt lat="48.49796" lon="10.86058"><ele>442</ele></trkpt>
<trkpt lat="48.49799" lon="10.86052"><ele>442</ele></trkpt>
<trkpt lat="48.49806" lon="10.86052"><ele>442</ele></trkpt>
<trkpt lat="48.49815" lon="10.86066"><ele>442</ele></trkpt>
<trkpt lat="48.49876" lon="10.86094"><ele>442</ele></trkpt>
<trkpt lat="48.50047" lon="10.86158"><ele>442</ele></trkpt>
<trkpt lat="48.50113" lon="10.86178"><ele>441</ele></trkpt>
<trkpt lat="48.50170" lon="10.86187"><ele>442</ele></trkpt>
<trkpt lat="48.50240" lon="10.86191"><ele>441</ele></trkpt>
<trkpt lat="48.50307" lon="10.86184"><ele>442</ele></trkpt>
<trkpt lat="48.50457" lon="10.86141"><ele>441</ele></trkpt>
<trkpt lat="48.50469" lon="10.86134"><ele>441</ele></trkpt>
<trkpt lat="48.50476" lon="10.86124"><ele>441</ele></trkpt>
<trkpt lat="48.50490" lon="10.86141"><ele>441</ele></trkpt>
<trkpt lat="48.50496" lon="10.86145"><ele>440</ele></trkpt>
<trkpt lat="48.50505" lon="10.86143"><ele>440</ele></trkpt>
<trkpt lat="48.50517" lon="10.86138"><ele>441</ele></trkpt>
<trkpt lat="48.50526" lon="10.86117"><ele>441</ele></trkpt>
<trkpt lat="48.50532" lon="10.86123"><ele>441</ele></trkpt>
<trkpt lat="48.50546" lon="10.86127"><ele>440</ele></trkpt>
<trkpt lat="48.50640" lon="10.86126"><ele>440</ele></trkpt>
<trkpt lat="48.50726" lon="10.86132"><ele>440</ele></trkpt>
<trkpt lat="48.50744" lon="10.86124"><ele>440</ele></trkpt>
<trkpt lat="48.50814" lon="10.86127"><ele>440</ele></trkpt>
<trkpt lat="48.50841" lon="10.86139"><ele>440</ele></trkpt>
<trkpt lat="48.50999" lon="10.86145"><ele>439</ele></trkpt>
<trkpt lat="48.51029" lon="10.86143"><ele>439</ele></trkpt>
<trkpt lat="48.51042" lon="10.86148"><ele>439</ele></trkpt>
<trkpt lat="48.51229" lon="10.86165"><ele>439</ele></trkpt>
<trkpt lat="48.51373" lon="10.86159"><ele>438</ele></trkpt>
<trkpt lat="48.51469" lon="10.86145"><ele>438</ele></trkpt>
<trkpt lat="48.51537" lon="10.86131"><ele>438</ele></trkpt>
<trkpt lat="48.51594" lon="10.86115"><ele>438</ele></trkpt>
<trkpt lat="48.51714" lon="10.86071"><ele>438</ele></trkpt>
<trkpt lat="48.51725" lon="10.86065"><ele>437</ele></trkpt>
<trkpt lat="48.51732" lon="10.86054"><ele>437</ele></trkpt>
<trkpt lat="48.51754" lon="10.86047"><ele>438</ele></trkpt>
<trkpt lat="48.51766" lon="10.86049"><ele>438</ele></trkpt>
<trkpt lat="48.51785" lon="10.86042"><ele>437</ele></trkpt>
<trkpt lat="48.51841" lon="10.86018"><ele>437</ele></trkpt>
<trkpt lat="48.51939" lon="10.85963"><ele>437</ele></trkpt>
<trkpt lat="48.51992" lon="10.85926"><ele>436</ele></trkpt>
<trkpt lat="48.52052" lon="10.85892"><ele>436</ele></trkpt>
<trkpt lat="48.52134" lon="10.85854"><ele>436</ele></trkpt>
<trkpt lat="48.52218" lon="10.85828"><ele>436</ele></trkpt>
<trkpt lat="48.52228" lon="10.85814"><ele>436</ele></trkpt>
<trkpt lat="48.52233" lon="10.85813"><ele>436</ele></trkpt>
<trkpt lat="48.52244" lon="10.85813"><ele>435</ele></trkpt>
<trkpt lat="48.52252" lon="10.85821"><ele>436</ele></trkpt>
<trkpt lat="48.52351" lon="10.85819"><ele>435</ele></trkpt>
<trkpt lat="48.52429" lon="10.85825"><ele>435</ele></trkpt>
<trkpt lat="48.52501" lon="10.85840"><ele>436</ele></trkpt>
<trkpt lat="48.52713" lon="10.85915"><ele>435</ele></trkpt>
<trkpt lat="48.52759" lon="10.85928"><ele>435</ele></trkpt>
<trkpt lat="48.52834" lon="10.85940"><ele>435</ele></trkpt>
<trkpt lat="48.52977" lon="10.85933"><ele>434</ele></trkpt>
<trkpt lat="48.53036" lon="10.85921"><ele>434</ele></trkpt>
<trkpt lat="48.53147" lon="10.85886"><ele>434</ele></trkpt>
<trkpt lat="48.53169" lon="10.85876"><ele>434</ele></trkpt>
<trkpt lat="48.53768" lon="10.85669"><ele>433</ele></trkpt>
<trkpt lat="48.53808" lon="10.85650"><ele>433</ele></trkpt>
<trkpt lat="48.53827" lon="10.85651"><ele>433</ele></trkpt>
<trkpt lat="48.54198" lon="10.85518"><ele>432</ele></trkpt>
<trkpt lat="48.54211" lon="10.85500"><ele>432</ele></trkpt>
<trkpt lat="48.54203" lon="10.85447"><ele>433</ele></trkpt>
<trkpt lat="48.54193" lon="10.85387"><ele>432</ele></trkpt>
<trkpt lat="48.54156" lon="10.85223"><ele>432</ele></trkpt>
<trkpt lat="48.54124" lon="10.85032"><ele>432</ele></trkpt>
<trkpt lat="48.54123" lon="10.85009"><ele>432</ele></trkpt>
<trkpt lat="48.54288" lon="10.84994"><ele>432</ele></trkpt>
<trkpt lat="48.54457" lon="10.84966"><ele>431</ele></trkpt>
<trkpt lat="48.54530" lon="10.84969"><ele>431</ele></trkpt>
<trkpt lat="48.54580" lon="10.84963"><ele>431</ele></trkpt>
<trkpt lat="48.54591" lon="10.84966"><ele>431</ele></trkpt>
<trkpt lat="48.54604" lon="10.84975"><ele>431</ele></trkpt>
<trkpt lat="48.54611" lon="10.84989"><ele>430</ele></trkpt>
<trkpt lat="48.54660" lon="10.84934"><ele>430</ele></trkpt>
<trkpt lat="48.54706" lon="10.84872"><ele>431</ele></trkpt>
<trkpt lat="48.54725" lon="10.84856"><ele>431</ele></trkpt>
<trkpt lat="48.54746" lon="10.84848"><ele>431</ele></trkpt>
<trkpt lat="48.54881" lon="10.84855"><ele>429</ele></trkpt>
<trkpt lat="48.54890" lon="10.84852"><ele>429</ele></trkpt>
<trkpt lat="48.54894" lon="10.84826"><ele>430</ele></trkpt>
<trkpt lat="48.54893" lon="10.84731"><ele>429</ele></trkpt>
<trkpt lat="48.54906" lon="10.84717"><ele>430</ele></trkpt>
<trkpt lat="48.54966" lon="10.84693"><ele>430</ele></trkpt>
<trkpt lat="48.54985" lon="10.84670"><ele>429</ele></trkpt>
<trkpt lat="48.54998" lon="10.84660"><ele>429</ele></trkpt>
<trkpt lat="48.55529" lon="10.84465"><ele>428</ele></trkpt>
<trkpt lat="48.55532" lon="10.84460"><ele>428</ele></trkpt>
<trkpt lat="48.56410" lon="10.84322"><ele>426</ele></trkpt>
<trkpt lat="48.56593" lon="10.84199"><ele>425</ele></trkpt>
<trkpt lat="48.56621" lon="10.84176"><ele>425</ele></trkpt>
<trkpt lat="48.56726" lon="10.84073"><ele>424</ele></trkpt>
<trkpt lat="48.56732" lon="10.84076"><ele>425</ele></trkpt>
<trkpt lat="48.56836" lon="10.83974"><ele>424</ele></trkpt>
<trkpt lat="48.56853" lon="10.83953"><ele>424</ele></trkpt>
<trkpt lat="48.56952" lon="10.83796"><ele>424</ele></trkpt>
<trkpt lat="48.56966" lon="10.83781"><ele>424</ele></trkpt>
<trkpt lat="48.57020" lon="10.83758"><ele>424</ele></trkpt>
<trkpt lat="48.57046" lon="10.83726"><ele>423</ele></trkpt>
<trkpt lat="48.57076" lon="10.83724"><ele>423</ele></trkpt>
<trkpt lat="48.57129" lon="10.83731"><ele>423</ele></trkpt>
<trkpt lat="48.57190" lon="10.83712"><ele>423</ele></trkpt>
<trkpt lat="48.57226" lon="10.83694"><ele>424</ele></trkpt>
<trkpt lat="48.57316" lon="10.83664"><ele>423</ele></trkpt>
<trkpt lat="48.57341" lon="10.83665"><ele>423</ele></trkpt>
<trkpt lat="48.57310" lon="10.83845"><ele>424</ele></trkpt>
<trkpt lat="48.57324" lon="10.83847"><ele>424</ele></trkpt>
<trkpt lat="48.57367" lon="10.83836"><ele>424</ele></trkpt>
<trkpt lat="48.57405" lon="10.83797"><ele>424</ele></trkpt>
<trkpt lat="48.57438" lon="10.83779"><ele>424</ele></trkpt>
<trkpt lat="48.57467" lon="10.83779"><ele>424</ele></trkpt>
<trkpt lat="48.57471" lon="10.83773"><ele>424</ele></trkpt>
<trkpt lat="48.57474" lon="10.83777"><ele>424</ele></trkpt>
<trkpt lat="48.57531" lon="10.83766"><ele>424</ele></trkpt>
<trkpt lat="48.57638" lon="10.83737"><ele>424</ele></trkpt>
<trkpt lat="48.58507" lon="10.83559"><ele>422</ele></trkpt>
<trkpt lat="48.58763" lon="10.83481"><ele>421</ele></trkpt>
<trkpt lat="48.58846" lon="10.83459"><ele>422</ele></trkpt>
<trkpt lat="48.58987" lon="10.83403"><ele>421</ele></trkpt>
<trkpt lat="48.58995" lon="10.83399"><ele>421</ele></trkpt>
<trkpt lat="48.59001" lon="10.83389"><ele>421</ele></trkpt>
<trkpt lat="48.59011" lon="10.83393"><ele>421</ele></trkpt>
<trkpt lat="48.59025" lon="10.83388"><ele>421</ele></trkpt>
<trkpt lat="48.59278" lon="10.83283"><ele>422</ele></trkpt>
<trkpt lat="48.59358" lon="10.83262"><ele>422</ele></trkpt>
<trkpt lat="48.59449" lon="10.83195"><ele>421</ele></trkpt>
<trkpt lat="48.59468" lon="10.83187"><ele>421</ele></trkpt>
<trkpt lat="48.59468" lon="10.83171"><ele>421</ele></trkpt>
<trkpt lat="48.59474" lon="10.83159"><ele>421</ele></trkpt>
<trkpt lat="48.59494" lon="10.83137"><ele>421</ele></trkpt>
<trkpt lat="48.59570" lon="10.83087"><ele>420</ele></trkpt>
<trkpt lat="48.59684" lon="10.82965"><ele>421</ele></trkpt>
<trkpt lat="48.59791" lon="10.82874"><ele>422</ele></trkpt>
<trkpt lat="48.59865" lon="10.82818"><ele>421</ele></trkpt>
<trkpt lat="48.59871" lon="10.82824"><ele>422</ele></trkpt>
<trkpt lat="48.59938" lon="10.82793"><ele>421</ele></trkpt>
<trkpt lat="48.60091" lon="10.82744"><ele>421</ele></trkpt>
<trkpt lat="48.60107" lon="10.82745"><ele>421</ele></trkpt>
<trkpt lat="48.60130" lon="10.82765"><ele>420</ele></trkpt>
<trkpt lat="48.60145" lon="10.82753"><ele>421</ele></trkpt>
<trkpt lat="48.60150" lon="10.82732"><ele>422</ele></trkpt>
<trkpt lat="48.60160" lon="10.82726"><ele>421</ele></trkpt>
<trkpt lat="48.60185" lon="10.82723"><ele>421</ele></trkpt>
<trkpt lat="48.60222" lon="10.82725"><ele>420</ele></trkpt>
<trkpt lat="48.60358" lon="10.82741"><ele>419</ele></trkpt>
<trkpt lat="48.60502" lon="10.82748"><ele>419</ele></trkpt>
<trkpt lat="48.60822" lon="10.82800"><ele>419</ele></trkpt>
<trkpt lat="48.60912" lon="10.82829"><ele>419</ele></trkpt>
<trkpt lat="48.61008" lon="10.82866"><ele>418</ele></trkpt>
<trkpt lat="48.61031" lon="10.82871"><ele>418</ele></trkpt>
<trkpt lat="48.61145" lon="10.82862"><ele>418</ele></trkpt>
<trkpt lat="48.61184" lon="10.82847"><ele>418</ele></trkpt>
<trkpt lat="48.61289" lon="10.82788"><ele>417</ele></trkpt>
<trkpt lat="48.61699" lon="10.82590"><ele>416</ele></trkpt>
<trkpt lat="48.62000" lon="10.82460"><ele>416</ele></trkpt>
<trkpt lat="48.62048" lon="10.82445"><ele>416</ele></trkpt>
<trkpt lat="48.62065" lon="10.82432"><ele>416</ele></trkpt>
<trkpt lat="48.62093" lon="10.82420"><ele>416</ele></trkpt>
<trkpt lat="48.62382" lon="10.82301"><ele>415</ele></trkpt>
<trkpt lat="48.62891" lon="10.82281"><ele>415</ele></trkpt>
<trkpt lat="48.62932" lon="10.82259"><ele>415</ele></trkpt>
<trkpt lat="48.62978" lon="10.82222"><ele>415</ele></trkpt>
<trkpt lat="48.63026" lon="10.82164"><ele>415</ele></trkpt>
<trkpt lat="48.63102" lon="10.82029"><ele>414</ele></trkpt>
<trkpt lat="48.63116" lon="10.82028"><ele>415</ele></trkpt>
<trkpt lat="48.63121" lon="10.82021"><ele>414</ele></trkpt>
<trkpt lat="48.63120" lon="10.82005"><ele>414</ele></trkpt>
<trkpt lat="48.63141" lon="10.81918"><ele>415</ele></trkpt>
<trkpt lat="48.63153" lon="10.81839"><ele>415</ele></trkpt>
<trkpt lat="48.63163" lon="10.81815"><ele>414</ele></trkpt>
<trkpt lat="48.63166" lon="10.81799"><ele>414</ele></trkpt>
<trkpt lat="48.63164" lon="10.81776"><ele>414</ele></trkpt>
<trkpt lat="48.63169" lon="10.81735"><ele>415</ele></trkpt>
<trkpt lat="48.63161" lon="10.81710"><ele>414</ele></trkpt>
<trkpt lat="48.63171" lon="10.81633"><ele>416</ele></trkpt>
<trkpt lat="48.63178" lon="10.81613"><ele>416</ele></trkpt>
<trkpt lat="48.63189" lon="10.81596"><ele>416</ele></trkpt>
<trkpt lat="48.63241" lon="10.81561"><ele>419</ele></trkpt>
<trkpt lat="48.63292" lon="10.81512"><ele>423</ele></trkpt>
<trkpt lat="48.63313" lon="10.81504"><ele>424</ele></trkpt>
<trkpt lat="48.63329" lon="10.81507"><ele>426</ele></trkpt>
<trkpt lat="48.63403" lon="10.81536"><ele>431</ele></trkpt>
<trkpt lat="48.63473" lon="10.81574"><ele>431</ele></trkpt>
<trkpt lat="48.63498" lon="10.81570"><ele>428</ele></trkpt>
<trkpt lat="48.63540" lon="10.81548"><ele>426</ele></trkpt>
<trkpt lat="48.63570" lon="10.81539"><ele>425</ele></trkpt>
<trkpt lat="48.63599" lon="10.81542"><ele>426</ele></trkpt>
<trkpt lat="48.63663" lon="10.81562"><ele>427</ele></trkpt>
<trkpt lat="48.63789" lon="10.81591"><ele>432</ele></trkpt>
<trkpt lat="48.63790" lon="10.81580"><ele>432</ele></trkpt>
<trkpt lat="48.63808" lon="10.81579"><ele>433</ele></trkpt>
<trkpt lat="48.63861" lon="10.81597"><ele>438</ele></trkpt>
<trkpt lat="48.63891" lon="10.81598"><ele>439</ele></trkpt>
<trkpt lat="48.63982" lon="10.81550"><ele>440</ele></trkpt>
<trkpt lat="48.64145" lon="10.81449"><ele>436</ele></trkpt>
<trkpt lat="48.64278" lon="10.81377"><ele>430</ele></trkpt>
<trkpt lat="48.64558" lon="10.81106"><ele>422</ele></trkpt>
<trkpt lat="48.64659" lon="10.80991"><ele>419</ele></trkpt>
<trkpt lat="48.64701" lon="10.80938"><ele>418</ele></trkpt>
<trkpt lat="48.64746" lon="10.80871"><ele>416</ele></trkpt>
<trkpt lat="48.64766" lon="10.80830"><ele>415</ele></trkpt>
<trkpt lat="48.64771" lon="10.80798"><ele>415</ele></trkpt>
<trkpt lat="48.64800" lon="10.80814"><ele>415</ele></trkpt>
<trkpt lat="48.64809" lon="10.80792"><ele>414</ele></trkpt>
<trkpt lat="48.64805" lon="10.80758"><ele>413</ele></trkpt>
<trkpt lat="48.64810" lon="10.80744"><ele>413</ele></trkpt>
<trkpt lat="48.64833" lon="10.80737"><ele>413</ele></trkpt>
<trkpt lat="48.64848" lon="10.80725"><ele>413</ele></trkpt>
<trkpt lat="48.64868" lon="10.80731"><ele>413</ele></trkpt>
<trkpt lat="48.64878" lon="10.80730"><ele>413</ele></trkpt>
<trkpt lat="48.64888" lon="10.80718"><ele>413</ele></trkpt>
<trkpt lat="48.64896" lon="10.80682"><ele>414</ele></trkpt>
<trkpt lat="48.64908" lon="10.80671"><ele>414</ele></trkpt>
<trkpt lat="48.64980" lon="10.80614"><ele>413</ele></trkpt>
<trkpt lat="48.64984" lon="10.80625"><ele>413</ele></trkpt>
<trkpt lat="48.65173" lon="10.80468"><ele>412</ele></trkpt>
<trkpt lat="48.65296" lon="10.80377"><ele>412</ele></trkpt>
<trkpt lat="48.65336" lon="10.80362"><ele>411</ele></trkpt>
<trkpt lat="48.65417" lon="10.80349"><ele>410</ele></trkpt>
<trkpt lat="48.65444" lon="10.80338"><ele>410</ele></trkpt>
<trkpt lat="48.65476" lon="10.80306"><ele>409</ele></trkpt>
<trkpt lat="48.65504" lon="10.80269"><ele>410</ele></trkpt>
<trkpt lat="48.65554" lon="10.80172"><ele>411</ele></trkpt>
<trkpt lat="48.65574" lon="10.80148"><ele>411</ele></trkpt>
<trkpt lat="48.65593" lon="10.80139"><ele>410</ele></trkpt>
<trkpt lat="48.65639" lon="10.80136"><ele>409</ele></trkpt>
<trkpt lat="48.65658" lon="10.80131"><ele>409</ele></trkpt>
<trkpt lat="48.65767" lon="10.80091"><ele>409</ele></trkpt>
<trkpt lat="48.65796" lon="10.80075"><ele>410</ele></trkpt>
<trkpt lat="48.65842" lon="10.80031"><ele>408</ele></trkpt>
<trkpt lat="48.65859" lon="10.80022"><ele>408</ele></trkpt>
<trkpt lat="48.65881" lon="10.80025"><ele>408</ele></trkpt>
<trkpt lat="48.65920" lon="10.80072"><ele>407</ele></trkpt>
<trkpt lat="48.65936" lon="10.80086"><ele>407</ele></trkpt>
<trkpt lat="48.65961" lon="10.80093"><ele>407</ele></trkpt>
<trkpt lat="48.66195" lon="10.80040"><ele>408</ele></trkpt>
<trkpt lat="48.66195" lon="10.80030"><ele>408</ele></trkpt>
<trkpt lat="48.66272" lon="10.80008"><ele>407</ele></trkpt>
<trkpt lat="48.66288" lon="10.79996"><ele>407</ele></trkpt>
<trkpt lat="48.66331" lon="10.79953"><ele>407</ele></trkpt>
<trkpt lat="48.66482" lon="10.79818"><ele>407</ele></trkpt>
<trkpt lat="48.66517" lon="10.79794"><ele>407</ele></trkpt>
<trkpt lat="48.66571" lon="10.79773"><ele>408</ele></trkpt>
<trkpt lat="48.66718" lon="10.79751"><ele>407</ele></trkpt>
<trkpt lat="48.66814" lon="10.79711"><ele>406</ele></trkpt>
<trkpt lat="48.66836" lon="10.79691"><ele>406</ele></trkpt>
<trkpt lat="48.66853" lon="10.79665"><ele>406</ele></trkpt>
<trkpt lat="48.66906" lon="10.79571"><ele>406</ele></trkpt>
<trkpt lat="48.66926" lon="10.79542"><ele>406</ele></trkpt>
<trkpt lat="48.67006" lon="10.79445"><ele>406</ele></trkpt>
<trkpt lat="48.67045" lon="10.79404"><ele>406</ele></trkpt>
<trkpt lat="48.67147" lon="10.79311"><ele>405</ele></trkpt>
<trkpt lat="48.67288" lon="10.79191"><ele>405</ele></trkpt>
<trkpt lat="48.67326" lon="10.79174"><ele>404</ele></trkpt>
<trkpt lat="48.67353" lon="10.79169"><ele>405</ele></trkpt>
<trkpt lat="48.67420" lon="10.79168"><ele>405</ele></trkpt>
<trkpt lat="48.67488" lon="10.79153"><ele>404</ele></trkpt>
<trkpt lat="48.67518" lon="10.79137"><ele>404</ele></trkpt>
<trkpt lat="48.67594" lon="10.79080"><ele>404</ele></trkpt>
<trkpt lat="48.67663" lon="10.79022"><ele>404</ele></trkpt>
<trkpt lat="48.67742" lon="10.78943"><ele>404</ele></trkpt>
<trkpt lat="48.67966" lon="10.78656"><ele>403</ele></trkpt>
<trkpt lat="48.68037" lon="10.78573"><ele>403</ele></trkpt>
<trkpt lat="48.68091" lon="10.78521"><ele>404</ele></trkpt>
<trkpt lat="48.68143" lon="10.78492"><ele>404</ele></trkpt>
<trkpt lat="48.68420" lon="10.78357"><ele>404</ele></trkpt>
<trkpt lat="48.68522" lon="10.78319"><ele>404</ele></trkpt>
<trkpt lat="48.68532" lon="10.78328"><ele>404</ele></trkpt>
<trkpt lat="48.68642" lon="10.78293"><ele>404</ele></trkpt>
<trkpt lat="48.68735" lon="10.78252"><ele>403</ele></trkpt>
<trkpt lat="48.68834" lon="10.78201"><ele>403</ele></trkpt>
<trkpt lat="48.68914" lon="10.78168"><ele>402</ele></trkpt>
<trkpt lat="48.68959" lon="10.78158"><ele>402</ele></trkpt>
<trkpt lat="48.69073" lon="10.78172"><ele>402</ele></trkpt>
<trkpt lat="48.69145" lon="10.78170"><ele>402</ele></trkpt>
<trkpt lat="48.69265" lon="10.78133"><ele>402</ele></trkpt>
<trkpt lat="48.69356" lon="10.78097"><ele>402</ele></trkpt>
<trkpt lat="48.69360" lon="10.78087"><ele>402</ele></trkpt>
<trkpt lat="48.69458" lon="10.78042"><ele>403</ele></trkpt>
<trkpt lat="48.69472" lon="10.78031"><ele>403</ele></trkpt>
<trkpt lat="48.69528" lon="10.77966"><ele>403</ele></trkpt>
<trkpt lat="48.69535" lon="10.77962"><ele>402</ele></trkpt>
<trkpt lat="48.69571" lon="10.77954"><ele>402</ele></trkpt>
<trkpt lat="48.69615" lon="10.77970"><ele>402</ele></trkpt>
<trkpt lat="48.69855" lon="10.78116"><ele>401</ele></trkpt>
<trkpt lat="48.69909" lon="10.78143"><ele>400</ele></trkpt>
<trkpt lat="48.69950" lon="10.78151"><ele>401</ele></trkpt>
<trkpt lat="48.70012" lon="10.78156"><ele>402</ele></trkpt>
<trkpt lat="48.70140" lon="10.78158"><ele>401</ele></trkpt>
<trkpt lat="48.70213" lon="10.78138"><ele>402</ele></trkpt>
<trkpt lat="48.70216" lon="10.78129"><ele>401</ele></trkpt>
<trkpt lat="48.70254" lon="10.78101"><ele>399</ele></trkpt>
<trkpt lat="48.70392" lon="10.77961"><ele>401</ele></trkpt>
<trkpt lat="48.70424" lon="10.77941"><ele>402</ele></trkpt>
<trkpt lat="48.70456" lon="10.77936"><ele>404</ele></trkpt>
<trkpt lat="48.70474" lon="10.77938"><ele>402</ele></trkpt>
<trkpt lat="48.70502" lon="10.77959"><ele>402</ele></trkpt>
<trkpt lat="48.70530" lon="10.77973"><ele>403</ele></trkpt>
<trkpt lat="48.70548" lon="10.77975"><ele>402</ele></trkpt>
<trkpt lat="48.70632" lon="10.77965"><ele>402</ele></trkpt>
<trkpt lat="48.70670" lon="10.77974"><ele>402</ele></trkpt>
<trkpt lat="48.70685" lon="10.77984"><ele>401</ele></trkpt>
<trkpt lat="48.70716" lon="10.78022"><ele>401</ele></trkpt>
<trkpt lat="48.70730" lon="10.78049"><ele>401</ele></trkpt>
<trkpt lat="48.70767" lon="10.78215"><ele>400</ele></trkpt>
<trkpt lat="48.70796" lon="10.78303"><ele>400</ele></trkpt>
<trkpt lat="48.70824" lon="10.78366"><ele>401</ele></trkpt>
<trkpt lat="48.70898" lon="10.78492"><ele>402</ele></trkpt>
<trkpt lat="48.70911" lon="10.78497"><ele>402</ele></trkpt>
<trkpt lat="48.70918" lon="10.78491"><ele>402</ele></trkpt>
<trkpt lat="48.70985" lon="10.78373"><ele>399</ele></trkpt>
<trkpt lat="48.71003" lon="10.78346"><ele>400</ele></trkpt>
<trkpt lat="48.71019" lon="10.78355"><ele>400</ele></trkpt>
<trkpt lat="48.71066" lon="10.78388"><ele>400</ele></trkpt>
<trkpt lat="48.71089" lon="10.78416"><ele>400</ele></trkpt>
<trkpt lat="48.71113" lon="10.78462"><ele>401</ele></trkpt>
<trkpt lat="48.71167" lon="10.78594"><ele>402</ele></trkpt>
<trkpt lat="48.71196" lon="10.78649"><ele>402</ele></trkpt>
<trkpt lat="48.71198" lon="10.78660"><ele>402</ele></trkpt>
<trkpt lat="48.71227" lon="10.78625"><ele>402</ele></trkpt>
<trkpt lat="48.71267" lon="10.78555"><ele>402</ele></trkpt>
<trkpt lat="48.71288" lon="10.78524"><ele>402</ele></trkpt>
<trkpt lat="48.71313" lon="10.78504"><ele>402</ele></trkpt>
<trkpt lat="48.71311" lon="10.78496"><ele>402</ele></trkpt>
<trkpt lat="48.71447" lon="10.78469"><ele>402</ele></trkpt>
<trkpt lat="48.71610" lon="10.78447"><ele>403</ele></trkpt>
<trkpt lat="48.71617" lon="10.78442"><ele>403</ele></trkpt>
<trkpt lat="48.71670" lon="10.78310"><ele>402</ele></trkpt>
<trkpt lat="48.71733" lon="10.78140"><ele>402</ele></trkpt>
<trkpt lat="48.71774" lon="10.78067"><ele>404</ele></trkpt>
<trkpt lat="48.71790" lon="10.78058"><ele>404</ele></trkpt>
<trkpt lat="48.71805" lon="10.78064"><ele>405</ele></trkpt>
<trkpt lat="48.71811" lon="10.78056"><ele>405</ele></trkpt>
<trkpt lat="48.71893" lon="10.77872"><ele>413</ele></trkpt>
    </trkseg>
  </trk>
</gpx>
