<?xml version="1.0" encoding="UTF-8"?>
<gpx version="1.1" creator="Gravel Kompass" xmlns="http://www.topografix.com/GPX/1/1">
  <metadata><name>München – Haltern am See: Von der Isar ins Münsterland – Etappe 14</name></metadata>
  <trk>
    <name>Etappe 14: Münster – Haltern am See</name>
    <trkseg>
<trkpt lat="51.95282" lon="7.63339"><ele>60</ele></trkpt>
<trkpt lat="51.95316" lon="7.63348"><ele>58</ele></trkpt>
<trkpt lat="51.95320" lon="7.63353"><ele>58</ele></trkpt>
<trkpt lat="51.95303" lon="7.63389"><ele>57</ele></trkpt>
<trkpt lat="51.95281" lon="7.63601"><ele>58</ele></trkpt>
<trkpt lat="51.95274" lon="7.63617"><ele>57</ele></trkpt>
<trkpt lat="51.95261" lon="7.63627"><ele>57</ele></trkpt>
<trkpt lat="51.95241" lon="7.63624"><ele>58</ele></trkpt>
<trkpt lat="51.95181" lon="7.63595"><ele>58</ele></trkpt>
<trkpt lat="51.95164" lon="7.63595"><ele>58</ele></trkpt>
<trkpt lat="51.95147" lon="7.63607"><ele>58</ele></trkpt>
<trkpt lat="51.95081" lon="7.63687"><ele>58</ele></trkpt>
<trkpt lat="51.95065" lon="7.63691"><ele>58</ele></trkpt>
<trkpt lat="51.95050" lon="7.63702"><ele>58</ele></trkpt>
<trkpt lat="51.94997" lon="7.63771"><ele>58</ele></trkpt>
<trkpt lat="51.94966" lon="7.63819"><ele>58</ele></trkpt>
<trkpt lat="51.94925" lon="7.63864"><ele>58</ele></trkpt>
<trkpt lat="51.94910" lon="7.63889"><ele>57</ele></trkpt>
<trkpt lat="51.94884" lon="7.63939"><ele>57</ele></trkpt>
<trkpt lat="51.94872" lon="7.63972"><ele>57</ele></trkpt>
<trkpt lat="51.94865" lon="7.64007"><ele>57</ele></trkpt>
<trkpt lat="51.94837" lon="7.64071"><ele>57</ele></trkpt>
<trkpt lat="51.94767" lon="7.64192"><ele>58</ele></trkpt>
<trkpt lat="51.94670" lon="7.64348"><ele>60</ele></trkpt>
<trkpt lat="51.94606" lon="7.64445"><ele>62</ele></trkpt>
<trkpt lat="51.94529" lon="7.64518"><ele>60</ele></trkpt>
<trkpt lat="51.94542" lon="7.64491"><ele>60</ele></trkpt>
<trkpt lat="51.94615" lon="7.64401"><ele>58</ele></trkpt>
<trkpt lat="51.94481" lon="7.64254"><ele>57</ele></trkpt>
<trkpt lat="51.94358" lon="7.64131"><ele>57</ele></trkpt>
<trkpt lat="51.94248" lon="7.64029"><ele>57</ele></trkpt>
<trkpt lat="51.94189" lon="7.63981"><ele>58</ele></trkpt>
<trkpt lat="51.94127" lon="7.63941"><ele>57</ele></trkpt>
<trkpt lat="51.94045" lon="7.63898"><ele>57</ele></trkpt>
<trkpt lat="51.94034" lon="7.63906"><ele>58</ele></trkpt>
<trkpt lat="51.93977" lon="7.63885"><ele>58</ele></trkpt>
<trkpt lat="51.93961" lon="7.63892"><ele>60</ele></trkpt>
<trkpt lat="51.93950" lon="7.63904"><ele>60</ele></trkpt>
<trkpt lat="51.93714" lon="7.64248"><ele>58</ele></trkpt>
<trkpt lat="51.93605" lon="7.64075"><ele>59</ele></trkpt>
<trkpt lat="51.93574" lon="7.64041"><ele>59</ele></trkpt>
<trkpt lat="51.93545" lon="7.64024"><ele>59</ele></trkpt>
<trkpt lat="51.93506" lon="7.64024"><ele>59</ele></trkpt>
<trkpt lat="51.93473" lon="7.64040"><ele>60</ele></trkpt>
<trkpt lat="51.93440" lon="7.64079"><ele>59</ele></trkpt>
<trkpt lat="51.93432" lon="7.64071"><ele>60</ele></trkpt>
<trkpt lat="51.93367" lon="7.63959"><ele>59</ele></trkpt>
<trkpt lat="51.93363" lon="7.63959"><ele>58</ele></trkpt>
<trkpt lat="51.93206" lon="7.64056"><ele>58</ele></trkpt>
<trkpt lat="51.93189" lon="7.64072"><ele>58</ele></trkpt>
<trkpt lat="51.93168" lon="7.64082"><ele>59</ele></trkpt>
<trkpt lat="51.93009" lon="7.64194"><ele>58</ele></trkpt>
<trkpt lat="51.92995" lon="7.64208"><ele>59</ele></trkpt>
<trkpt lat="51.92976" lon="7.64217"><ele>59</ele></trkpt>
<trkpt lat="51.92867" lon="7.64293"><ele>59</ele></trkpt>
<trkpt lat="51.92774" lon="7.64345"><ele>59</ele></trkpt>
<trkpt lat="51.92716" lon="7.64387"><ele>58</ele></trkpt>
<trkpt lat="51.92576" lon="7.64463"><ele>58</ele></trkpt>
<trkpt lat="51.92555" lon="7.64471"><ele>58</ele></trkpt>
<trkpt lat="51.92445" lon="7.64540"><ele>57</ele></trkpt>
<trkpt lat="51.92240" lon="7.64650"><ele>58</ele></trkpt>
<trkpt lat="51.92221" lon="7.64664"><ele>58</ele></trkpt>
<trkpt lat="51.91869" lon="7.64852"><ele>58</ele></trkpt>
<trkpt lat="51.91849" lon="7.64872"><ele>58</ele></trkpt>
<trkpt lat="51.91596" lon="7.65003"><ele>58</ele></trkpt>
<trkpt lat="51.91342" lon="7.65143"><ele>59</ele></trkpt>
<trkpt lat="51.91277" lon="7.65162"><ele>59</ele></trkpt>
<trkpt lat="51.91163" lon="7.65225"><ele>59</ele></trkpt>
<trkpt lat="51.91044" lon="7.65311"><ele>59</ele></trkpt>
<trkpt lat="51.90712" lon="7.65590"><ele>59</ele></trkpt>
<trkpt lat="51.90699" lon="7.65584"><ele>58</ele></trkpt>
<trkpt lat="51.90632" lon="7.65634"><ele>58</ele></trkpt>
<trkpt lat="51.90457" lon="7.65792"><ele>58</ele></trkpt>
<trkpt lat="51.90436" lon="7.65818"><ele>58</ele></trkpt>
<trkpt lat="51.90396" lon="7.65853"><ele>58</ele></trkpt>
<trkpt lat="51.90373" lon="7.65862"><ele>57</ele></trkpt>
<trkpt lat="51.90252" lon="7.65966"><ele>58</ele></trkpt>
<trkpt lat="51.90053" lon="7.66119"><ele>57</ele></trkpt>
<trkpt lat="51.89955" lon="7.66181"><ele>57</ele></trkpt>
<trkpt lat="51.89877" lon="7.66216"><ele>57</ele></trkpt>
<trkpt lat="51.89792" lon="7.66239"><ele>57</ele></trkpt>
<trkpt lat="51.89734" lon="7.66247"><ele>58</ele></trkpt>
<trkpt lat="51.89630" lon="7.66243"><ele>58</ele></trkpt>
<trkpt lat="51.89534" lon="7.66219"><ele>58</ele></trkpt>
<trkpt lat="51.89482" lon="7.66199"><ele>58</ele></trkpt>
<trkpt lat="51.89427" lon="7.66172"><ele>58</ele></trkpt>
<trkpt lat="51.89357" lon="7.66129"><ele>58</ele></trkpt>
<trkpt lat="51.89284" lon="7.66068"><ele>57</ele></trkpt>
<trkpt lat="51.89202" lon="7.65981"><ele>58</ele></trkpt>
<trkpt lat="51.89124" lon="7.65876"><ele>58</ele></trkpt>
<trkpt lat="51.89056" lon="7.65759"><ele>58</ele></trkpt>
<trkpt lat="51.89016" lon="7.65671"><ele>58</ele></trkpt>
<trkpt lat="51.88976" lon="7.65571"><ele>58</ele></trkpt>
<trkpt lat="51.88927" lon="7.65409"><ele>58</ele></trkpt>
<trkpt lat="51.88899" lon="7.65285"><ele>57</ele></trkpt>
<trkpt lat="51.88873" lon="7.65098"><ele>56</ele></trkpt>
<trkpt lat="51.88865" lon="7.64972"><ele>57</ele></trkpt>
<trkpt lat="51.88866" lon="7.64875"><ele>57</ele></trkpt>
<trkpt lat="51.88872" lon="7.64749"><ele>58</ele></trkpt>
<trkpt lat="51.88880" lon="7.64662"><ele>58</ele></trkpt>
<trkpt lat="51.88990" lon="7.63794"><ele>56</ele></trkpt>
<trkpt lat="51.89015" lon="7.63511"><ele>56</ele></trkpt>
<trkpt lat="51.89039" lon="7.63156"><ele>58</ele></trkpt>
<trkpt lat="51.89049" lon="7.62876"><ele>57</ele></trkpt>
<trkpt lat="51.89049" lon="7.62658"><ele>57</ele></trkpt>
<trkpt lat="51.89038" lon="7.62202"><ele>58</ele></trkpt>
<trkpt lat="51.89042" lon="7.62145"><ele>58</ele></trkpt>
<trkpt lat="51.89034" lon="7.62014"><ele>58</ele></trkpt>
<trkpt lat="51.89021" lon="7.61886"><ele>57</ele></trkpt>
<trkpt lat="51.89000" lon="7.61803"><ele>57</ele></trkpt>
<trkpt lat="51.88969" lon="7.61602"><ele>57</ele></trkpt>
<trkpt lat="51.88909" lon="7.61286"><ele>56</ele></trkpt>
<trkpt lat="51.88800" lon="7.60766"><ele>57</ele></trkpt>
<trkpt lat="51.88779" lon="7.60547"><ele>58</ele></trkpt>
<trkpt lat="51.88770" lon="7.60429"><ele>57</ele></trkpt>
<trkpt lat="51.88768" lon="7.60305"><ele>58</ele></trkpt>
<trkpt lat="51.88778" lon="7.60083"><ele>58</ele></trkpt>
<trkpt lat="51.88779" lon="7.59900"><ele>59</ele></trkpt>
<trkpt lat="51.88759" lon="7.59711"><ele>56</ele></trkpt>
<trkpt lat="51.88720" lon="7.59569"><ele>57</ele></trkpt>
<trkpt lat="51.88698" lon="7.59523"><ele>57</ele></trkpt>
<trkpt lat="51.88648" lon="7.59466"><ele>57</ele></trkpt>
<trkpt lat="51.88453" lon="7.59260"><ele>57</ele></trkpt>
<trkpt lat="51.88382" lon="7.59168"><ele>57</ele></trkpt>
<trkpt lat="51.88339" lon="7.59086"><ele>57</ele></trkpt>
<trkpt lat="51.88311" lon="7.59021"><ele>57</ele></trkpt>
<trkpt lat="51.88273" lon="7.58896"><ele>57</ele></trkpt>
<trkpt lat="51.88162" lon="7.58458"><ele>58</ele></trkpt>
<trkpt lat="51.88158" lon="7.58430"><ele>59</ele></trkpt>
<trkpt lat="51.88144" lon="7.58405"><ele>58</ele></trkpt>
<trkpt lat="51.88137" lon="7.58382"><ele>59</ele></trkpt>
<trkpt lat="51.88062" lon="7.58082"><ele>58</ele></trkpt>
<trkpt lat="51.88050" lon="7.58014"><ele>57</ele></trkpt>
<trkpt lat="51.87982" lon="7.57835"><ele>58</ele></trkpt>
<trkpt lat="51.87650" lon="7.57089"><ele>58</ele></trkpt>
<trkpt lat="51.87608" lon="7.57000"><ele>57</ele></trkpt>
<trkpt lat="51.87595" lon="7.56973"><ele>58</ele></trkpt>
<trkpt lat="51.87577" lon="7.56958"><ele>58</ele></trkpt>
<trkpt lat="51.87575" lon="7.56943"><ele>58</ele></trkpt>
<trkpt lat="51.87568" lon="7.56928"><ele>58</ele></trkpt>
<trkpt lat="51.87530" lon="7.56876"><ele>58</ele></trkpt>
<trkpt lat="51.87527" lon="7.56855"><ele>58</ele></trkpt>
<trkpt lat="51.87493" lon="7.56791"><ele>58</ele></trkpt>
<trkpt lat="51.87365" lon="7.56602"><ele>58</ele></trkpt>
<trkpt lat="51.87320" lon="7.56529"><ele>57</ele></trkpt>
<trkpt lat="51.87258" lon="7.56415"><ele>58</ele></trkpt>
<trkpt lat="51.87179" lon="7.56247"><ele>58</ele></trkpt>
<trkpt lat="51.87142" lon="7.56156"><ele>58</ele></trkpt>
<trkpt lat="51.87085" lon="7.55996"><ele>58</ele></trkpt>
<trkpt lat="51.86850" lon="7.55189"><ele>58</ele></trkpt>
<trkpt lat="51.86793" lon="7.55013"><ele>58</ele></trkpt>
<trkpt lat="51.86729" lon="7.54776"><ele>58</ele></trkpt>
<trkpt lat="51.86206" lon="7.52606"><ele>58</ele></trkpt>
<trkpt lat="51.86140" lon="7.52309"><ele>58</ele></trkpt>
<trkpt lat="51.86074" lon="7.52076"><ele>57</ele></trkpt>
<trkpt lat="51.86012" lon="7.51902"><ele>58</ele></trkpt>
<trkpt lat="51.85938" lon="7.51735"><ele>58</ele></trkpt>
<trkpt lat="51.85892" lon="7.51668"><ele>58</ele></trkpt>
<trkpt lat="51.85731" lon="7.51496"><ele>58</ele></trkpt>
<trkpt lat="51.85730" lon="7.51487"><ele>58</ele></trkpt>
<trkpt lat="51.85762" lon="7.51410"><ele>58</ele></trkpt>
<trkpt lat="51.85677" lon="7.51256"><ele>59</ele></trkpt>
<trkpt lat="51.85665" lon="7.51222"><ele>58</ele></trkpt>
<trkpt lat="51.85650" lon="7.51209"><ele>60</ele></trkpt>
<trkpt lat="51.85598" lon="7.51110"><ele>59</ele></trkpt>
<trkpt lat="51.85558" lon="7.51022"><ele>59</ele></trkpt>
<trkpt lat="51.85506" lon="7.50898"><ele>58</ele></trkpt>
<trkpt lat="51.85471" lon="7.50802"><ele>59</ele></trkpt>
<trkpt lat="51.85430" lon="7.50670"><ele>58</ele></trkpt>
<trkpt lat="51.85400" lon="7.50563"><ele>58</ele></trkpt>
<trkpt lat="51.85358" lon="7.50370"><ele>58</ele></trkpt>
<trkpt lat="51.85329" lon="7.50201"><ele>58</ele></trkpt>
<trkpt lat="51.85238" lon="7.49545"><ele>58</ele></trkpt>
<trkpt lat="51.85198" lon="7.49282"><ele>59</ele></trkpt>
<trkpt lat="51.85192" lon="7.49127"><ele>57</ele></trkpt>
<trkpt lat="51.85177" lon="7.49048"><ele>58</ele></trkpt>
<trkpt lat="51.85154" lon="7.48878"><ele>58</ele></trkpt>
<trkpt lat="51.85136" lon="7.48768"><ele>58</ele></trkpt>
<trkpt lat="51.85123" lon="7.48736"><ele>58</ele></trkpt>
<trkpt lat="51.85066" lon="7.48705"><ele>58</ele></trkpt>
<trkpt lat="51.85080" lon="7.48741"><ele>58</ele></trkpt>
<trkpt lat="51.85090" lon="7.48801"><ele>59</ele></trkpt>
<trkpt lat="51.84912" lon="7.48846"><ele>59</ele></trkpt>
<trkpt lat="51.84901" lon="7.48844"><ele>59</ele></trkpt>
<trkpt lat="51.84888" lon="7.48851"><ele>60</ele></trkpt>
<trkpt lat="51.84884" lon="7.48861"><ele>60</ele></trkpt>
<trkpt lat="51.84836" lon="7.48839"><ele>60</ele></trkpt>
<trkpt lat="51.84787" lon="7.48833"><ele>60</ele></trkpt>
<trkpt lat="51.84725" lon="7.48832"><ele>60</ele></trkpt>
<trkpt lat="51.84704" lon="7.48837"><ele>60</ele></trkpt>
<trkpt lat="51.84594" lon="7.48827"><ele>61</ele></trkpt>
<trkpt lat="51.84404" lon="7.48820"><ele>60</ele></trkpt>
<trkpt lat="51.84278" lon="7.48816"><ele>60</ele></trkpt>
<trkpt lat="51.84199" lon="7.48819"><ele>59</ele></trkpt>
<trkpt lat="51.83835" lon="7.48934"><ele>59</ele></trkpt>
<trkpt lat="51.83392" lon="7.49052"><ele>62</ele></trkpt>
<trkpt lat="51.83276" lon="7.49074"><ele>61</ele></trkpt>
<trkpt lat="51.83130" lon="7.49081"><ele>60</ele></trkpt>
<trkpt lat="51.83121" lon="7.49085"><ele>60</ele></trkpt>
<trkpt lat="51.83072" lon="7.49090"><ele>59</ele></trkpt>
<trkpt lat="51.82698" lon="7.49205"><ele>60</ele></trkpt>
<trkpt lat="51.82629" lon="7.49218"><ele>60</ele></trkpt>
<trkpt lat="51.82434" lon="7.49238"><ele>61</ele></trkpt>
<trkpt lat="51.81954" lon="7.49302"><ele>64</ele></trkpt>
<trkpt lat="51.81876" lon="7.49291"><ele>65</ele></trkpt>
<trkpt lat="51.81797" lon="7.49271"><ele>65</ele></trkpt>
<trkpt lat="51.81603" lon="7.49230"><ele>65</ele></trkpt>
<trkpt lat="51.81591" lon="7.49222"><ele>65</ele></trkpt>
<trkpt lat="51.81424" lon="7.49181"><ele>65</ele></trkpt>
<trkpt lat="51.81408" lon="7.49190"><ele>65</ele></trkpt>
<trkpt lat="51.81329" lon="7.49172"><ele>65</ele></trkpt>
<trkpt lat="51.81241" lon="7.49150"><ele>65</ele></trkpt>
<trkpt lat="51.81068" lon="7.49092"><ele>65</ele></trkpt>
<trkpt lat="51.81013" lon="7.49068"><ele>65</ele></trkpt>
<trkpt lat="51.80957" lon="7.49033"><ele>65</ele></trkpt>
<trkpt lat="51.80901" lon="7.48981"><ele>65</ele></trkpt>
<trkpt lat="51.80839" lon="7.48906"><ele>65</ele></trkpt>
<trkpt lat="51.80826" lon="7.48914"><ele>65</ele></trkpt>
<trkpt lat="51.80797" lon="7.48965"><ele>65</ele></trkpt>
<trkpt lat="51.80750" lon="7.49028"><ele>64</ele></trkpt>
<trkpt lat="51.80631" lon="7.49129"><ele>63</ele></trkpt>
<trkpt lat="51.80224" lon="7.49428"><ele>64</ele></trkpt>
<trkpt lat="51.80150" lon="7.49474"><ele>62</ele></trkpt>
<trkpt lat="51.79868" lon="7.49608"><ele>57</ele></trkpt>
<trkpt lat="51.79735" lon="7.49680"><ele>57</ele></trkpt>
<trkpt lat="51.79461" lon="7.49850"><ele>61</ele></trkpt>
<trkpt lat="51.79433" lon="7.49859"><ele>62</ele></trkpt>
<trkpt lat="51.79427" lon="7.49795"><ele>60</ele></trkpt>
<trkpt lat="51.79410" lon="7.49724"><ele>59</ele></trkpt>
<trkpt lat="51.79385" lon="7.49590"><ele>58</ele></trkpt>
<trkpt lat="51.79373" lon="7.49552"><ele>58</ele></trkpt>
<trkpt lat="51.79343" lon="7.49477"><ele>57</ele></trkpt>
<trkpt lat="51.79284" lon="7.49262"><ele>56</ele></trkpt>
<trkpt lat="51.79266" lon="7.49228"><ele>56</ele></trkpt>
<trkpt lat="51.79252" lon="7.49208"><ele>56</ele></trkpt>
<trkpt lat="51.79059" lon="7.49009"><ele>56</ele></trkpt>
<trkpt lat="51.79049" lon="7.48993"><ele>56</ele></trkpt>
<trkpt lat="51.78917" lon="7.48702"><ele>55</ele></trkpt>
<trkpt lat="51.78911" lon="7.48682"><ele>55</ele></trkpt>
<trkpt lat="51.78874" lon="7.48445"><ele>54</ele></trkpt>
<trkpt lat="51.78865" lon="7.48427"><ele>54</ele></trkpt>
<trkpt lat="51.78630" lon="7.48049"><ele>54</ele></trkpt>
<trkpt lat="51.78285" lon="7.47304"><ele>53</ele></trkpt>
<trkpt lat="51.78274" lon="7.47269"><ele>53</ele></trkpt>
<trkpt lat="51.78250" lon="7.46908"><ele>53</ele></trkpt>
<trkpt lat="51.78225" lon="7.46484"><ele>52</ele></trkpt>
<trkpt lat="51.78222" lon="7.46303"><ele>52</ele></trkpt>
<trkpt lat="51.78191" lon="7.45969"><ele>51</ele></trkpt>
<trkpt lat="51.78184" lon="7.45919"><ele>51</ele></trkpt>
<trkpt lat="51.78175" lon="7.45895"><ele>51</ele></trkpt>
<trkpt lat="51.78109" lon="7.45801"><ele>51</ele></trkpt>
<trkpt lat="51.78037" lon="7.45655"><ele>51</ele></trkpt>
<trkpt lat="51.77906" lon="7.45341"><ele>51</ele></trkpt>
<trkpt lat="51.77870" lon="7.45262"><ele>51</ele></trkpt>
<trkpt lat="51.77837" lon="7.45203"><ele>50</ele></trkpt>
<trkpt lat="51.77654" lon="7.44894"><ele>51</ele></trkpt>
<trkpt lat="51.77623" lon="7.44865"><ele>51</ele></trkpt>
<trkpt lat="51.77597" lon="7.44856"><ele>51</ele></trkpt>
<trkpt lat="51.77563" lon="7.44853"><ele>51</ele></trkpt>
<trkpt lat="51.77550" lon="7.44848"><ele>51</ele></trkpt>
<trkpt lat="51.77537" lon="7.44836"><ele>51</ele></trkpt>
<trkpt lat="51.77525" lon="7.44813"><ele>51</ele></trkpt>
<trkpt lat="51.77519" lon="7.44790"><ele>51</ele></trkpt>
<trkpt lat="51.77518" lon="7.44733"><ele>51</ele></trkpt>
<trkpt lat="51.77513" lon="7.44713"><ele>51</ele></trkpt>
<trkpt lat="51.77442" lon="7.44609"><ele>51</ele></trkpt>
<trkpt lat="51.77383" lon="7.44502"><ele>51</ele></trkpt>
<trkpt lat="51.77362" lon="7.44477"><ele>51</ele></trkpt>
<trkpt lat="51.77349" lon="7.44468"><ele>51</ele></trkpt>
<trkpt lat="51.77340" lon="7.44467"><ele>51</ele></trkpt>
<trkpt lat="51.77193" lon="7.44491"><ele>53</ele></trkpt>
<trkpt lat="51.77185" lon="7.44428"><ele>53</ele></trkpt>
<trkpt lat="51.77166" lon="7.44434"><ele>53</ele></trkpt>
<trkpt lat="51.77160" lon="7.44330"><ele>52</ele></trkpt>
<trkpt lat="51.77161" lon="7.44323"><ele>52</ele></trkpt>
<trkpt lat="51.77175" lon="7.44308"><ele>52</ele></trkpt>
<trkpt lat="51.77155" lon="7.44260"><ele>52</ele></trkpt>
<trkpt lat="51.77141" lon="7.44250"><ele>51</ele></trkpt>
<trkpt lat="51.77062" lon="7.44263"><ele>51</ele></trkpt>
<trkpt lat="51.77050" lon="7.44258"><ele>51</ele></trkpt>
<trkpt lat="51.76966" lon="7.43982"><ele>50</ele></trkpt>
<trkpt lat="51.76949" lon="7.43939"><ele>51</ele></trkpt>
<trkpt lat="51.76922" lon="7.43882"><ele>51</ele></trkpt>
<trkpt lat="51.76867" lon="7.43793"><ele>50</ele></trkpt>
<trkpt lat="51.76842" lon="7.43758"><ele>51</ele></trkpt>
<trkpt lat="51.76817" lon="7.43741"><ele>51</ele></trkpt>
<trkpt lat="51.76799" lon="7.43768"><ele>51</ele></trkpt>
<trkpt lat="51.76772" lon="7.43726"><ele>51</ele></trkpt>
<trkpt lat="51.76757" lon="7.43715"><ele>51</ele></trkpt>
<trkpt lat="51.76702" lon="7.43721"><ele>50</ele></trkpt>
<trkpt lat="51.76524" lon="7.43725"><ele>51</ele></trkpt>
<trkpt lat="51.76382" lon="7.43757"><ele>51</ele></trkpt>
<trkpt lat="51.76352" lon="7.43778"><ele>51</ele></trkpt>
<trkpt lat="51.76343" lon="7.43749"><ele>51</ele></trkpt>
<trkpt lat="51.76320" lon="7.43765"><ele>51</ele></trkpt>
<trkpt lat="51.76257" lon="7.43775"><ele>51</ele></trkpt>
<trkpt lat="51.76231" lon="7.43813"><ele>51</ele></trkpt>
<trkpt lat="51.76007" lon="7.43880"><ele>51</ele></trkpt>
<trkpt lat="51.75994" lon="7.43888"><ele>51</ele></trkpt>
<trkpt lat="51.75898" lon="7.43987"><ele>51</ele></trkpt>
<trkpt lat="51.75836" lon="7.44027"><ele>51</ele></trkpt>
<trkpt lat="51.75801" lon="7.44061"><ele>51</ele></trkpt>
<trkpt lat="51.75783" lon="7.44073"><ele>51</ele></trkpt>
<trkpt lat="51.75401" lon="7.44142"><ele>51</ele></trkpt>
<trkpt lat="51.74905" lon="7.44078"><ele>51</ele></trkpt>
<trkpt lat="51.74855" lon="7.44100"><ele>51</ele></trkpt>
<trkpt lat="51.74815" lon="7.44141"><ele>51</ele></trkpt>
<trkpt lat="51.74793" lon="7.44155"><ele>51</ele></trkpt>
<trkpt lat="51.74710" lon="7.44153"><ele>51</ele></trkpt>
<trkpt lat="51.74693" lon="7.44145"><ele>51</ele></trkpt>
<trkpt lat="51.74506" lon="7.44006"><ele>51</ele></trkpt>
<trkpt lat="51.74492" lon="7.44000"><ele>51</ele></trkpt>
<trkpt lat="51.74462" lon="7.44002"><ele>51</ele></trkpt>
<trkpt lat="51.74458" lon="7.43980"><ele>51</ele></trkpt>
<trkpt lat="51.74453" lon="7.43968"><ele>51</ele></trkpt>
<trkpt lat="51.74394" lon="7.43925"><ele>51</ele></trkpt>
<trkpt lat="51.74385" lon="7.43914"><ele>51</ele></trkpt>
<trkpt lat="51.74410" lon="7.43773"><ele>51</ele></trkpt>
<trkpt lat="51.74424" lon="7.43562"><ele>52</ele></trkpt>
<trkpt lat="51.74435" lon="7.43503"><ele>53</ele></trkpt>
<trkpt lat="51.74435" lon="7.43485"><ele>53</ele></trkpt>
<trkpt lat="51.74376" lon="7.43191"><ele>55</ele></trkpt>
<trkpt lat="51.74340" lon="7.43102"><ele>58</ele></trkpt>
<trkpt lat="51.74311" lon="7.42843"><ele>61</ele></trkpt>
<trkpt lat="51.74303" lon="7.42814"><ele>59</ele></trkpt>
<trkpt lat="51.74287" lon="7.42776"><ele>58</ele></trkpt>
<trkpt lat="51.74275" lon="7.42738"><ele>59</ele></trkpt>
<trkpt lat="51.74188" lon="7.42201"><ele>64</ele></trkpt>
<trkpt lat="51.74162" lon="7.41908"><ele>69</ele></trkpt>
<trkpt lat="51.74102" lon="7.41570"><ele>77</ele></trkpt>
<trkpt lat="51.74082" lon="7.41342"><ele>83</ele></trkpt>
<trkpt lat="51.74083" lon="7.41312"><ele>84</ele></trkpt>
<trkpt lat="51.74097" lon="7.41217"><ele>85</ele></trkpt>
<trkpt lat="51.74109" lon="7.40908"><ele>92</ele></trkpt>
<trkpt lat="51.74118" lon="7.40865"><ele>94</ele></trkpt>
<trkpt lat="51.74167" lon="7.40733"><ele>98</ele></trkpt>
<trkpt lat="51.74211" lon="7.40592"><ele>101</ele></trkpt>
<trkpt lat="51.74218" lon="7.40560"><ele>101</ele></trkpt>
<trkpt lat="51.74242" lon="7.40385"><ele>103</ele></trkpt>
<trkpt lat="51.74265" lon="7.40182"><ele>102</ele></trkpt>
<trkpt lat="51.74280" lon="7.40150"><ele>103</ele></trkpt>
<trkpt lat="51.74348" lon="7.40078"><ele>103</ele></trkpt>
<trkpt lat="51.74391" lon="7.39996"><ele>102</ele></trkpt>
<trkpt lat="51.74404" lon="7.39962"><ele>102</ele></trkpt>
<trkpt lat="51.74444" lon="7.39830"><ele>101</ele></trkpt>
<trkpt lat="51.74451" lon="7.39790"><ele>101</ele></trkpt>
<trkpt lat="51.74432" lon="7.39632"><ele>99</ele></trkpt>
<trkpt lat="51.74432" lon="7.39608"><ele>99</ele></trkpt>
<trkpt lat="51.74437" lon="7.39593"><ele>99</ele></trkpt>
<trkpt lat="51.74978" lon="7.39062"><ele>99</ele></trkpt>
<trkpt lat="51.74835" lon="7.38992"><ele>98</ele></trkpt>
<trkpt lat="51.74400" lon="7.38605"><ele>88</ele></trkpt>
<trkpt lat="51.74220" lon="7.38347"><ele>84</ele></trkpt>
<trkpt lat="51.74083" lon="7.38016"><ele>82</ele></trkpt>
<trkpt lat="51.73684" lon="7.37088"><ele>74</ele></trkpt>
<trkpt lat="51.73619" lon="7.36865"><ele>72</ele></trkpt>
<trkpt lat="51.73540" lon="7.36939"><ele>70</ele></trkpt>
<trkpt lat="51.73275" lon="7.36717"><ele>68</ele></trkpt>
<trkpt lat="51.72998" lon="7.36347"><ele>61</ele></trkpt>
<trkpt lat="51.72960" lon="7.36259"><ele>59</ele></trkpt>
<trkpt lat="51.72700" lon="7.36208"><ele>57</ele></trkpt>
<trkpt lat="51.72666" lon="7.36149"><ele>58</ele></trkpt>
<trkpt lat="51.72639" lon="7.36093"><ele>57</ele></trkpt>
<trkpt lat="51.72634" lon="7.36076"><ele>57</ele></trkpt>
<trkpt lat="51.72643" lon="7.35938"><ele>56</ele></trkpt>
<trkpt lat="51.72645" lon="7.35793"><ele>55</ele></trkpt>
<trkpt lat="51.72653" lon="7.35691"><ele>54</ele></trkpt>
<trkpt lat="51.72655" lon="7.35567"><ele>53</ele></trkpt>
<trkpt lat="51.72648" lon="7.35390"><ele>54</ele></trkpt>
<trkpt lat="51.72652" lon="7.35304"><ele>53</ele></trkpt>
<trkpt lat="51.72646" lon="7.35195"><ele>52</ele></trkpt>
<trkpt lat="51.72592" lon="7.34825"><ele>50</ele></trkpt>
<trkpt lat="51.72554" lon="7.34592"><ele>48</ele></trkpt>
<trkpt lat="51.72552" lon="7.34574"><ele>48</ele></trkpt>
<trkpt lat="51.72559" lon="7.34441"><ele>47</ele></trkpt>
<trkpt lat="51.72558" lon="7.34393"><ele>47</ele></trkpt>
<trkpt lat="51.72543" lon="7.34281"><ele>46</ele></trkpt>
<trkpt lat="51.72514" lon="7.34142"><ele>46</ele></trkpt>
<trkpt lat="51.72494" lon="7.34086"><ele>45</ele></trkpt>
<trkpt lat="51.72346" lon="7.33854"><ele>44</ele></trkpt>
<trkpt lat="51.72285" lon="7.33554"><ele>45</ele></trkpt>
<trkpt lat="51.72274" lon="7.33492"><ele>46</ele></trkpt>
<trkpt lat="51.72130" lon="7.33308"><ele>47</ele></trkpt>
<trkpt lat="51.71997" lon="7.33122"><ele>46</ele></trkpt>
<trkpt lat="51.72508" lon="7.32136"><ele>45</ele></trkpt>
<trkpt lat="51.72793" lon="7.31530"><ele>47</ele></trkpt>
<trkpt lat="51.72809" lon="7.31417"><ele>47</ele></trkpt>
<trkpt lat="51.72822" lon="7.31381"><ele>46</ele></trkpt>
<trkpt lat="51.72846" lon="7.31346"><ele>46</ele></trkpt>
<trkpt lat="51.72923" lon="7.31271"><ele>46</ele></trkpt>
<trkpt lat="51.72981" lon="7.31241"><ele>47</ele></trkpt>
<trkpt lat="51.73029" lon="7.31203"><ele>48</ele></trkpt>
<trkpt lat="51.73065" lon="7.31184"><ele>46</ele></trkpt>
<trkpt lat="51.73143" lon="7.31158"><ele>46</ele></trkpt>
<trkpt lat="51.73166" lon="7.31132"><ele>46</ele></trkpt>
<trkpt lat="51.73188" lon="7.31070"><ele>46</ele></trkpt>
<trkpt lat="51.73202" lon="7.30918"><ele>45</ele></trkpt>
<trkpt lat="51.73203" lon="7.30738"><ele>46</ele></trkpt>
<trkpt lat="51.73209" lon="7.30533"><ele>46</ele></trkpt>
<trkpt lat="51.73214" lon="7.30489"><ele>46</ele></trkpt>
<trkpt lat="51.73258" lon="7.30321"><ele>45</ele></trkpt>
<trkpt lat="51.73308" lon="7.30149"><ele>45</ele></trkpt>
<trkpt lat="51.73378" lon="7.29639"><ele>45</ele></trkpt>
<trkpt lat="51.73407" lon="7.29526"><ele>45</ele></trkpt>
<trkpt lat="51.73503" lon="7.29190"><ele>45</ele></trkpt>
<trkpt lat="51.73517" lon="7.29183"><ele>45</ele></trkpt>
<trkpt lat="51.73522" lon="7.29104"><ele>45</ele></trkpt>
<trkpt lat="51.73527" lon="7.29078"><ele>45</ele></trkpt>
<trkpt lat="51.73532" lon="7.29056"><ele>45</ele></trkpt>
<trkpt lat="51.73554" lon="7.29012"><ele>44</ele></trkpt>
<trkpt lat="51.73514" lon="7.28908"><ele>44</ele></trkpt>
<trkpt lat="51.73480" lon="7.28902"><ele>44</ele></trkpt>
<trkpt lat="51.73339" lon="7.28825"><ele>44</ele></trkpt>
<trkpt lat="51.73282" lon="7.28767"><ele>44</ele></trkpt>
<trkpt lat="51.73203" lon="7.28711"><ele>44</ele></trkpt>
<trkpt lat="51.73143" lon="7.28658"><ele>45</ele></trkpt>
<trkpt lat="51.73141" lon="7.28608"><ele>45</ele></trkpt>
<trkpt lat="51.73133" lon="7.28550"><ele>45</ele></trkpt>
<trkpt lat="51.73121" lon="7.28473"><ele>45</ele></trkpt>
<trkpt lat="51.73113" lon="7.28446"><ele>45</ele></trkpt>
<trkpt lat="51.73087" lon="7.28387"><ele>45</ele></trkpt>
<trkpt lat="51.73054" lon="7.28294"><ele>46</ele></trkpt>
<trkpt lat="51.73004" lon="7.28178"><ele>45</ele></trkpt>
<trkpt lat="51.72917" lon="7.27926"><ele>45</ele></trkpt>
<trkpt lat="51.72914" lon="7.27883"><ele>45</ele></trkpt>
<trkpt lat="51.72925" lon="7.27688"><ele>45</ele></trkpt>
<trkpt lat="51.73265" lon="7.26987"><ele>45</ele></trkpt>
<trkpt lat="51.73276" lon="7.26959"><ele>45</ele></trkpt>
<trkpt lat="51.73340" lon="7.26739"><ele>44</ele></trkpt>
<trkpt lat="51.73365" lon="7.26659"><ele>44</ele></trkpt>
<trkpt lat="51.73866" lon="7.24927"><ele>44</ele></trkpt>
<trkpt lat="51.73884" lon="7.24871"><ele>44</ele></trkpt>
<trkpt lat="51.73935" lon="7.24766"><ele>44</ele></trkpt>
<trkpt lat="51.73945" lon="7.24735"><ele>44</ele></trkpt>
<trkpt lat="51.73975" lon="7.24583"><ele>43</ele></trkpt>
<trkpt lat="51.74050" lon="7.24258"><ele>45</ele></trkpt>
<trkpt lat="51.74102" lon="7.24264"><ele>44</ele></trkpt>
<trkpt lat="51.74035" lon="7.22525"><ele>43</ele></trkpt>
<trkpt lat="51.74033" lon="7.22424"><ele>44</ele></trkpt>
<trkpt lat="51.74014" lon="7.22200"><ele>42</ele></trkpt>
<trkpt lat="51.74010" lon="7.22140"><ele>42</ele></trkpt>
<trkpt lat="51.74011" lon="7.22089"><ele>42</ele></trkpt>
<trkpt lat="51.74065" lon="7.21580"><ele>42</ele></trkpt>
<trkpt lat="51.74107" lon="7.21222"><ele>42</ele></trkpt>
<trkpt lat="51.74110" lon="7.21176"><ele>42</ele></trkpt>
<trkpt lat="51.74180" lon="7.20543"><ele>38</ele></trkpt>
<trkpt lat="51.74209" lon="7.20258"><ele>39</ele></trkpt>
<trkpt lat="51.74216" lon="7.20084"><ele>41</ele></trkpt>
<trkpt lat="51.74215" lon="7.19998"><ele>40</ele></trkpt>
<trkpt lat="51.74208" lon="7.19904"><ele>40</ele></trkpt>
<trkpt lat="51.74199" lon="7.19841"><ele>41</ele></trkpt>
<trkpt lat="51.74176" lon="7.19745"><ele>41</ele></trkpt>
<trkpt lat="51.74161" lon="7.19712"><ele>41</ele></trkpt>
<trkpt lat="51.74177" lon="7.19714"><ele>41</ele></trkpt>
<trkpt lat="51.74219" lon="7.19700"><ele>42</ele></trkpt>
<trkpt lat="51.74216" lon="7.19573"><ele>43</ele></trkpt>
<trkpt lat="51.74219" lon="7.19482"><ele>42</ele></trkpt>
<trkpt lat="51.74206" lon="7.19459"><ele>42</ele></trkpt>
<trkpt lat="51.74223" lon="7.19437"><ele>41</ele></trkpt>
<trkpt lat="51.74277" lon="7.19105"><ele>42</ele></trkpt>
<trkpt lat="51.74290" lon="7.19065"><ele>42</ele></trkpt>
<trkpt lat="51.74314" lon="7.18943"><ele>43</ele></trkpt>
<trkpt lat="51.74318" lon="7.18889"><ele>43</ele></trkpt>
<trkpt lat="51.74313" lon="7.18755"><ele>42</ele></trkpt>
<trkpt lat="51.74322" lon="7.18725"><ele>42</ele></trkpt>
<trkpt lat="51.74334" lon="7.18704"><ele>42</ele></trkpt>
<trkpt lat="51.74371" lon="7.18676"><ele>42</ele></trkpt>
<trkpt lat="51.74374" lon="7.18685"><ele>42</ele></trkpt>
    </trkseg>
  </trk>
</gpx>
