<?xml version="1.0" encoding="UTF-8"?>
<gpx version="1.1" creator="Gravel Kompass" xmlns="http://www.topografix.com/GPX/1/1">
  <metadata><name>München – Haltern am See: Von der Isar ins Münsterland – Etappe 11</name></metadata>
  <trk>
    <name>Etappe 11: Rotenburg an der Fulda – Kassel</name>
    <trkseg>
<trkpt lat="50.99652" lon="9.72723"><ele>183</ele></trkpt>
<trkpt lat="50.99671" lon="9.72683"><ele>183</ele></trkpt>
<trkpt lat="50.99682" lon="9.72650"><ele>183</ele></trkpt>
<trkpt lat="50.99725" lon="9.72497"><ele>184</ele></trkpt>
<trkpt lat="50.99743" lon="9.72460"><ele>184</ele></trkpt>
<trkpt lat="50.99790" lon="9.72390"><ele>184</ele></trkpt>
<trkpt lat="50.99854" lon="9.72315"><ele>184</ele></trkpt>
<trkpt lat="50.99894" lon="9.72283"><ele>183</ele></trkpt>
<trkpt lat="50.99938" lon="9.72237"><ele>184</ele></trkpt>
<trkpt lat="50.99958" lon="9.72225"><ele>183</ele></trkpt>
<trkpt lat="50.99991" lon="9.72217"><ele>183</ele></trkpt>
<trkpt lat="50.99996" lon="9.72211"><ele>183</ele></trkpt>
<trkpt lat="51.00152" lon="9.71770"><ele>185</ele></trkpt>
<trkpt lat="51.00176" lon="9.71728"><ele>186</ele></trkpt>
<trkpt lat="51.00204" lon="9.71642"><ele>186</ele></trkpt>
<trkpt lat="51.00203" lon="9.71618"><ele>186</ele></trkpt>
<trkpt lat="51.00188" lon="9.71607"><ele>187</ele></trkpt>
<trkpt lat="51.00203" lon="9.71510"><ele>188</ele></trkpt>
<trkpt lat="51.00204" lon="9.71460"><ele>188</ele></trkpt>
<trkpt lat="51.00218" lon="9.71442"><ele>187</ele></trkpt>
<trkpt lat="51.00223" lon="9.71429"><ele>187</ele></trkpt>
<trkpt lat="51.00256" lon="9.71299"><ele>187</ele></trkpt>
<trkpt lat="51.00263" lon="9.71294"><ele>186</ele></trkpt>
<trkpt lat="51.00305" lon="9.71299"><ele>185</ele></trkpt>
<trkpt lat="51.00389" lon="9.71245"><ele>184</ele></trkpt>
<trkpt lat="51.00408" lon="9.71227"><ele>184</ele></trkpt>
<trkpt lat="51.00476" lon="9.71141"><ele>184</ele></trkpt>
<trkpt lat="51.00480" lon="9.71121"><ele>184</ele></trkpt>
<trkpt lat="51.00485" lon="9.71038"><ele>183</ele></trkpt>
<trkpt lat="51.00499" lon="9.70718"><ele>183</ele></trkpt>
<trkpt lat="51.00530" lon="9.70529"><ele>184</ele></trkpt>
<trkpt lat="51.00550" lon="9.70453"><ele>184</ele></trkpt>
<trkpt lat="51.00581" lon="9.70370"><ele>183</ele></trkpt>
<trkpt lat="51.00586" lon="9.70314"><ele>183</ele></trkpt>
<trkpt lat="51.00553" lon="9.69916"><ele>183</ele></trkpt>
<trkpt lat="51.00545" lon="9.69762"><ele>183</ele></trkpt>
<trkpt lat="51.00547" lon="9.69694"><ele>183</ele></trkpt>
<trkpt lat="51.00574" lon="9.69562"><ele>183</ele></trkpt>
<trkpt lat="51.00599" lon="9.69469"><ele>183</ele></trkpt>
<trkpt lat="51.00595" lon="9.69452"><ele>184</ele></trkpt>
<trkpt lat="51.00562" lon="9.69407"><ele>184</ele></trkpt>
<trkpt lat="51.00564" lon="9.69401"><ele>184</ele></trkpt>
<trkpt lat="51.00571" lon="9.69399"><ele>184</ele></trkpt>
<trkpt lat="51.00576" lon="9.69402"><ele>184</ele></trkpt>
<trkpt lat="51.00596" lon="9.69421"><ele>184</ele></trkpt>
<trkpt lat="51.00604" lon="9.69423"><ele>184</ele></trkpt>
<trkpt lat="51.00614" lon="9.69417"><ele>183</ele></trkpt>
<trkpt lat="51.00692" lon="9.69244"><ele>183</ele></trkpt>
<trkpt lat="51.00724" lon="9.69196"><ele>183</ele></trkpt>
<trkpt lat="51.00800" lon="9.69112"><ele>183</ele></trkpt>
<trkpt lat="51.00803" lon="9.69094"><ele>183</ele></trkpt>
<trkpt lat="51.00790" lon="9.69064"><ele>183</ele></trkpt>
<trkpt lat="51.00838" lon="9.69045"><ele>183</ele></trkpt>
<trkpt lat="51.00871" lon="9.69010"><ele>183</ele></trkpt>
<trkpt lat="51.00892" lon="9.68993"><ele>183</ele></trkpt>
<trkpt lat="51.01041" lon="9.68891"><ele>182</ele></trkpt>
<trkpt lat="51.01091" lon="9.68863"><ele>182</ele></trkpt>
<trkpt lat="51.01165" lon="9.68785"><ele>182</ele></trkpt>
<trkpt lat="51.01180" lon="9.68775"><ele>182</ele></trkpt>
<trkpt lat="51.01192" lon="9.68759"><ele>183</ele></trkpt>
<trkpt lat="51.01214" lon="9.68741"><ele>183</ele></trkpt>
<trkpt lat="51.01521" lon="9.68573"><ele>182</ele></trkpt>
<trkpt lat="51.01541" lon="9.68461"><ele>182</ele></trkpt>
<trkpt lat="51.01550" lon="9.68430"><ele>182</ele></trkpt>
<trkpt lat="51.01602" lon="9.68321"><ele>182</ele></trkpt>
<trkpt lat="51.01616" lon="9.68349"><ele>182</ele></trkpt>
<trkpt lat="51.01664" lon="9.68483"><ele>182</ele></trkpt>
<trkpt lat="51.01669" lon="9.68491"><ele>181</ele></trkpt>
<trkpt lat="51.01702" lon="9.68495"><ele>182</ele></trkpt>
<trkpt lat="51.01740" lon="9.68505"><ele>181</ele></trkpt>
<trkpt lat="51.01848" lon="9.68576"><ele>182</ele></trkpt>
<trkpt lat="51.01905" lon="9.68605"><ele>182</ele></trkpt>
<trkpt lat="51.01930" lon="9.68610"><ele>182</ele></trkpt>
<trkpt lat="51.01945" lon="9.68607"><ele>182</ele></trkpt>
<trkpt lat="51.02038" lon="9.68557"><ele>182</ele></trkpt>
<trkpt lat="51.02096" lon="9.68516"><ele>181</ele></trkpt>
<trkpt lat="51.02139" lon="9.68495"><ele>182</ele></trkpt>
<trkpt lat="51.02154" lon="9.68483"><ele>182</ele></trkpt>
<trkpt lat="51.02168" lon="9.68463"><ele>182</ele></trkpt>
<trkpt lat="51.02172" lon="9.68448"><ele>182</ele></trkpt>
<trkpt lat="51.02179" lon="9.68365"><ele>181</ele></trkpt>
<trkpt lat="51.02188" lon="9.68345"><ele>181</ele></trkpt>
<trkpt lat="51.02202" lon="9.68328"><ele>181</ele></trkpt>
<trkpt lat="51.02213" lon="9.68323"><ele>181</ele></trkpt>
<trkpt lat="51.02299" lon="9.68311"><ele>182</ele></trkpt>
<trkpt lat="51.02415" lon="9.68272"><ele>182</ele></trkpt>
<trkpt lat="51.02468" lon="9.68265"><ele>182</ele></trkpt>
<trkpt lat="51.02487" lon="9.68251"><ele>181</ele></trkpt>
<trkpt lat="51.02529" lon="9.68188"><ele>182</ele></trkpt>
<trkpt lat="51.02556" lon="9.68165"><ele>182</ele></trkpt>
<trkpt lat="51.02577" lon="9.68141"><ele>181</ele></trkpt>
<trkpt lat="51.02639" lon="9.68047"><ele>181</ele></trkpt>
<trkpt lat="51.02670" lon="9.67994"><ele>181</ele></trkpt>
<trkpt lat="51.02695" lon="9.67926"><ele>182</ele></trkpt>
<trkpt lat="51.02700" lon="9.67967"><ele>182</ele></trkpt>
<trkpt lat="51.02711" lon="9.68007"><ele>181</ele></trkpt>
<trkpt lat="51.02786" lon="9.68085"><ele>183</ele></trkpt>
<trkpt lat="51.02802" lon="9.68119"><ele>183</ele></trkpt>
<trkpt lat="51.02827" lon="9.68216"><ele>182</ele></trkpt>
<trkpt lat="51.02881" lon="9.68186"><ele>182</ele></trkpt>
<trkpt lat="51.02888" lon="9.68178"><ele>182</ele></trkpt>
<trkpt lat="51.02929" lon="9.68103"><ele>181</ele></trkpt>
<trkpt lat="51.02943" lon="9.68074"><ele>181</ele></trkpt>
<trkpt lat="51.02981" lon="9.67970"><ele>181</ele></trkpt>
<trkpt lat="51.03014" lon="9.67855"><ele>181</ele></trkpt>
<trkpt lat="51.03019" lon="9.67818"><ele>180</ele></trkpt>
<trkpt lat="51.03015" lon="9.67751"><ele>181</ele></trkpt>
<trkpt lat="51.03008" lon="9.67700"><ele>181</ele></trkpt>
<trkpt lat="51.03011" lon="9.67657"><ele>181</ele></trkpt>
<trkpt lat="51.03018" lon="9.67622"><ele>181</ele></trkpt>
<trkpt lat="51.03016" lon="9.67574"><ele>180</ele></trkpt>
<trkpt lat="51.03005" lon="9.67543"><ele>181</ele></trkpt>
<trkpt lat="51.03006" lon="9.67531"><ele>181</ele></trkpt>
<trkpt lat="51.03010" lon="9.67522"><ele>181</ele></trkpt>
<trkpt lat="51.03110" lon="9.67422"><ele>181</ele></trkpt>
<trkpt lat="51.03139" lon="9.67384"><ele>181</ele></trkpt>
<trkpt lat="51.03178" lon="9.67305"><ele>180</ele></trkpt>
<trkpt lat="51.03196" lon="9.67243"><ele>181</ele></trkpt>
<trkpt lat="51.03204" lon="9.67151"><ele>181</ele></trkpt>
<trkpt lat="51.03202" lon="9.67126"><ele>181</ele></trkpt>
<trkpt lat="51.03198" lon="9.67106"><ele>181</ele></trkpt>
<trkpt lat="51.03174" lon="9.67047"><ele>180</ele></trkpt>
<trkpt lat="51.03174" lon="9.67019"><ele>181</ele></trkpt>
<trkpt lat="51.03189" lon="9.66997"><ele>181</ele></trkpt>
<trkpt lat="51.03203" lon="9.66967"><ele>181</ele></trkpt>
<trkpt lat="51.03222" lon="9.66906"><ele>180</ele></trkpt>
<trkpt lat="51.03245" lon="9.66879"><ele>181</ele></trkpt>
<trkpt lat="51.03364" lon="9.66759"><ele>180</ele></trkpt>
<trkpt lat="51.03423" lon="9.66711"><ele>180</ele></trkpt>
<trkpt lat="51.03463" lon="9.66672"><ele>181</ele></trkpt>
<trkpt lat="51.03522" lon="9.66598"><ele>181</ele></trkpt>
<trkpt lat="51.03674" lon="9.66940"><ele>180</ele></trkpt>
<trkpt lat="51.04121" lon="9.66237"><ele>180</ele></trkpt>
<trkpt lat="51.04298" lon="9.66111"><ele>179</ele></trkpt>
<trkpt lat="51.04382" lon="9.65987"><ele>179</ele></trkpt>
<trkpt lat="51.04458" lon="9.66107"><ele>180</ele></trkpt>
<trkpt lat="51.04490" lon="9.66144"><ele>180</ele></trkpt>
<trkpt lat="51.04511" lon="9.66162"><ele>180</ele></trkpt>
<trkpt lat="51.04519" lon="9.66155"><ele>180</ele></trkpt>
<trkpt lat="51.04531" lon="9.66124"><ele>179</ele></trkpt>
<trkpt lat="51.04592" lon="9.66084"><ele>179</ele></trkpt>
<trkpt lat="51.04645" lon="9.66059"><ele>179</ele></trkpt>
<trkpt lat="51.04687" lon="9.65997"><ele>180</ele></trkpt>
<trkpt lat="51.04789" lon="9.65869"><ele>181</ele></trkpt>
<trkpt lat="51.04792" lon="9.65853"><ele>180</ele></trkpt>
<trkpt lat="51.04786" lon="9.65775"><ele>180</ele></trkpt>
<trkpt lat="51.04788" lon="9.65603"><ele>180</ele></trkpt>
<trkpt lat="51.04793" lon="9.65489"><ele>180</ele></trkpt>
<trkpt lat="51.04814" lon="9.65364"><ele>180</ele></trkpt>
<trkpt lat="51.04833" lon="9.65298"><ele>180</ele></trkpt>
<trkpt lat="51.04890" lon="9.65139"><ele>179</ele></trkpt>
<trkpt lat="51.04897" lon="9.65110"><ele>179</ele></trkpt>
<trkpt lat="51.04943" lon="9.64874"><ele>179</ele></trkpt>
<trkpt lat="51.04994" lon="9.64574"><ele>179</ele></trkpt>
<trkpt lat="51.04997" lon="9.64566"><ele>179</ele></trkpt>
<trkpt lat="51.05006" lon="9.64568"><ele>179</ele></trkpt>
<trkpt lat="51.05168" lon="9.64636"><ele>179</ele></trkpt>
<trkpt lat="51.05216" lon="9.64367"><ele>180</ele></trkpt>
<trkpt lat="51.05212" lon="9.64349"><ele>179</ele></trkpt>
<trkpt lat="51.05045" lon="9.64026"><ele>179</ele></trkpt>
<trkpt lat="51.05083" lon="9.63796"><ele>178</ele></trkpt>
<trkpt lat="51.05081" lon="9.63742"><ele>178</ele></trkpt>
<trkpt lat="51.05091" lon="9.63679"><ele>178</ele></trkpt>
<trkpt lat="51.05362" lon="9.63496"><ele>180</ele></trkpt>
<trkpt lat="51.05365" lon="9.63477"><ele>180</ele></trkpt>
<trkpt lat="51.05360" lon="9.63428"><ele>181</ele></trkpt>
<trkpt lat="51.05362" lon="9.63419"><ele>182</ele></trkpt>
<trkpt lat="51.05376" lon="9.63415"><ele>183</ele></trkpt>
<trkpt lat="51.05388" lon="9.63404"><ele>184</ele></trkpt>
<trkpt lat="51.05403" lon="9.63314"><ele>187</ele></trkpt>
<trkpt lat="51.05436" lon="9.63157"><ele>185</ele></trkpt>
<trkpt lat="51.05460" lon="9.63070"><ele>184</ele></trkpt>
<trkpt lat="51.05488" lon="9.62983"><ele>183</ele></trkpt>
<trkpt lat="51.05518" lon="9.62911"><ele>184</ele></trkpt>
<trkpt lat="51.05592" lon="9.62767"><ele>184</ele></trkpt>
<trkpt lat="51.05640" lon="9.62687"><ele>184</ele></trkpt>
<trkpt lat="51.05665" lon="9.62626"><ele>186</ele></trkpt>
<trkpt lat="51.05692" lon="9.62580"><ele>188</ele></trkpt>
<trkpt lat="51.05703" lon="9.62569"><ele>187</ele></trkpt>
<trkpt lat="51.05734" lon="9.62622"><ele>189</ele></trkpt>
<trkpt lat="51.05745" lon="9.62607"><ele>188</ele></trkpt>
<trkpt lat="51.05758" lon="9.62568"><ele>186</ele></trkpt>
<trkpt lat="51.05783" lon="9.62523"><ele>186</ele></trkpt>
<trkpt lat="51.05902" lon="9.62346"><ele>181</ele></trkpt>
<trkpt lat="51.06540" lon="9.61862"><ele>184</ele></trkpt>
<trkpt lat="51.06599" lon="9.61823"><ele>189</ele></trkpt>
<trkpt lat="51.06742" lon="9.61678"><ele>189</ele></trkpt>
<trkpt lat="51.06756" lon="9.61682"><ele>189</ele></trkpt>
<trkpt lat="51.06764" lon="9.61637"><ele>189</ele></trkpt>
<trkpt lat="51.06780" lon="9.61655"><ele>189</ele></trkpt>
<trkpt lat="51.06802" lon="9.61694"><ele>190</ele></trkpt>
<trkpt lat="51.06811" lon="9.61680"><ele>190</ele></trkpt>
<trkpt lat="51.06962" lon="9.61521"><ele>200</ele></trkpt>
<trkpt lat="51.06984" lon="9.61492"><ele>202</ele></trkpt>
<trkpt lat="51.07164" lon="9.61678"><ele>206</ele></trkpt>
<trkpt lat="51.07205" lon="9.61614"><ele>213</ele></trkpt>
<trkpt lat="51.07221" lon="9.61598"><ele>216</ele></trkpt>
<trkpt lat="51.07263" lon="9.61581"><ele>220</ele></trkpt>
<trkpt lat="51.07290" lon="9.61582"><ele>222</ele></trkpt>
<trkpt lat="51.07311" lon="9.61589"><ele>225</ele></trkpt>
<trkpt lat="51.07322" lon="9.61603"><ele>228</ele></trkpt>
<trkpt lat="51.07363" lon="9.61738"><ele>236</ele></trkpt>
<trkpt lat="51.07378" lon="9.61797"><ele>242</ele></trkpt>
<trkpt lat="51.07386" lon="9.61853"><ele>247</ele></trkpt>
<trkpt lat="51.07407" lon="9.61936"><ele>253</ele></trkpt>
<trkpt lat="51.07425" lon="9.61966"><ele>254</ele></trkpt>
<trkpt lat="51.07448" lon="9.61990"><ele>256</ele></trkpt>
<trkpt lat="51.07480" lon="9.62007"><ele>258</ele></trkpt>
<trkpt lat="51.07502" lon="9.62005"><ele>259</ele></trkpt>
<trkpt lat="51.07509" lon="9.61997"><ele>260</ele></trkpt>
<trkpt lat="51.07517" lon="9.61982"><ele>260</ele></trkpt>
<trkpt lat="51.07525" lon="9.61952"><ele>262</ele></trkpt>
<trkpt lat="51.07521" lon="9.61801"><ele>268</ele></trkpt>
<trkpt lat="51.07521" lon="9.61614"><ele>280</ele></trkpt>
<trkpt lat="51.07525" lon="9.61569"><ele>284</ele></trkpt>
<trkpt lat="51.07535" lon="9.61546"><ele>286</ele></trkpt>
<trkpt lat="51.07550" lon="9.61538"><ele>288</ele></trkpt>
<trkpt lat="51.07566" lon="9.61538"><ele>290</ele></trkpt>
<trkpt lat="51.07579" lon="9.61533"><ele>291</ele></trkpt>
<trkpt lat="51.07707" lon="9.61441"><ele>306</ele></trkpt>
<trkpt lat="51.07735" lon="9.61414"><ele>309</ele></trkpt>
<trkpt lat="51.07777" lon="9.61363"><ele>316</ele></trkpt>
<trkpt lat="51.07829" lon="9.61340"><ele>320</ele></trkpt>
<trkpt lat="51.07845" lon="9.61329"><ele>320</ele></trkpt>
<trkpt lat="51.07933" lon="9.61222"><ele>330</ele></trkpt>
<trkpt lat="51.07961" lon="9.61203"><ele>333</ele></trkpt>
<trkpt lat="51.07987" lon="9.61205"><ele>335</ele></trkpt>
<trkpt lat="51.08095" lon="9.61250"><ele>348</ele></trkpt>
<trkpt lat="51.08136" lon="9.61276"><ele>352</ele></trkpt>
<trkpt lat="51.08160" lon="9.61282"><ele>355</ele></trkpt>
<trkpt lat="51.08244" lon="9.61277"><ele>364</ele></trkpt>
<trkpt lat="51.08321" lon="9.61253"><ele>368</ele></trkpt>
<trkpt lat="51.08374" lon="9.61260"><ele>368</ele></trkpt>
<trkpt lat="51.08491" lon="9.61306"><ele>378</ele></trkpt>
<trkpt lat="51.08552" lon="9.61300"><ele>383</ele></trkpt>
<trkpt lat="51.08622" lon="9.61263"><ele>388</ele></trkpt>
<trkpt lat="51.08660" lon="9.61259"><ele>390</ele></trkpt>
<trkpt lat="51.08744" lon="9.61231"><ele>392</ele></trkpt>
<trkpt lat="51.08812" lon="9.61185"><ele>394</ele></trkpt>
<trkpt lat="51.08836" lon="9.61173"><ele>393</ele></trkpt>
<trkpt lat="51.08858" lon="9.61146"><ele>394</ele></trkpt>
<trkpt lat="51.08872" lon="9.61116"><ele>395</ele></trkpt>
<trkpt lat="51.08889" lon="9.61091"><ele>397</ele></trkpt>
<trkpt lat="51.08910" lon="9.61069"><ele>398</ele></trkpt>
<trkpt lat="51.08921" lon="9.61038"><ele>399</ele></trkpt>
<trkpt lat="51.08930" lon="9.60995"><ele>401</ele></trkpt>
<trkpt lat="51.08944" lon="9.60970"><ele>404</ele></trkpt>
<trkpt lat="51.08966" lon="9.60969"><ele>404</ele></trkpt>
<trkpt lat="51.09013" lon="9.60987"><ele>408</ele></trkpt>
<trkpt lat="51.09050" lon="9.60976"><ele>410</ele></trkpt>
<trkpt lat="51.09067" lon="9.60967"><ele>412</ele></trkpt>
<trkpt lat="51.09084" lon="9.60945"><ele>413</ele></trkpt>
<trkpt lat="51.09106" lon="9.60933"><ele>415</ele></trkpt>
<trkpt lat="51.09185" lon="9.60867"><ele>422</ele></trkpt>
<trkpt lat="51.09216" lon="9.60820"><ele>422</ele></trkpt>
<trkpt lat="51.09232" lon="9.60827"><ele>419</ele></trkpt>
<trkpt lat="51.09246" lon="9.60847"><ele>413</ele></trkpt>
<trkpt lat="51.09253" lon="9.60883"><ele>410</ele></trkpt>
<trkpt lat="51.09264" lon="9.60913"><ele>408</ele></trkpt>
<trkpt lat="51.09282" lon="9.60941"><ele>406</ele></trkpt>
<trkpt lat="51.09329" lon="9.60988"><ele>398</ele></trkpt>
<trkpt lat="51.09400" lon="9.61071"><ele>388</ele></trkpt>
<trkpt lat="51.09442" lon="9.61130"><ele>382</ele></trkpt>
<trkpt lat="51.09491" lon="9.61162"><ele>376</ele></trkpt>
<trkpt lat="51.09571" lon="9.61182"><ele>366</ele></trkpt>
<trkpt lat="51.09692" lon="9.61172"><ele>348</ele></trkpt>
<trkpt lat="51.09717" lon="9.61176"><ele>344</ele></trkpt>
<trkpt lat="51.09780" lon="9.61167"><ele>334</ele></trkpt>
<trkpt lat="51.09829" lon="9.61134"><ele>328</ele></trkpt>
<trkpt lat="51.09866" lon="9.61120"><ele>325</ele></trkpt>
<trkpt lat="51.09903" lon="9.61115"><ele>322</ele></trkpt>
<trkpt lat="51.09933" lon="9.61102"><ele>318</ele></trkpt>
<trkpt lat="51.09975" lon="9.61071"><ele>312</ele></trkpt>
<trkpt lat="51.10016" lon="9.61053"><ele>306</ele></trkpt>
<trkpt lat="51.10079" lon="9.61029"><ele>300</ele></trkpt>
<trkpt lat="51.10226" lon="9.60990"><ele>290</ele></trkpt>
<trkpt lat="51.10330" lon="9.60979"><ele>279</ele></trkpt>
<trkpt lat="51.10354" lon="9.60984"><ele>278</ele></trkpt>
<trkpt lat="51.10432" lon="9.60972"><ele>271</ele></trkpt>
<trkpt lat="51.10605" lon="9.61016"><ele>257</ele></trkpt>
<trkpt lat="51.10639" lon="9.61019"><ele>254</ele></trkpt>
<trkpt lat="51.10670" lon="9.61010"><ele>250</ele></trkpt>
<trkpt lat="51.10701" lon="9.61008"><ele>247</ele></trkpt>
<trkpt lat="51.10824" lon="9.61018"><ele>236</ele></trkpt>
<trkpt lat="51.10839" lon="9.61012"><ele>234</ele></trkpt>
<trkpt lat="51.10859" lon="9.60996"><ele>234</ele></trkpt>
<trkpt lat="51.10916" lon="9.60973"><ele>225</ele></trkpt>
<trkpt lat="51.10921" lon="9.60952"><ele>223</ele></trkpt>
<trkpt lat="51.10931" lon="9.60821"><ele>215</ele></trkpt>
<trkpt lat="51.10936" lon="9.60798"><ele>216</ele></trkpt>
<trkpt lat="51.10973" lon="9.60706"><ele>218</ele></trkpt>
<trkpt lat="51.10974" lon="9.60673"><ele>218</ele></trkpt>
<trkpt lat="51.10984" lon="9.60662"><ele>218</ele></trkpt>
<trkpt lat="51.10997" lon="9.60603"><ele>218</ele></trkpt>
<trkpt lat="51.10997" lon="9.60539"><ele>220</ele></trkpt>
<trkpt lat="51.10992" lon="9.60467"><ele>220</ele></trkpt>
<trkpt lat="51.10993" lon="9.60379"><ele>218</ele></trkpt>
<trkpt lat="51.10973" lon="9.60244"><ele>216</ele></trkpt>
<trkpt lat="51.10877" lon="9.59664"><ele>213</ele></trkpt>
<trkpt lat="51.10878" lon="9.59648"><ele>214</ele></trkpt>
<trkpt lat="51.10910" lon="9.59649"><ele>211</ele></trkpt>
<trkpt lat="51.10925" lon="9.59573"><ele>211</ele></trkpt>
<trkpt lat="51.10927" lon="9.59526"><ele>210</ele></trkpt>
<trkpt lat="51.10920" lon="9.59427"><ele>208</ele></trkpt>
<trkpt lat="51.10926" lon="9.59390"><ele>208</ele></trkpt>
<trkpt lat="51.10933" lon="9.59310"><ele>206</ele></trkpt>
<trkpt lat="51.10939" lon="9.59267"><ele>204</ele></trkpt>
<trkpt lat="51.10977" lon="9.59134"><ele>200</ele></trkpt>
<trkpt lat="51.10968" lon="9.59110"><ele>202</ele></trkpt>
<trkpt lat="51.10954" lon="9.59043"><ele>205</ele></trkpt>
<trkpt lat="51.10952" lon="9.59026"><ele>205</ele></trkpt>
<trkpt lat="51.10956" lon="9.58981"><ele>206</ele></trkpt>
<trkpt lat="51.10978" lon="9.58853"><ele>208</ele></trkpt>
<trkpt lat="51.10981" lon="9.58788"><ele>210</ele></trkpt>
<trkpt lat="51.11004" lon="9.58677"><ele>211</ele></trkpt>
<trkpt lat="51.11027" lon="9.58584"><ele>210</ele></trkpt>
<trkpt lat="51.11041" lon="9.58510"><ele>206</ele></trkpt>
<trkpt lat="51.11047" lon="9.58453"><ele>208</ele></trkpt>
<trkpt lat="51.11040" lon="9.58400"><ele>211</ele></trkpt>
<trkpt lat="51.11041" lon="9.58284"><ele>211</ele></trkpt>
<trkpt lat="51.11024" lon="9.58176"><ele>210</ele></trkpt>
<trkpt lat="51.11012" lon="9.58133"><ele>212</ele></trkpt>
<trkpt lat="51.11001" lon="9.58105"><ele>212</ele></trkpt>
<trkpt lat="51.10866" lon="9.57610"><ele>211</ele></trkpt>
<trkpt lat="51.10863" lon="9.57587"><ele>212</ele></trkpt>
<trkpt lat="51.10890" lon="9.57578"><ele>207</ele></trkpt>
<trkpt lat="51.10896" lon="9.57583"><ele>206</ele></trkpt>
<trkpt lat="51.10903" lon="9.57601"><ele>205</ele></trkpt>
<trkpt lat="51.10908" lon="9.57672"><ele>206</ele></trkpt>
<trkpt lat="51.10916" lon="9.57686"><ele>206</ele></trkpt>
<trkpt lat="51.10932" lon="9.57689"><ele>202</ele></trkpt>
<trkpt lat="51.10932" lon="9.57625"><ele>201</ele></trkpt>
<trkpt lat="51.10937" lon="9.57544"><ele>198</ele></trkpt>
<trkpt lat="51.10966" lon="9.57507"><ele>192</ele></trkpt>
<trkpt lat="51.10982" lon="9.57474"><ele>189</ele></trkpt>
<trkpt lat="51.11002" lon="9.57416"><ele>186</ele></trkpt>
<trkpt lat="51.11014" lon="9.57402"><ele>184</ele></trkpt>
<trkpt lat="51.11014" lon="9.57391"><ele>183</ele></trkpt>
<trkpt lat="51.11025" lon="9.57382"><ele>182</ele></trkpt>
<trkpt lat="51.11042" lon="9.57377"><ele>182</ele></trkpt>
<trkpt lat="51.11074" lon="9.57382"><ele>182</ele></trkpt>
<trkpt lat="51.11086" lon="9.57368"><ele>182</ele></trkpt>
<trkpt lat="51.11089" lon="9.57352"><ele>182</ele></trkpt>
<trkpt lat="51.11204" lon="9.57359"><ele>182</ele></trkpt>
<trkpt lat="51.11248" lon="9.57212"><ele>191</ele></trkpt>
<trkpt lat="51.11253" lon="9.57209"><ele>192</ele></trkpt>
<trkpt lat="51.11262" lon="9.57218"><ele>194</ele></trkpt>
<trkpt lat="51.11344" lon="9.57399"><ele>209</ele></trkpt>
<trkpt lat="51.11358" lon="9.57409"><ele>212</ele></trkpt>
<trkpt lat="51.11364" lon="9.57406"><ele>214</ele></trkpt>
<trkpt lat="51.11368" lon="9.57393"><ele>215</ele></trkpt>
<trkpt lat="51.11372" lon="9.57344"><ele>216</ele></trkpt>
<trkpt lat="51.11380" lon="9.57328"><ele>219</ele></trkpt>
<trkpt lat="51.11396" lon="9.57283"><ele>223</ele></trkpt>
<trkpt lat="51.11437" lon="9.57192"><ele>234</ele></trkpt>
<trkpt lat="51.11459" lon="9.57155"><ele>240</ele></trkpt>
<trkpt lat="51.11483" lon="9.57033"><ele>240</ele></trkpt>
<trkpt lat="51.11477" lon="9.56962"><ele>240</ele></trkpt>
<trkpt lat="51.11481" lon="9.56894"><ele>240</ele></trkpt>
<trkpt lat="51.11494" lon="9.56773"><ele>239</ele></trkpt>
<trkpt lat="51.11493" lon="9.56710"><ele>240</ele></trkpt>
<trkpt lat="51.11505" lon="9.56614"><ele>238</ele></trkpt>
<trkpt lat="51.11478" lon="9.56548"><ele>238</ele></trkpt>
<trkpt lat="51.11473" lon="9.56529"><ele>237</ele></trkpt>
<trkpt lat="51.11466" lon="9.56465"><ele>236</ele></trkpt>
<trkpt lat="51.11465" lon="9.56428"><ele>236</ele></trkpt>
<trkpt lat="51.11454" lon="9.56376"><ele>236</ele></trkpt>
<trkpt lat="51.11436" lon="9.56256"><ele>237</ele></trkpt>
<trkpt lat="51.11424" lon="9.56146"><ele>240</ele></trkpt>
<trkpt lat="51.11423" lon="9.56103"><ele>240</ele></trkpt>
<trkpt lat="51.11430" lon="9.55884"><ele>248</ele></trkpt>
<trkpt lat="51.11420" lon="9.55713"><ele>244</ele></trkpt>
<trkpt lat="51.11420" lon="9.55664"><ele>244</ele></trkpt>
<trkpt lat="51.11426" lon="9.55510"><ele>245</ele></trkpt>
<trkpt lat="51.11424" lon="9.55445"><ele>244</ele></trkpt>
<trkpt lat="51.11428" lon="9.55332"><ele>245</ele></trkpt>
<trkpt lat="51.11433" lon="9.55285"><ele>245</ele></trkpt>
<trkpt lat="51.11453" lon="9.55189"><ele>245</ele></trkpt>
<trkpt lat="51.11474" lon="9.55106"><ele>245</ele></trkpt>
<trkpt lat="51.11494" lon="9.55044"><ele>245</ele></trkpt>
<trkpt lat="51.11504" lon="9.54978"><ele>244</ele></trkpt>
<trkpt lat="51.11508" lon="9.54970"><ele>244</ele></trkpt>
<trkpt lat="51.11556" lon="9.54907"><ele>244</ele></trkpt>
<trkpt lat="51.11618" lon="9.54909"><ele>244</ele></trkpt>
<trkpt lat="51.11688" lon="9.54867"><ele>242</ele></trkpt>
<trkpt lat="51.11742" lon="9.54864"><ele>243</ele></trkpt>
<trkpt lat="51.11747" lon="9.54873"><ele>243</ele></trkpt>
<trkpt lat="51.11779" lon="9.54882"><ele>245</ele></trkpt>
<trkpt lat="51.11792" lon="9.54882"><ele>244</ele></trkpt>
<trkpt lat="51.11789" lon="9.54825"><ele>242</ele></trkpt>
<trkpt lat="51.11800" lon="9.54729"><ele>240</ele></trkpt>
<trkpt lat="51.11866" lon="9.54745"><ele>242</ele></trkpt>
<trkpt lat="51.11886" lon="9.54552"><ele>230</ele></trkpt>
<trkpt lat="51.11932" lon="9.54521"><ele>225</ele></trkpt>
<trkpt lat="51.11961" lon="9.54496"><ele>221</ele></trkpt>
<trkpt lat="51.12082" lon="9.54555"><ele>209</ele></trkpt>
<trkpt lat="51.12085" lon="9.54552"><ele>208</ele></trkpt>
<trkpt lat="51.12108" lon="9.54469"><ele>198</ele></trkpt>
<trkpt lat="51.12116" lon="9.54467"><ele>198</ele></trkpt>
<trkpt lat="51.12173" lon="9.54396"><ele>191</ele></trkpt>
<trkpt lat="51.12206" lon="9.54366"><ele>188</ele></trkpt>
<trkpt lat="51.12235" lon="9.54363"><ele>186</ele></trkpt>
<trkpt lat="51.12343" lon="9.54372"><ele>179</ele></trkpt>
<trkpt lat="51.12413" lon="9.54408"><ele>173</ele></trkpt>
<trkpt lat="51.12461" lon="9.54388"><ele>169</ele></trkpt>
<trkpt lat="51.12458" lon="9.54371"><ele>170</ele></trkpt>
<trkpt lat="51.12476" lon="9.54355"><ele>169</ele></trkpt>
<trkpt lat="51.12476" lon="9.54348"><ele>169</ele></trkpt>
<trkpt lat="51.12461" lon="9.54319"><ele>169</ele></trkpt>
<trkpt lat="51.12478" lon="9.54308"><ele>169</ele></trkpt>
<trkpt lat="51.12485" lon="9.54308"><ele>168</ele></trkpt>
<trkpt lat="51.12487" lon="9.54295"><ele>168</ele></trkpt>
<trkpt lat="51.12494" lon="9.54275"><ele>168</ele></trkpt>
<trkpt lat="51.12537" lon="9.54204"><ele>169</ele></trkpt>
<trkpt lat="51.12558" lon="9.54176"><ele>169</ele></trkpt>
<trkpt lat="51.12601" lon="9.54143"><ele>171</ele></trkpt>
<trkpt lat="51.12675" lon="9.54129"><ele>170</ele></trkpt>
<trkpt lat="51.12715" lon="9.54133"><ele>171</ele></trkpt>
<trkpt lat="51.12784" lon="9.54157"><ele>173</ele></trkpt>
<trkpt lat="51.12858" lon="9.54158"><ele>174</ele></trkpt>
<trkpt lat="51.12916" lon="9.54148"><ele>173</ele></trkpt>
<trkpt lat="51.12959" lon="9.54135"><ele>174</ele></trkpt>
<trkpt lat="51.12966" lon="9.54140"><ele>174</ele></trkpt>
<trkpt lat="51.12972" lon="9.54137"><ele>174</ele></trkpt>
<trkpt lat="51.12982" lon="9.54179"><ele>172</ele></trkpt>
<trkpt lat="51.13006" lon="9.54327"><ele>169</ele></trkpt>
<trkpt lat="51.13018" lon="9.54376"><ele>168</ele></trkpt>
<trkpt lat="51.13053" lon="9.54468"><ele>167</ele></trkpt>
<trkpt lat="51.13101" lon="9.54572"><ele>166</ele></trkpt>
<trkpt lat="51.13127" lon="9.54650"><ele>165</ele></trkpt>
<trkpt lat="51.13147" lon="9.54627"><ele>166</ele></trkpt>
<trkpt lat="51.13187" lon="9.54603"><ele>166</ele></trkpt>
<trkpt lat="51.13244" lon="9.54554"><ele>165</ele></trkpt>
<trkpt lat="51.13282" lon="9.54493"><ele>165</ele></trkpt>
<trkpt lat="51.13379" lon="9.54312"><ele>166</ele></trkpt>
<trkpt lat="51.13411" lon="9.54367"><ele>164</ele></trkpt>
<trkpt lat="51.13424" lon="9.54373"><ele>164</ele></trkpt>
<trkpt lat="51.13432" lon="9.54371"><ele>164</ele></trkpt>
<trkpt lat="51.13511" lon="9.54265"><ele>164</ele></trkpt>
<trkpt lat="51.13526" lon="9.54242"><ele>164</ele></trkpt>
<trkpt lat="51.13546" lon="9.54201"><ele>164</ele></trkpt>
<trkpt lat="51.13553" lon="9.54173"><ele>165</ele></trkpt>
<trkpt lat="51.13533" lon="9.54130"><ele>165</ele></trkpt>
<trkpt lat="51.13547" lon="9.54128"><ele>165</ele></trkpt>
<trkpt lat="51.13632" lon="9.54058"><ele>165</ele></trkpt>
<trkpt lat="51.13671" lon="9.54034"><ele>165</ele></trkpt>
<trkpt lat="51.13679" lon="9.53940"><ele>168</ele></trkpt>
<trkpt lat="51.13656" lon="9.53929"><ele>168</ele></trkpt>
<trkpt lat="51.13666" lon="9.53888"><ele>170</ele></trkpt>
<trkpt lat="51.13702" lon="9.53772"><ele>180</ele></trkpt>
<trkpt lat="51.13718" lon="9.53739"><ele>186</ele></trkpt>
<trkpt lat="51.13727" lon="9.53733"><ele>187</ele></trkpt>
<trkpt lat="51.13774" lon="9.53750"><ele>190</ele></trkpt>
<trkpt lat="51.13797" lon="9.53741"><ele>192</ele></trkpt>
<trkpt lat="51.13815" lon="9.53745"><ele>194</ele></trkpt>
<trkpt lat="51.13839" lon="9.53757"><ele>196</ele></trkpt>
<trkpt lat="51.13857" lon="9.53789"><ele>196</ele></trkpt>
<trkpt lat="51.13907" lon="9.53827"><ele>195</ele></trkpt>
<trkpt lat="51.13976" lon="9.53894"><ele>192</ele></trkpt>
<trkpt lat="51.14059" lon="9.54009"><ele>202</ele></trkpt>
<trkpt lat="51.14099" lon="9.54078"><ele>208</ele></trkpt>
<trkpt lat="51.14110" lon="9.54090"><ele>210</ele></trkpt>
<trkpt lat="51.14117" lon="9.54089"><ele>212</ele></trkpt>
<trkpt lat="51.14119" lon="9.54080"><ele>214</ele></trkpt>
<trkpt lat="51.14109" lon="9.54045"><ele>215</ele></trkpt>
<trkpt lat="51.14120" lon="9.54015"><ele>218</ele></trkpt>
<trkpt lat="51.14126" lon="9.54009"><ele>219</ele></trkpt>
<trkpt lat="51.14134" lon="9.54009"><ele>219</ele></trkpt>
<trkpt lat="51.14138" lon="9.54014"><ele>219</ele></trkpt>
<trkpt lat="51.14141" lon="9.54052"><ele>220</ele></trkpt>
<trkpt lat="51.14148" lon="9.54070"><ele>220</ele></trkpt>
<trkpt lat="51.14154" lon="9.54075"><ele>220</ele></trkpt>
<trkpt lat="51.14166" lon="9.54076"><ele>222</ele></trkpt>
<trkpt lat="51.14191" lon="9.54068"><ele>226</ele></trkpt>
<trkpt lat="51.14214" lon="9.54066"><ele>229</ele></trkpt>
<trkpt lat="51.14221" lon="9.54085"><ele>230</ele></trkpt>
<trkpt lat="51.14291" lon="9.54202"><ele>232</ele></trkpt>
<trkpt lat="51.14358" lon="9.54300"><ele>236</ele></trkpt>
<trkpt lat="51.14397" lon="9.54388"><ele>232</ele></trkpt>
<trkpt lat="51.14413" lon="9.54404"><ele>231</ele></trkpt>
<trkpt lat="51.14446" lon="9.54408"><ele>230</ele></trkpt>
<trkpt lat="51.14458" lon="9.54417"><ele>229</ele></trkpt>
<trkpt lat="51.14491" lon="9.54505"><ele>226</ele></trkpt>
<trkpt lat="51.14527" lon="9.54575"><ele>224</ele></trkpt>
<trkpt lat="51.14563" lon="9.54619"><ele>220</ele></trkpt>
<trkpt lat="51.14579" lon="9.54632"><ele>219</ele></trkpt>
<trkpt lat="51.14625" lon="9.54658"><ele>217</ele></trkpt>
<trkpt lat="51.14644" lon="9.54950"><ele>207</ele></trkpt>
<trkpt lat="51.14663" lon="9.54964"><ele>206</ele></trkpt>
<trkpt lat="51.14774" lon="9.54993"><ele>199</ele></trkpt>
<trkpt lat="51.14834" lon="9.55022"><ele>194</ele></trkpt>
<trkpt lat="51.14870" lon="9.55026"><ele>191</ele></trkpt>
<trkpt lat="51.14909" lon="9.55009"><ele>187</ele></trkpt>
<trkpt lat="51.14963" lon="9.54968"><ele>183</ele></trkpt>
<trkpt lat="51.15011" lon="9.54922"><ele>178</ele></trkpt>
<trkpt lat="51.15037" lon="9.54908"><ele>176</ele></trkpt>
<trkpt lat="51.15056" lon="9.54912"><ele>174</ele></trkpt>
<trkpt lat="51.15139" lon="9.54945"><ele>164</ele></trkpt>
<trkpt lat="51.15163" lon="9.54937"><ele>163</ele></trkpt>
<trkpt lat="51.15181" lon="9.54924"><ele>162</ele></trkpt>
<trkpt lat="51.15198" lon="9.54938"><ele>162</ele></trkpt>
<trkpt lat="51.15203" lon="9.54948"><ele>162</ele></trkpt>
<trkpt lat="51.15198" lon="9.54980"><ele>164</ele></trkpt>
<trkpt lat="51.15193" lon="9.54922"><ele>163</ele></trkpt>
<trkpt lat="51.15194" lon="9.54842"><ele>162</ele></trkpt>
<trkpt lat="51.15197" lon="9.54825"><ele>162</ele></trkpt>
<trkpt lat="51.15205" lon="9.54814"><ele>162</ele></trkpt>
<trkpt lat="51.15214" lon="9.54813"><ele>162</ele></trkpt>
<trkpt lat="51.15245" lon="9.54833"><ele>162</ele></trkpt>
<trkpt lat="51.15272" lon="9.54833"><ele>161</ele></trkpt>
<trkpt lat="51.15444" lon="9.54810"><ele>165</ele></trkpt>
<trkpt lat="51.15444" lon="9.54698"><ele>162</ele></trkpt>
<trkpt lat="51.15440" lon="9.54661"><ele>163</ele></trkpt>
<trkpt lat="51.15441" lon="9.54581"><ele>164</ele></trkpt>
<trkpt lat="51.15452" lon="9.54503"><ele>165</ele></trkpt>
<trkpt lat="51.15476" lon="9.54393"><ele>165</ele></trkpt>
<trkpt lat="51.15570" lon="9.54437"><ele>174</ele></trkpt>
<trkpt lat="51.15609" lon="9.54333"><ele>178</ele></trkpt>
<trkpt lat="51.15656" lon="9.54227"><ele>181</ele></trkpt>
<trkpt lat="51.15711" lon="9.54302"><ele>186</ele></trkpt>
<trkpt lat="51.15741" lon="9.54260"><ele>186</ele></trkpt>
<trkpt lat="51.15881" lon="9.54423"><ele>198</ele></trkpt>
<trkpt lat="51.15894" lon="9.54432"><ele>198</ele></trkpt>
<trkpt lat="51.15914" lon="9.54401"><ele>199</ele></trkpt>
<trkpt lat="51.15940" lon="9.54384"><ele>200</ele></trkpt>
<trkpt lat="51.15973" lon="9.54378"><ele>201</ele></trkpt>
<trkpt lat="51.16005" lon="9.54361"><ele>202</ele></trkpt>
<trkpt lat="51.16054" lon="9.54309"><ele>204</ele></trkpt>
<trkpt lat="51.16102" lon="9.54268"><ele>202</ele></trkpt>
<trkpt lat="51.16230" lon="9.54200"><ele>203</ele></trkpt>
<trkpt lat="51.16318" lon="9.54138"><ele>204</ele></trkpt>
<trkpt lat="51.16356" lon="9.54131"><ele>206</ele></trkpt>
<trkpt lat="51.16502" lon="9.54194"><ele>219</ele></trkpt>
<trkpt lat="51.16580" lon="9.54255"><ele>227</ele></trkpt>
<trkpt lat="51.16638" lon="9.54279"><ele>232</ele></trkpt>
<trkpt lat="51.16749" lon="9.54340"><ele>234</ele></trkpt>
<trkpt lat="51.16778" lon="9.54372"><ele>230</ele></trkpt>
<trkpt lat="51.16821" lon="9.54407"><ele>223</ele></trkpt>
<trkpt lat="51.16871" lon="9.54471"><ele>215</ele></trkpt>
<trkpt lat="51.16903" lon="9.54495"><ele>210</ele></trkpt>
<trkpt lat="51.16938" lon="9.54514"><ele>204</ele></trkpt>
<trkpt lat="51.17000" lon="9.54525"><ele>196</ele></trkpt>
<trkpt lat="51.17009" lon="9.54531"><ele>195</ele></trkpt>
<trkpt lat="51.17018" lon="9.54539"><ele>194</ele></trkpt>
<trkpt lat="51.17041" lon="9.54578"><ele>193</ele></trkpt>
<trkpt lat="51.17045" lon="9.54598"><ele>193</ele></trkpt>
<trkpt lat="51.17051" lon="9.54607"><ele>192</ele></trkpt>
<trkpt lat="51.17071" lon="9.54579"><ele>190</ele></trkpt>
<trkpt lat="51.17071" lon="9.54568"><ele>190</ele></trkpt>
<trkpt lat="51.17046" lon="9.54452"><ele>186</ele></trkpt>
<trkpt lat="51.17022" lon="9.54397"><ele>184</ele></trkpt>
<trkpt lat="51.17017" lon="9.54377"><ele>184</ele></trkpt>
<trkpt lat="51.17007" lon="9.54268"><ele>180</ele></trkpt>
<trkpt lat="51.16996" lon="9.54208"><ele>178</ele></trkpt>
<trkpt lat="51.17029" lon="9.54095"><ele>174</ele></trkpt>
<trkpt lat="51.17036" lon="9.54053"><ele>174</ele></trkpt>
<trkpt lat="51.17037" lon="9.53982"><ele>177</ele></trkpt>
<trkpt lat="51.17032" lon="9.53956"><ele>178</ele></trkpt>
<trkpt lat="51.16992" lon="9.53882"><ele>178</ele></trkpt>
<trkpt lat="51.16906" lon="9.53646"><ele>177</ele></trkpt>
<trkpt lat="51.16877" lon="9.53554"><ele>177</ele></trkpt>
<trkpt lat="51.16821" lon="9.53443"><ele>178</ele></trkpt>
<trkpt lat="51.16795" lon="9.53406"><ele>180</ele></trkpt>
<trkpt lat="51.16761" lon="9.53371"><ele>180</ele></trkpt>
<trkpt lat="51.16705" lon="9.53330"><ele>179</ele></trkpt>
<trkpt lat="51.16685" lon="9.53308"><ele>180</ele></trkpt>
<trkpt lat="51.16626" lon="9.53262"><ele>179</ele></trkpt>
<trkpt lat="51.16561" lon="9.53219"><ele>182</ele></trkpt>
<trkpt lat="51.16535" lon="9.53186"><ele>182</ele></trkpt>
<trkpt lat="51.16519" lon="9.53149"><ele>182</ele></trkpt>
<trkpt lat="51.16509" lon="9.53092"><ele>180</ele></trkpt>
<trkpt lat="51.16508" lon="9.52950"><ele>177</ele></trkpt>
<trkpt lat="51.16513" lon="9.52875"><ele>176</ele></trkpt>
<trkpt lat="51.16547" lon="9.52724"><ele>175</ele></trkpt>
<trkpt lat="51.16584" lon="9.52477"><ele>169</ele></trkpt>
<trkpt lat="51.16588" lon="9.52467"><ele>170</ele></trkpt>
<trkpt lat="51.16596" lon="9.52462"><ele>171</ele></trkpt>
<trkpt lat="51.16681" lon="9.52367"><ele>178</ele></trkpt>
<trkpt lat="51.16691" lon="9.52361"><ele>180</ele></trkpt>
<trkpt lat="51.16702" lon="9.52363"><ele>182</ele></trkpt>
<trkpt lat="51.16723" lon="9.52379"><ele>184</ele></trkpt>
<trkpt lat="51.16827" lon="9.52213"><ele>176</ele></trkpt>
<trkpt lat="51.16873" lon="9.52255"><ele>183</ele></trkpt>
<trkpt lat="51.17021" lon="9.52435"><ele>208</ele></trkpt>
<trkpt lat="51.17030" lon="9.52441"><ele>209</ele></trkpt>
<trkpt lat="51.17079" lon="9.52512"><ele>215</ele></trkpt>
<trkpt lat="51.17085" lon="9.52518"><ele>216</ele></trkpt>
<trkpt lat="51.17091" lon="9.52516"><ele>217</ele></trkpt>
<trkpt lat="51.17156" lon="9.52430"><ele>218</ele></trkpt>
<trkpt lat="51.17156" lon="9.52408"><ele>217</ele></trkpt>
<trkpt lat="51.17188" lon="9.52430"><ele>221</ele></trkpt>
<trkpt lat="51.17205" lon="9.52467"><ele>224</ele></trkpt>
<trkpt lat="51.17248" lon="9.52584"><ele>230</ele></trkpt>
<trkpt lat="51.17399" lon="9.52957"><ele>245</ele></trkpt>
<trkpt lat="51.17712" lon="9.53745"><ele>276</ele></trkpt>
<trkpt lat="51.17792" lon="9.53622"><ele>274</ele></trkpt>
<trkpt lat="51.17855" lon="9.53544"><ele>274</ele></trkpt>
<trkpt lat="51.18058" lon="9.53260"><ele>271</ele></trkpt>
<trkpt lat="51.18127" lon="9.53138"><ele>265</ele></trkpt>
<trkpt lat="51.18156" lon="9.53145"><ele>267</ele></trkpt>
<trkpt lat="51.18597" lon="9.53424"><ele>294</ele></trkpt>
<trkpt lat="51.18720" lon="9.53409"><ele>295</ele></trkpt>
<trkpt lat="51.18818" lon="9.53422"><ele>301</ele></trkpt>
<trkpt lat="51.18893" lon="9.53439"><ele>308</ele></trkpt>
<trkpt lat="51.18907" lon="9.53429"><ele>309</ele></trkpt>
<trkpt lat="51.18914" lon="9.53413"><ele>308</ele></trkpt>
<trkpt lat="51.18917" lon="9.53362"><ele>307</ele></trkpt>
<trkpt lat="51.18924" lon="9.53332"><ele>306</ele></trkpt>
<trkpt lat="51.18957" lon="9.53267"><ele>303</ele></trkpt>
<trkpt lat="51.18974" lon="9.53250"><ele>301</ele></trkpt>
<trkpt lat="51.19008" lon="9.53239"><ele>299</ele></trkpt>
<trkpt lat="51.19050" lon="9.53234"><ele>298</ele></trkpt>
<trkpt lat="51.19085" lon="9.53216"><ele>295</ele></trkpt>
<trkpt lat="51.19165" lon="9.53124"><ele>289</ele></trkpt>
<trkpt lat="51.19187" lon="9.53111"><ele>288</ele></trkpt>
<trkpt lat="51.19215" lon="9.53104"><ele>286</ele></trkpt>
<trkpt lat="51.19250" lon="9.53105"><ele>284</ele></trkpt>
<trkpt lat="51.19309" lon="9.53097"><ele>282</ele></trkpt>
<trkpt lat="51.19339" lon="9.53106"><ele>279</ele></trkpt>
<trkpt lat="51.19362" lon="9.53128"><ele>278</ele></trkpt>
<trkpt lat="51.19385" lon="9.53157"><ele>276</ele></trkpt>
<trkpt lat="51.19416" lon="9.53228"><ele>273</ele></trkpt>
<trkpt lat="51.19432" lon="9.53258"><ele>272</ele></trkpt>
<trkpt lat="51.19454" lon="9.53290"><ele>270</ele></trkpt>
<trkpt lat="51.19491" lon="9.53328"><ele>268</ele></trkpt>
<trkpt lat="51.19511" lon="9.53366"><ele>268</ele></trkpt>
<trkpt lat="51.19534" lon="9.53388"><ele>265</ele></trkpt>
<trkpt lat="51.19551" lon="9.53388"><ele>265</ele></trkpt>
<trkpt lat="51.19567" lon="9.53352"><ele>264</ele></trkpt>
<trkpt lat="51.19570" lon="9.53337"><ele>264</ele></trkpt>
<trkpt lat="51.19556" lon="9.53266"><ele>265</ele></trkpt>
<trkpt lat="51.19548" lon="9.53209"><ele>268</ele></trkpt>
<trkpt lat="51.19549" lon="9.53181"><ele>268</ele></trkpt>
<trkpt lat="51.19554" lon="9.53155"><ele>269</ele></trkpt>
<trkpt lat="51.19602" lon="9.53012"><ele>270</ele></trkpt>
<trkpt lat="51.19754" lon="9.52800"><ele>277</ele></trkpt>
<trkpt lat="51.19790" lon="9.52696"><ele>277</ele></trkpt>
<trkpt lat="51.19794" lon="9.52611"><ele>277</ele></trkpt>
<trkpt lat="51.19787" lon="9.52545"><ele>277</ele></trkpt>
<trkpt lat="51.19794" lon="9.52537"><ele>277</ele></trkpt>
<trkpt lat="51.20065" lon="9.52393"><ele>261</ele></trkpt>
<trkpt lat="51.20074" lon="9.52340"><ele>259</ele></trkpt>
<trkpt lat="51.20087" lon="9.52291"><ele>258</ele></trkpt>
<trkpt lat="51.20137" lon="9.52191"><ele>254</ele></trkpt>
<trkpt lat="51.20221" lon="9.52073"><ele>249</ele></trkpt>
<trkpt lat="51.20277" lon="9.52010"><ele>247</ele></trkpt>
<trkpt lat="51.20314" lon="9.51977"><ele>246</ele></trkpt>
<trkpt lat="51.20334" lon="9.51949"><ele>246</ele></trkpt>
<trkpt lat="51.20348" lon="9.51920"><ele>245</ele></trkpt>
<trkpt lat="51.20432" lon="9.51619"><ele>236</ele></trkpt>
<trkpt lat="51.20435" lon="9.51594"><ele>236</ele></trkpt>
<trkpt lat="51.20436" lon="9.51465"><ele>235</ele></trkpt>
<trkpt lat="51.20448" lon="9.51327"><ele>231</ele></trkpt>
<trkpt lat="51.20454" lon="9.51323"><ele>231</ele></trkpt>
<trkpt lat="51.20506" lon="9.51320"><ele>230</ele></trkpt>
<trkpt lat="51.20544" lon="9.51306"><ele>229</ele></trkpt>
<trkpt lat="51.20557" lon="9.51344"><ele>228</ele></trkpt>
<trkpt lat="51.20575" lon="9.51376"><ele>228</ele></trkpt>
<trkpt lat="51.20643" lon="9.51383"><ele>227</ele></trkpt>
<trkpt lat="51.20659" lon="9.51397"><ele>227</ele></trkpt>
<trkpt lat="51.20677" lon="9.51430"><ele>228</ele></trkpt>
<trkpt lat="51.20789" lon="9.51279"><ele>224</ele></trkpt>
<trkpt lat="51.20816" lon="9.51235"><ele>223</ele></trkpt>
<trkpt lat="51.20840" lon="9.51203"><ele>222</ele></trkpt>
<trkpt lat="51.20862" lon="9.51187"><ele>221</ele></trkpt>
<trkpt lat="51.20884" lon="9.51179"><ele>220</ele></trkpt>
<trkpt lat="51.20915" lon="9.51170"><ele>219</ele></trkpt>
<trkpt lat="51.20932" lon="9.51171"><ele>218</ele></trkpt>
<trkpt lat="51.20941" lon="9.51178"><ele>218</ele></trkpt>
<trkpt lat="51.20962" lon="9.51219"><ele>218</ele></trkpt>
<trkpt lat="51.21038" lon="9.51154"><ele>220</ele></trkpt>
<trkpt lat="51.21082" lon="9.51219"><ele>223</ele></trkpt>
<trkpt lat="51.21095" lon="9.51248"><ele>223</ele></trkpt>
<trkpt lat="51.21106" lon="9.51285"><ele>221</ele></trkpt>
<trkpt lat="51.21166" lon="9.51316"><ele>219</ele></trkpt>
<trkpt lat="51.21177" lon="9.51318"><ele>219</ele></trkpt>
<trkpt lat="51.21189" lon="9.51358"><ele>219</ele></trkpt>
<trkpt lat="51.21222" lon="9.51394"><ele>220</ele></trkpt>
<trkpt lat="51.21235" lon="9.51417"><ele>221</ele></trkpt>
<trkpt lat="51.21258" lon="9.51380"><ele>223</ele></trkpt>
<trkpt lat="51.21267" lon="9.51370"><ele>224</ele></trkpt>
<trkpt lat="51.21292" lon="9.51379"><ele>226</ele></trkpt>
<trkpt lat="51.21352" lon="9.51425"><ele>232</ele></trkpt>
<trkpt lat="51.21680" lon="9.51438"><ele>250</ele></trkpt>
<trkpt lat="51.21692" lon="9.51446"><ele>251</ele></trkpt>
<trkpt lat="51.21780" lon="9.51453"><ele>249</ele></trkpt>
<trkpt lat="51.21815" lon="9.51487"><ele>246</ele></trkpt>
<trkpt lat="51.21945" lon="9.51417"><ele>256</ele></trkpt>
<trkpt lat="51.21977" lon="9.51405"><ele>256</ele></trkpt>
<trkpt lat="51.22227" lon="9.51259"><ele>260</ele></trkpt>
<trkpt lat="51.22251" lon="9.51251"><ele>261</ele></trkpt>
<trkpt lat="51.22254" lon="9.51253"><ele>261</ele></trkpt>
<trkpt lat="51.22264" lon="9.51287"><ele>261</ele></trkpt>
<trkpt lat="51.22333" lon="9.51571"><ele>274</ele></trkpt>
<trkpt lat="51.22517" lon="9.51496"><ele>276</ele></trkpt>
<trkpt lat="51.22534" lon="9.51497"><ele>277</ele></trkpt>
<trkpt lat="51.22565" lon="9.51486"><ele>277</ele></trkpt>
<trkpt lat="51.22617" lon="9.51453"><ele>275</ele></trkpt>
<trkpt lat="51.22665" lon="9.51387"><ele>278</ele></trkpt>
<trkpt lat="51.22742" lon="9.51293"><ele>278</ele></trkpt>
<trkpt lat="51.22782" lon="9.51247"><ele>278</ele></trkpt>
<trkpt lat="51.22862" lon="9.51166"><ele>278</ele></trkpt>
<trkpt lat="51.22999" lon="9.51043"><ele>276</ele></trkpt>
<trkpt lat="51.23124" lon="9.50941"><ele>276</ele></trkpt>
<trkpt lat="51.23255" lon="9.50822"><ele>278</ele></trkpt>
<trkpt lat="51.23554" lon="9.50533"><ele>277</ele></trkpt>
<trkpt lat="51.23737" lon="9.50394"><ele>269</ele></trkpt>
<trkpt lat="51.23767" lon="9.50365"><ele>267</ele></trkpt>
<trkpt lat="51.23790" lon="9.50349"><ele>266</ele></trkpt>
<trkpt lat="51.23842" lon="9.50320"><ele>264</ele></trkpt>
<trkpt lat="51.23887" lon="9.50304"><ele>262</ele></trkpt>
<trkpt lat="51.23917" lon="9.50286"><ele>260</ele></trkpt>
<trkpt lat="51.23931" lon="9.50261"><ele>258</ele></trkpt>
<trkpt lat="51.23941" lon="9.50232"><ele>256</ele></trkpt>
<trkpt lat="51.23948" lon="9.50222"><ele>254</ele></trkpt>
<trkpt lat="51.23989" lon="9.50236"><ele>250</ele></trkpt>
<trkpt lat="51.24000" lon="9.50235"><ele>248</ele></trkpt>
<trkpt lat="51.24050" lon="9.50152"><ele>246</ele></trkpt>
<trkpt lat="51.24054" lon="9.50077"><ele>244</ele></trkpt>
<trkpt lat="51.24067" lon="9.50065"><ele>244</ele></trkpt>
<trkpt lat="51.24150" lon="9.50040"><ele>243</ele></trkpt>
<trkpt lat="51.24156" lon="9.50034"><ele>243</ele></trkpt>
<trkpt lat="51.24194" lon="9.50057"><ele>243</ele></trkpt>
<trkpt lat="51.24226" lon="9.50092"><ele>242</ele></trkpt>
<trkpt lat="51.24220" lon="9.50195"><ele>246</ele></trkpt>
<trkpt lat="51.24227" lon="9.50228"><ele>246</ele></trkpt>
<trkpt lat="51.24298" lon="9.50293"><ele>243</ele></trkpt>
<trkpt lat="51.24318" lon="9.50319"><ele>239</ele></trkpt>
<trkpt lat="51.24333" lon="9.50369"><ele>237</ele></trkpt>
<trkpt lat="51.24379" lon="9.50462"><ele>232</ele></trkpt>
<trkpt lat="51.24395" lon="9.50479"><ele>231</ele></trkpt>
<trkpt lat="51.24478" lon="9.50623"><ele>234</ele></trkpt>
<trkpt lat="51.24506" lon="9.50650"><ele>228</ele></trkpt>
<trkpt lat="51.24536" lon="9.50685"><ele>228</ele></trkpt>
<trkpt lat="51.24543" lon="9.50703"><ele>230</ele></trkpt>
<trkpt lat="51.24560" lon="9.50725"><ele>228</ele></trkpt>
<trkpt lat="51.24595" lon="9.50747"><ele>222</ele></trkpt>
<trkpt lat="51.24612" lon="9.50775"><ele>224</ele></trkpt>
<trkpt lat="51.24647" lon="9.50803"><ele>223</ele></trkpt>
<trkpt lat="51.24693" lon="9.50821"><ele>223</ele></trkpt>
<trkpt lat="51.24807" lon="9.50850"><ele>221</ele></trkpt>
<trkpt lat="51.24999" lon="9.50924"><ele>215</ele></trkpt>
<trkpt lat="51.25037" lon="9.50943"><ele>214</ele></trkpt>
<trkpt lat="51.25050" lon="9.50962"><ele>213</ele></trkpt>
<trkpt lat="51.25059" lon="9.50982"><ele>210</ele></trkpt>
<trkpt lat="51.25078" lon="9.51063"><ele>208</ele></trkpt>
<trkpt lat="51.25087" lon="9.51081"><ele>208</ele></trkpt>
<trkpt lat="51.25098" lon="9.51093"><ele>208</ele></trkpt>
<trkpt lat="51.25119" lon="9.51104"><ele>210</ele></trkpt>
<trkpt lat="51.25142" lon="9.51098"><ele>214</ele></trkpt>
<trkpt lat="51.25176" lon="9.51058"><ele>213</ele></trkpt>
<trkpt lat="51.25195" lon="9.51025"><ele>213</ele></trkpt>
<trkpt lat="51.25216" lon="9.51006"><ele>212</ele></trkpt>
<trkpt lat="51.25237" lon="9.51019"><ele>213</ele></trkpt>
<trkpt lat="51.25250" lon="9.51020"><ele>211</ele></trkpt>
<trkpt lat="51.25294" lon="9.50983"><ele>210</ele></trkpt>
<trkpt lat="51.25324" lon="9.50967"><ele>210</ele></trkpt>
<trkpt lat="51.25458" lon="9.50932"><ele>202</ele></trkpt>
<trkpt lat="51.25478" lon="9.50921"><ele>201</ele></trkpt>
<trkpt lat="51.25490" lon="9.50919"><ele>200</ele></trkpt>
<trkpt lat="51.25498" lon="9.50927"><ele>200</ele></trkpt>
<trkpt lat="51.25515" lon="9.50978"><ele>198</ele></trkpt>
<trkpt lat="51.25524" lon="9.50984"><ele>196</ele></trkpt>
<trkpt lat="51.25534" lon="9.50982"><ele>196</ele></trkpt>
<trkpt lat="51.25570" lon="9.50940"><ele>200</ele></trkpt>
<trkpt lat="51.25588" lon="9.50906"><ele>200</ele></trkpt>
<trkpt lat="51.25600" lon="9.50881"><ele>201</ele></trkpt>
<trkpt lat="51.25623" lon="9.50795"><ele>201</ele></trkpt>
<trkpt lat="51.25645" lon="9.50737"><ele>202</ele></trkpt>
<trkpt lat="51.25670" lon="9.50687"><ele>201</ele></trkpt>
<trkpt lat="51.25705" lon="9.50640"><ele>201</ele></trkpt>
<trkpt lat="51.25750" lon="9.50546"><ele>198</ele></trkpt>
<trkpt lat="51.25773" lon="9.50520"><ele>197</ele></trkpt>
<trkpt lat="51.25964" lon="9.50446"><ele>190</ele></trkpt>
<trkpt lat="51.26103" lon="9.50287"><ele>177</ele></trkpt>
<trkpt lat="51.26168" lon="9.50168"><ele>167</ele></trkpt>
<trkpt lat="51.26224" lon="9.50047"><ele>156</ele></trkpt>
<trkpt lat="51.26232" lon="9.50019"><ele>155</ele></trkpt>
<trkpt lat="51.26261" lon="9.49874"><ele>146</ele></trkpt>
<trkpt lat="51.26280" lon="9.49849"><ele>144</ele></trkpt>
<trkpt lat="51.26320" lon="9.49810"><ele>144</ele></trkpt>
<trkpt lat="51.26344" lon="9.49773"><ele>143</ele></trkpt>
<trkpt lat="51.26372" lon="9.49739"><ele>143</ele></trkpt>
<trkpt lat="51.26461" lon="9.49613"><ele>143</ele></trkpt>
<trkpt lat="51.26481" lon="9.49596"><ele>142</ele></trkpt>
<trkpt lat="51.26493" lon="9.49595"><ele>143</ele></trkpt>
<trkpt lat="51.26502" lon="9.49571"><ele>142</ele></trkpt>
<trkpt lat="51.26573" lon="9.49514"><ele>142</ele></trkpt>
<trkpt lat="51.26700" lon="9.49434"><ele>142</ele></trkpt>
<trkpt lat="51.26817" lon="9.49461"><ele>142</ele></trkpt>
<trkpt lat="51.27091" lon="9.49438"><ele>141</ele></trkpt>
<trkpt lat="51.27294" lon="9.49435"><ele>142</ele></trkpt>
<trkpt lat="51.27298" lon="9.49438"><ele>142</ele></trkpt>
<trkpt lat="51.27301" lon="9.49434"><ele>142</ele></trkpt>
<trkpt lat="51.27448" lon="9.49415"><ele>143</ele></trkpt>
<trkpt lat="51.27532" lon="9.49417"><ele>142</ele></trkpt>
<trkpt lat="51.27606" lon="9.49425"><ele>141</ele></trkpt>
<trkpt lat="51.27614" lon="9.49202"><ele>138</ele></trkpt>
<trkpt lat="51.27622" lon="9.49192"><ele>138</ele></trkpt>
<trkpt lat="51.27677" lon="9.49188"><ele>138</ele></trkpt>
<trkpt lat="51.27690" lon="9.49183"><ele>138</ele></trkpt>
<trkpt lat="51.27699" lon="9.49064"><ele>139</ele></trkpt>
<trkpt lat="51.27697" lon="9.49053"><ele>140</ele></trkpt>
<trkpt lat="51.27693" lon="9.49049"><ele>140</ele></trkpt>
<trkpt lat="51.27648" lon="9.49020"><ele>138</ele></trkpt>
<trkpt lat="51.27642" lon="9.49004"><ele>139</ele></trkpt>
<trkpt lat="51.27627" lon="9.48985"><ele>139</ele></trkpt>
<trkpt lat="51.27621" lon="9.48968"><ele>140</ele></trkpt>
<trkpt lat="51.27619" lon="9.48925"><ele>141</ele></trkpt>
<trkpt lat="51.27622" lon="9.48910"><ele>141</ele></trkpt>
<trkpt lat="51.27813" lon="9.48901"><ele>140</ele></trkpt>
<trkpt lat="51.28145" lon="9.48874"><ele>140</ele></trkpt>
<trkpt lat="51.28201" lon="9.48855"><ele>140</ele></trkpt>
<trkpt lat="51.28297" lon="9.48793"><ele>139</ele></trkpt>
<trkpt lat="51.28333" lon="9.48783"><ele>139</ele></trkpt>
<trkpt lat="51.28397" lon="9.48773"><ele>139</ele></trkpt>
<trkpt lat="51.28433" lon="9.48774"><ele>139</ele></trkpt>
<trkpt lat="51.28580" lon="9.48802"><ele>139</ele></trkpt>
<trkpt lat="51.28656" lon="9.48798"><ele>139</ele></trkpt>
<trkpt lat="51.28706" lon="9.48805"><ele>139</ele></trkpt>
<trkpt lat="51.28740" lon="9.48800"><ele>139</ele></trkpt>
<trkpt lat="51.29021" lon="9.48736"><ele>139</ele></trkpt>
<trkpt lat="51.29194" lon="9.48730"><ele>140</ele></trkpt>
<trkpt lat="51.29212" lon="9.48715"><ele>140</ele></trkpt>
<trkpt lat="51.29225" lon="9.48693"><ele>141</ele></trkpt>
<trkpt lat="51.29251" lon="9.48715"><ele>140</ele></trkpt>
<trkpt lat="51.29305" lon="9.48738"><ele>140</ele></trkpt>
<trkpt lat="51.29322" lon="9.48759"><ele>140</ele></trkpt>
<trkpt lat="51.29325" lon="9.48776"><ele>140</ele></trkpt>
<trkpt lat="51.29334" lon="9.48781"><ele>141</ele></trkpt>
<trkpt lat="51.29342" lon="9.48773"><ele>141</ele></trkpt>
<trkpt lat="51.29344" lon="9.48765"><ele>141</ele></trkpt>
<trkpt lat="51.29343" lon="9.48754"><ele>141</ele></trkpt>
<trkpt lat="51.29335" lon="9.48745"><ele>141</ele></trkpt>
<trkpt lat="51.29351" lon="9.48732"><ele>141</ele></trkpt>
<trkpt lat="51.29364" lon="9.48703"><ele>141</ele></trkpt>
<trkpt lat="51.29401" lon="9.48585"><ele>142</ele></trkpt>
<trkpt lat="51.29413" lon="9.48553"><ele>142</ele></trkpt>
<trkpt lat="51.29452" lon="9.48484"><ele>142</ele></trkpt>
<trkpt lat="51.29501" lon="9.48425"><ele>142</ele></trkpt>
<trkpt lat="51.29623" lon="9.48318"><ele>143</ele></trkpt>
<trkpt lat="51.29635" lon="9.48376"><ele>143</ele></trkpt>
<trkpt lat="51.29641" lon="9.48387"><ele>143</ele></trkpt>
<trkpt lat="51.29650" lon="9.48389"><ele>143</ele></trkpt>
<trkpt lat="51.29874" lon="9.48262"><ele>142</ele></trkpt>
<trkpt lat="51.29877" lon="9.48235"><ele>142</ele></trkpt>
<trkpt lat="51.29888" lon="9.48244"><ele>142</ele></trkpt>
<trkpt lat="51.29990" lon="9.48296"><ele>143</ele></trkpt>
<trkpt lat="51.29989" lon="9.48312"><ele>143</ele></trkpt>
<trkpt lat="51.29998" lon="9.48329"><ele>142</ele></trkpt>
<trkpt lat="51.30118" lon="9.48393"><ele>142</ele></trkpt>
<trkpt lat="51.30175" lon="9.48435"><ele>142</ele></trkpt>
<trkpt lat="51.30215" lon="9.48472"><ele>142</ele></trkpt>
<trkpt lat="51.30333" lon="9.48600"><ele>141</ele></trkpt>
<trkpt lat="51.30350" lon="9.48626"><ele>140</ele></trkpt>
<trkpt lat="51.30462" lon="9.48824"><ele>141</ele></trkpt>
<trkpt lat="51.30532" lon="9.48935"><ele>141</ele></trkpt>
<trkpt lat="51.30591" lon="9.48986"><ele>140</ele></trkpt>
<trkpt lat="51.30641" lon="9.49004"><ele>140</ele></trkpt>
<trkpt lat="51.30674" lon="9.48999"><ele>140</ele></trkpt>
<trkpt lat="51.30708" lon="9.48989"><ele>140</ele></trkpt>
<trkpt lat="51.30709" lon="9.48914"><ele>140</ele></trkpt>
<trkpt lat="51.30717" lon="9.48917"><ele>140</ele></trkpt>
<trkpt lat="51.30734" lon="9.48913"><ele>141</ele></trkpt>
<trkpt lat="51.30754" lon="9.48898"><ele>143</ele></trkpt>
<trkpt lat="51.30776" lon="9.48852"><ele>143</ele></trkpt>
<trkpt lat="51.30802" lon="9.48783"><ele>144</ele></trkpt>
<trkpt lat="51.30809" lon="9.48751"><ele>144</ele></trkpt>
<trkpt lat="51.30823" lon="9.48629"><ele>144</ele></trkpt>
<trkpt lat="51.30862" lon="9.48412"><ele>146</ele></trkpt>
<trkpt lat="51.30893" lon="9.48275"><ele>148</ele></trkpt>
<trkpt lat="51.30895" lon="9.48213"><ele>147</ele></trkpt>
<trkpt lat="51.30886" lon="9.48118"><ele>147</ele></trkpt>
<trkpt lat="51.30886" lon="9.48070"><ele>147</ele></trkpt>
<trkpt lat="51.30917" lon="9.47949"><ele>149</ele></trkpt>
<trkpt lat="51.30930" lon="9.47876"><ele>150</ele></trkpt>
<trkpt lat="51.30945" lon="9.47856"><ele>152</ele></trkpt>
<trkpt lat="51.31005" lon="9.47823"><ele>156</ele></trkpt>
<trkpt lat="51.31021" lon="9.47537"><ele>162</ele></trkpt>
<trkpt lat="51.31186" lon="9.47609"><ele>169</ele></trkpt>
<trkpt lat="51.31224" lon="9.47618"><ele>169</ele></trkpt>
<trkpt lat="51.31258" lon="9.47767"><ele>170</ele></trkpt>
<trkpt lat="51.31274" lon="9.47823"><ele>171</ele></trkpt>
<trkpt lat="51.31328" lon="9.47962"><ele>172</ele></trkpt>
<trkpt lat="51.31270" lon="9.47975"><ele>171</ele></trkpt>
    </trkseg>
  </trk>
</gpx>
