<?xml version="1.0" encoding="UTF-8"?>
<gpx version="1.1" creator="Gravel Kompass" xmlns="http://www.topografix.com/GPX/1/1">
  <metadata><name>Seenplatten-Runde: Müritz, Mecklenburgische Schweiz &amp; Heide – Etappe 4</name></metadata>
  <trk>
    <name>Etappe 4: Krakow am See – Röbel/Müritz</name>
    <trkseg>
      <trkpt lat="53.653040" lon="12.270153"><ele>50.0</ele></trkpt>
      <trkpt lat="53.653718" lon="12.269653"><ele>50.0</ele></trkpt>
      <trkpt lat="53.653742" lon="12.268994"><ele>51.0</ele></trkpt>
      <trkpt lat="53.653767" lon="12.268445"><ele>51.0</ele></trkpt>
      <trkpt lat="53.653779" lon="12.268175"><ele>51.0</ele></trkpt>
      <trkpt lat="53.653781" lon="12.268138"><ele>51.0</ele></trkpt>
      <trkpt lat="53.653793" lon="12.268001"><ele>51.0</ele></trkpt>
      <trkpt lat="53.653819" lon="12.267847"><ele>51.2</ele></trkpt>
      <trkpt lat="53.653836" lon="12.267773"><ele>51.5</ele></trkpt>
      <trkpt lat="53.653935" lon="12.267345"><ele>51.8</ele></trkpt>
      <trkpt lat="53.654027" lon="12.267009"><ele>51.5</ele></trkpt>
      <trkpt lat="53.654210" lon="12.266483"><ele>51.8</ele></trkpt>
      <trkpt lat="53.654223" lon="12.266448"><ele>51.8</ele></trkpt>
      <trkpt lat="53.654435" lon="12.265842"><ele>52.8</ele></trkpt>
      <trkpt lat="53.654616" lon="12.265273"><ele>53.5</ele></trkpt>
      <trkpt lat="53.654700" lon="12.264959"><ele>54.0</ele></trkpt>
      <trkpt lat="53.653442" lon="12.264197"><ele>53.2</ele></trkpt>
      <trkpt lat="53.653350" lon="12.264142"><ele>53.0</ele></trkpt>
      <trkpt lat="53.652815" lon="12.263818"><ele>52.0</ele></trkpt>
      <trkpt lat="53.652780" lon="12.263796"><ele>52.0</ele></trkpt>
      <trkpt lat="53.652654" lon="12.263732"><ele>52.2</ele></trkpt>
      <trkpt lat="53.652471" lon="12.263638"><ele>52.8</ele></trkpt>
      <trkpt lat="53.652311" lon="12.263535"><ele>53.2</ele></trkpt>
      <trkpt lat="53.652093" lon="12.263332"><ele>55.0</ele></trkpt>
      <trkpt lat="53.651903" lon="12.263125"><ele>55.5</ele></trkpt>
      <trkpt lat="53.651829" lon="12.263031"><ele>56.0</ele></trkpt>
      <trkpt lat="53.651786" lon="12.262933"><ele>56.5</ele></trkpt>
      <trkpt lat="53.651761" lon="12.262877"><ele>57.0</ele></trkpt>
      <trkpt lat="53.651551" lon="12.262278"><ele>58.8</ele></trkpt>
      <trkpt lat="53.651467" lon="12.262032"><ele>59.2</ele></trkpt>
      <trkpt lat="53.651245" lon="12.261398"><ele>59.8</ele></trkpt>
      <trkpt lat="53.651197" lon="12.261197"><ele>60.2</ele></trkpt>
      <trkpt lat="53.650985" lon="12.260110"><ele>59.0</ele></trkpt>
      <trkpt lat="53.650676" lon="12.258800"><ele>55.8</ele></trkpt>
      <trkpt lat="53.650547" lon="12.258281"><ele>54.8</ele></trkpt>
      <trkpt lat="53.650394" lon="12.257650"><ele>54.0</ele></trkpt>
      <trkpt lat="53.650261" lon="12.257033"><ele>54.8</ele></trkpt>
      <trkpt lat="53.650204" lon="12.256690"><ele>55.2</ele></trkpt>
      <trkpt lat="53.650162" lon="12.256332"><ele>55.5</ele></trkpt>
      <trkpt lat="53.650143" lon="12.256047"><ele>55.5</ele></trkpt>
      <trkpt lat="53.650142" lon="12.255632"><ele>56.2</ele></trkpt>
      <trkpt lat="53.650162" lon="12.255228"><ele>56.5</ele></trkpt>
      <trkpt lat="53.650173" lon="12.255103"><ele>56.8</ele></trkpt>
      <trkpt lat="53.650226" lon="12.254498"><ele>58.0</ele></trkpt>
      <trkpt lat="53.650429" lon="12.252120"><ele>63.2</ele></trkpt>
      <trkpt lat="53.650467" lon="12.251362"><ele>67.0</ele></trkpt>
      <trkpt lat="53.650451" lon="12.250848"><ele>68.5</ele></trkpt>
      <trkpt lat="53.650397" lon="12.250540"><ele>68.5</ele></trkpt>
      <trkpt lat="53.650372" lon="12.250441"><ele>68.5</ele></trkpt>
      <trkpt lat="53.650228" lon="12.249967"><ele>70.0</ele></trkpt>
      <trkpt lat="53.649903" lon="12.249293"><ele>70.0</ele></trkpt>
      <trkpt lat="53.649247" lon="12.248007"><ele>74.8</ele></trkpt>
      <trkpt lat="53.648855" lon="12.247245"><ele>74.5</ele></trkpt>
      <trkpt lat="53.648593" lon="12.246512"><ele>74.2</ele></trkpt>
      <trkpt lat="53.648434" lon="12.245822"><ele>74.5</ele></trkpt>
      <trkpt lat="53.648370" lon="12.245107"><ele>75.2</ele></trkpt>
      <trkpt lat="53.648354" lon="12.244834"><ele>75.8</ele></trkpt>
      <trkpt lat="53.648328" lon="12.244412"><ele>75.0</ele></trkpt>
      <trkpt lat="53.648337" lon="12.243838"><ele>74.8</ele></trkpt>
      <trkpt lat="53.648367" lon="12.243218"><ele>73.8</ele></trkpt>
      <trkpt lat="53.648388" lon="12.242547"><ele>72.5</ele></trkpt>
      <trkpt lat="53.648391" lon="12.240720"><ele>68.0</ele></trkpt>
      <trkpt lat="53.648331" lon="12.239961"><ele>65.8</ele></trkpt>
      <trkpt lat="53.648193" lon="12.239249"><ele>63.0</ele></trkpt>
      <trkpt lat="53.648116" lon="12.238856"><ele>61.8</ele></trkpt>
      <trkpt lat="53.648038" lon="12.238523"><ele>61.0</ele></trkpt>
      <trkpt lat="53.647935" lon="12.238083"><ele>61.0</ele></trkpt>
      <trkpt lat="53.647864" lon="12.237470"><ele>59.5</ele></trkpt>
      <trkpt lat="53.647840" lon="12.236888"><ele>58.5</ele></trkpt>
      <trkpt lat="53.647852" lon="12.236445"><ele>58.0</ele></trkpt>
      <trkpt lat="53.647851" lon="12.236307"><ele>57.8</ele></trkpt>
      <trkpt lat="53.647845" lon="12.235532"><ele>57.0</ele></trkpt>
      <trkpt lat="53.647766" lon="12.234075"><ele>55.8</ele></trkpt>
      <trkpt lat="53.647733" lon="12.233128"><ele>55.8</ele></trkpt>
      <trkpt lat="53.647639" lon="12.232307"><ele>55.2</ele></trkpt>
      <trkpt lat="53.647509" lon="12.231811"><ele>55.8</ele></trkpt>
      <trkpt lat="53.647342" lon="12.231504"><ele>56.0</ele></trkpt>
      <trkpt lat="53.647067" lon="12.231166"><ele>56.5</ele></trkpt>
      <trkpt lat="53.646629" lon="12.230636"><ele>59.0</ele></trkpt>
      <trkpt lat="53.646051" lon="12.229956"><ele>60.8</ele></trkpt>
      <trkpt lat="53.645359" lon="12.229369"><ele>58.8</ele></trkpt>
      <trkpt lat="53.644839" lon="12.229068"><ele>58.0</ele></trkpt>
      <trkpt lat="53.644134" lon="12.228699"><ele>57.0</ele></trkpt>
      <trkpt lat="53.643853" lon="12.228570"><ele>56.0</ele></trkpt>
      <trkpt lat="53.643687" lon="12.228388"><ele>56.0</ele></trkpt>
      <trkpt lat="53.643669" lon="12.228355"><ele>56.0</ele></trkpt>
      <trkpt lat="53.643560" lon="12.228157"><ele>56.2</ele></trkpt>
      <trkpt lat="53.643401" lon="12.227782"><ele>56.8</ele></trkpt>
      <trkpt lat="53.643265" lon="12.227331"><ele>58.8</ele></trkpt>
      <trkpt lat="53.643169" lon="12.227016"><ele>60.2</ele></trkpt>
      <trkpt lat="53.643053" lon="12.226279"><ele>62.0</ele></trkpt>
      <trkpt lat="53.642606" lon="12.223169"><ele>69.8</ele></trkpt>
      <trkpt lat="53.642228" lon="12.220615"><ele>69.0</ele></trkpt>
      <trkpt lat="53.642037" lon="12.219242"><ele>68.0</ele></trkpt>
      <trkpt lat="53.639206" lon="12.199735"><ele>72.0</ele></trkpt>
      <trkpt lat="53.638953" lon="12.198476"><ele>72.0</ele></trkpt>
      <trkpt lat="53.638790" lon="12.197670"><ele>73.0</ele></trkpt>
      <trkpt lat="53.637839" lon="12.193750"><ele>75.0</ele></trkpt>
      <trkpt lat="53.634751" lon="12.194585"><ele>75.0</ele></trkpt>
      <trkpt lat="53.632467" lon="12.195116"><ele>75.0</ele></trkpt>
      <trkpt lat="53.630291" lon="12.195653"><ele>74.0</ele></trkpt>
      <trkpt lat="53.629492" lon="12.195841"><ele>74.0</ele></trkpt>
      <trkpt lat="53.626970" lon="12.196436"><ele>73.0</ele></trkpt>
      <trkpt lat="53.624670" lon="12.197072"><ele>72.2</ele></trkpt>
      <trkpt lat="53.623114" lon="12.197498"><ele>72.0</ele></trkpt>
      <trkpt lat="53.622745" lon="12.197949"><ele>72.0</ele></trkpt>
      <trkpt lat="53.618577" lon="12.197530"><ele>71.0</ele></trkpt>
      <trkpt lat="53.617260" lon="12.197412"><ele>70.0</ele></trkpt>
      <trkpt lat="53.616696" lon="12.197384"><ele>70.0</ele></trkpt>
      <trkpt lat="53.616723" lon="12.197262"><ele>70.0</ele></trkpt>
      <trkpt lat="53.616741" lon="12.197183"><ele>70.0</ele></trkpt>
      <trkpt lat="53.616780" lon="12.196914"><ele>70.0</ele></trkpt>
      <trkpt lat="53.617226" lon="12.191183"><ele>71.0</ele></trkpt>
      <trkpt lat="53.616735" lon="12.191160"><ele>70.8</ele></trkpt>
      <trkpt lat="53.616653" lon="12.191124"><ele>71.0</ele></trkpt>
      <trkpt lat="53.616574" lon="12.191076"><ele>71.0</ele></trkpt>
      <trkpt lat="53.616539" lon="12.191035"><ele>71.0</ele></trkpt>
      <trkpt lat="53.616466" lon="12.190933"><ele>71.0</ele></trkpt>
      <trkpt lat="53.616364" lon="12.190744"><ele>71.0</ele></trkpt>
      <trkpt lat="53.616315" lon="12.190605"><ele>71.0</ele></trkpt>
      <trkpt lat="53.616263" lon="12.190381"><ele>71.0</ele></trkpt>
      <trkpt lat="53.616185" lon="12.190124"><ele>71.0</ele></trkpt>
      <trkpt lat="53.616115" lon="12.189942"><ele>71.0</ele></trkpt>
      <trkpt lat="53.616046" lon="12.189852"><ele>71.0</ele></trkpt>
      <trkpt lat="53.615969" lon="12.189803"><ele>71.0</ele></trkpt>
      <trkpt lat="53.615356" lon="12.189507"><ele>70.0</ele></trkpt>
      <trkpt lat="53.613240" lon="12.188450"><ele>69.8</ele></trkpt>
      <trkpt lat="53.613222" lon="12.188554"><ele>69.8</ele></trkpt>
      <trkpt lat="53.612759" lon="12.188267"><ele>69.0</ele></trkpt>
      <trkpt lat="53.611983" lon="12.187952"><ele>69.0</ele></trkpt>
      <trkpt lat="53.611596" lon="12.187901"><ele>69.0</ele></trkpt>
      <trkpt lat="53.610810" lon="12.187660"><ele>69.0</ele></trkpt>
      <trkpt lat="53.609602" lon="12.187232"><ele>68.0</ele></trkpt>
      <trkpt lat="53.609594" lon="12.186422"><ele>68.0</ele></trkpt>
      <trkpt lat="53.609561" lon="12.185592"><ele>68.0</ele></trkpt>
      <trkpt lat="53.609451" lon="12.183976"><ele>68.0</ele></trkpt>
      <trkpt lat="53.608784" lon="12.184084"><ele>68.0</ele></trkpt>
      <trkpt lat="53.607766" lon="12.184063"><ele>67.0</ele></trkpt>
      <trkpt lat="53.606663" lon="12.183944"><ele>67.0</ele></trkpt>
      <trkpt lat="53.606179" lon="12.184351"><ele>67.0</ele></trkpt>
      <trkpt lat="53.604818" lon="12.184648"><ele>65.0</ele></trkpt>
      <trkpt lat="53.604014" lon="12.184212"><ele>65.0</ele></trkpt>
      <trkpt lat="53.603409" lon="12.183660"><ele>64.0</ele></trkpt>
      <trkpt lat="53.602380" lon="12.183471"><ele>63.0</ele></trkpt>
      <trkpt lat="53.600889" lon="12.186680"><ele>61.8</ele></trkpt>
      <trkpt lat="53.600514" lon="12.187523"><ele>63.0</ele></trkpt>
      <trkpt lat="53.599424" lon="12.189973"><ele>64.0</ele></trkpt>
      <trkpt lat="53.597259" lon="12.194758"><ele>64.0</ele></trkpt>
      <trkpt lat="53.596279" lon="12.196593"><ele>60.2</ele></trkpt>
      <trkpt lat="53.595690" lon="12.197986"><ele>58.2</ele></trkpt>
      <trkpt lat="53.595426" lon="12.198610"><ele>58.0</ele></trkpt>
      <trkpt lat="53.595302" lon="12.198920"><ele>56.8</ele></trkpt>
      <trkpt lat="53.595136" lon="12.199246"><ele>56.2</ele></trkpt>
      <trkpt lat="53.594937" lon="12.199574"><ele>56.0</ele></trkpt>
      <trkpt lat="53.594618" lon="12.200136"><ele>55.8</ele></trkpt>
      <trkpt lat="53.593905" lon="12.200517"><ele>56.0</ele></trkpt>
      <trkpt lat="53.593713" lon="12.200765"><ele>55.0</ele></trkpt>
      <trkpt lat="53.592995" lon="12.200774"><ele>56.2</ele></trkpt>
      <trkpt lat="53.592660" lon="12.201039"><ele>56.2</ele></trkpt>
      <trkpt lat="53.592149" lon="12.201962"><ele>56.8</ele></trkpt>
      <trkpt lat="53.591982" lon="12.202265"><ele>56.8</ele></trkpt>
      <trkpt lat="53.591588" lon="12.202530"><ele>55.5</ele></trkpt>
      <trkpt lat="53.591337" lon="12.202945"><ele>53.0</ele></trkpt>
      <trkpt lat="53.591190" lon="12.203392"><ele>52.5</ele></trkpt>
      <trkpt lat="53.591072" lon="12.203914"><ele>53.2</ele></trkpt>
      <trkpt lat="53.591137" lon="12.204551"><ele>55.8</ele></trkpt>
      <trkpt lat="53.591152" lon="12.204693"><ele>55.8</ele></trkpt>
      <trkpt lat="53.591127" lon="12.205067"><ele>56.8</ele></trkpt>
      <trkpt lat="53.591189" lon="12.205375"><ele>56.8</ele></trkpt>
      <trkpt lat="53.591153" lon="12.205689"><ele>56.8</ele></trkpt>
      <trkpt lat="53.591029" lon="12.205822"><ele>57.0</ele></trkpt>
      <trkpt lat="53.590979" lon="12.206699"><ele>56.2</ele></trkpt>
      <trkpt lat="53.590738" lon="12.208236"><ele>56.0</ele></trkpt>
      <trkpt lat="53.590211" lon="12.209615"><ele>55.2</ele></trkpt>
      <trkpt lat="53.589237" lon="12.210899"><ele>55.2</ele></trkpt>
      <trkpt lat="53.589183" lon="12.211206"><ele>54.8</ele></trkpt>
      <trkpt lat="53.588800" lon="12.211918"><ele>55.2</ele></trkpt>
      <trkpt lat="53.588345" lon="12.212158"><ele>55.8</ele></trkpt>
      <trkpt lat="53.587879" lon="12.212151"><ele>56.0</ele></trkpt>
      <trkpt lat="53.586943" lon="12.213689"><ele>55.0</ele></trkpt>
      <trkpt lat="53.586883" lon="12.213787"><ele>55.0</ele></trkpt>
      <trkpt lat="53.586794" lon="12.213983"><ele>54.8</ele></trkpt>
      <trkpt lat="53.586701" lon="12.214244"><ele>54.5</ele></trkpt>
      <trkpt lat="53.586582" lon="12.214616"><ele>54.2</ele></trkpt>
      <trkpt lat="53.586547" lon="12.214769"><ele>54.2</ele></trkpt>
      <trkpt lat="53.586509" lon="12.214895"><ele>54.0</ele></trkpt>
      <trkpt lat="53.586485" lon="12.214925"><ele>54.0</ele></trkpt>
      <trkpt lat="53.586354" lon="12.215416"><ele>54.0</ele></trkpt>
      <trkpt lat="53.586137" lon="12.216052"><ele>55.0</ele></trkpt>
      <trkpt lat="53.583413" lon="12.216354"><ele>55.0</ele></trkpt>
      <trkpt lat="53.582827" lon="12.216955"><ele>53.0</ele></trkpt>
      <trkpt lat="53.581236" lon="12.217370"><ele>53.0</ele></trkpt>
      <trkpt lat="53.581066" lon="12.217378"><ele>52.8</ele></trkpt>
      <trkpt lat="53.580655" lon="12.216803"><ele>52.0</ele></trkpt>
      <trkpt lat="53.580531" lon="12.216616"><ele>52.0</ele></trkpt>
      <trkpt lat="53.580325" lon="12.216542"><ele>52.0</ele></trkpt>
      <trkpt lat="53.580235" lon="12.216394"><ele>52.0</ele></trkpt>
      <trkpt lat="53.579902" lon="12.217429"><ele>53.2</ele></trkpt>
      <trkpt lat="53.579506" lon="12.218659"><ele>53.8</ele></trkpt>
      <trkpt lat="53.579292" lon="12.219324"><ele>55.0</ele></trkpt>
      <trkpt lat="53.579131" lon="12.219522"><ele>56.0</ele></trkpt>
      <trkpt lat="53.578719" lon="12.220066"><ele>59.0</ele></trkpt>
      <trkpt lat="53.577896" lon="12.222867"><ele>64.0</ele></trkpt>
      <trkpt lat="53.577424" lon="12.224411"><ele>65.0</ele></trkpt>
      <trkpt lat="53.577168" lon="12.225234"><ele>65.0</ele></trkpt>
      <trkpt lat="53.576420" lon="12.227643"><ele>65.0</ele></trkpt>
      <trkpt lat="53.575381" lon="12.230901"><ele>65.0</ele></trkpt>
      <trkpt lat="53.574613" lon="12.234484"><ele>62.5</ele></trkpt>
      <trkpt lat="53.574239" lon="12.236639"><ele>58.8</ele></trkpt>
      <trkpt lat="53.574229" lon="12.237479"><ele>58.5</ele></trkpt>
      <trkpt lat="53.574200" lon="12.240311"><ele>59.0</ele></trkpt>
      <trkpt lat="53.574186" lon="12.242193"><ele>59.0</ele></trkpt>
      <trkpt lat="53.574151" lon="12.243146"><ele>59.8</ele></trkpt>
      <trkpt lat="53.574092" lon="12.245913"><ele>61.0</ele></trkpt>
      <trkpt lat="53.573642" lon="12.245814"><ele>60.0</ele></trkpt>
      <trkpt lat="53.573294" lon="12.245757"><ele>58.8</ele></trkpt>
      <trkpt lat="53.572895" lon="12.245563"><ele>57.2</ele></trkpt>
      <trkpt lat="53.572517" lon="12.245542"><ele>53.0</ele></trkpt>
      <trkpt lat="53.572147" lon="12.245522"><ele>50.5</ele></trkpt>
      <trkpt lat="53.571089" lon="12.245280"><ele>51.0</ele></trkpt>
      <trkpt lat="53.570394" lon="12.245277"><ele>52.0</ele></trkpt>
      <trkpt lat="53.570331" lon="12.245476"><ele>52.0</ele></trkpt>
      <trkpt lat="53.570260" lon="12.245518"><ele>52.0</ele></trkpt>
      <trkpt lat="53.570192" lon="12.245532"><ele>52.0</ele></trkpt>
      <trkpt lat="53.570134" lon="12.245495"><ele>52.0</ele></trkpt>
      <trkpt lat="53.569807" lon="12.245347"><ele>52.0</ele></trkpt>
      <trkpt lat="53.569588" lon="12.245192"><ele>52.0</ele></trkpt>
      <trkpt lat="53.569393" lon="12.245136"><ele>52.0</ele></trkpt>
      <trkpt lat="53.569011" lon="12.245117"><ele>52.0</ele></trkpt>
      <trkpt lat="53.568796" lon="12.245093"><ele>52.0</ele></trkpt>
      <trkpt lat="53.567592" lon="12.244865"><ele>50.0</ele></trkpt>
      <trkpt lat="53.567262" lon="12.244693"><ele>49.0</ele></trkpt>
      <trkpt lat="53.567107" lon="12.244559"><ele>49.2</ele></trkpt>
      <trkpt lat="53.566967" lon="12.244447"><ele>49.8</ele></trkpt>
      <trkpt lat="53.566491" lon="12.244197"><ele>50.0</ele></trkpt>
      <trkpt lat="53.565618" lon="12.242087"><ele>53.0</ele></trkpt>
      <trkpt lat="53.565242" lon="12.241180"><ele>53.0</ele></trkpt>
      <trkpt lat="53.564143" lon="12.238385"><ele>52.0</ele></trkpt>
      <trkpt lat="53.563679" lon="12.237290"><ele>52.0</ele></trkpt>
      <trkpt lat="53.563439" lon="12.236724"><ele>52.0</ele></trkpt>
      <trkpt lat="53.560432" lon="12.230227"><ele>55.0</ele></trkpt>
      <trkpt lat="53.560198" lon="12.229681"><ele>56.0</ele></trkpt>
      <trkpt lat="53.560038" lon="12.229209"><ele>56.0</ele></trkpt>
      <trkpt lat="53.559575" lon="12.228986"><ele>55.2</ele></trkpt>
      <trkpt lat="53.558734" lon="12.228554"><ele>55.0</ele></trkpt>
      <trkpt lat="53.557299" lon="12.227858"><ele>54.2</ele></trkpt>
      <trkpt lat="53.556112" lon="12.227245"><ele>53.0</ele></trkpt>
      <trkpt lat="53.555915" lon="12.227156"><ele>53.0</ele></trkpt>
      <trkpt lat="53.555811" lon="12.227173"><ele>53.0</ele></trkpt>
      <trkpt lat="53.555665" lon="12.227268"><ele>53.0</ele></trkpt>
      <trkpt lat="53.555510" lon="12.227732"><ele>53.0</ele></trkpt>
      <trkpt lat="53.555419" lon="12.227716"><ele>53.0</ele></trkpt>
      <trkpt lat="53.554968" lon="12.227488"><ele>53.0</ele></trkpt>
      <trkpt lat="53.554453" lon="12.227263"><ele>53.0</ele></trkpt>
      <trkpt lat="53.552391" lon="12.226287"><ele>53.0</ele></trkpt>
      <trkpt lat="53.552106" lon="12.226282"><ele>53.0</ele></trkpt>
      <trkpt lat="53.551257" lon="12.226496"><ele>53.0</ele></trkpt>
      <trkpt lat="53.550440" lon="12.226674"><ele>54.0</ele></trkpt>
      <trkpt lat="53.550109" lon="12.226639"><ele>54.5</ele></trkpt>
      <trkpt lat="53.549766" lon="12.226352"><ele>55.0</ele></trkpt>
      <trkpt lat="53.549294" lon="12.225836"><ele>55.8</ele></trkpt>
      <trkpt lat="53.549154" lon="12.225639"><ele>56.0</ele></trkpt>
      <trkpt lat="53.549315" lon="12.224843"><ele>56.0</ele></trkpt>
      <trkpt lat="53.549260" lon="12.224686"><ele>56.0</ele></trkpt>
      <trkpt lat="53.549232" lon="12.224693"><ele>56.0</ele></trkpt>
      <trkpt lat="53.549047" lon="12.224692"><ele>56.0</ele></trkpt>
      <trkpt lat="53.548704" lon="12.224650"><ele>56.5</ele></trkpt>
      <trkpt lat="53.548471" lon="12.224608"><ele>57.0</ele></trkpt>
      <trkpt lat="53.548065" lon="12.224488"><ele>57.0</ele></trkpt>
      <trkpt lat="53.547421" lon="12.224566"><ele>57.0</ele></trkpt>
      <trkpt lat="53.547392" lon="12.225734"><ele>57.5</ele></trkpt>
      <trkpt lat="53.547503" lon="12.229950"><ele>52.0</ele></trkpt>
      <trkpt lat="53.547483" lon="12.230237"><ele>52.0</ele></trkpt>
      <trkpt lat="53.547421" lon="12.230535"><ele>52.0</ele></trkpt>
      <trkpt lat="53.547411" lon="12.230685"><ele>52.0</ele></trkpt>
      <trkpt lat="53.547414" lon="12.231043"><ele>52.0</ele></trkpt>
      <trkpt lat="53.547455" lon="12.231259"><ele>52.0</ele></trkpt>
      <trkpt lat="53.547464" lon="12.231495"><ele>52.0</ele></trkpt>
      <trkpt lat="53.547375" lon="12.232589"><ele>52.5</ele></trkpt>
      <trkpt lat="53.547044" lon="12.233941"><ele>53.5</ele></trkpt>
      <trkpt lat="53.546699" lon="12.234885"><ele>54.8</ele></trkpt>
      <trkpt lat="53.546472" lon="12.235731"><ele>55.0</ele></trkpt>
      <trkpt lat="53.546017" lon="12.236397"><ele>56.0</ele></trkpt>
      <trkpt lat="53.544526" lon="12.238515"><ele>63.2</ele></trkpt>
      <trkpt lat="53.543030" lon="12.240593"><ele>74.0</ele></trkpt>
      <trkpt lat="53.542482" lon="12.241537"><ele>75.0</ele></trkpt>
      <trkpt lat="53.542010" lon="12.242750"><ele>73.0</ele></trkpt>
      <trkpt lat="53.541057" lon="12.245410"><ele>66.8</ele></trkpt>
      <trkpt lat="53.540856" lon="12.246043"><ele>66.8</ele></trkpt>
      <trkpt lat="53.540792" lon="12.246279"><ele>67.0</ele></trkpt>
      <trkpt lat="53.540601" lon="12.247181"><ele>67.0</ele></trkpt>
      <trkpt lat="53.540299" lon="12.249749"><ele>68.8</ele></trkpt>
      <trkpt lat="53.540219" lon="12.250315"><ele>69.0</ele></trkpt>
      <trkpt lat="53.540126" lon="12.250858"><ele>68.2</ele></trkpt>
      <trkpt lat="53.539933" lon="12.251637"><ele>67.2</ele></trkpt>
      <trkpt lat="53.539756" lon="12.252238"><ele>67.0</ele></trkpt>
      <trkpt lat="53.539546" lon="12.252819"><ele>67.5</ele></trkpt>
      <trkpt lat="53.539445" lon="12.253072"><ele>67.8</ele></trkpt>
      <trkpt lat="53.538922" lon="12.254277"><ele>69.0</ele></trkpt>
      <trkpt lat="53.537919" lon="12.256470"><ele>70.0</ele></trkpt>
      <trkpt lat="53.537731" lon="12.256935"><ele>70.0</ele></trkpt>
      <trkpt lat="53.537432" lon="12.257609"><ele>70.0</ele></trkpt>
      <trkpt lat="53.537675" lon="12.258523"><ele>70.0</ele></trkpt>
      <trkpt lat="53.537725" lon="12.258825"><ele>70.0</ele></trkpt>
      <trkpt lat="53.537737" lon="12.258927"><ele>70.0</ele></trkpt>
      <trkpt lat="53.537830" lon="12.259808"><ele>70.2</ele></trkpt>
      <trkpt lat="53.537926" lon="12.260708"><ele>71.0</ele></trkpt>
      <trkpt lat="53.537962" lon="12.260983"><ele>71.0</ele></trkpt>
      <trkpt lat="53.538009" lon="12.261215"><ele>71.2</ele></trkpt>
      <trkpt lat="53.538050" lon="12.261360"><ele>71.8</ele></trkpt>
      <trkpt lat="53.538259" lon="12.261923"><ele>71.8</ele></trkpt>
      <trkpt lat="53.538298" lon="12.262027"><ele>72.0</ele></trkpt>
      <trkpt lat="53.538299" lon="12.262029"><ele>72.0</ele></trkpt>
      <trkpt lat="53.538298" lon="12.262027"><ele>72.0</ele></trkpt>
      <trkpt lat="53.538259" lon="12.261923"><ele>71.8</ele></trkpt>
      <trkpt lat="53.538158" lon="12.262031"><ele>72.0</ele></trkpt>
      <trkpt lat="53.538108" lon="12.262057"><ele>72.2</ele></trkpt>
      <trkpt lat="53.538053" lon="12.262065"><ele>72.2</ele></trkpt>
      <trkpt lat="53.538044" lon="12.262023"><ele>72.2</ele></trkpt>
      <trkpt lat="53.538027" lon="12.261988"><ele>72.0</ele></trkpt>
      <trkpt lat="53.538005" lon="12.261963"><ele>72.0</ele></trkpt>
      <trkpt lat="53.537980" lon="12.261950"><ele>72.0</ele></trkpt>
      <trkpt lat="53.537953" lon="12.261951"><ele>72.0</ele></trkpt>
      <trkpt lat="53.537928" lon="12.261966"><ele>72.0</ele></trkpt>
      <trkpt lat="53.536860" lon="12.261815"><ele>71.8</ele></trkpt>
      <trkpt lat="53.536631" lon="12.261787"><ele>71.2</ele></trkpt>
      <trkpt lat="53.536569" lon="12.261792"><ele>71.2</ele></trkpt>
      <trkpt lat="53.536486" lon="12.261794"><ele>71.2</ele></trkpt>
      <trkpt lat="53.535644" lon="12.261645"><ele>71.5</ele></trkpt>
      <trkpt lat="53.535598" lon="12.261623"><ele>71.5</ele></trkpt>
      <trkpt lat="53.535545" lon="12.261611"><ele>71.8</ele></trkpt>
      <trkpt lat="53.535423" lon="12.261588"><ele>71.8</ele></trkpt>
      <trkpt lat="53.535333" lon="12.261580"><ele>71.8</ele></trkpt>
      <trkpt lat="53.535203" lon="12.261574"><ele>72.0</ele></trkpt>
      <trkpt lat="53.534736" lon="12.261503"><ele>72.0</ele></trkpt>
      <trkpt lat="53.534143" lon="12.261413"><ele>73.0</ele></trkpt>
      <trkpt lat="53.533452" lon="12.261308"><ele>75.0</ele></trkpt>
      <trkpt lat="53.533364" lon="12.261300"><ele>75.0</ele></trkpt>
      <trkpt lat="53.533222" lon="12.261292"><ele>75.0</ele></trkpt>
      <trkpt lat="53.532404" lon="12.261188"><ele>74.5</ele></trkpt>
      <trkpt lat="53.529405" lon="12.260758"><ele>75.0</ele></trkpt>
      <trkpt lat="53.529027" lon="12.260721"><ele>75.0</ele></trkpt>
      <trkpt lat="53.528743" lon="12.260673"><ele>75.0</ele></trkpt>
      <trkpt lat="53.528043" lon="12.260580"><ele>75.0</ele></trkpt>
      <trkpt lat="53.527607" lon="12.260504"><ele>76.5</ele></trkpt>
      <trkpt lat="53.527239" lon="12.260406"><ele>76.5</ele></trkpt>
      <trkpt lat="53.527071" lon="12.260343"><ele>76.2</ele></trkpt>
      <trkpt lat="53.525162" lon="12.259558"><ele>76.0</ele></trkpt>
      <trkpt lat="53.524153" lon="12.259071"><ele>77.5</ele></trkpt>
      <trkpt lat="53.523920" lon="12.258873"><ele>77.0</ele></trkpt>
      <trkpt lat="53.521156" lon="12.255839"><ele>68.0</ele></trkpt>
      <trkpt lat="53.519651" lon="12.254269"><ele>65.8</ele></trkpt>
      <trkpt lat="53.518468" lon="12.253062"><ele>65.5</ele></trkpt>
      <trkpt lat="53.517746" lon="12.251557"><ele>66.0</ele></trkpt>
      <trkpt lat="53.516762" lon="12.249709"><ele>66.5</ele></trkpt>
      <trkpt lat="53.515922" lon="12.248311"><ele>70.5</ele></trkpt>
      <trkpt lat="53.514398" lon="12.244980"><ele>69.2</ele></trkpt>
      <trkpt lat="53.513985" lon="12.244129"><ele>67.0</ele></trkpt>
      <trkpt lat="53.512883" lon="12.241798"><ele>71.0</ele></trkpt>
      <trkpt lat="53.512526" lon="12.241066"><ele>71.8</ele></trkpt>
      <trkpt lat="53.512057" lon="12.240014"><ele>71.0</ele></trkpt>
      <trkpt lat="53.510827" lon="12.237589"><ele>71.8</ele></trkpt>
      <trkpt lat="53.510661" lon="12.237171"><ele>71.2</ele></trkpt>
      <trkpt lat="53.509367" lon="12.234495"><ele>70.0</ele></trkpt>
      <trkpt lat="53.508278" lon="12.232311"><ele>67.8</ele></trkpt>
      <trkpt lat="53.507742" lon="12.231155"><ele>67.0</ele></trkpt>
      <trkpt lat="53.506876" lon="12.229402"><ele>68.2</ele></trkpt>
      <trkpt lat="53.506878" lon="12.229232"><ele>68.2</ele></trkpt>
      <trkpt lat="53.506805" lon="12.229162"><ele>69.0</ele></trkpt>
      <trkpt lat="53.505894" lon="12.227207"><ele>68.0</ele></trkpt>
      <trkpt lat="53.504638" lon="12.224657"><ele>69.0</ele></trkpt>
      <trkpt lat="53.499753" lon="12.214633"><ele>66.0</ele></trkpt>
      <trkpt lat="53.499515" lon="12.214025"><ele>66.0</ele></trkpt>
      <trkpt lat="53.500240" lon="12.213181"><ele>66.0</ele></trkpt>
      <trkpt lat="53.500310" lon="12.213100"><ele>66.0</ele></trkpt>
      <trkpt lat="53.500240" lon="12.213181"><ele>66.0</ele></trkpt>
      <trkpt lat="53.499515" lon="12.214025"><ele>66.0</ele></trkpt>
      <trkpt lat="53.499401" lon="12.213807"><ele>65.8</ele></trkpt>
      <trkpt lat="53.499209" lon="12.213534"><ele>65.0</ele></trkpt>
      <trkpt lat="53.498305" lon="12.212904"><ele>66.0</ele></trkpt>
      <trkpt lat="53.498148" lon="12.212795"><ele>66.0</ele></trkpt>
      <trkpt lat="53.497991" lon="12.212685"><ele>66.0</ele></trkpt>
      <trkpt lat="53.497624" lon="12.212429"><ele>66.0</ele></trkpt>
      <trkpt lat="53.497524" lon="12.212360"><ele>66.0</ele></trkpt>
      <trkpt lat="53.497292" lon="12.212097"><ele>66.2</ele></trkpt>
      <trkpt lat="53.497001" lon="12.211568"><ele>67.0</ele></trkpt>
      <trkpt lat="53.496948" lon="12.211787"><ele>67.0</ele></trkpt>
      <trkpt lat="53.496700" lon="12.212347"><ele>66.8</ele></trkpt>
      <trkpt lat="53.496441" lon="12.212902"><ele>66.5</ele></trkpt>
      <trkpt lat="53.495624" lon="12.214510"><ele>65.0</ele></trkpt>
      <trkpt lat="53.495556" lon="12.214659"><ele>65.0</ele></trkpt>
      <trkpt lat="53.495507" lon="12.214813"><ele>65.0</ele></trkpt>
      <trkpt lat="53.495001" lon="12.215229"><ele>65.0</ele></trkpt>
      <trkpt lat="53.493922" lon="12.216251"><ele>65.0</ele></trkpt>
      <trkpt lat="53.493163" lon="12.217012"><ele>66.0</ele></trkpt>
      <trkpt lat="53.487418" lon="12.222706"><ele>65.8</ele></trkpt>
      <trkpt lat="53.487202" lon="12.223035"><ele>66.0</ele></trkpt>
      <trkpt lat="53.485505" lon="12.225622"><ele>70.0</ele></trkpt>
      <trkpt lat="53.484412" lon="12.227415"><ele>72.8</ele></trkpt>
      <trkpt lat="53.477842" lon="12.239884"><ele>70.0</ele></trkpt>
      <trkpt lat="53.476663" lon="12.242090"><ele>72.0</ele></trkpt>
      <trkpt lat="53.473316" lon="12.245627"><ele>67.8</ele></trkpt>
      <trkpt lat="53.472094" lon="12.246919"><ele>67.0</ele></trkpt>
      <trkpt lat="53.471401" lon="12.247703"><ele>68.5</ele></trkpt>
      <trkpt lat="53.470882" lon="12.248412"><ele>69.0</ele></trkpt>
      <trkpt lat="53.470305" lon="12.249222"><ele>69.8</ele></trkpt>
      <trkpt lat="53.469871" lon="12.249761"><ele>70.0</ele></trkpt>
      <trkpt lat="53.469016" lon="12.250661"><ele>69.2</ele></trkpt>
      <trkpt lat="53.468485" lon="12.251163"><ele>68.5</ele></trkpt>
      <trkpt lat="53.468132" lon="12.251517"><ele>68.2</ele></trkpt>
      <trkpt lat="53.467955" lon="12.251724"><ele>68.0</ele></trkpt>
      <trkpt lat="53.467833" lon="12.251767"><ele>68.0</ele></trkpt>
      <trkpt lat="53.467815" lon="12.251788"><ele>68.0</ele></trkpt>
      <trkpt lat="53.467758" lon="12.251853"><ele>68.0</ele></trkpt>
      <trkpt lat="53.467669" lon="12.251969"><ele>68.0</ele></trkpt>
      <trkpt lat="53.467601" lon="12.252136"><ele>68.0</ele></trkpt>
      <trkpt lat="53.467136" lon="12.252717"><ele>68.0</ele></trkpt>
      <trkpt lat="53.464385" lon="12.256522"><ele>70.0</ele></trkpt>
      <trkpt lat="53.464283" lon="12.256607"><ele>70.0</ele></trkpt>
      <trkpt lat="53.463984" lon="12.257199"><ele>69.0</ele></trkpt>
      <trkpt lat="53.463821" lon="12.257520"><ele>69.0</ele></trkpt>
      <trkpt lat="53.463601" lon="12.258024"><ele>69.0</ele></trkpt>
      <trkpt lat="53.463551" lon="12.258060"><ele>69.0</ele></trkpt>
      <trkpt lat="53.463455" lon="12.258318"><ele>69.0</ele></trkpt>
      <trkpt lat="53.463425" lon="12.258386"><ele>69.0</ele></trkpt>
      <trkpt lat="53.463403" lon="12.258443"><ele>69.0</ele></trkpt>
      <trkpt lat="53.463361" lon="12.258545"><ele>69.0</ele></trkpt>
      <trkpt lat="53.463251" lon="12.258787"><ele>69.0</ele></trkpt>
      <trkpt lat="53.462981" lon="12.259389"><ele>69.0</ele></trkpt>
      <trkpt lat="53.462716" lon="12.259859"><ele>69.0</ele></trkpt>
      <trkpt lat="53.462603" lon="12.260059"><ele>69.0</ele></trkpt>
      <trkpt lat="53.461814" lon="12.261632"><ele>69.0</ele></trkpt>
      <trkpt lat="53.461651" lon="12.261942"><ele>69.0</ele></trkpt>
      <trkpt lat="53.461484" lon="12.262260"><ele>69.0</ele></trkpt>
      <trkpt lat="53.461074" lon="12.263041"><ele>68.0</ele></trkpt>
      <trkpt lat="53.461142" lon="12.263184"><ele>68.0</ele></trkpt>
      <trkpt lat="53.461237" lon="12.263366"><ele>68.0</ele></trkpt>
      <trkpt lat="53.461299" lon="12.263443"><ele>68.0</ele></trkpt>
      <trkpt lat="53.461487" lon="12.263537"><ele>68.0</ele></trkpt>
      <trkpt lat="53.462971" lon="12.263828"><ele>69.0</ele></trkpt>
      <trkpt lat="53.463019" lon="12.263913"><ele>68.8</ele></trkpt>
      <trkpt lat="53.463045" lon="12.263986"><ele>68.8</ele></trkpt>
      <trkpt lat="53.463057" lon="12.264060"><ele>69.0</ele></trkpt>
      <trkpt lat="53.463056" lon="12.264130"><ele>69.0</ele></trkpt>
      <trkpt lat="53.462920" lon="12.265293"><ele>66.2</ele></trkpt>
      <trkpt lat="53.462920" lon="12.265507"><ele>66.0</ele></trkpt>
      <trkpt lat="53.462955" lon="12.265578"><ele>66.0</ele></trkpt>
      <trkpt lat="53.462934" lon="12.265633"><ele>66.0</ele></trkpt>
      <trkpt lat="53.462897" lon="12.265676"><ele>66.0</ele></trkpt>
      <trkpt lat="53.462825" lon="12.265715"><ele>66.0</ele></trkpt>
      <trkpt lat="53.462780" lon="12.265750"><ele>66.0</ele></trkpt>
      <trkpt lat="53.462815" lon="12.265885"><ele>65.8</ele></trkpt>
      <trkpt lat="53.462850" lon="12.266004"><ele>65.5</ele></trkpt>
      <trkpt lat="53.462888" lon="12.266030"><ele>65.5</ele></trkpt>
      <trkpt lat="53.462941" lon="12.266110"><ele>65.5</ele></trkpt>
      <trkpt lat="53.462867" lon="12.266157"><ele>65.2</ele></trkpt>
      <trkpt lat="53.462551" lon="12.266328"><ele>65.0</ele></trkpt>
      <trkpt lat="53.462228" lon="12.266545"><ele>65.0</ele></trkpt>
      <trkpt lat="53.460972" lon="12.267562"><ele>62.2</ele></trkpt>
      <trkpt lat="53.460600" lon="12.267771"><ele>62.0</ele></trkpt>
      <trkpt lat="53.460170" lon="12.268078"><ele>62.0</ele></trkpt>
      <trkpt lat="53.459576" lon="12.268338"><ele>62.0</ele></trkpt>
      <trkpt lat="53.459218" lon="12.268410"><ele>62.0</ele></trkpt>
      <trkpt lat="53.458885" lon="12.268462"><ele>62.0</ele></trkpt>
      <trkpt lat="53.458568" lon="12.268480"><ele>62.0</ele></trkpt>
      <trkpt lat="53.457922" lon="12.268403"><ele>62.0</ele></trkpt>
      <trkpt lat="53.457728" lon="12.268340"><ele>62.0</ele></trkpt>
      <trkpt lat="53.457579" lon="12.268319"><ele>62.0</ele></trkpt>
      <trkpt lat="53.457395" lon="12.268326"><ele>62.0</ele></trkpt>
      <trkpt lat="53.457306" lon="12.268329"><ele>62.0</ele></trkpt>
      <trkpt lat="53.457028" lon="12.268363"><ele>62.0</ele></trkpt>
      <trkpt lat="53.456875" lon="12.268394"><ele>62.0</ele></trkpt>
      <trkpt lat="53.456715" lon="12.268440"><ele>62.0</ele></trkpt>
      <trkpt lat="53.456629" lon="12.268464"><ele>62.0</ele></trkpt>
      <trkpt lat="53.456313" lon="12.268616"><ele>62.8</ele></trkpt>
      <trkpt lat="53.456061" lon="12.268797"><ele>63.0</ele></trkpt>
      <trkpt lat="53.455830" lon="12.269016"><ele>63.5</ele></trkpt>
      <trkpt lat="53.455124" lon="12.269740"><ele>64.5</ele></trkpt>
      <trkpt lat="53.454504" lon="12.270449"><ele>63.2</ele></trkpt>
      <trkpt lat="53.453987" lon="12.270985"><ele>63.2</ele></trkpt>
      <trkpt lat="53.453566" lon="12.271365"><ele>63.0</ele></trkpt>
      <trkpt lat="53.453266" lon="12.271590"><ele>63.2</ele></trkpt>
      <trkpt lat="53.452833" lon="12.271853"><ele>63.0</ele></trkpt>
      <trkpt lat="53.452275" lon="12.272063"><ele>62.5</ele></trkpt>
      <trkpt lat="53.452192" lon="12.272063"><ele>62.5</ele></trkpt>
      <trkpt lat="53.452132" lon="12.272064"><ele>62.5</ele></trkpt>
      <trkpt lat="53.451659" lon="12.272067"><ele>62.5</ele></trkpt>
      <trkpt lat="53.451660" lon="12.271923"><ele>62.8</ele></trkpt>
      <trkpt lat="53.451668" lon="12.271741"><ele>63.0</ele></trkpt>
      <trkpt lat="53.451650" lon="12.271705"><ele>62.8</ele></trkpt>
      <trkpt lat="53.451638" lon="12.271656"><ele>62.8</ele></trkpt>
      <trkpt lat="53.451562" lon="12.271622"><ele>62.5</ele></trkpt>
      <trkpt lat="53.451504" lon="12.271595"><ele>62.2</ele></trkpt>
      <trkpt lat="53.451431" lon="12.271658"><ele>62.0</ele></trkpt>
      <trkpt lat="53.451344" lon="12.271706"><ele>62.0</ele></trkpt>
      <trkpt lat="53.451076" lon="12.271712"><ele>62.0</ele></trkpt>
      <trkpt lat="53.449295" lon="12.271123"><ele>62.0</ele></trkpt>
      <trkpt lat="53.448924" lon="12.270941"><ele>62.0</ele></trkpt>
      <trkpt lat="53.447694" lon="12.270511"><ele>63.0</ele></trkpt>
      <trkpt lat="53.445150" lon="12.269579"><ele>63.5</ele></trkpt>
      <trkpt lat="53.443212" lon="12.268817"><ele>64.0</ele></trkpt>
      <trkpt lat="53.441150" lon="12.268073"><ele>65.0</ele></trkpt>
      <trkpt lat="53.440177" lon="12.267779"><ele>66.2</ele></trkpt>
      <trkpt lat="53.439809" lon="12.267736"><ele>67.0</ele></trkpt>
      <trkpt lat="53.439109" lon="12.267815"><ele>66.8</ele></trkpt>
      <trkpt lat="53.438975" lon="12.267834"><ele>66.2</ele></trkpt>
      <trkpt lat="53.436371" lon="12.268209"><ele>70.5</ele></trkpt>
      <trkpt lat="53.434572" lon="12.268459"><ele>71.2</ele></trkpt>
      <trkpt lat="53.433502" lon="12.268628"><ele>72.8</ele></trkpt>
      <trkpt lat="53.432936" lon="12.268698"><ele>72.0</ele></trkpt>
      <trkpt lat="53.432423" lon="12.268739"><ele>70.5</ele></trkpt>
      <trkpt lat="53.432107" lon="12.268687"><ele>69.5</ele></trkpt>
      <trkpt lat="53.431678" lon="12.268616"><ele>68.0</ele></trkpt>
      <trkpt lat="53.429428" lon="12.268140"><ele>67.0</ele></trkpt>
      <trkpt lat="53.426951" lon="12.267608"><ele>68.0</ele></trkpt>
      <trkpt lat="53.426775" lon="12.267549"><ele>68.0</ele></trkpt>
      <trkpt lat="53.426706" lon="12.267475"><ele>68.0</ele></trkpt>
      <trkpt lat="53.426611" lon="12.267282"><ele>67.8</ele></trkpt>
      <trkpt lat="53.426566" lon="12.267284"><ele>67.5</ele></trkpt>
      <trkpt lat="53.426498" lon="12.267381"><ele>67.5</ele></trkpt>
      <trkpt lat="53.426447" lon="12.267426"><ele>67.8</ele></trkpt>
      <trkpt lat="53.426337" lon="12.267354"><ele>67.2</ele></trkpt>
      <trkpt lat="53.425839" lon="12.267023"><ele>67.2</ele></trkpt>
      <trkpt lat="53.425386" lon="12.266689"><ele>67.8</ele></trkpt>
      <trkpt lat="53.424778" lon="12.266239"><ele>69.2</ele></trkpt>
      <trkpt lat="53.424624" lon="12.266048"><ele>70.8</ele></trkpt>
      <trkpt lat="53.424136" lon="12.265382"><ele>77.0</ele></trkpt>
      <trkpt lat="53.423086" lon="12.263889"><ele>79.8</ele></trkpt>
      <trkpt lat="53.422976" lon="12.263645"><ele>81.0</ele></trkpt>
      <trkpt lat="53.422819" lon="12.263425"><ele>81.8</ele></trkpt>
      <trkpt lat="53.422664" lon="12.263309"><ele>82.0</ele></trkpt>
      <trkpt lat="53.422618" lon="12.263247"><ele>82.0</ele></trkpt>
      <trkpt lat="53.422577" lon="12.263347"><ele>82.0</ele></trkpt>
      <trkpt lat="53.422544" lon="12.263429"><ele>82.0</ele></trkpt>
      <trkpt lat="53.421436" lon="12.261911"><ele>83.0</ele></trkpt>
      <trkpt lat="53.421124" lon="12.261468"><ele>83.8</ele></trkpt>
      <trkpt lat="53.421103" lon="12.261512"><ele>84.0</ele></trkpt>
      <trkpt lat="53.421009" lon="12.262081"><ele>83.5</ele></trkpt>
      <trkpt lat="53.420889" lon="12.262876"><ele>82.2</ele></trkpt>
      <trkpt lat="53.420244" lon="12.263325"><ele>80.8</ele></trkpt>
      <trkpt lat="53.419736" lon="12.263807"><ele>78.2</ele></trkpt>
      <trkpt lat="53.417933" lon="12.265639"><ele>82.2</ele></trkpt>
      <trkpt lat="53.417717" lon="12.265881"><ele>82.8</ele></trkpt>
      <trkpt lat="53.416340" lon="12.267258"><ele>83.0</ele></trkpt>
      <trkpt lat="53.414403" lon="12.269416"><ele>83.0</ele></trkpt>
      <trkpt lat="53.413264" lon="12.271040"><ele>87.0</ele></trkpt>
      <trkpt lat="53.413784" lon="12.273004"><ele>84.5</ele></trkpt>
      <trkpt lat="53.412632" lon="12.274140"><ele>85.0</ele></trkpt>
      <trkpt lat="53.410486" lon="12.276780"><ele>79.5</ele></trkpt>
      <trkpt lat="53.409690" lon="12.278137"><ele>76.0</ele></trkpt>
      <trkpt lat="53.409690" lon="12.277782"><ele>78.2</ele></trkpt>
      <trkpt lat="53.409546" lon="12.277377"><ele>81.0</ele></trkpt>
      <trkpt lat="53.408991" lon="12.276696"><ele>84.0</ele></trkpt>
      <trkpt lat="53.408698" lon="12.276235"><ele>84.5</ele></trkpt>
      <trkpt lat="53.407514" lon="12.274238"><ele>87.0</ele></trkpt>
      <trkpt lat="53.408314" lon="12.273127"><ele>87.0</ele></trkpt>
      <trkpt lat="53.407815" lon="12.272162"><ele>87.0</ele></trkpt>
      <trkpt lat="53.407564" lon="12.271696"><ele>87.0</ele></trkpt>
      <trkpt lat="53.407469" lon="12.271615"><ele>87.0</ele></trkpt>
      <trkpt lat="53.404075" lon="12.272721"><ele>88.0</ele></trkpt>
      <trkpt lat="53.403211" lon="12.272990"><ele>89.2</ele></trkpt>
      <trkpt lat="53.402950" lon="12.273110"><ele>90.0</ele></trkpt>
      <trkpt lat="53.402865" lon="12.273174"><ele>90.0</ele></trkpt>
      <trkpt lat="53.402127" lon="12.274299"><ele>88.0</ele></trkpt>
      <trkpt lat="53.401619" lon="12.275279"><ele>85.0</ele></trkpt>
      <trkpt lat="53.400487" lon="12.276742"><ele>77.5</ele></trkpt>
      <trkpt lat="53.400172" lon="12.277078"><ele>76.8</ele></trkpt>
      <trkpt lat="53.400792" lon="12.278491"><ele>75.8</ele></trkpt>
      <trkpt lat="53.400459" lon="12.279097"><ele>74.2</ele></trkpt>
      <trkpt lat="53.400357" lon="12.279427"><ele>73.2</ele></trkpt>
      <trkpt lat="53.400349" lon="12.279529"><ele>72.8</ele></trkpt>
      <trkpt lat="53.400862" lon="12.280258"><ele>72.2</ele></trkpt>
      <trkpt lat="53.400957" lon="12.280458"><ele>72.0</ele></trkpt>
      <trkpt lat="53.400639" lon="12.280218"><ele>71.5</ele></trkpt>
      <trkpt lat="53.400585" lon="12.280064"><ele>71.8</ele></trkpt>
      <trkpt lat="53.399864" lon="12.279432"><ele>71.5</ele></trkpt>
      <trkpt lat="53.399825" lon="12.279580"><ele>70.5</ele></trkpt>
      <trkpt lat="53.399808" lon="12.279663"><ele>70.2</ele></trkpt>
      <trkpt lat="53.399726" lon="12.279983"><ele>70.0</ele></trkpt>
      <trkpt lat="53.399605" lon="12.280280"><ele>70.2</ele></trkpt>
      <trkpt lat="53.399562" lon="12.280505"><ele>71.0</ele></trkpt>
      <trkpt lat="53.399549" lon="12.280733"><ele>71.8</ele></trkpt>
      <trkpt lat="53.399625" lon="12.281058"><ele>73.0</ele></trkpt>
      <trkpt lat="53.399799" lon="12.281602"><ele>73.2</ele></trkpt>
      <trkpt lat="53.399533" lon="12.281597"><ele>75.0</ele></trkpt>
      <trkpt lat="53.399368" lon="12.281479"><ele>75.5</ele></trkpt>
      <trkpt lat="53.399005" lon="12.281134"><ele>76.2</ele></trkpt>
      <trkpt lat="53.398650" lon="12.280621"><ele>77.0</ele></trkpt>
      <trkpt lat="53.398292" lon="12.279844"><ele>77.5</ele></trkpt>
      <trkpt lat="53.397842" lon="12.278663"><ele>77.8</ele></trkpt>
      <trkpt lat="53.397201" lon="12.277021"><ele>78.2</ele></trkpt>
      <trkpt lat="53.396839" lon="12.276020"><ele>79.2</ele></trkpt>
      <trkpt lat="53.396377" lon="12.274602"><ele>79.8</ele></trkpt>
      <trkpt lat="53.395938" lon="12.273288"><ele>79.0</ele></trkpt>
      <trkpt lat="53.395751" lon="12.272703"><ele>78.5</ele></trkpt>
      <trkpt lat="53.395644" lon="12.272438"><ele>78.5</ele></trkpt>
      <trkpt lat="53.395387" lon="12.272101"><ele>78.5</ele></trkpt>
      <trkpt lat="53.393580" lon="12.269948"><ele>80.0</ele></trkpt>
      <trkpt lat="53.392905" lon="12.269609"><ele>80.0</ele></trkpt>
      <trkpt lat="53.392278" lon="12.269129"><ele>80.8</ele></trkpt>
      <trkpt lat="53.391762" lon="12.267680"><ele>82.5</ele></trkpt>
      <trkpt lat="53.391571" lon="12.267273"><ele>82.8</ele></trkpt>
      <trkpt lat="53.391384" lon="12.266496"><ele>82.2</ele></trkpt>
      <trkpt lat="53.390612" lon="12.262831"><ele>84.0</ele></trkpt>
      <trkpt lat="53.389938" lon="12.259580"><ele>81.0</ele></trkpt>
      <trkpt lat="53.389707" lon="12.258923"><ele>81.0</ele></trkpt>
      <trkpt lat="53.389229" lon="12.258131"><ele>80.8</ele></trkpt>
      <trkpt lat="53.388772" lon="12.257594"><ele>80.8</ele></trkpt>
      <trkpt lat="53.388212" lon="12.256823"><ele>80.0</ele></trkpt>
      <trkpt lat="53.387827" lon="12.256187"><ele>80.0</ele></trkpt>
      <trkpt lat="53.387638" lon="12.255918"><ele>80.0</ele></trkpt>
      <trkpt lat="53.387534" lon="12.255775"><ele>80.0</ele></trkpt>
      <trkpt lat="53.387391" lon="12.255597"><ele>80.0</ele></trkpt>
      <trkpt lat="53.386488" lon="12.254380"><ele>81.8</ele></trkpt>
      <trkpt lat="53.385721" lon="12.253319"><ele>85.0</ele></trkpt>
      <trkpt lat="53.385117" lon="12.252445"><ele>84.2</ele></trkpt>
      <trkpt lat="53.384802" lon="12.252859"><ele>85.0</ele></trkpt>
      <trkpt lat="53.384660" lon="12.253366"><ele>85.0</ele></trkpt>
      <trkpt lat="53.384355" lon="12.254093"><ele>85.2</ele></trkpt>
      <trkpt lat="53.384087" lon="12.254597"><ele>86.0</ele></trkpt>
      <trkpt lat="53.384127" lon="12.254750"><ele>85.8</ele></trkpt>
      <trkpt lat="53.384196" lon="12.255008"><ele>85.8</ele></trkpt>
      <trkpt lat="53.384136" lon="12.255054"><ele>86.0</ele></trkpt>
      <trkpt lat="53.383501" lon="12.255890"><ele>87.0</ele></trkpt>
      <trkpt lat="53.384031" lon="12.257486"><ele>85.8</ele></trkpt>
      <trkpt lat="53.384004" lon="12.257670"><ele>86.2</ele></trkpt>
      <trkpt lat="53.383940" lon="12.258120"><ele>86.8</ele></trkpt>
      <trkpt lat="53.384152" lon="12.260668"><ele>86.0</ele></trkpt>
      <trkpt lat="53.384369" lon="12.262222"><ele>86.2</ele></trkpt>
      <trkpt lat="53.384278" lon="12.262278"><ele>86.5</ele></trkpt>
      <trkpt lat="53.383870" lon="12.262528"><ele>88.0</ele></trkpt>
      <trkpt lat="53.383708" lon="12.262639"><ele>88.5</ele></trkpt>
      <trkpt lat="53.383575" lon="12.262729"><ele>89.0</ele></trkpt>
      <trkpt lat="53.383394" lon="12.262842"><ele>89.0</ele></trkpt>
      <trkpt lat="53.383115" lon="12.263037"><ele>89.5</ele></trkpt>
      <trkpt lat="53.383068" lon="12.263039"><ele>89.8</ele></trkpt>
      <trkpt lat="53.383034" lon="12.263012"><ele>89.8</ele></trkpt>
      <trkpt lat="53.383016" lon="12.262955"><ele>89.5</ele></trkpt>
      <trkpt lat="53.382929" lon="12.262347"><ele>88.5</ele></trkpt>
      <trkpt lat="53.382886" lon="12.262062"><ele>88.2</ele></trkpt>
      <trkpt lat="53.382427" lon="12.259471"><ele>88.0</ele></trkpt>
      <trkpt lat="53.382375" lon="12.259345"><ele>88.0</ele></trkpt>
      <trkpt lat="53.382338" lon="12.259291"><ele>88.0</ele></trkpt>
      <trkpt lat="53.382263" lon="12.259233"><ele>88.0</ele></trkpt>
      <trkpt lat="53.382158" lon="12.259217"><ele>88.0</ele></trkpt>
      <trkpt lat="53.382075" lon="12.259246"><ele>88.0</ele></trkpt>
      <trkpt lat="53.381757" lon="12.259473"><ele>88.0</ele></trkpt>
      <trkpt lat="53.381550" lon="12.259703"><ele>88.2</ele></trkpt>
      <trkpt lat="53.380776" lon="12.260926"><ele>89.0</ele></trkpt>
      <trkpt lat="53.379594" lon="12.262912"><ele>92.0</ele></trkpt>
      <trkpt lat="53.378904" lon="12.263953"><ele>92.0</ele></trkpt>
      <trkpt lat="53.378178" lon="12.265099"><ele>92.0</ele></trkpt>
      <trkpt lat="53.377952" lon="12.265524"><ele>92.0</ele></trkpt>
      <trkpt lat="53.377920" lon="12.265622"><ele>92.0</ele></trkpt>
      <trkpt lat="53.377877" lon="12.265755"><ele>92.0</ele></trkpt>
      <trkpt lat="53.377743" lon="12.266382"><ele>92.0</ele></trkpt>
      <trkpt lat="53.377688" lon="12.266534"><ele>92.0</ele></trkpt>
      <trkpt lat="53.377657" lon="12.266590"><ele>92.0</ele></trkpt>
      <trkpt lat="53.378367" lon="12.269617"><ele>93.0</ele></trkpt>
      <trkpt lat="53.379602" lon="12.274817"><ele>94.0</ele></trkpt>
      <trkpt lat="53.380341" lon="12.277771"><ele>93.8</ele></trkpt>
      <trkpt lat="53.380499" lon="12.278461"><ele>93.8</ele></trkpt>
      <trkpt lat="53.380670" lon="12.279253"><ele>93.5</ele></trkpt>
      <trkpt lat="53.380765" lon="12.279922"><ele>93.2</ele></trkpt>
      <trkpt lat="53.380832" lon="12.280622"><ele>93.0</ele></trkpt>
      <trkpt lat="53.380873" lon="12.281315"><ele>93.8</ele></trkpt>
      <trkpt lat="53.380882" lon="12.281918"><ele>94.5</ele></trkpt>
      <trkpt lat="53.380874" lon="12.282582"><ele>94.8</ele></trkpt>
      <trkpt lat="53.380326" lon="12.297800"><ele>96.0</ele></trkpt>
      <trkpt lat="53.380214" lon="12.302046"><ele>98.0</ele></trkpt>
      <trkpt lat="53.380777" lon="12.301779"><ele>97.0</ele></trkpt>
      <trkpt lat="53.381402" lon="12.302493"><ele>97.0</ele></trkpt>
      <trkpt lat="53.384947" lon="12.308749"><ele>93.0</ele></trkpt>
      <trkpt lat="53.385087" lon="12.308951"><ele>92.8</ele></trkpt>
      <trkpt lat="53.385150" lon="12.309012"><ele>92.8</ele></trkpt>
      <trkpt lat="53.385283" lon="12.308630"><ele>92.8</ele></trkpt>
      <trkpt lat="53.385779" lon="12.307339"><ele>93.0</ele></trkpt>
      <trkpt lat="53.386359" lon="12.305842"><ele>93.8</ele></trkpt>
      <trkpt lat="53.386992" lon="12.304204"><ele>93.8</ele></trkpt>
      <trkpt lat="53.387246" lon="12.303554"><ele>92.8</ele></trkpt>
      <trkpt lat="53.387453" lon="12.303025"><ele>92.0</ele></trkpt>
      <trkpt lat="53.387498" lon="12.303077"><ele>92.0</ele></trkpt>
      <trkpt lat="53.387524" lon="12.303139"><ele>91.8</ele></trkpt>
      <trkpt lat="53.387575" lon="12.303307"><ele>91.2</ele></trkpt>
      <trkpt lat="53.387706" lon="12.303959"><ele>89.8</ele></trkpt>
      <trkpt lat="53.387878" lon="12.304935"><ele>87.5</ele></trkpt>
      <trkpt lat="53.387723" lon="12.308811"><ele>75.2</ele></trkpt>
      <trkpt lat="53.387716" lon="12.308916"><ele>75.0</ele></trkpt>
      <trkpt lat="53.387700" lon="12.309163"><ele>75.0</ele></trkpt>
      <trkpt lat="53.387729" lon="12.309864"><ele>77.0</ele></trkpt>
      <trkpt lat="53.387733" lon="12.309962"><ele>77.2</ele></trkpt>
      <trkpt lat="53.387780" lon="12.310336"><ele>75.8</ele></trkpt>
      <trkpt lat="53.387922" lon="12.311786"><ele>68.5</ele></trkpt>
      <trkpt lat="53.387953" lon="12.312088"><ele>67.2</ele></trkpt>
      <trkpt lat="53.388015" lon="12.312652"><ele>67.0</ele></trkpt>
      <trkpt lat="53.388105" lon="12.313656"><ele>66.8</ele></trkpt>
      <trkpt lat="53.388117" lon="12.313748"><ele>67.0</ele></trkpt>
      <trkpt lat="53.388159" lon="12.313886"><ele>67.5</ele></trkpt>
      <trkpt lat="53.388207" lon="12.313970"><ele>68.2</ele></trkpt>
      <trkpt lat="53.388280" lon="12.314088"><ele>69.2</ele></trkpt>
      <trkpt lat="53.388377" lon="12.314184"><ele>69.8</ele></trkpt>
      <trkpt lat="53.388599" lon="12.314237"><ele>69.0</ele></trkpt>
      <trkpt lat="53.388692" lon="12.314278"><ele>68.8</ele></trkpt>
      <trkpt lat="53.388767" lon="12.314334"><ele>68.8</ele></trkpt>
      <trkpt lat="53.388917" lon="12.314538"><ele>69.2</ele></trkpt>
      <trkpt lat="53.389027" lon="12.314763"><ele>69.5</ele></trkpt>
      <trkpt lat="53.389126" lon="12.315023"><ele>69.5</ele></trkpt>
      <trkpt lat="53.389193" lon="12.315291"><ele>69.8</ele></trkpt>
      <trkpt lat="53.389242" lon="12.315532"><ele>70.0</ele></trkpt>
      <trkpt lat="53.389271" lon="12.315773"><ele>70.5</ele></trkpt>
      <trkpt lat="53.389319" lon="12.316010"><ele>70.8</ele></trkpt>
      <trkpt lat="53.389399" lon="12.316319"><ele>71.0</ele></trkpt>
      <trkpt lat="53.389432" lon="12.316451"><ele>71.2</ele></trkpt>
      <trkpt lat="53.389531" lon="12.316653"><ele>71.2</ele></trkpt>
      <trkpt lat="53.389638" lon="12.316850"><ele>71.2</ele></trkpt>
      <trkpt lat="53.390022" lon="12.317475"><ele>70.5</ele></trkpt>
      <trkpt lat="53.390055" lon="12.317527"><ele>70.5</ele></trkpt>
      <trkpt lat="53.390131" lon="12.317650"><ele>70.2</ele></trkpt>
      <trkpt lat="53.390271" lon="12.317878"><ele>69.8</ele></trkpt>
      <trkpt lat="53.390547" lon="12.318400"><ele>72.5</ele></trkpt>
      <trkpt lat="53.390644" lon="12.318498"><ele>73.5</ele></trkpt>
      <trkpt lat="53.390757" lon="12.318531"><ele>72.8</ele></trkpt>
      <trkpt lat="53.391287" lon="12.318320"><ele>71.0</ele></trkpt>
      <trkpt lat="53.391384" lon="12.318305"><ele>71.5</ele></trkpt>
      <trkpt lat="53.391499" lon="12.318328"><ele>73.8</ele></trkpt>
      <trkpt lat="53.391595" lon="12.318409"><ele>76.5</ele></trkpt>
      <trkpt lat="53.391796" lon="12.318558"><ele>81.2</ele></trkpt>
      <trkpt lat="53.391957" lon="12.318862"><ele>85.0</ele></trkpt>
      <trkpt lat="53.392399" lon="12.320085"><ele>94.5</ele></trkpt>
      <trkpt lat="53.392523" lon="12.320449"><ele>97.8</ele></trkpt>
      <trkpt lat="53.392543" lon="12.320545"><ele>98.2</ele></trkpt>
      <trkpt lat="53.392550" lon="12.320634"><ele>98.2</ele></trkpt>
      <trkpt lat="53.392537" lon="12.320750"><ele>98.2</ele></trkpt>
      <trkpt lat="53.392509" lon="12.320872"><ele>98.0</ele></trkpt>
      <trkpt lat="53.392450" lon="12.321036"><ele>98.8</ele></trkpt>
      <trkpt lat="53.392454" lon="12.321090"><ele>99.0</ele></trkpt>
      <trkpt lat="53.392707" lon="12.320918"><ele>99.5</ele></trkpt>
      <trkpt lat="53.393072" lon="12.320770"><ele>100.2</ele></trkpt>
      <trkpt lat="53.393425" lon="12.320671"><ele>101.5</ele></trkpt>
      <trkpt lat="53.394090" lon="12.320553"><ele>102.0</ele></trkpt>
      <trkpt lat="53.395497" lon="12.320322"><ele>102.0</ele></trkpt>
      <trkpt lat="53.396234" lon="12.320167"><ele>99.5</ele></trkpt>
      <trkpt lat="53.396672" lon="12.320177"><ele>98.0</ele></trkpt>
      <trkpt lat="53.397445" lon="12.320286"><ele>97.5</ele></trkpt>
      <trkpt lat="53.397690" lon="12.320356"><ele>98.2</ele></trkpt>
      <trkpt lat="53.397889" lon="12.320437"><ele>99.2</ele></trkpt>
      <trkpt lat="53.398933" lon="12.320783"><ele>99.8</ele></trkpt>
      <trkpt lat="53.400205" lon="12.321229"><ele>97.5</ele></trkpt>
      <trkpt lat="53.400969" lon="12.321515"><ele>100.0</ele></trkpt>
      <trkpt lat="53.401313" lon="12.321660"><ele>100.0</ele></trkpt>
      <trkpt lat="53.401612" lon="12.321815"><ele>100.0</ele></trkpt>
      <trkpt lat="53.402359" lon="12.322248"><ele>96.2</ele></trkpt>
      <trkpt lat="53.404084" lon="12.323262"><ele>95.0</ele></trkpt>
      <trkpt lat="53.404362" lon="12.323389"><ele>95.0</ele></trkpt>
      <trkpt lat="53.404586" lon="12.323461"><ele>95.0</ele></trkpt>
      <trkpt lat="53.404867" lon="12.323516"><ele>93.8</ele></trkpt>
      <trkpt lat="53.405177" lon="12.323543"><ele>91.2</ele></trkpt>
      <trkpt lat="53.405347" lon="12.323516"><ele>90.2</ele></trkpt>
      <trkpt lat="53.405628" lon="12.323432"><ele>88.5</ele></trkpt>
      <trkpt lat="53.406371" lon="12.323158"><ele>85.2</ele></trkpt>
      <trkpt lat="53.406604" lon="12.323086"><ele>82.8</ele></trkpt>
      <trkpt lat="53.406908" lon="12.323007"><ele>80.8</ele></trkpt>
      <trkpt lat="53.407231" lon="12.322946"><ele>79.5</ele></trkpt>
      <trkpt lat="53.407277" lon="12.322921"><ele>79.2</ele></trkpt>
      <trkpt lat="53.407320" lon="12.322869"><ele>78.8</ele></trkpt>
      <trkpt lat="53.407357" lon="12.322790"><ele>78.5</ele></trkpt>
      <trkpt lat="53.407374" lon="12.322740"><ele>78.2</ele></trkpt>
      <trkpt lat="53.407415" lon="12.322660"><ele>77.8</ele></trkpt>
      <trkpt lat="53.407451" lon="12.322630"><ele>77.5</ele></trkpt>
      <trkpt lat="53.407498" lon="12.322616"><ele>77.2</ele></trkpt>
      <trkpt lat="53.407558" lon="12.322627"><ele>77.2</ele></trkpt>
      <trkpt lat="53.407671" lon="12.322670"><ele>77.0</ele></trkpt>
      <trkpt lat="53.407724" lon="12.322714"><ele>77.0</ele></trkpt>
      <trkpt lat="53.407774" lon="12.322773"><ele>77.0</ele></trkpt>
      <trkpt lat="53.407849" lon="12.322892"><ele>77.2</ele></trkpt>
      <trkpt lat="53.407873" lon="12.322919"><ele>77.5</ele></trkpt>
      <trkpt lat="53.407914" lon="12.322929"><ele>77.5</ele></trkpt>
      <trkpt lat="53.407946" lon="12.322922"><ele>77.5</ele></trkpt>
      <trkpt lat="53.407990" lon="12.322894"><ele>77.2</ele></trkpt>
      <trkpt lat="53.408148" lon="12.322760"><ele>77.2</ele></trkpt>
      <trkpt lat="53.408199" lon="12.322747"><ele>77.5</ele></trkpt>
      <trkpt lat="53.408383" lon="12.322767"><ele>78.0</ele></trkpt>
      <trkpt lat="53.408551" lon="12.322786"><ele>78.8</ele></trkpt>
      <trkpt lat="53.409062" lon="12.322876"><ele>80.8</ele></trkpt>
      <trkpt lat="53.409881" lon="12.322913"><ele>82.0</ele></trkpt>
      <trkpt lat="53.409923" lon="12.322939"><ele>82.0</ele></trkpt>
      <trkpt lat="53.409945" lon="12.322987"><ele>82.0</ele></trkpt>
      <trkpt lat="53.410492" lon="12.322696"><ele>82.0</ele></trkpt>
      <trkpt lat="53.410618" lon="12.322658"><ele>81.8</ele></trkpt>
      <trkpt lat="53.410810" lon="12.322631"><ele>81.5</ele></trkpt>
      <trkpt lat="53.411010" lon="12.322655"><ele>81.5</ele></trkpt>
      <trkpt lat="53.411041" lon="12.322477"><ele>81.0</ele></trkpt>
      <trkpt lat="53.411070" lon="12.322367"><ele>81.0</ele></trkpt>
      <trkpt lat="53.411102" lon="12.322348"><ele>81.0</ele></trkpt>
      <trkpt lat="53.411286" lon="12.322240"><ele>81.0</ele></trkpt>
      <trkpt lat="53.411668" lon="12.322073"><ele>80.2</ele></trkpt>
      <trkpt lat="53.411899" lon="12.321818"><ele>80.2</ele></trkpt>
      <trkpt lat="53.412105" lon="12.321685"><ele>80.0</ele></trkpt>
      <trkpt lat="53.412203" lon="12.321461"><ele>80.0</ele></trkpt>
      <trkpt lat="53.412477" lon="12.321413"><ele>80.8</ele></trkpt>
      <trkpt lat="53.412613" lon="12.321370"><ele>81.2</ele></trkpt>
      <trkpt lat="53.412913" lon="12.321249"><ele>82.5</ele></trkpt>
      <trkpt lat="53.413053" lon="12.321175"><ele>83.0</ele></trkpt>
      <trkpt lat="53.413083" lon="12.321141"><ele>83.2</ele></trkpt>
      <trkpt lat="53.413197" lon="12.321350"><ele>84.8</ele></trkpt>
      <trkpt lat="53.413293" lon="12.321503"><ele>86.0</ele></trkpt>
      <trkpt lat="53.413740" lon="12.321626"><ele>90.5</ele></trkpt>
      <trkpt lat="53.413949" lon="12.321817"><ele>93.0</ele></trkpt>
      <trkpt lat="53.414349" lon="12.321969"><ele>95.5</ele></trkpt>
      <trkpt lat="53.414758" lon="12.321998"><ele>98.0</ele></trkpt>
      <trkpt lat="53.415729" lon="12.322188"><ele>101.5</ele></trkpt>
      <trkpt lat="53.415929" lon="12.322283"><ele>101.5</ele></trkpt>
      <trkpt lat="53.416547" lon="12.322397"><ele>100.5</ele></trkpt>
      <trkpt lat="53.417242" lon="12.322569"><ele>99.8</ele></trkpt>
      <trkpt lat="53.417699" lon="12.322759"><ele>95.5</ele></trkpt>
      <trkpt lat="53.418441" lon="12.322883"><ele>95.2</ele></trkpt>
      <trkpt lat="53.419250" lon="12.323054"><ele>99.5</ele></trkpt>
      <trkpt lat="53.420363" lon="12.323273"><ele>93.5</ele></trkpt>
      <trkpt lat="53.420554" lon="12.323368"><ele>93.0</ele></trkpt>
      <trkpt lat="53.420792" lon="12.323435"><ele>92.0</ele></trkpt>
      <trkpt lat="53.420915" lon="12.323432"><ele>92.0</ele></trkpt>
      <trkpt lat="53.421660" lon="12.324430"><ele>90.8</ele></trkpt>
      <trkpt lat="53.422172" lon="12.324080"><ele>90.0</ele></trkpt>
      <trkpt lat="53.422374" lon="12.324374"><ele>89.0</ele></trkpt>
      <trkpt lat="53.422658" lon="12.324707"><ele>87.2</ele></trkpt>
      <trkpt lat="53.423199" lon="12.325364"><ele>87.0</ele></trkpt>
      <trkpt lat="53.424151" lon="12.326419"><ele>87.0</ele></trkpt>
      <trkpt lat="53.425335" lon="12.327792"><ele>82.8</ele></trkpt>
      <trkpt lat="53.425798" lon="12.328306"><ele>82.8</ele></trkpt>
      <trkpt lat="53.426205" lon="12.328787"><ele>80.2</ele></trkpt>
      <trkpt lat="53.426029" lon="12.329046"><ele>80.2</ele></trkpt>
      <trkpt lat="53.425683" lon="12.329416"><ele>80.0</ele></trkpt>
      <trkpt lat="53.425504" lon="12.329952"><ele>81.2</ele></trkpt>
      <trkpt lat="53.425370" lon="12.330966"><ele>86.2</ele></trkpt>
      <trkpt lat="53.425065" lon="12.333605"><ele>97.0</ele></trkpt>
      <trkpt lat="53.424775" lon="12.336003"><ele>95.8</ele></trkpt>
      <trkpt lat="53.424558" lon="12.338085"><ele>96.5</ele></trkpt>
      <trkpt lat="53.424436" lon="12.338627"><ele>97.0</ele></trkpt>
      <trkpt lat="53.424302" lon="12.339222"><ele>97.0</ele></trkpt>
      <trkpt lat="53.423740" lon="12.341196"><ele>98.0</ele></trkpt>
      <trkpt lat="53.423336" lon="12.342681"><ele>97.0</ele></trkpt>
      <trkpt lat="53.423130" lon="12.348929"><ele>102.0</ele></trkpt>
      <trkpt lat="53.423071" lon="12.350900"><ele>101.8</ele></trkpt>
      <trkpt lat="53.423816" lon="12.350702"><ele>102.0</ele></trkpt>
      <trkpt lat="53.424865" lon="12.350358"><ele>98.8</ele></trkpt>
      <trkpt lat="53.425900" lon="12.350101"><ele>92.2</ele></trkpt>
      <trkpt lat="53.426220" lon="12.351324"><ele>91.5</ele></trkpt>
      <trkpt lat="53.426578" lon="12.352955"><ele>92.2</ele></trkpt>
      <trkpt lat="53.426957" lon="12.354639"><ele>92.8</ele></trkpt>
      <trkpt lat="53.427153" lon="12.354604"><ele>92.0</ele></trkpt>
      <trkpt lat="53.427767" lon="12.354381"><ele>90.8</ele></trkpt>
      <trkpt lat="53.429008" lon="12.354019"><ele>95.0</ele></trkpt>
      <trkpt lat="53.428837" lon="12.351301"><ele>95.0</ele></trkpt>
      <trkpt lat="53.428676" lon="12.348897"><ele>95.0</ele></trkpt>
      <trkpt lat="53.428584" lon="12.347798"><ele>94.0</ele></trkpt>
      <trkpt lat="53.428356" lon="12.344214"><ele>95.5</ele></trkpt>
      <trkpt lat="53.428367" lon="12.344006"><ele>95.8</ele></trkpt>
      <trkpt lat="53.428653" lon="12.341587"><ele>92.0</ele></trkpt>
      <trkpt lat="53.431384" lon="12.341097"><ele>97.0</ele></trkpt>
      <trkpt lat="53.431878" lon="12.340993"><ele>97.0</ele></trkpt>
      <trkpt lat="53.433781" lon="12.340527"><ele>97.0</ele></trkpt>
      <trkpt lat="53.435389" lon="12.340067"><ele>95.0</ele></trkpt>
      <trkpt lat="53.435754" lon="12.342549"><ele>98.0</ele></trkpt>
      <trkpt lat="53.435842" lon="12.342298"><ele>97.2</ele></trkpt>
      <trkpt lat="53.438178" lon="12.340892"><ele>97.0</ele></trkpt>
      <trkpt lat="53.438622" lon="12.340648"><ele>97.0</ele></trkpt>
      <trkpt lat="53.438644" lon="12.340627"><ele>97.0</ele></trkpt>
      <trkpt lat="53.438675" lon="12.340598"><ele>97.0</ele></trkpt>
      <trkpt lat="53.438693" lon="12.340650"><ele>97.0</ele></trkpt>
      <trkpt lat="53.438724" lon="12.340620"><ele>97.0</ele></trkpt>
      <trkpt lat="53.438944" lon="12.340539"><ele>97.0</ele></trkpt>
      <trkpt lat="53.439491" lon="12.340222"><ele>97.0</ele></trkpt>
      <trkpt lat="53.442442" lon="12.338546"><ele>96.8</ele></trkpt>
      <trkpt lat="53.442661" lon="12.338489"><ele>97.0</ele></trkpt>
      <trkpt lat="53.442783" lon="12.338547"><ele>97.0</ele></trkpt>
      <trkpt lat="53.443229" lon="12.338759"><ele>97.0</ele></trkpt>
      <trkpt lat="53.444484" lon="12.339574"><ele>97.0</ele></trkpt>
      <trkpt lat="53.446097" lon="12.340492"><ele>97.0</ele></trkpt>
      <trkpt lat="53.448728" lon="12.342418"><ele>102.0</ele></trkpt>
      <trkpt lat="53.450527" lon="12.343566"><ele>97.0</ele></trkpt>
      <trkpt lat="53.451443" lon="12.343983"><ele>97.0</ele></trkpt>
      <trkpt lat="53.451399" lon="12.344271"><ele>96.8</ele></trkpt>
      <trkpt lat="53.451597" lon="12.345295"><ele>96.0</ele></trkpt>
      <trkpt lat="53.451742" lon="12.346589"><ele>93.8</ele></trkpt>
      <trkpt lat="53.452844" lon="12.354009"><ele>84.8</ele></trkpt>
      <trkpt lat="53.454309" lon="12.354198"><ele>79.5</ele></trkpt>
      <trkpt lat="53.454363" lon="12.354494"><ele>77.0</ele></trkpt>
      <trkpt lat="53.454834" lon="12.354162"><ele>74.0</ele></trkpt>
      <trkpt lat="53.456197" lon="12.354563"><ele>71.5</ele></trkpt>
      <trkpt lat="53.456797" lon="12.355887"><ele>71.2</ele></trkpt>
      <trkpt lat="53.457866" lon="12.357027"><ele>72.0</ele></trkpt>
      <trkpt lat="53.458562" lon="12.356596"><ele>69.0</ele></trkpt>
      <trkpt lat="53.458768" lon="12.356698"><ele>67.8</ele></trkpt>
      <trkpt lat="53.458658" lon="12.356856"><ele>68.5</ele></trkpt>
      <trkpt lat="53.458629" lon="12.357330"><ele>69.8</ele></trkpt>
      <trkpt lat="53.458620" lon="12.359093"><ele>72.0</ele></trkpt>
      <trkpt lat="53.458616" lon="12.359946"><ele>69.2</ele></trkpt>
      <trkpt lat="53.458524" lon="12.360827"><ele>67.0</ele></trkpt>
      <trkpt lat="53.458497" lon="12.361217"><ele>67.8</ele></trkpt>
      <trkpt lat="53.458440" lon="12.361686"><ele>69.0</ele></trkpt>
      <trkpt lat="53.458410" lon="12.362450"><ele>69.5</ele></trkpt>
      <trkpt lat="53.458492" lon="12.362840"><ele>70.0</ele></trkpt>
      <trkpt lat="53.458604" lon="12.363376"><ele>73.0</ele></trkpt>
      <trkpt lat="53.458579" lon="12.364791"><ele>77.0</ele></trkpt>
      <trkpt lat="53.458529" lon="12.367172"><ele>79.2</ele></trkpt>
      <trkpt lat="53.458512" lon="12.367843"><ele>79.0</ele></trkpt>
      <trkpt lat="53.458456" lon="12.369642"><ele>78.5</ele></trkpt>
      <trkpt lat="53.458440" lon="12.370157"><ele>78.0</ele></trkpt>
      <trkpt lat="53.458437" lon="12.370286"><ele>78.0</ele></trkpt>
      <trkpt lat="53.458417" lon="12.371619"><ele>77.5</ele></trkpt>
      <trkpt lat="53.458416" lon="12.372100"><ele>78.5</ele></trkpt>
      <trkpt lat="53.458414" lon="12.372560"><ele>78.2</ele></trkpt>
      <trkpt lat="53.458413" lon="12.372820"><ele>78.8</ele></trkpt>
      <trkpt lat="53.458413" lon="12.373039"><ele>79.2</ele></trkpt>
      <trkpt lat="53.458415" lon="12.373794"><ele>79.5</ele></trkpt>
      <trkpt lat="53.458415" lon="12.374065"><ele>79.8</ele></trkpt>
      <trkpt lat="53.458430" lon="12.374652"><ele>79.5</ele></trkpt>
      <trkpt lat="53.458431" lon="12.374703"><ele>79.5</ele></trkpt>
      <trkpt lat="53.458439" lon="12.374932"><ele>79.5</ele></trkpt>
      <trkpt lat="53.458429" lon="12.375468"><ele>79.2</ele></trkpt>
      <trkpt lat="53.458416" lon="12.375921"><ele>78.8</ele></trkpt>
      <trkpt lat="53.458391" lon="12.376205"><ele>78.2</ele></trkpt>
      <trkpt lat="53.458371" lon="12.376330"><ele>78.5</ele></trkpt>
      <trkpt lat="53.458331" lon="12.376579"><ele>78.2</ele></trkpt>
      <trkpt lat="53.458274" lon="12.376971"><ele>79.2</ele></trkpt>
      <trkpt lat="53.458281" lon="12.377225"><ele>79.5</ele></trkpt>
      <trkpt lat="53.458311" lon="12.377421"><ele>79.8</ele></trkpt>
      <trkpt lat="53.458389" lon="12.378070"><ele>83.2</ele></trkpt>
      <trkpt lat="53.458429" lon="12.378567"><ele>83.5</ele></trkpt>
      <trkpt lat="53.458439" lon="12.378807"><ele>84.0</ele></trkpt>
      <trkpt lat="53.458435" lon="12.379027"><ele>83.8</ele></trkpt>
      <trkpt lat="53.458380" lon="12.379283"><ele>83.5</ele></trkpt>
      <trkpt lat="53.458294" lon="12.379482"><ele>84.0</ele></trkpt>
      <trkpt lat="53.458086" lon="12.379825"><ele>84.0</ele></trkpt>
      <trkpt lat="53.457724" lon="12.380243"><ele>82.8</ele></trkpt>
      <trkpt lat="53.457655" lon="12.380356"><ele>82.5</ele></trkpt>
      <trkpt lat="53.457598" lon="12.380572"><ele>81.0</ele></trkpt>
      <trkpt lat="53.457572" lon="12.380772"><ele>79.0</ele></trkpt>
      <trkpt lat="53.457572" lon="12.380983"><ele>77.0</ele></trkpt>
      <trkpt lat="53.457618" lon="12.381234"><ele>74.5</ele></trkpt>
      <trkpt lat="53.457817" lon="12.382254"><ele>70.0</ele></trkpt>
      <trkpt lat="53.457821" lon="12.382377"><ele>70.0</ele></trkpt>
      <trkpt lat="53.457791" lon="12.382474"><ele>70.0</ele></trkpt>
      <trkpt lat="53.457738" lon="12.382527"><ele>70.0</ele></trkpt>
      <trkpt lat="53.456559" lon="12.383265"><ele>72.2</ele></trkpt>
      <trkpt lat="53.456376" lon="12.383392"><ele>73.8</ele></trkpt>
      <trkpt lat="53.456413" lon="12.383541"><ele>75.0</ele></trkpt>
      <trkpt lat="53.456409" lon="12.383653"><ele>76.0</ele></trkpt>
      <trkpt lat="53.456413" lon="12.383704"><ele>76.2</ele></trkpt>
      <trkpt lat="53.456451" lon="12.383842"><ele>76.8</ele></trkpt>
      <trkpt lat="53.456623" lon="12.384591"><ele>79.0</ele></trkpt>
      <trkpt lat="53.456745" lon="12.385087"><ele>80.0</ele></trkpt>
      <trkpt lat="53.456992" lon="12.386017"><ele>80.5</ele></trkpt>
      <trkpt lat="53.457048" lon="12.386203"><ele>80.2</ele></trkpt>
      <trkpt lat="53.457180" lon="12.386695"><ele>80.2</ele></trkpt>
      <trkpt lat="53.457412" lon="12.387444"><ele>78.0</ele></trkpt>
      <trkpt lat="53.457497" lon="12.387620"><ele>77.0</ele></trkpt>
      <trkpt lat="53.457539" lon="12.387782"><ele>76.5</ele></trkpt>
      <trkpt lat="53.457588" lon="12.387978"><ele>76.0</ele></trkpt>
      <trkpt lat="53.457588" lon="12.388081"><ele>76.0</ele></trkpt>
      <trkpt lat="53.457605" lon="12.388199"><ele>75.8</ele></trkpt>
      <trkpt lat="53.457682" lon="12.388572"><ele>74.5</ele></trkpt>
      <trkpt lat="53.457931" lon="12.389588"><ele>73.2</ele></trkpt>
      <trkpt lat="53.458005" lon="12.389915"><ele>73.0</ele></trkpt>
      <trkpt lat="53.458082" lon="12.390316"><ele>72.0</ele></trkpt>
      <trkpt lat="53.458166" lon="12.390836"><ele>72.0</ele></trkpt>
      <trkpt lat="53.458188" lon="12.390934"><ele>72.0</ele></trkpt>
      <trkpt lat="53.458250" lon="12.391103"><ele>71.5</ele></trkpt>
      <trkpt lat="53.458264" lon="12.391166"><ele>71.2</ele></trkpt>
      <trkpt lat="53.458317" lon="12.391586"><ele>71.0</ele></trkpt>
      <trkpt lat="53.458591" lon="12.393795"><ele>69.0</ele></trkpt>
      <trkpt lat="53.458793" lon="12.395528"><ele>66.5</ele></trkpt>
      <trkpt lat="53.458917" lon="12.396237"><ele>66.2</ele></trkpt>
      <trkpt lat="53.459049" lon="12.396838"><ele>65.8</ele></trkpt>
      <trkpt lat="53.459451" lon="12.398428"><ele>66.2</ele></trkpt>
      <trkpt lat="53.459627" lon="12.399299"><ele>66.2</ele></trkpt>
      <trkpt lat="53.459745" lon="12.399978"><ele>66.8</ele></trkpt>
      <trkpt lat="53.459807" lon="12.400451"><ele>66.5</ele></trkpt>
      <trkpt lat="53.459908" lon="12.401587"><ele>67.0</ele></trkpt>
      <trkpt lat="53.459969" lon="12.403708"><ele>67.0</ele></trkpt>
      <trkpt lat="53.459995" lon="12.404520"><ele>68.0</ele></trkpt>
      <trkpt lat="53.460038" lon="12.405109"><ele>67.8</ele></trkpt>
      <trkpt lat="53.460131" lon="12.405812"><ele>67.5</ele></trkpt>
      <trkpt lat="53.460441" lon="12.408042"><ele>67.0</ele></trkpt>
      <trkpt lat="53.460490" lon="12.408633"><ele>67.2</ele></trkpt>
      <trkpt lat="53.460528" lon="12.409392"><ele>67.0</ele></trkpt>
      <trkpt lat="53.460552" lon="12.410758"><ele>66.0</ele></trkpt>
      <trkpt lat="53.460571" lon="12.413700"><ele>65.8</ele></trkpt>
      <trkpt lat="53.460570" lon="12.414492"><ele>65.8</ele></trkpt>
      <trkpt lat="53.460568" lon="12.415405"><ele>65.8</ele></trkpt>
      <trkpt lat="53.460593" lon="12.416046"><ele>65.8</ele></trkpt>
      <trkpt lat="53.460624" lon="12.416476"><ele>65.8</ele></trkpt>
      <trkpt lat="53.460675" lon="12.416902"><ele>66.0</ele></trkpt>
      <trkpt lat="53.460765" lon="12.417429"><ele>66.0</ele></trkpt>
      <trkpt lat="53.460865" lon="12.417875"><ele>65.8</ele></trkpt>
      <trkpt lat="53.460975" lon="12.418267"><ele>65.2</ele></trkpt>
      <trkpt lat="53.461094" lon="12.418652"><ele>66.0</ele></trkpt>
      <trkpt lat="53.461188" lon="12.418947"><ele>65.8</ele></trkpt>
      <trkpt lat="53.461286" lon="12.419226"><ele>66.0</ele></trkpt>
      <trkpt lat="53.461423" lon="12.419554"><ele>66.0</ele></trkpt>
      <trkpt lat="53.461842" lon="12.420418"><ele>66.0</ele></trkpt>
      <trkpt lat="53.461897" lon="12.420497"><ele>66.0</ele></trkpt>
      <trkpt lat="53.461952" lon="12.420531"><ele>66.0</ele></trkpt>
      <trkpt lat="53.461987" lon="12.420577"><ele>66.0</ele></trkpt>
      <trkpt lat="53.462067" lon="12.420845"><ele>66.0</ele></trkpt>
      <trkpt lat="53.462371" lon="12.421453"><ele>66.0</ele></trkpt>
      <trkpt lat="53.463356" lon="12.423758"><ele>66.8</ele></trkpt>
      <trkpt lat="53.463387" lon="12.423827"><ele>66.8</ele></trkpt>
      <trkpt lat="53.463391" lon="12.423853"><ele>66.8</ele></trkpt>
      <trkpt lat="53.463387" lon="12.423947"><ele>66.8</ele></trkpt>
      <trkpt lat="53.463396" lon="12.423990"><ele>66.8</ele></trkpt>
      <trkpt lat="53.463428" lon="12.424074"><ele>66.8</ele></trkpt>
      <trkpt lat="53.464495" lon="12.426347"><ele>62.0</ele></trkpt>
      <trkpt lat="53.464610" lon="12.426375"><ele>62.5</ele></trkpt>
      <trkpt lat="53.464657" lon="12.426417"><ele>62.8</ele></trkpt>
      <trkpt lat="53.464702" lon="12.426483"><ele>62.8</ele></trkpt>
      <trkpt lat="53.464743" lon="12.426587"><ele>63.0</ele></trkpt>
      <trkpt lat="53.464815" lon="12.426894"><ele>63.8</ele></trkpt>
      <trkpt lat="53.464866" lon="12.427046"><ele>64.0</ele></trkpt>
      <trkpt lat="53.464977" lon="12.427295"><ele>64.2</ele></trkpt>
      <trkpt lat="53.465085" lon="12.427486"><ele>64.8</ele></trkpt>
      <trkpt lat="53.465430" lon="12.428088"><ele>67.5</ele></trkpt>
      <trkpt lat="53.465871" lon="12.428826"><ele>71.8</ele></trkpt>
      <trkpt lat="53.466397" lon="12.429451"><ele>74.0</ele></trkpt>
      <trkpt lat="53.466702" lon="12.429645"><ele>75.0</ele></trkpt>
      <trkpt lat="53.466757" lon="12.429668"><ele>75.2</ele></trkpt>
      <trkpt lat="53.466932" lon="12.429743"><ele>76.0</ele></trkpt>
      <trkpt lat="53.467274" lon="12.429891"><ele>78.0</ele></trkpt>
      <trkpt lat="53.467493" lon="12.429993"><ele>78.0</ele></trkpt>
      <trkpt lat="53.467672" lon="12.430069"><ele>78.0</ele></trkpt>
      <trkpt lat="53.467769" lon="12.430110"><ele>78.0</ele></trkpt>
      <trkpt lat="53.468394" lon="12.430364"><ele>75.8</ele></trkpt>
      <trkpt lat="53.468641" lon="12.430463"><ele>77.2</ele></trkpt>
      <trkpt lat="53.468565" lon="12.430529"><ele>77.5</ele></trkpt>
      <trkpt lat="53.468539" lon="12.430579"><ele>78.0</ele></trkpt>
      <trkpt lat="53.468488" lon="12.430681"><ele>78.0</ele></trkpt>
      <trkpt lat="53.468163" lon="12.431372"><ele>79.8</ele></trkpt>
      <trkpt lat="53.468082" lon="12.431644"><ele>80.0</ele></trkpt>
      <trkpt lat="53.467993" lon="12.431812"><ele>80.0</ele></trkpt>
      <trkpt lat="53.467950" lon="12.431846"><ele>80.0</ele></trkpt>
      <trkpt lat="53.467918" lon="12.431871"><ele>80.0</ele></trkpt>
      <trkpt lat="53.467857" lon="12.431919"><ele>80.0</ele></trkpt>
      <trkpt lat="53.467826" lon="12.431961"><ele>80.0</ele></trkpt>
      <trkpt lat="53.467758" lon="12.432135"><ele>80.0</ele></trkpt>
      <trkpt lat="53.467713" lon="12.432289"><ele>80.0</ele></trkpt>
      <trkpt lat="53.467700" lon="12.432333"><ele>80.2</ele></trkpt>
      <trkpt lat="53.467660" lon="12.432472"><ele>80.5</ele></trkpt>
      <trkpt lat="53.467582" lon="12.432741"><ele>80.8</ele></trkpt>
      <trkpt lat="53.467551" lon="12.432824"><ele>81.0</ele></trkpt>
      <trkpt lat="53.467516" lon="12.432914"><ele>81.0</ele></trkpt>
      <trkpt lat="53.467485" lon="12.433022"><ele>80.8</ele></trkpt>
      <trkpt lat="53.467459" lon="12.433110"><ele>80.8</ele></trkpt>
      <trkpt lat="53.467420" lon="12.433173"><ele>80.5</ele></trkpt>
      <trkpt lat="53.467379" lon="12.433240"><ele>80.5</ele></trkpt>
      <trkpt lat="53.467064" lon="12.432728"><ele>79.8</ele></trkpt>
      <trkpt lat="53.466887" lon="12.432502"><ele>78.8</ele></trkpt>
      <trkpt lat="53.466721" lon="12.432520"><ele>78.2</ele></trkpt>
      <trkpt lat="53.466541" lon="12.432700"><ele>78.8</ele></trkpt>
      <trkpt lat="53.466319" lon="12.432997"><ele>79.0</ele></trkpt>
      <trkpt lat="53.465974" lon="12.433302"><ele>77.5</ele></trkpt>
      <trkpt lat="53.465468" lon="12.433880"><ele>77.0</ele></trkpt>
      <trkpt lat="53.464973" lon="12.434395"><ele>77.0</ele></trkpt>
      <trkpt lat="53.464924" lon="12.434401"><ele>77.0</ele></trkpt>
      <trkpt lat="53.464459" lon="12.434735"><ele>77.0</ele></trkpt>
      <trkpt lat="53.464009" lon="12.435306"><ele>77.2</ele></trkpt>
      <trkpt lat="53.463770" lon="12.435750"><ele>77.0</ele></trkpt>
      <trkpt lat="53.463492" lon="12.436165"><ele>77.2</ele></trkpt>
      <trkpt lat="53.463381" lon="12.436244"><ele>77.2</ele></trkpt>
      <trkpt lat="53.462637" lon="12.436779"><ele>79.5</ele></trkpt>
      <trkpt lat="53.462407" lon="12.437105"><ele>80.0</ele></trkpt>
      <trkpt lat="53.462100" lon="12.437572"><ele>80.0</ele></trkpt>
      <trkpt lat="53.461662" lon="12.438145"><ele>81.0</ele></trkpt>
      <trkpt lat="53.462290" lon="12.439597"><ele>82.2</ele></trkpt>
      <trkpt lat="53.462338" lon="12.439709"><ele>82.8</ele></trkpt>
      <trkpt lat="53.462699" lon="12.440444"><ele>84.8</ele></trkpt>
      <trkpt lat="53.462914" lon="12.440934"><ele>85.2</ele></trkpt>
      <trkpt lat="53.462964" lon="12.441101"><ele>85.5</ele></trkpt>
      <trkpt lat="53.461338" lon="12.443398"><ele>85.8</ele></trkpt>
      <trkpt lat="53.459763" lon="12.445815"><ele>84.0</ele></trkpt>
      <trkpt lat="53.460676" lon="12.448266"><ele>85.0</ele></trkpt>
      <trkpt lat="53.460313" lon="12.448592"><ele>85.0</ele></trkpt>
      <trkpt lat="53.459771" lon="12.449052"><ele>85.0</ele></trkpt>
      <trkpt lat="53.456066" lon="12.452086"><ele>76.5</ele></trkpt>
      <trkpt lat="53.454377" lon="12.454243"><ele>70.8</ele></trkpt>
      <trkpt lat="53.453619" lon="12.455170"><ele>69.8</ele></trkpt>
      <trkpt lat="53.452925" lon="12.456269"><ele>68.5</ele></trkpt>
      <trkpt lat="53.452733" lon="12.456959"><ele>68.8</ele></trkpt>
      <trkpt lat="53.452450" lon="12.457539"><ele>68.0</ele></trkpt>
      <trkpt lat="53.449710" lon="12.461178"><ele>73.5</ele></trkpt>
      <trkpt lat="53.448776" lon="12.463193"><ele>75.5</ele></trkpt>
      <trkpt lat="53.448726" lon="12.463302"><ele>75.2</ele></trkpt>
      <trkpt lat="53.448617" lon="12.463614"><ele>75.0</ele></trkpt>
      <trkpt lat="53.448607" lon="12.463648"><ele>74.8</ele></trkpt>
      <trkpt lat="53.448592" lon="12.463704"><ele>74.8</ele></trkpt>
      <trkpt lat="53.448428" lon="12.464028"><ele>73.5</ele></trkpt>
      <trkpt lat="53.448306" lon="12.464184"><ele>72.8</ele></trkpt>
      <trkpt lat="53.448147" lon="12.464423"><ele>72.2</ele></trkpt>
      <trkpt lat="53.447415" lon="12.465522"><ele>72.2</ele></trkpt>
      <trkpt lat="53.447383" lon="12.465571"><ele>72.2</ele></trkpt>
      <trkpt lat="53.446891" lon="12.466310"><ele>73.0</ele></trkpt>
      <trkpt lat="53.446744" lon="12.466421"><ele>73.5</ele></trkpt>
      <trkpt lat="53.446329" lon="12.466750"><ele>75.2</ele></trkpt>
      <trkpt lat="53.446057" lon="12.466985"><ele>77.0</ele></trkpt>
      <trkpt lat="53.444635" lon="12.467819"><ele>80.0</ele></trkpt>
      <trkpt lat="53.442966" lon="12.469536"><ele>78.0</ele></trkpt>
      <trkpt lat="53.442299" lon="12.473476"><ele>80.0</ele></trkpt>
      <trkpt lat="53.442235" lon="12.473905"><ele>80.0</ele></trkpt>
      <trkpt lat="53.441971" lon="12.475002"><ele>80.0</ele></trkpt>
      <trkpt lat="53.440979" lon="12.478186"><ele>76.0</ele></trkpt>
      <trkpt lat="53.440683" lon="12.479086"><ele>76.2</ele></trkpt>
      <trkpt lat="53.440510" lon="12.479548"><ele>75.8</ele></trkpt>
      <trkpt lat="53.439699" lon="12.481729"><ele>76.2</ele></trkpt>
      <trkpt lat="53.438616" lon="12.484678"><ele>78.0</ele></trkpt>
      <trkpt lat="53.436415" lon="12.490662"><ele>83.2</ele></trkpt>
      <trkpt lat="53.434975" lon="12.496671"><ele>83.0</ele></trkpt>
      <trkpt lat="53.434774" lon="12.497535"><ele>83.2</ele></trkpt>
      <trkpt lat="53.434694" lon="12.497879"><ele>84.0</ele></trkpt>
      <trkpt lat="53.434613" lon="12.498226"><ele>84.0</ele></trkpt>
      <trkpt lat="53.434561" lon="12.498447"><ele>84.0</ele></trkpt>
      <trkpt lat="53.434499" lon="12.498712"><ele>84.2</ele></trkpt>
      <trkpt lat="53.434174" lon="12.500136"><ele>85.0</ele></trkpt>
      <trkpt lat="53.434173" lon="12.500191"><ele>85.0</ele></trkpt>
      <trkpt lat="53.434238" lon="12.500253"><ele>85.0</ele></trkpt>
      <trkpt lat="53.434417" lon="12.500549"><ele>85.8</ele></trkpt>
      <trkpt lat="53.434038" lon="12.500989"><ele>85.5</ele></trkpt>
      <trkpt lat="53.433991" lon="12.501044"><ele>85.2</ele></trkpt>
      <trkpt lat="53.433768" lon="12.501342"><ele>85.2</ele></trkpt>
      <trkpt lat="53.433766" lon="12.501576"><ele>86.0</ele></trkpt>
      <trkpt lat="53.433731" lon="12.501778"><ele>86.5</ele></trkpt>
      <trkpt lat="53.433718" lon="12.501853"><ele>86.8</ele></trkpt>
      <trkpt lat="53.433607" lon="12.502500"><ele>87.0</ele></trkpt>
      <trkpt lat="53.433539" lon="12.502892"><ele>87.0</ele></trkpt>
      <trkpt lat="53.433459" lon="12.503337"><ele>87.0</ele></trkpt>
      <trkpt lat="53.433414" lon="12.503517"><ele>87.2</ele></trkpt>
      <trkpt lat="53.433287" lon="12.503760"><ele>88.0</ele></trkpt>
      <trkpt lat="53.433177" lon="12.503940"><ele>88.0</ele></trkpt>
      <trkpt lat="53.432963" lon="12.504254"><ele>88.0</ele></trkpt>
      <trkpt lat="53.431963" lon="12.505759"><ele>88.0</ele></trkpt>
      <trkpt lat="53.431557" lon="12.506233"><ele>87.2</ele></trkpt>
      <trkpt lat="53.430548" lon="12.506892"><ele>84.8</ele></trkpt>
      <trkpt lat="53.429213" lon="12.507853"><ele>78.5</ele></trkpt>
      <trkpt lat="53.428963" lon="12.508179"><ele>78.5</ele></trkpt>
      <trkpt lat="53.428553" lon="12.509036"><ele>78.8</ele></trkpt>
      <trkpt lat="53.428272" lon="12.510076"><ele>78.5</ele></trkpt>
      <trkpt lat="53.428037" lon="12.510393"><ele>78.2</ele></trkpt>
      <trkpt lat="53.427566" lon="12.510651"><ele>78.2</ele></trkpt>
      <trkpt lat="53.427019" lon="12.511106"><ele>76.5</ele></trkpt>
      <trkpt lat="53.426708" lon="12.511226"><ele>75.0</ele></trkpt>
      <trkpt lat="53.426256" lon="12.511289"><ele>75.0</ele></trkpt>
      <trkpt lat="53.425907" lon="12.511337"><ele>75.0</ele></trkpt>
      <trkpt lat="53.425353" lon="12.511730"><ele>75.5</ele></trkpt>
      <trkpt lat="53.424205" lon="12.512705"><ele>80.0</ele></trkpt>
      <trkpt lat="53.424063" lon="12.512825"><ele>79.2</ele></trkpt>
      <trkpt lat="53.423667" lon="12.513000"><ele>77.5</ele></trkpt>
      <trkpt lat="53.423487" lon="12.513037"><ele>76.0</ele></trkpt>
      <trkpt lat="53.423248" lon="12.513117"><ele>74.5</ele></trkpt>
      <trkpt lat="53.422867" lon="12.513629"><ele>75.2</ele></trkpt>
      <trkpt lat="53.422606" lon="12.513947"><ele>77.8</ele></trkpt>
      <trkpt lat="53.421864" lon="12.514565"><ele>82.0</ele></trkpt>
      <trkpt lat="53.421765" lon="12.514683"><ele>82.0</ele></trkpt>
      <trkpt lat="53.421230" lon="12.515364"><ele>82.0</ele></trkpt>
      <trkpt lat="53.420765" lon="12.515775"><ele>82.0</ele></trkpt>
      <trkpt lat="53.417740" lon="12.518136"><ele>77.2</ele></trkpt>
      <trkpt lat="53.417538" lon="12.518347"><ele>78.8</ele></trkpt>
      <trkpt lat="53.417374" lon="12.518588"><ele>79.2</ele></trkpt>
      <trkpt lat="53.417205" lon="12.519028"><ele>80.2</ele></trkpt>
      <trkpt lat="53.416989" lon="12.519623"><ele>78.2</ele></trkpt>
      <trkpt lat="53.416790" lon="12.519993"><ele>76.8</ele></trkpt>
      <trkpt lat="53.416643" lon="12.520215"><ele>76.5</ele></trkpt>
      <trkpt lat="53.416454" lon="12.520424"><ele>75.8</ele></trkpt>
      <trkpt lat="53.416039" lon="12.520853"><ele>74.8</ele></trkpt>
      <trkpt lat="53.415970" lon="12.520905"><ele>74.5</ele></trkpt>
      <trkpt lat="53.415439" lon="12.521208"><ele>75.5</ele></trkpt>
      <trkpt lat="53.415108" lon="12.521371"><ele>76.0</ele></trkpt>
      <trkpt lat="53.414892" lon="12.521399"><ele>76.0</ele></trkpt>
      <trkpt lat="53.414641" lon="12.521380"><ele>75.8</ele></trkpt>
      <trkpt lat="53.414590" lon="12.521447"><ele>76.0</ele></trkpt>
      <trkpt lat="53.414592" lon="12.521530"><ele>76.5</ele></trkpt>
      <trkpt lat="53.414631" lon="12.521703"><ele>77.0</ele></trkpt>
      <trkpt lat="53.414676" lon="12.521800"><ele>77.5</ele></trkpt>
      <trkpt lat="53.414828" lon="12.521946"><ele>77.5</ele></trkpt>
      <trkpt lat="53.415157" lon="12.522195"><ele>77.8</ele></trkpt>
      <trkpt lat="53.415457" lon="12.522518"><ele>79.0</ele></trkpt>
      <trkpt lat="53.415719" lon="12.522993"><ele>79.8</ele></trkpt>
      <trkpt lat="53.416416" lon="12.523869"><ele>80.0</ele></trkpt>
      <trkpt lat="53.416492" lon="12.524068"><ele>81.2</ele></trkpt>
      <trkpt lat="53.416601" lon="12.524859"><ele>85.2</ele></trkpt>
      <trkpt lat="53.416595" lon="12.524967"><ele>85.8</ele></trkpt>
      <trkpt lat="53.416347" lon="12.525278"><ele>86.0</ele></trkpt>
      <trkpt lat="53.414289" lon="12.528819"><ele>87.0</ele></trkpt>
      <trkpt lat="53.413664" lon="12.529944"><ele>82.5</ele></trkpt>
      <trkpt lat="53.412072" lon="12.532813"><ele>82.5</ele></trkpt>
      <trkpt lat="53.409473" lon="12.537066"><ele>80.0</ele></trkpt>
      <trkpt lat="53.409297" lon="12.537355"><ele>80.0</ele></trkpt>
      <trkpt lat="53.408475" lon="12.538700"><ele>79.0</ele></trkpt>
      <trkpt lat="53.406942" lon="12.540978"><ele>77.0</ele></trkpt>
      <trkpt lat="53.406545" lon="12.541633"><ele>79.2</ele></trkpt>
      <trkpt lat="53.406457" lon="12.541782"><ele>79.8</ele></trkpt>
      <trkpt lat="53.406134" lon="12.542323"><ele>79.8</ele></trkpt>
      <trkpt lat="53.406043" lon="12.542482"><ele>80.0</ele></trkpt>
      <trkpt lat="53.405931" lon="12.542681"><ele>80.0</ele></trkpt>
      <trkpt lat="53.405814" lon="12.542980"><ele>80.0</ele></trkpt>
      <trkpt lat="53.405735" lon="12.543256"><ele>80.0</ele></trkpt>
      <trkpt lat="53.405603" lon="12.543622"><ele>79.0</ele></trkpt>
      <trkpt lat="53.405406" lon="12.543367"><ele>79.8</ele></trkpt>
      <trkpt lat="53.404568" lon="12.542274"><ele>80.0</ele></trkpt>
      <trkpt lat="53.404311" lon="12.541929"><ele>80.0</ele></trkpt>
      <trkpt lat="53.404016" lon="12.541553"><ele>80.0</ele></trkpt>
      <trkpt lat="53.403156" lon="12.540432"><ele>80.0</ele></trkpt>
      <trkpt lat="53.403095" lon="12.540357"><ele>80.0</ele></trkpt>
      <trkpt lat="53.401759" lon="12.538608"><ele>80.0</ele></trkpt>
      <trkpt lat="53.398839" lon="12.534811"><ele>80.8</ele></trkpt>
      <trkpt lat="53.398118" lon="12.533903"><ele>80.0</ele></trkpt>
      <trkpt lat="53.397971" lon="12.534197"><ele>79.2</ele></trkpt>
      <trkpt lat="53.397868" lon="12.534581"><ele>77.8</ele></trkpt>
      <trkpt lat="53.397736" lon="12.534926"><ele>75.8</ele></trkpt>
      <trkpt lat="53.396485" lon="12.537198"><ele>77.0</ele></trkpt>
      <trkpt lat="53.395068" lon="12.539834"><ele>73.5</ele></trkpt>
      <trkpt lat="53.394963" lon="12.540074"><ele>72.5</ele></trkpt>
      <trkpt lat="53.394877" lon="12.540368"><ele>71.2</ele></trkpt>
      <trkpt lat="53.394838" lon="12.540601"><ele>69.2</ele></trkpt>
      <trkpt lat="53.394818" lon="12.540827"><ele>67.2</ele></trkpt>
      <trkpt lat="53.394761" lon="12.541173"><ele>66.2</ele></trkpt>
      <trkpt lat="53.394692" lon="12.541417"><ele>68.2</ele></trkpt>
      <trkpt lat="53.394557" lon="12.541662"><ele>70.5</ele></trkpt>
      <trkpt lat="53.394393" lon="12.541808"><ele>71.5</ele></trkpt>
      <trkpt lat="53.393885" lon="12.542269"><ele>73.0</ele></trkpt>
      <trkpt lat="53.393460" lon="12.542580"><ele>74.2</ele></trkpt>
      <trkpt lat="53.392890" lon="12.542871"><ele>75.0</ele></trkpt>
      <trkpt lat="53.392082" lon="12.543167"><ele>73.5</ele></trkpt>
      <trkpt lat="53.391308" lon="12.543497"><ele>73.0</ele></trkpt>
      <trkpt lat="53.390500" lon="12.543781"><ele>71.2</ele></trkpt>
      <trkpt lat="53.390121" lon="12.543943"><ele>70.8</ele></trkpt>
      <trkpt lat="53.389970" lon="12.544717"><ele>70.0</ele></trkpt>
      <trkpt lat="53.389933" lon="12.544866"><ele>70.0</ele></trkpt>
      <trkpt lat="53.389755" lon="12.545586"><ele>70.0</ele></trkpt>
      <trkpt lat="53.389669" lon="12.545930"><ele>71.2</ele></trkpt>
      <trkpt lat="53.389671" lon="12.546308"><ele>72.2</ele></trkpt>
      <trkpt lat="53.389850" lon="12.547759"><ele>74.5</ele></trkpt>
      <trkpt lat="53.389868" lon="12.548583"><ele>75.8</ele></trkpt>
      <trkpt lat="53.389822" lon="12.549693"><ele>78.8</ele></trkpt>
      <trkpt lat="53.389781" lon="12.550571"><ele>81.8</ele></trkpt>
      <trkpt lat="53.389707" lon="12.551624"><ele>84.8</ele></trkpt>
      <trkpt lat="53.389568" lon="12.552369"><ele>86.2</ele></trkpt>
      <trkpt lat="53.388127" lon="12.558227"><ele>87.0</ele></trkpt>
      <trkpt lat="53.386995" lon="12.560992"><ele>84.5</ele></trkpt>
      <trkpt lat="53.385509" lon="12.564294"><ele>82.0</ele></trkpt>
      <trkpt lat="53.381451" lon="12.570554"><ele>80.8</ele></trkpt>
      <trkpt lat="53.376847" lon="12.575338"><ele>78.5</ele></trkpt>
      <trkpt lat="53.376481" lon="12.575753"><ele>78.0</ele></trkpt>
      <trkpt lat="53.376342" lon="12.575942"><ele>77.5</ele></trkpt>
      <trkpt lat="53.376189" lon="12.576186"><ele>77.0</ele></trkpt>
      <trkpt lat="53.376065" lon="12.576414"><ele>77.0</ele></trkpt>
      <trkpt lat="53.375762" lon="12.577062"><ele>77.0</ele></trkpt>
      <trkpt lat="53.374780" lon="12.579273"><ele>75.8</ele></trkpt>
      <trkpt lat="53.374577" lon="12.579709"><ele>75.0</ele></trkpt>
      <trkpt lat="53.374383" lon="12.580084"><ele>74.5</ele></trkpt>
      <trkpt lat="53.374257" lon="12.580289"><ele>74.0</ele></trkpt>
      <trkpt lat="53.374018" lon="12.580617"><ele>74.2</ele></trkpt>
      <trkpt lat="53.373805" lon="12.580865"><ele>74.2</ele></trkpt>
      <trkpt lat="53.373415" lon="12.581243"><ele>74.2</ele></trkpt>
      <trkpt lat="53.372923" lon="12.581658"><ele>75.0</ele></trkpt>
      <trkpt lat="53.372260" lon="12.582232"><ele>74.8</ele></trkpt>
      <trkpt lat="53.372206" lon="12.582282"><ele>75.0</ele></trkpt>
      <trkpt lat="53.372044" lon="12.582426"><ele>75.0</ele></trkpt>
      <trkpt lat="53.371626" lon="12.582780"><ele>74.8</ele></trkpt>
      <trkpt lat="53.371523" lon="12.582876"><ele>74.5</ele></trkpt>
      <trkpt lat="53.371575" lon="12.583047"><ele>74.0</ele></trkpt>
      <trkpt lat="53.372040" lon="12.584551"><ele>70.5</ele></trkpt>
      <trkpt lat="53.372195" lon="12.585071"><ele>69.8</ele></trkpt>
      <trkpt lat="53.372314" lon="12.585450"><ele>69.2</ele></trkpt>
      <trkpt lat="53.372429" lon="12.585775"><ele>68.8</ele></trkpt>
      <trkpt lat="53.372526" lon="12.586001"><ele>68.2</ele></trkpt>
      <trkpt lat="53.372684" lon="12.586297"><ele>67.8</ele></trkpt>
      <trkpt lat="53.372762" lon="12.586470"><ele>67.5</ele></trkpt>
      <trkpt lat="53.372813" lon="12.586637"><ele>67.0</ele></trkpt>
      <trkpt lat="53.372840" lon="12.586789"><ele>67.0</ele></trkpt>
      <trkpt lat="53.372844" lon="12.586877"><ele>67.0</ele></trkpt>
      <trkpt lat="53.372822" lon="12.587061"><ele>67.0</ele></trkpt>
      <trkpt lat="53.372798" lon="12.587214"><ele>67.0</ele></trkpt>
      <trkpt lat="53.372791" lon="12.587327"><ele>66.5</ele></trkpt>
      <trkpt lat="53.372787" lon="12.587414"><ele>66.2</ele></trkpt>
      <trkpt lat="53.372794" lon="12.587566"><ele>66.0</ele></trkpt>
      <trkpt lat="53.372761" lon="12.587595"><ele>65.8</ele></trkpt>
      <trkpt lat="53.372715" lon="12.587687"><ele>65.8</ele></trkpt>
      <trkpt lat="53.372813" lon="12.587956"><ele>65.2</ele></trkpt>
      <trkpt lat="53.372896" lon="12.588107"><ele>65.2</ele></trkpt>
      <trkpt lat="53.373052" lon="12.588558"><ele>65.8</ele></trkpt>
      <trkpt lat="53.373296" lon="12.589246"><ele>67.0</ele></trkpt>
      <trkpt lat="53.373324" lon="12.589381"><ele>67.0</ele></trkpt>
      <trkpt lat="53.373352" lon="12.589511"><ele>67.0</ele></trkpt>
      <trkpt lat="53.373482" lon="12.589893"><ele>67.0</ele></trkpt>
      <trkpt lat="53.373511" lon="12.590007"><ele>67.0</ele></trkpt>
      <trkpt lat="53.373950" lon="12.591259"><ele>65.5</ele></trkpt>
      <trkpt lat="53.374027" lon="12.591475"><ele>65.2</ele></trkpt>
      <trkpt lat="53.374108" lon="12.591655"><ele>65.8</ele></trkpt>
      <trkpt lat="53.374150" lon="12.591723"><ele>65.5</ele></trkpt>
      <trkpt lat="53.374311" lon="12.592175"><ele>65.5</ele></trkpt>
      <trkpt lat="53.374354" lon="12.592177"><ele>65.5</ele></trkpt>
      <trkpt lat="53.374476" lon="12.592511"><ele>65.0</ele></trkpt>
      <trkpt lat="53.374547" lon="12.592743"><ele>65.2</ele></trkpt>
      <trkpt lat="53.374637" lon="12.593103"><ele>65.0</ele></trkpt>
      <trkpt lat="53.374680" lon="12.593326"><ele>65.0</ele></trkpt>
      <trkpt lat="53.374710" lon="12.593568"><ele>65.0</ele></trkpt>
      <trkpt lat="53.374765" lon="12.594281"><ele>65.0</ele></trkpt>
      <trkpt lat="53.374795" lon="12.594720"><ele>65.0</ele></trkpt>
      <trkpt lat="53.374818" lon="12.595049"><ele>64.8</ele></trkpt>
      <trkpt lat="53.374822" lon="12.595215"><ele>65.0</ele></trkpt>
      <trkpt lat="53.374824" lon="12.595303"><ele>65.0</ele></trkpt>
      <trkpt lat="53.374814" lon="12.595469"><ele>65.0</ele></trkpt>
      <trkpt lat="53.374810" lon="12.595534"><ele>65.0</ele></trkpt>
      <trkpt lat="53.374768" lon="12.595792"><ele>65.0</ele></trkpt>
      <trkpt lat="53.374704" lon="12.596072"><ele>65.0</ele></trkpt>
      <trkpt lat="53.374958" lon="12.597600"><ele>65.5</ele></trkpt>
      <trkpt lat="53.375080" lon="12.598292"><ele>65.5</ele></trkpt>
      <trkpt lat="53.375122" lon="12.598551"><ele>66.0</ele></trkpt>
      <trkpt lat="53.375157" lon="12.599888"><ele>69.2</ele></trkpt>
      <trkpt lat="53.375155" lon="12.600006"><ele>67.8</ele></trkpt>
    </trkseg>
  </trk>
</gpx>
