<?xml version="1.0" encoding="UTF-8"?>
<gpx version="1.1" creator="Gravel Kompass" xmlns="http://www.topografix.com/GPX/1/1">
  <metadata><name>Seenplatten-Runde: Müritz, Mecklenburgische Schweiz &amp; Heide – Etappe 5</name></metadata>
  <trk>
    <name>Etappe 5: Röbel/Müritz – Neustrelitz</name>
    <trkseg>
<trkpt lat="53.37515" lon="12.60001"><ele>69</ele></trkpt>
<trkpt lat="53.37515" lon="12.60047"><ele>68</ele></trkpt>
<trkpt lat="53.37510" lon="12.60073"><ele>66</ele></trkpt>
<trkpt lat="53.37480" lon="12.60140"><ele>65</ele></trkpt>
<trkpt lat="53.37522" lon="12.60204"><ele>65</ele></trkpt>
<trkpt lat="53.37535" lon="12.60214"><ele>65</ele></trkpt>
<trkpt lat="53.37671" lon="12.60292"><ele>64</ele></trkpt>
<trkpt lat="53.37684" lon="12.60304"><ele>63</ele></trkpt>
<trkpt lat="53.37686" lon="12.60314"><ele>64</ele></trkpt>
<trkpt lat="53.37684" lon="12.60334"><ele>64</ele></trkpt>
<trkpt lat="53.37599" lon="12.60562"><ele>68</ele></trkpt>
<trkpt lat="53.37593" lon="12.60593"><ele>68</ele></trkpt>
<trkpt lat="53.37620" lon="12.60608"><ele>67</ele></trkpt>
<trkpt lat="53.37601" lon="12.60731"><ele>67</ele></trkpt>
<trkpt lat="53.37583" lon="12.60827"><ele>67</ele></trkpt>
<trkpt lat="53.37573" lon="12.60863"><ele>68</ele></trkpt>
<trkpt lat="53.37530" lon="12.60960"><ele>66</ele></trkpt>
<trkpt lat="53.37519" lon="12.60980"><ele>66</ele></trkpt>
<trkpt lat="53.37241" lon="12.61294"><ele>70</ele></trkpt>
<trkpt lat="53.37183" lon="12.61344"><ele>71</ele></trkpt>
<trkpt lat="53.37173" lon="12.61432"><ele>71</ele></trkpt>
<trkpt lat="53.37134" lon="12.61608"><ele>72</ele></trkpt>
<trkpt lat="53.36981" lon="12.61589"><ele>70</ele></trkpt>
<trkpt lat="53.36982" lon="12.61577"><ele>70</ele></trkpt>
<trkpt lat="53.36975" lon="12.61554"><ele>69</ele></trkpt>
<trkpt lat="53.36767" lon="12.61819"><ele>68</ele></trkpt>
<trkpt lat="53.36720" lon="12.61861"><ele>69</ele></trkpt>
<trkpt lat="53.36684" lon="12.61882"><ele>69</ele></trkpt>
<trkpt lat="53.36463" lon="12.61976"><ele>71</ele></trkpt>
<trkpt lat="53.36139" lon="12.62072"><ele>72</ele></trkpt>
<trkpt lat="53.36116" lon="12.62643"><ele>72</ele></trkpt>
<trkpt lat="53.36064" lon="12.63593"><ele>71</ele></trkpt>
<trkpt lat="53.36065" lon="12.63610"><ele>71</ele></trkpt>
<trkpt lat="53.36069" lon="12.63622"><ele>71</ele></trkpt>
<trkpt lat="53.36053" lon="12.63637"><ele>71</ele></trkpt>
<trkpt lat="53.36018" lon="12.63658"><ele>71</ele></trkpt>
<trkpt lat="53.35866" lon="12.63719"><ele>70</ele></trkpt>
<trkpt lat="53.35824" lon="12.63726"><ele>70</ele></trkpt>
<trkpt lat="53.35656" lon="12.63835"><ele>71</ele></trkpt>
<trkpt lat="53.35455" lon="12.64197"><ele>74</ele></trkpt>
<trkpt lat="53.35414" lon="12.64283"><ele>75</ele></trkpt>
<trkpt lat="53.35309" lon="12.64574"><ele>72</ele></trkpt>
<trkpt lat="53.34466" lon="12.67118"><ele>65</ele></trkpt>
<trkpt lat="53.34457" lon="12.67141"><ele>64</ele></trkpt>
<trkpt lat="53.34438" lon="12.67169"><ele>64</ele></trkpt>
<trkpt lat="53.34424" lon="12.67181"><ele>64</ele></trkpt>
<trkpt lat="53.34392" lon="12.67195"><ele>63</ele></trkpt>
<trkpt lat="53.34370" lon="12.67194"><ele>63</ele></trkpt>
<trkpt lat="53.34324" lon="12.67158"><ele>62</ele></trkpt>
<trkpt lat="53.34306" lon="12.67149"><ele>62</ele></trkpt>
<trkpt lat="53.34285" lon="12.67147"><ele>63</ele></trkpt>
<trkpt lat="53.34269" lon="12.67164"><ele>64</ele></trkpt>
<trkpt lat="53.34213" lon="12.67362"><ele>65</ele></trkpt>
<trkpt lat="53.34042" lon="12.68041"><ele>63</ele></trkpt>
<trkpt lat="53.34021" lon="12.68099"><ele>62</ele></trkpt>
<trkpt lat="53.33984" lon="12.68174"><ele>62</ele></trkpt>
<trkpt lat="53.33967" lon="12.68203"><ele>62</ele></trkpt>
<trkpt lat="53.33948" lon="12.68226"><ele>62</ele></trkpt>
<trkpt lat="53.33910" lon="12.68259"><ele>62</ele></trkpt>
<trkpt lat="53.33883" lon="12.68275"><ele>62</ele></trkpt>
<trkpt lat="53.33741" lon="12.68312"><ele>64</ele></trkpt>
<trkpt lat="53.33667" lon="12.68316"><ele>64</ele></trkpt>
<trkpt lat="53.33605" lon="12.68337"><ele>64</ele></trkpt>
<trkpt lat="53.33572" lon="12.68352"><ele>65</ele></trkpt>
<trkpt lat="53.33544" lon="12.68372"><ele>65</ele></trkpt>
<trkpt lat="53.33545" lon="12.68379"><ele>65</ele></trkpt>
<trkpt lat="53.33498" lon="12.68427"><ele>65</ele></trkpt>
<trkpt lat="53.33390" lon="12.68528"><ele>65</ele></trkpt>
<trkpt lat="53.33223" lon="12.68712"><ele>65</ele></trkpt>
<trkpt lat="53.33220" lon="12.68708"><ele>65</ele></trkpt>
<trkpt lat="53.33114" lon="12.68852"><ele>65</ele></trkpt>
<trkpt lat="53.33078" lon="12.68893"><ele>65</ele></trkpt>
<trkpt lat="53.33056" lon="12.68898"><ele>65</ele></trkpt>
<trkpt lat="53.32994" lon="12.68869"><ele>65</ele></trkpt>
<trkpt lat="53.32981" lon="12.68869"><ele>65</ele></trkpt>
<trkpt lat="53.32967" lon="12.68875"><ele>65</ele></trkpt>
<trkpt lat="53.32900" lon="12.68932"><ele>65</ele></trkpt>
<trkpt lat="53.32864" lon="12.68943"><ele>65</ele></trkpt>
<trkpt lat="53.32842" lon="12.68942"><ele>65</ele></trkpt>
<trkpt lat="53.32775" lon="12.68921"><ele>65</ele></trkpt>
<trkpt lat="53.32701" lon="12.68875"><ele>65</ele></trkpt>
<trkpt lat="53.32640" lon="12.68863"><ele>65</ele></trkpt>
<trkpt lat="53.32467" lon="12.69355"><ele>62</ele></trkpt>
<trkpt lat="53.32462" lon="12.69351"><ele>62</ele></trkpt>
<trkpt lat="53.32326" lon="12.69731"><ele>62</ele></trkpt>
<trkpt lat="53.32316" lon="12.69747"><ele>62</ele></trkpt>
<trkpt lat="53.32134" lon="12.70248"><ele>64</ele></trkpt>
<trkpt lat="53.31879" lon="12.70743"><ele>62</ele></trkpt>
<trkpt lat="53.31837" lon="12.70851"><ele>62</ele></trkpt>
<trkpt lat="53.31813" lon="12.70959"><ele>62</ele></trkpt>
<trkpt lat="53.31797" lon="12.71063"><ele>62</ele></trkpt>
<trkpt lat="53.31789" lon="12.71189"><ele>62</ele></trkpt>
<trkpt lat="53.31789" lon="12.71268"><ele>62</ele></trkpt>
<trkpt lat="53.31798" lon="12.71369"><ele>62</ele></trkpt>
<trkpt lat="53.31833" lon="12.71607"><ele>64</ele></trkpt>
<trkpt lat="53.31835" lon="12.71702"><ele>65</ele></trkpt>
<trkpt lat="53.31870" lon="12.71701"><ele>65</ele></trkpt>
<trkpt lat="53.32022" lon="12.71668"><ele>65</ele></trkpt>
<trkpt lat="53.32259" lon="12.71719"><ele>65</ele></trkpt>
<trkpt lat="53.32470" lon="12.71781"><ele>64</ele></trkpt>
<trkpt lat="53.32500" lon="12.71797"><ele>64</ele></trkpt>
<trkpt lat="53.33494" lon="12.72537"><ele>67</ele></trkpt>
<trkpt lat="53.33481" lon="12.72630"><ele>68</ele></trkpt>
<trkpt lat="53.33627" lon="12.72735"><ele>67</ele></trkpt>
<trkpt lat="53.33662" lon="12.72754"><ele>67</ele></trkpt>
<trkpt lat="53.33684" lon="12.72756"><ele>67</ele></trkpt>
<trkpt lat="53.33691" lon="12.72764"><ele>67</ele></trkpt>
<trkpt lat="53.33694" lon="12.72776"><ele>67</ele></trkpt>
<trkpt lat="53.33681" lon="12.72815"><ele>67</ele></trkpt>
<trkpt lat="53.33679" lon="12.72829"><ele>67</ele></trkpt>
<trkpt lat="53.33684" lon="12.72852"><ele>67</ele></trkpt>
<trkpt lat="53.33694" lon="12.72872"><ele>67</ele></trkpt>
<trkpt lat="53.33789" lon="12.72905"><ele>66</ele></trkpt>
<trkpt lat="53.33859" lon="12.72940"><ele>65</ele></trkpt>
<trkpt lat="53.33888" lon="12.72959"><ele>65</ele></trkpt>
<trkpt lat="53.33932" lon="12.73002"><ele>65</ele></trkpt>
<trkpt lat="53.33986" lon="12.73042"><ele>65</ele></trkpt>
<trkpt lat="53.34085" lon="12.73091"><ele>65</ele></trkpt>
<trkpt lat="53.33888" lon="12.73934"><ele>69</ele></trkpt>
<trkpt lat="53.33876" lon="12.73966"><ele>69</ele></trkpt>
<trkpt lat="53.33860" lon="12.74066"><ele>71</ele></trkpt>
<trkpt lat="53.33858" lon="12.74103"><ele>71</ele></trkpt>
<trkpt lat="53.33859" lon="12.74185"><ele>72</ele></trkpt>
<trkpt lat="53.33863" lon="12.74222"><ele>72</ele></trkpt>
<trkpt lat="53.33878" lon="12.74305"><ele>72</ele></trkpt>
<trkpt lat="53.33889" lon="12.74345"><ele>72</ele></trkpt>
<trkpt lat="53.33918" lon="12.74417"><ele>70</ele></trkpt>
<trkpt lat="53.33933" lon="12.74444"><ele>70</ele></trkpt>
<trkpt lat="53.34349" lon="12.74953"><ele>68</ele></trkpt>
<trkpt lat="53.34190" lon="12.75282"><ele>70</ele></trkpt>
<trkpt lat="53.33882" lon="12.76398"><ele>69</ele></trkpt>
<trkpt lat="53.34480" lon="12.76880"><ele>68</ele></trkpt>
<trkpt lat="53.34651" lon="12.77065"><ele>68</ele></trkpt>
<trkpt lat="53.34767" lon="12.77182"><ele>68</ele></trkpt>
<trkpt lat="53.34908" lon="12.77336"><ele>67</ele></trkpt>
<trkpt lat="53.35044" lon="12.77508"><ele>65</ele></trkpt>
<trkpt lat="53.35053" lon="12.77547"><ele>65</ele></trkpt>
<trkpt lat="53.35088" lon="12.77580"><ele>65</ele></trkpt>
<trkpt lat="53.35206" lon="12.77729"><ele>67</ele></trkpt>
<trkpt lat="53.35368" lon="12.77903"><ele>70</ele></trkpt>
<trkpt lat="53.35403" lon="12.77933"><ele>69</ele></trkpt>
<trkpt lat="53.35481" lon="12.77954"><ele>67</ele></trkpt>
<trkpt lat="53.35512" lon="12.77946"><ele>67</ele></trkpt>
<trkpt lat="53.35643" lon="12.77942"><ele>67</ele></trkpt>
<trkpt lat="53.35661" lon="12.77944"><ele>67</ele></trkpt>
<trkpt lat="53.35696" lon="12.77961"><ele>67</ele></trkpt>
<trkpt lat="53.35770" lon="12.77928"><ele>68</ele></trkpt>
<trkpt lat="53.36023" lon="12.77802"><ele>70</ele></trkpt>
<trkpt lat="53.36264" lon="12.77632"><ele>63</ele></trkpt>
<trkpt lat="53.36340" lon="12.77603"><ele>64</ele></trkpt>
<trkpt lat="53.36486" lon="12.77577"><ele>63</ele></trkpt>
<trkpt lat="53.36506" lon="12.77597"><ele>62</ele></trkpt>
<trkpt lat="53.36720" lon="12.77706"><ele>65</ele></trkpt>
<trkpt lat="53.36847" lon="12.77779"><ele>67</ele></trkpt>
<trkpt lat="53.36954" lon="12.77847"><ele>64</ele></trkpt>
<trkpt lat="53.37057" lon="12.77895"><ele>62</ele></trkpt>
<trkpt lat="53.37089" lon="12.77897"><ele>62</ele></trkpt>
<trkpt lat="53.37143" lon="12.77884"><ele>61</ele></trkpt>
<trkpt lat="53.37163" lon="12.77867"><ele>62</ele></trkpt>
<trkpt lat="53.37201" lon="12.77804"><ele>63</ele></trkpt>
<trkpt lat="53.37211" lon="12.77796"><ele>63</ele></trkpt>
<trkpt lat="53.37291" lon="12.77761"><ele>64</ele></trkpt>
<trkpt lat="53.37327" lon="12.77766"><ele>63</ele></trkpt>
<trkpt lat="53.37382" lon="12.77803"><ele>64</ele></trkpt>
<trkpt lat="53.37447" lon="12.77836"><ele>67</ele></trkpt>
<trkpt lat="53.37541" lon="12.77897"><ele>66</ele></trkpt>
<trkpt lat="53.37552" lon="12.77900"><ele>66</ele></trkpt>
<trkpt lat="53.37639" lon="12.77961"><ele>66</ele></trkpt>
<trkpt lat="53.37649" lon="12.77974"><ele>66</ele></trkpt>
<trkpt lat="53.37663" lon="12.77978"><ele>66</ele></trkpt>
<trkpt lat="53.37696" lon="12.78003"><ele>65</ele></trkpt>
<trkpt lat="53.37720" lon="12.78027"><ele>65</ele></trkpt>
<trkpt lat="53.37746" lon="12.78061"><ele>65</ele></trkpt>
<trkpt lat="53.37790" lon="12.78109"><ele>64</ele></trkpt>
<trkpt lat="53.37865" lon="12.78161"><ele>64</ele></trkpt>
<trkpt lat="53.37945" lon="12.78254"><ele>64</ele></trkpt>
<trkpt lat="53.37955" lon="12.78301"><ele>63</ele></trkpt>
<trkpt lat="53.38060" lon="12.78569"><ele>64</ele></trkpt>
<trkpt lat="53.38127" lon="12.78730"><ele>63</ele></trkpt>
<trkpt lat="53.38164" lon="12.78834"><ele>64</ele></trkpt>
<trkpt lat="53.38175" lon="12.78893"><ele>63</ele></trkpt>
<trkpt lat="53.38172" lon="12.79029"><ele>62</ele></trkpt>
<trkpt lat="53.38198" lon="12.79339"><ele>63</ele></trkpt>
<trkpt lat="53.38260" lon="12.79961"><ele>66</ele></trkpt>
<trkpt lat="53.38291" lon="12.80551"><ele>67</ele></trkpt>
<trkpt lat="53.38300" lon="12.80793"><ele>68</ele></trkpt>
<trkpt lat="53.38307" lon="12.80920"><ele>68</ele></trkpt>
<trkpt lat="53.38314" lon="12.80974"><ele>67</ele></trkpt>
<trkpt lat="53.38397" lon="12.81200"><ele>68</ele></trkpt>
<trkpt lat="53.38553" lon="12.81664"><ele>70</ele></trkpt>
<trkpt lat="53.38358" lon="12.81787"><ele>70</ele></trkpt>
<trkpt lat="53.38317" lon="12.81817"><ele>68</ele></trkpt>
<trkpt lat="53.38297" lon="12.81837"><ele>68</ele></trkpt>
<trkpt lat="53.38305" lon="12.81900"><ele>68</ele></trkpt>
<trkpt lat="53.38302" lon="12.82190"><ele>65</ele></trkpt>
<trkpt lat="53.38318" lon="12.82325"><ele>64</ele></trkpt>
<trkpt lat="53.38322" lon="12.82681"><ele>62</ele></trkpt>
<trkpt lat="53.38307" lon="12.82928"><ele>62</ele></trkpt>
<trkpt lat="53.38328" lon="12.83145"><ele>61</ele></trkpt>
<trkpt lat="53.38317" lon="12.83422"><ele>62</ele></trkpt>
<trkpt lat="53.38315" lon="12.83548"><ele>62</ele></trkpt>
<trkpt lat="53.38212" lon="12.83693"><ele>62</ele></trkpt>
<trkpt lat="53.38146" lon="12.83894"><ele>62</ele></trkpt>
<trkpt lat="53.38096" lon="12.83948"><ele>65</ele></trkpt>
<trkpt lat="53.38034" lon="12.83934"><ele>65</ele></trkpt>
<trkpt lat="53.37918" lon="12.83895"><ele>63</ele></trkpt>
<trkpt lat="53.37903" lon="12.83894"><ele>62</ele></trkpt>
<trkpt lat="53.37864" lon="12.83905"><ele>62</ele></trkpt>
<trkpt lat="53.37753" lon="12.83985"><ele>62</ele></trkpt>
<trkpt lat="53.37707" lon="12.83996"><ele>61</ele></trkpt>
<trkpt lat="53.37510" lon="12.84068"><ele>62</ele></trkpt>
<trkpt lat="53.37476" lon="12.84094"><ele>62</ele></trkpt>
<trkpt lat="53.37369" lon="12.84120"><ele>62</ele></trkpt>
<trkpt lat="53.37287" lon="12.84128"><ele>62</ele></trkpt>
<trkpt lat="53.37200" lon="12.84126"><ele>62</ele></trkpt>
<trkpt lat="53.37133" lon="12.84142"><ele>62</ele></trkpt>
<trkpt lat="53.37094" lon="12.84173"><ele>65</ele></trkpt>
<trkpt lat="53.37050" lon="12.84233"><ele>69</ele></trkpt>
<trkpt lat="53.37031" lon="12.84245"><ele>70</ele></trkpt>
<trkpt lat="53.36971" lon="12.84305"><ele>72</ele></trkpt>
<trkpt lat="53.36938" lon="12.84350"><ele>72</ele></trkpt>
<trkpt lat="53.36880" lon="12.84396"><ele>71</ele></trkpt>
<trkpt lat="53.36791" lon="12.84481"><ele>69</ele></trkpt>
<trkpt lat="53.36637" lon="12.84638"><ele>63</ele></trkpt>
<trkpt lat="53.36616" lon="12.84655"><ele>62</ele></trkpt>
<trkpt lat="53.36562" lon="12.84684"><ele>62</ele></trkpt>
<trkpt lat="53.36473" lon="12.84716"><ele>62</ele></trkpt>
<trkpt lat="53.36291" lon="12.84864"><ele>61</ele></trkpt>
<trkpt lat="53.36271" lon="12.84898"><ele>62</ele></trkpt>
<trkpt lat="53.36254" lon="12.84885"><ele>62</ele></trkpt>
<trkpt lat="53.36218" lon="12.84885"><ele>62</ele></trkpt>
<trkpt lat="53.36128" lon="12.84907"><ele>64</ele></trkpt>
<trkpt lat="53.36046" lon="12.84896"><ele>65</ele></trkpt>
<trkpt lat="53.36000" lon="12.84896"><ele>66</ele></trkpt>
<trkpt lat="53.35947" lon="12.84849"><ele>66</ele></trkpt>
<trkpt lat="53.35862" lon="12.84749"><ele>66</ele></trkpt>
<trkpt lat="53.35651" lon="12.84401"><ele>68</ele></trkpt>
<trkpt lat="53.35465" lon="12.84139"><ele>67</ele></trkpt>
<trkpt lat="53.35206" lon="12.83750"><ele>66</ele></trkpt>
<trkpt lat="53.35046" lon="12.83553"><ele>65</ele></trkpt>
<trkpt lat="53.34829" lon="12.83252"><ele>65</ele></trkpt>
<trkpt lat="53.34766" lon="12.83183"><ele>67</ele></trkpt>
<trkpt lat="53.34683" lon="12.83133"><ele>68</ele></trkpt>
<trkpt lat="53.34633" lon="12.83093"><ele>68</ele></trkpt>
<trkpt lat="53.34399" lon="12.82867"><ele>67</ele></trkpt>
<trkpt lat="53.34304" lon="12.82791"><ele>67</ele></trkpt>
<trkpt lat="53.34201" lon="12.82727"><ele>67</ele></trkpt>
<trkpt lat="53.34125" lon="12.82661"><ele>67</ele></trkpt>
<trkpt lat="53.34027" lon="12.82570"><ele>66</ele></trkpt>
<trkpt lat="53.33925" lon="12.82421"><ele>66</ele></trkpt>
<trkpt lat="53.33758" lon="12.82274"><ele>67</ele></trkpt>
<trkpt lat="53.33601" lon="12.82161"><ele>67</ele></trkpt>
<trkpt lat="53.33484" lon="12.82085"><ele>67</ele></trkpt>
<trkpt lat="53.33380" lon="12.82008"><ele>66</ele></trkpt>
<trkpt lat="53.33224" lon="12.81880"><ele>65</ele></trkpt>
<trkpt lat="53.33007" lon="12.81806"><ele>67</ele></trkpt>
<trkpt lat="53.32811" lon="12.81727"><ele>67</ele></trkpt>
<trkpt lat="53.32633" lon="12.81673"><ele>67</ele></trkpt>
<trkpt lat="53.32567" lon="12.81662"><ele>67</ele></trkpt>
<trkpt lat="53.32486" lon="12.81634"><ele>67</ele></trkpt>
<trkpt lat="53.32433" lon="12.81591"><ele>67</ele></trkpt>
<trkpt lat="53.32375" lon="12.81558"><ele>67</ele></trkpt>
<trkpt lat="53.32306" lon="12.81502"><ele>67</ele></trkpt>
<trkpt lat="53.32234" lon="12.81489"><ele>67</ele></trkpt>
<trkpt lat="53.32171" lon="12.81485"><ele>67</ele></trkpt>
<trkpt lat="53.32020" lon="12.81494"><ele>67</ele></trkpt>
<trkpt lat="53.31952" lon="12.81522"><ele>67</ele></trkpt>
<trkpt lat="53.31872" lon="12.81536"><ele>67</ele></trkpt>
<trkpt lat="53.31762" lon="12.81578"><ele>67</ele></trkpt>
<trkpt lat="53.31633" lon="12.81592"><ele>67</ele></trkpt>
<trkpt lat="53.31592" lon="12.81584"><ele>67</ele></trkpt>
<trkpt lat="53.31434" lon="12.81536"><ele>67</ele></trkpt>
<trkpt lat="53.31121" lon="12.81504"><ele>67</ele></trkpt>
<trkpt lat="53.30927" lon="12.81439"><ele>67</ele></trkpt>
<trkpt lat="53.30870" lon="12.81407"><ele>67</ele></trkpt>
<trkpt lat="53.30746" lon="12.81368"><ele>67</ele></trkpt>
<trkpt lat="53.30573" lon="12.81314"><ele>67</ele></trkpt>
<trkpt lat="53.30397" lon="12.81272"><ele>67</ele></trkpt>
<trkpt lat="53.30197" lon="12.81213"><ele>64</ele></trkpt>
<trkpt lat="53.30167" lon="12.81248"><ele>65</ele></trkpt>
<trkpt lat="53.30152" lon="12.81251"><ele>65</ele></trkpt>
<trkpt lat="53.29972" lon="12.81237"><ele>66</ele></trkpt>
<trkpt lat="53.29957" lon="12.81254"><ele>66</ele></trkpt>
<trkpt lat="53.29922" lon="12.81219"><ele>66</ele></trkpt>
<trkpt lat="53.29905" lon="12.81214"><ele>66</ele></trkpt>
<trkpt lat="53.28943" lon="12.81288"><ele>66</ele></trkpt>
<trkpt lat="53.28905" lon="12.81300"><ele>66</ele></trkpt>
<trkpt lat="53.28621" lon="12.81323"><ele>66</ele></trkpt>
<trkpt lat="53.28373" lon="12.81391"><ele>66</ele></trkpt>
<trkpt lat="53.28222" lon="12.81420"><ele>66</ele></trkpt>
<trkpt lat="53.28012" lon="12.81493"><ele>65</ele></trkpt>
<trkpt lat="53.28015" lon="12.81506"><ele>65</ele></trkpt>
<trkpt lat="53.28024" lon="12.81752"><ele>65</ele></trkpt>
<trkpt lat="53.27857" lon="12.81767"><ele>65</ele></trkpt>
<trkpt lat="53.27820" lon="12.81742"><ele>65</ele></trkpt>
<trkpt lat="53.27808" lon="12.81743"><ele>65</ele></trkpt>
<trkpt lat="53.27649" lon="12.81792"><ele>65</ele></trkpt>
<trkpt lat="53.27429" lon="12.81846"><ele>66</ele></trkpt>
<trkpt lat="53.27414" lon="12.81851"><ele>66</ele></trkpt>
<trkpt lat="53.27392" lon="12.81870"><ele>66</ele></trkpt>
<trkpt lat="53.27373" lon="12.81864"><ele>65</ele></trkpt>
<trkpt lat="53.27359" lon="12.81973"><ele>66</ele></trkpt>
<trkpt lat="53.27339" lon="12.81970"><ele>66</ele></trkpt>
<trkpt lat="53.27131" lon="12.82043"><ele>68</ele></trkpt>
<trkpt lat="53.27079" lon="12.82059"><ele>69</ele></trkpt>
<trkpt lat="53.27070" lon="12.82057"><ele>69</ele></trkpt>
<trkpt lat="53.27068" lon="12.82072"><ele>68</ele></trkpt>
<trkpt lat="53.27078" lon="12.82178"><ele>68</ele></trkpt>
<trkpt lat="53.27100" lon="12.82348"><ele>67</ele></trkpt>
<trkpt lat="53.27123" lon="12.82459"><ele>67</ele></trkpt>
<trkpt lat="53.27139" lon="12.82479"><ele>67</ele></trkpt>
<trkpt lat="53.27146" lon="12.82505"><ele>67</ele></trkpt>
<trkpt lat="53.27148" lon="12.82530"><ele>67</ele></trkpt>
<trkpt lat="53.27144" lon="12.82565"><ele>67</ele></trkpt>
<trkpt lat="53.27145" lon="12.82578"><ele>67</ele></trkpt>
<trkpt lat="53.27175" lon="12.82735"><ele>67</ele></trkpt>
<trkpt lat="53.27181" lon="12.82745"><ele>67</ele></trkpt>
<trkpt lat="53.27187" lon="12.82748"><ele>67</ele></trkpt>
<trkpt lat="53.27271" lon="12.82764"><ele>67</ele></trkpt>
<trkpt lat="53.27265" lon="12.82920"><ele>67</ele></trkpt>
<trkpt lat="53.27262" lon="12.83192"><ele>67</ele></trkpt>
<trkpt lat="53.27268" lon="12.83227"><ele>67</ele></trkpt>
<trkpt lat="53.27266" lon="12.83234"><ele>67</ele></trkpt>
<trkpt lat="53.27257" lon="12.83241"><ele>67</ele></trkpt>
<trkpt lat="53.27258" lon="12.83428"><ele>67</ele></trkpt>
<trkpt lat="53.27243" lon="12.84122"><ele>67</ele></trkpt>
<trkpt lat="53.27241" lon="12.84154"><ele>67</ele></trkpt>
<trkpt lat="53.27235" lon="12.84184"><ele>67</ele></trkpt>
<trkpt lat="53.27235" lon="12.84256"><ele>67</ele></trkpt>
<trkpt lat="53.27239" lon="12.84289"><ele>67</ele></trkpt>
<trkpt lat="53.27235" lon="12.84402"><ele>67</ele></trkpt>
<trkpt lat="53.27227" lon="12.84445"><ele>67</ele></trkpt>
<trkpt lat="53.27222" lon="12.84573"><ele>67</ele></trkpt>
<trkpt lat="53.27315" lon="12.84962"><ele>67</ele></trkpt>
<trkpt lat="53.27333" lon="12.85007"><ele>67</ele></trkpt>
<trkpt lat="53.27372" lon="12.85072"><ele>67</ele></trkpt>
<trkpt lat="53.27385" lon="12.85109"><ele>67</ele></trkpt>
<trkpt lat="53.27446" lon="12.85231"><ele>67</ele></trkpt>
<trkpt lat="53.27479" lon="12.85326"><ele>67</ele></trkpt>
<trkpt lat="53.27500" lon="12.85399"><ele>67</ele></trkpt>
<trkpt lat="53.27544" lon="12.85575"><ele>67</ele></trkpt>
<trkpt lat="53.27565" lon="12.85581"><ele>67</ele></trkpt>
<trkpt lat="53.27711" lon="12.85673"><ele>67</ele></trkpt>
<trkpt lat="53.27862" lon="12.86502"><ele>67</ele></trkpt>
<trkpt lat="53.27985" lon="12.87124"><ele>67</ele></trkpt>
<trkpt lat="53.28044" lon="12.87456"><ele>67</ele></trkpt>
<trkpt lat="53.28057" lon="12.87615"><ele>67</ele></trkpt>
<trkpt lat="53.28063" lon="12.87964"><ele>67</ele></trkpt>
<trkpt lat="53.28015" lon="12.87883"><ele>67</ele></trkpt>
<trkpt lat="53.27977" lon="12.87889"><ele>67</ele></trkpt>
<trkpt lat="53.27809" lon="12.87788"><ele>67</ele></trkpt>
<trkpt lat="53.27615" lon="12.88101"><ele>71</ele></trkpt>
<trkpt lat="53.27747" lon="12.88242"><ele>70</ele></trkpt>
<trkpt lat="53.27757" lon="12.88311"><ele>70</ele></trkpt>
<trkpt lat="53.27696" lon="12.88404"><ele>71</ele></trkpt>
<trkpt lat="53.27864" lon="12.88707"><ele>68</ele></trkpt>
<trkpt lat="53.27797" lon="12.88785"><ele>67</ele></trkpt>
<trkpt lat="53.27757" lon="12.88817"><ele>66</ele></trkpt>
<trkpt lat="53.27666" lon="12.88853"><ele>67</ele></trkpt>
<trkpt lat="53.27583" lon="12.88862"><ele>68</ele></trkpt>
<trkpt lat="53.27493" lon="12.88846"><ele>70</ele></trkpt>
<trkpt lat="53.27237" lon="12.88759"><ele>70</ele></trkpt>
<trkpt lat="53.27169" lon="12.88727"><ele>69</ele></trkpt>
<trkpt lat="53.27122" lon="12.88689"><ele>68</ele></trkpt>
<trkpt lat="53.27080" lon="12.88617"><ele>68</ele></trkpt>
<trkpt lat="53.27045" lon="12.88599"><ele>65</ele></trkpt>
<trkpt lat="53.27037" lon="12.88634"><ele>64</ele></trkpt>
<trkpt lat="53.26991" lon="12.88968"><ele>62</ele></trkpt>
<trkpt lat="53.26990" lon="12.88979"><ele>62</ele></trkpt>
<trkpt lat="53.27001" lon="12.89022"><ele>63</ele></trkpt>
<trkpt lat="53.27002" lon="12.89036"><ele>63</ele></trkpt>
<trkpt lat="53.26997" lon="12.89086"><ele>64</ele></trkpt>
<trkpt lat="53.26985" lon="12.89116"><ele>63</ele></trkpt>
<trkpt lat="53.26971" lon="12.89130"><ele>63</ele></trkpt>
<trkpt lat="53.26965" lon="12.89151"><ele>63</ele></trkpt>
<trkpt lat="53.26945" lon="12.89480"><ele>62</ele></trkpt>
<trkpt lat="53.26945" lon="12.89541"><ele>62</ele></trkpt>
<trkpt lat="53.26948" lon="12.89610"><ele>63</ele></trkpt>
<trkpt lat="53.26955" lon="12.89666"><ele>63</ele></trkpt>
<trkpt lat="53.26981" lon="12.89781"><ele>64</ele></trkpt>
<trkpt lat="53.27024" lon="12.89897"><ele>63</ele></trkpt>
<trkpt lat="53.27126" lon="12.90117"><ele>64</ele></trkpt>
<trkpt lat="53.27171" lon="12.90242"><ele>63</ele></trkpt>
<trkpt lat="53.27237" lon="12.90484"><ele>62</ele></trkpt>
<trkpt lat="53.27248" lon="12.90501"><ele>62</ele></trkpt>
<trkpt lat="53.27308" lon="12.90725"><ele>62</ele></trkpt>
<trkpt lat="53.27317" lon="12.90775"><ele>63</ele></trkpt>
<trkpt lat="53.27339" lon="12.90838"><ele>63</ele></trkpt>
<trkpt lat="53.27524" lon="12.91530"><ele>65</ele></trkpt>
<trkpt lat="53.27528" lon="12.91568"><ele>65</ele></trkpt>
<trkpt lat="53.27543" lon="12.91606"><ele>65</ele></trkpt>
<trkpt lat="53.27568" lon="12.91740"><ele>65</ele></trkpt>
<trkpt lat="53.27568" lon="12.91767"><ele>65</ele></trkpt>
<trkpt lat="53.27577" lon="12.91840"><ele>65</ele></trkpt>
<trkpt lat="53.27609" lon="12.92052"><ele>66</ele></trkpt>
<trkpt lat="53.27718" lon="12.92758"><ele>69</ele></trkpt>
<trkpt lat="53.27803" lon="12.93270"><ele>68</ele></trkpt>
<trkpt lat="53.27903" lon="12.93971"><ele>70</ele></trkpt>
<trkpt lat="53.28085" lon="12.95976"><ele>60</ele></trkpt>
<trkpt lat="53.28094" lon="12.96116"><ele>61</ele></trkpt>
<trkpt lat="53.28093" lon="12.96319"><ele>62</ele></trkpt>
<trkpt lat="53.28087" lon="12.96330"><ele>61</ele></trkpt>
<trkpt lat="53.28074" lon="12.96408"><ele>60</ele></trkpt>
<trkpt lat="53.28040" lon="12.96545"><ele>60</ele></trkpt>
<trkpt lat="53.28037" lon="12.96568"><ele>60</ele></trkpt>
<trkpt lat="53.27940" lon="12.96804"><ele>59</ele></trkpt>
<trkpt lat="53.27895" lon="12.96933"><ele>59</ele></trkpt>
<trkpt lat="53.27865" lon="12.97091"><ele>59</ele></trkpt>
<trkpt lat="53.27852" lon="12.97262"><ele>58</ele></trkpt>
<trkpt lat="53.27915" lon="12.97256"><ele>57</ele></trkpt>
<trkpt lat="53.27936" lon="12.97268"><ele>57</ele></trkpt>
<trkpt lat="53.27991" lon="12.97311"><ele>58</ele></trkpt>
<trkpt lat="53.28003" lon="12.97315"><ele>58</ele></trkpt>
<trkpt lat="53.28012" lon="12.97236"><ele>58</ele></trkpt>
<trkpt lat="53.28032" lon="12.97155"><ele>59</ele></trkpt>
<trkpt lat="53.28007" lon="12.97263"><ele>58</ele></trkpt>
<trkpt lat="53.28000" lon="12.97349"><ele>58</ele></trkpt>
<trkpt lat="53.27993" lon="12.97387"><ele>58</ele></trkpt>
<trkpt lat="53.27939" lon="12.97579"><ele>57</ele></trkpt>
<trkpt lat="53.27921" lon="12.97621"><ele>57</ele></trkpt>
<trkpt lat="53.27907" lon="12.97631"><ele>57</ele></trkpt>
<trkpt lat="53.27992" lon="12.97844"><ele>57</ele></trkpt>
<trkpt lat="53.28008" lon="12.97908"><ele>57</ele></trkpt>
<trkpt lat="53.28014" lon="12.97987"><ele>57</ele></trkpt>
<trkpt lat="53.28017" lon="12.98217"><ele>58</ele></trkpt>
<trkpt lat="53.28026" lon="12.98440"><ele>57</ele></trkpt>
<trkpt lat="53.28039" lon="12.98579"><ele>58</ele></trkpt>
<trkpt lat="53.28055" lon="12.98698"><ele>59</ele></trkpt>
<trkpt lat="53.28066" lon="12.98755"><ele>60</ele></trkpt>
<trkpt lat="53.28058" lon="12.98756"><ele>60</ele></trkpt>
<trkpt lat="53.28050" lon="12.98704"><ele>59</ele></trkpt>
<trkpt lat="53.28041" lon="12.98710"><ele>59</ele></trkpt>
<trkpt lat="53.28037" lon="12.98720"><ele>59</ele></trkpt>
<trkpt lat="53.28022" lon="12.98813"><ele>62</ele></trkpt>
<trkpt lat="53.27974" lon="12.99039"><ele>72</ele></trkpt>
<trkpt lat="53.27953" lon="12.99157"><ele>73</ele></trkpt>
<trkpt lat="53.27949" lon="12.99195"><ele>72</ele></trkpt>
<trkpt lat="53.27950" lon="12.99217"><ele>71</ele></trkpt>
<trkpt lat="53.27962" lon="12.99249"><ele>68</ele></trkpt>
<trkpt lat="53.27981" lon="12.99282"><ele>68</ele></trkpt>
<trkpt lat="53.27978" lon="12.99286"><ele>68</ele></trkpt>
<trkpt lat="53.27948" lon="12.99507"><ele>67</ele></trkpt>
<trkpt lat="53.27949" lon="12.99584"><ele>72</ele></trkpt>
<trkpt lat="53.27945" lon="12.99667"><ele>76</ele></trkpt>
<trkpt lat="53.27947" lon="12.99714"><ele>76</ele></trkpt>
<trkpt lat="53.27937" lon="12.99867"><ele>78</ele></trkpt>
<trkpt lat="53.27932" lon="13.00144"><ele>84</ele></trkpt>
<trkpt lat="53.27896" lon="13.00311"><ele>87</ele></trkpt>
<trkpt lat="53.27825" lon="13.00680"><ele>91</ele></trkpt>
<trkpt lat="53.27827" lon="13.00826"><ele>84</ele></trkpt>
<trkpt lat="53.27833" lon="13.00871"><ele>80</ele></trkpt>
<trkpt lat="53.27852" lon="13.00933"><ele>74</ele></trkpt>
<trkpt lat="53.27858" lon="13.00972"><ele>72</ele></trkpt>
<trkpt lat="53.27856" lon="13.01029"><ele>69</ele></trkpt>
<trkpt lat="53.27858" lon="13.01034"><ele>69</ele></trkpt>
<trkpt lat="53.27868" lon="13.01035"><ele>69</ele></trkpt>
<trkpt lat="53.27964" lon="13.00993"><ele>75</ele></trkpt>
<trkpt lat="53.28008" lon="13.00992"><ele>76</ele></trkpt>
<trkpt lat="53.28036" lon="13.01007"><ele>75</ele></trkpt>
<trkpt lat="53.28115" lon="13.01091"><ele>74</ele></trkpt>
<trkpt lat="53.28135" lon="13.01093"><ele>74</ele></trkpt>
<trkpt lat="53.28142" lon="13.01084"><ele>74</ele></trkpt>
<trkpt lat="53.28156" lon="13.01014"><ele>76</ele></trkpt>
<trkpt lat="53.28161" lon="13.01012"><ele>76</ele></trkpt>
<trkpt lat="53.28234" lon="13.01095"><ele>69</ele></trkpt>
<trkpt lat="53.28258" lon="13.01098"><ele>66</ele></trkpt>
<trkpt lat="53.28287" lon="13.01086"><ele>64</ele></trkpt>
<trkpt lat="53.28330" lon="13.01084"><ele>64</ele></trkpt>
<trkpt lat="53.28339" lon="13.01098"><ele>64</ele></trkpt>
<trkpt lat="53.28368" lon="13.01260"><ele>62</ele></trkpt>
<trkpt lat="53.28390" lon="13.01315"><ele>62</ele></trkpt>
<trkpt lat="53.28392" lon="13.01326"><ele>62</ele></trkpt>
<trkpt lat="53.28374" lon="13.01412"><ele>60</ele></trkpt>
<trkpt lat="53.28392" lon="13.01470"><ele>60</ele></trkpt>
<trkpt lat="53.28414" lon="13.01605"><ele>60</ele></trkpt>
<trkpt lat="53.28434" lon="13.01654"><ele>60</ele></trkpt>
<trkpt lat="53.28454" lon="13.01743"><ele>60</ele></trkpt>
<trkpt lat="53.28471" lon="13.01878"><ele>60</ele></trkpt>
<trkpt lat="53.28493" lon="13.01931"><ele>60</ele></trkpt>
<trkpt lat="53.28488" lon="13.02007"><ele>60</ele></trkpt>
<trkpt lat="53.28493" lon="13.02033"><ele>61</ele></trkpt>
<trkpt lat="53.28544" lon="13.02039"><ele>62</ele></trkpt>
<trkpt lat="53.28559" lon="13.02021"><ele>62</ele></trkpt>
<trkpt lat="53.28559" lon="13.02231"><ele>62</ele></trkpt>
<trkpt lat="53.28572" lon="13.02293"><ele>62</ele></trkpt>
<trkpt lat="53.28583" lon="13.02388"><ele>60</ele></trkpt>
<trkpt lat="53.28614" lon="13.02482"><ele>62</ele></trkpt>
<trkpt lat="53.28682" lon="13.02563"><ele>61</ele></trkpt>
<trkpt lat="53.28729" lon="13.02608"><ele>60</ele></trkpt>
<trkpt lat="53.28583" lon="13.02856"><ele>60</ele></trkpt>
<trkpt lat="53.28544" lon="13.02932"><ele>60</ele></trkpt>
<trkpt lat="53.28523" lon="13.02984"><ele>61</ele></trkpt>
<trkpt lat="53.28498" lon="13.03027"><ele>60</ele></trkpt>
<trkpt lat="53.28466" lon="13.03062"><ele>60</ele></trkpt>
<trkpt lat="53.28400" lon="13.03100"><ele>61</ele></trkpt>
<trkpt lat="53.28310" lon="13.03174"><ele>60</ele></trkpt>
<trkpt lat="53.28294" lon="13.03238"><ele>60</ele></trkpt>
<trkpt lat="53.28277" lon="13.03409"><ele>61</ele></trkpt>
<trkpt lat="53.28262" lon="13.03580"><ele>60</ele></trkpt>
<trkpt lat="53.28269" lon="13.03621"><ele>61</ele></trkpt>
<trkpt lat="53.28315" lon="13.03712"><ele>60</ele></trkpt>
<trkpt lat="53.28377" lon="13.03718"><ele>60</ele></trkpt>
<trkpt lat="53.28436" lon="13.03748"><ele>60</ele></trkpt>
<trkpt lat="53.28539" lon="13.03786"><ele>60</ele></trkpt>
<trkpt lat="53.28576" lon="13.03814"><ele>61</ele></trkpt>
<trkpt lat="53.28594" lon="13.03848"><ele>61</ele></trkpt>
<trkpt lat="53.28625" lon="13.03931"><ele>61</ele></trkpt>
<trkpt lat="53.28641" lon="13.03961"><ele>60</ele></trkpt>
<trkpt lat="53.28659" lon="13.03984"><ele>60</ele></trkpt>
<trkpt lat="53.28704" lon="13.04031"><ele>60</ele></trkpt>
<trkpt lat="53.28737" lon="13.04055"><ele>60</ele></trkpt>
<trkpt lat="53.28811" lon="13.04098"><ele>60</ele></trkpt>
<trkpt lat="53.28893" lon="13.04124"><ele>60</ele></trkpt>
<trkpt lat="53.28931" lon="13.04141"><ele>60</ele></trkpt>
<trkpt lat="53.29003" lon="13.04185"><ele>62</ele></trkpt>
<trkpt lat="53.29077" lon="13.04244"><ele>62</ele></trkpt>
<trkpt lat="53.29070" lon="13.04268"><ele>62</ele></trkpt>
<trkpt lat="53.29082" lon="13.04387"><ele>65</ele></trkpt>
<trkpt lat="53.29109" lon="13.04531"><ele>61</ele></trkpt>
<trkpt lat="53.29162" lon="13.04671"><ele>67</ele></trkpt>
<trkpt lat="53.29194" lon="13.04850"><ele>70</ele></trkpt>
<trkpt lat="53.29160" lon="13.05097"><ele>66</ele></trkpt>
<trkpt lat="53.29187" lon="13.04908"><ele>70</ele></trkpt>
<trkpt lat="53.29375" lon="13.05040"><ele>66</ele></trkpt>
<trkpt lat="53.29496" lon="13.04512"><ele>67</ele></trkpt>
<trkpt lat="53.29686" lon="13.04647"><ele>65</ele></trkpt>
<trkpt lat="53.30272" lon="13.05011"><ele>63</ele></trkpt>
<trkpt lat="53.30278" lon="13.05025"><ele>63</ele></trkpt>
<trkpt lat="53.30284" lon="13.05058"><ele>63</ele></trkpt>
<trkpt lat="53.30301" lon="13.05052"><ele>63</ele></trkpt>
<trkpt lat="53.30302" lon="13.05038"><ele>63</ele></trkpt>
<trkpt lat="53.30296" lon="13.04997"><ele>62</ele></trkpt>
<trkpt lat="53.30349" lon="13.05000"><ele>60</ele></trkpt>
<trkpt lat="53.30430" lon="13.05043"><ele>60</ele></trkpt>
<trkpt lat="53.30440" lon="13.05041"><ele>60</ele></trkpt>
<trkpt lat="53.30514" lon="13.05078"><ele>60</ele></trkpt>
<trkpt lat="53.30590" lon="13.05097"><ele>60</ele></trkpt>
<trkpt lat="53.30747" lon="13.05099"><ele>60</ele></trkpt>
<trkpt lat="53.30758" lon="13.05095"><ele>60</ele></trkpt>
<trkpt lat="53.30778" lon="13.05075"><ele>60</ele></trkpt>
<trkpt lat="53.30808" lon="13.05067"><ele>60</ele></trkpt>
<trkpt lat="53.30821" lon="13.05068"><ele>60</ele></trkpt>
<trkpt lat="53.30875" lon="13.05096"><ele>60</ele></trkpt>
<trkpt lat="53.30926" lon="13.05095"><ele>60</ele></trkpt>
<trkpt lat="53.30950" lon="13.05089"><ele>60</ele></trkpt>
<trkpt lat="53.30976" lon="13.05100"><ele>60</ele></trkpt>
<trkpt lat="53.30991" lon="13.05100"><ele>60</ele></trkpt>
<trkpt lat="53.31029" lon="13.05090"><ele>61</ele></trkpt>
<trkpt lat="53.31073" lon="13.05075"><ele>62</ele></trkpt>
<trkpt lat="53.31096" lon="13.05062"><ele>62</ele></trkpt>
<trkpt lat="53.31303" lon="13.04929"><ele>61</ele></trkpt>
<trkpt lat="53.31317" lon="13.04914"><ele>62</ele></trkpt>
<trkpt lat="53.31352" lon="13.04898"><ele>62</ele></trkpt>
<trkpt lat="53.31495" lon="13.04788"><ele>62</ele></trkpt>
<trkpt lat="53.31537" lon="13.04762"><ele>61</ele></trkpt>
<trkpt lat="53.31549" lon="13.04738"><ele>62</ele></trkpt>
<trkpt lat="53.31562" lon="13.04728"><ele>62</ele></trkpt>
<trkpt lat="53.31667" lon="13.04696"><ele>62</ele></trkpt>
<trkpt lat="53.31712" lon="13.04706"><ele>62</ele></trkpt>
<trkpt lat="53.31760" lon="13.04726"><ele>62</ele></trkpt>
<trkpt lat="53.31807" lon="13.04771"><ele>64</ele></trkpt>
<trkpt lat="53.31831" lon="13.04802"><ele>65</ele></trkpt>
<trkpt lat="53.31860" lon="13.04819"><ele>63</ele></trkpt>
<trkpt lat="53.31889" lon="13.04843"><ele>62</ele></trkpt>
<trkpt lat="53.31907" lon="13.04847"><ele>62</ele></trkpt>
<trkpt lat="53.31966" lon="13.04907"><ele>62</ele></trkpt>
<trkpt lat="53.32003" lon="13.04962"><ele>63</ele></trkpt>
<trkpt lat="53.32086" lon="13.05060"><ele>62</ele></trkpt>
<trkpt lat="53.32120" lon="13.05120"><ele>60</ele></trkpt>
<trkpt lat="53.32128" lon="13.05140"><ele>60</ele></trkpt>
<trkpt lat="53.32158" lon="13.05178"><ele>60</ele></trkpt>
<trkpt lat="53.32200" lon="13.05189"><ele>61</ele></trkpt>
<trkpt lat="53.32300" lon="13.05260"><ele>60</ele></trkpt>
<trkpt lat="53.32352" lon="13.05304"><ele>60</ele></trkpt>
<trkpt lat="53.32382" lon="13.05323"><ele>61</ele></trkpt>
<trkpt lat="53.32403" lon="13.05329"><ele>61</ele></trkpt>
<trkpt lat="53.32413" lon="13.05310"><ele>61</ele></trkpt>
<trkpt lat="53.32474" lon="13.05347"><ele>62</ele></trkpt>
<trkpt lat="53.32478" lon="13.05353"><ele>62</ele></trkpt>
<trkpt lat="53.32481" lon="13.05392"><ele>61</ele></trkpt>
<trkpt lat="53.32491" lon="13.05416"><ele>61</ele></trkpt>
<trkpt lat="53.32525" lon="13.05442"><ele>61</ele></trkpt>
<trkpt lat="53.32604" lon="13.05519"><ele>60</ele></trkpt>
<trkpt lat="53.32664" lon="13.05600"><ele>60</ele></trkpt>
<trkpt lat="53.32719" lon="13.05683"><ele>60</ele></trkpt>
<trkpt lat="53.32757" lon="13.05723"><ele>60</ele></trkpt>
<trkpt lat="53.32882" lon="13.05840"><ele>60</ele></trkpt>
<trkpt lat="53.32903" lon="13.05857"><ele>61</ele></trkpt>
<trkpt lat="53.32928" lon="13.05869"><ele>61</ele></trkpt>
<trkpt lat="53.32955" lon="13.05909"><ele>61</ele></trkpt>
<trkpt lat="53.33345" lon="13.06286"><ele>62</ele></trkpt>
<trkpt lat="53.33386" lon="13.06317"><ele>62</ele></trkpt>
<trkpt lat="53.33398" lon="13.06334"><ele>62</ele></trkpt>
<trkpt lat="53.33538" lon="13.06472"><ele>63</ele></trkpt>
<trkpt lat="53.33547" lon="13.06469"><ele>64</ele></trkpt>
<trkpt lat="53.33559" lon="13.06490"><ele>64</ele></trkpt>
<trkpt lat="53.33611" lon="13.06540"><ele>64</ele></trkpt>
<trkpt lat="53.33650" lon="13.06587"><ele>65</ele></trkpt>
<trkpt lat="53.33652" lon="13.06595"><ele>65</ele></trkpt>
<trkpt lat="53.33647" lon="13.06609"><ele>65</ele></trkpt>
<trkpt lat="53.33667" lon="13.06632"><ele>65</ele></trkpt>
<trkpt lat="53.33828" lon="13.06790"><ele>64</ele></trkpt>
<trkpt lat="53.33861" lon="13.06831"><ele>64</ele></trkpt>
<trkpt lat="53.33897" lon="13.06860"><ele>64</ele></trkpt>
<trkpt lat="53.33943" lon="13.06918"><ele>65</ele></trkpt>
<trkpt lat="53.33987" lon="13.06954"><ele>64</ele></trkpt>
<trkpt lat="53.34125" lon="13.07148"><ele>61</ele></trkpt>
<trkpt lat="53.34184" lon="13.07238"><ele>61</ele></trkpt>
<trkpt lat="53.34238" lon="13.07347"><ele>62</ele></trkpt>
<trkpt lat="53.34308" lon="13.07261"><ele>62</ele></trkpt>
<trkpt lat="53.34350" lon="13.07301"><ele>63</ele></trkpt>
<trkpt lat="53.34388" lon="13.07344"><ele>65</ele></trkpt>
<trkpt lat="53.34517" lon="13.07525"><ele>64</ele></trkpt>
<trkpt lat="53.34544" lon="13.07546"><ele>64</ele></trkpt>
<trkpt lat="53.34567" lon="13.07553"><ele>64</ele></trkpt>
<trkpt lat="53.34584" lon="13.07553"><ele>63</ele></trkpt>
<trkpt lat="53.34604" lon="13.07544"><ele>62</ele></trkpt>
<trkpt lat="53.34638" lon="13.07514"><ele>62</ele></trkpt>
<trkpt lat="53.34676" lon="13.07451"><ele>62</ele></trkpt>
<trkpt lat="53.34778" lon="13.07297"><ele>65</ele></trkpt>
<trkpt lat="53.34861" lon="13.07215"><ele>65</ele></trkpt>
<trkpt lat="53.34879" lon="13.07214"><ele>65</ele></trkpt>
<trkpt lat="53.34911" lon="13.07230"><ele>65</ele></trkpt>
<trkpt lat="53.34926" lon="13.07255"><ele>65</ele></trkpt>
<trkpt lat="53.34957" lon="13.07358"><ele>64</ele></trkpt>
<trkpt lat="53.34965" lon="13.07364"><ele>63</ele></trkpt>
<trkpt lat="53.34976" lon="13.07364"><ele>62</ele></trkpt>
<trkpt lat="53.35037" lon="13.07325"><ele>64</ele></trkpt>
<trkpt lat="53.35196" lon="13.07205"><ele>65</ele></trkpt>
<trkpt lat="53.35282" lon="13.07160"><ele>65</ele></trkpt>
<trkpt lat="53.35346" lon="13.07135"><ele>63</ele></trkpt>
<trkpt lat="53.35405" lon="13.07130"><ele>65</ele></trkpt>
<trkpt lat="53.35477" lon="13.07130"><ele>65</ele></trkpt>
<trkpt lat="53.35540" lon="13.07137"><ele>64</ele></trkpt>
<trkpt lat="53.35572" lon="13.07145"><ele>64</ele></trkpt>
<trkpt lat="53.35634" lon="13.07170"><ele>65</ele></trkpt>
<trkpt lat="53.35693" lon="13.07207"><ele>66</ele></trkpt>
<trkpt lat="53.35711" lon="13.07225"><ele>67</ele></trkpt>
<trkpt lat="53.35820" lon="13.07044"><ele>68</ele></trkpt>
<trkpt lat="53.35842" lon="13.07017"><ele>69</ele></trkpt>
<trkpt lat="53.35853" lon="13.07013"><ele>70</ele></trkpt>
<trkpt lat="53.35858" lon="13.06997"><ele>70</ele></trkpt>
<trkpt lat="53.35854" lon="13.06984"><ele>70</ele></trkpt>
<trkpt lat="53.36233" lon="13.06356"><ele>72</ele></trkpt>
    </trkseg>
  </trk>
</gpx>
