<?xml version="1.0" encoding="UTF-8"?>
<gpx version="1.1" creator="Gravel Kompass" xmlns="http://www.topografix.com/GPX/1/1">
  <metadata><name>Seenplatten-Runde: Müritz, Mecklenburgische Schweiz &amp; Heide – Etappe 2</name></metadata>
  <trk>
    <name>Etappe 2: Waren (Müritz) – Teterow</name>
    <trkseg>
      <trkpt lat="53.516789" lon="12.680147"><ele>62.0</ele></trkpt>
      <trkpt lat="53.516689" lon="12.680191"><ele>62.0</ele></trkpt>
      <trkpt lat="53.516654" lon="12.680206"><ele>62.0</ele></trkpt>
      <trkpt lat="53.516627" lon="12.680218"><ele>62.0</ele></trkpt>
      <trkpt lat="53.516665" lon="12.680523"><ele>62.0</ele></trkpt>
      <trkpt lat="53.516678" lon="12.680643"><ele>62.0</ele></trkpt>
      <trkpt lat="53.517267" lon="12.680438"><ele>62.0</ele></trkpt>
      <trkpt lat="53.517352" lon="12.680412"><ele>62.0</ele></trkpt>
      <trkpt lat="53.517480" lon="12.680360"><ele>62.0</ele></trkpt>
      <trkpt lat="53.517531" lon="12.680336"><ele>62.0</ele></trkpt>
      <trkpt lat="53.517578" lon="12.680301"><ele>62.0</ele></trkpt>
      <trkpt lat="53.517644" lon="12.680238"><ele>62.0</ele></trkpt>
      <trkpt lat="53.517825" lon="12.680036"><ele>62.0</ele></trkpt>
      <trkpt lat="53.517898" lon="12.679977"><ele>62.2</ele></trkpt>
      <trkpt lat="53.517969" lon="12.679944"><ele>62.8</ele></trkpt>
      <trkpt lat="53.518030" lon="12.679942"><ele>62.8</ele></trkpt>
      <trkpt lat="53.518177" lon="12.679966"><ele>63.2</ele></trkpt>
      <trkpt lat="53.518834" lon="12.680167"><ele>65.0</ele></trkpt>
      <trkpt lat="53.518928" lon="12.680193"><ele>65.0</ele></trkpt>
      <trkpt lat="53.518958" lon="12.679937"><ele>65.0</ele></trkpt>
      <trkpt lat="53.518980" lon="12.679720"><ele>65.0</ele></trkpt>
      <trkpt lat="53.519008" lon="12.679560"><ele>65.0</ele></trkpt>
      <trkpt lat="53.519055" lon="12.679370"><ele>65.0</ele></trkpt>
      <trkpt lat="53.519140" lon="12.679155"><ele>65.0</ele></trkpt>
      <trkpt lat="53.519205" lon="12.679017"><ele>65.0</ele></trkpt>
      <trkpt lat="53.519487" lon="12.678611"><ele>65.2</ele></trkpt>
      <trkpt lat="53.519528" lon="12.678552"><ele>65.8</ele></trkpt>
      <trkpt lat="53.519391" lon="12.678290"><ele>65.8</ele></trkpt>
      <trkpt lat="53.519313" lon="12.678140"><ele>65.8</ele></trkpt>
      <trkpt lat="53.519209" lon="12.677931"><ele>65.2</ele></trkpt>
      <trkpt lat="53.519059" lon="12.677631"><ele>65.2</ele></trkpt>
      <trkpt lat="53.519084" lon="12.677550"><ele>65.5</ele></trkpt>
      <trkpt lat="53.519126" lon="12.677409"><ele>65.8</ele></trkpt>
      <trkpt lat="53.519191" lon="12.676914"><ele>66.0</ele></trkpt>
      <trkpt lat="53.519216" lon="12.676725"><ele>66.2</ele></trkpt>
      <trkpt lat="53.519257" lon="12.676354"><ele>67.2</ele></trkpt>
      <trkpt lat="53.519325" lon="12.675810"><ele>67.5</ele></trkpt>
      <trkpt lat="53.520245" lon="12.676089"><ele>69.8</ele></trkpt>
      <trkpt lat="53.520294" lon="12.675524"><ele>70.0</ele></trkpt>
      <trkpt lat="53.520567" lon="12.675577"><ele>71.0</ele></trkpt>
      <trkpt lat="53.521303" lon="12.675756"><ele>70.5</ele></trkpt>
      <trkpt lat="53.522346" lon="12.676387"><ele>70.0</ele></trkpt>
      <trkpt lat="53.522389" lon="12.676440"><ele>70.0</ele></trkpt>
      <trkpt lat="53.522478" lon="12.676619"><ele>70.0</ele></trkpt>
      <trkpt lat="53.522686" lon="12.676981"><ele>69.2</ele></trkpt>
      <trkpt lat="53.522846" lon="12.677296"><ele>69.0</ele></trkpt>
      <trkpt lat="53.523203" lon="12.676814"><ele>68.2</ele></trkpt>
      <trkpt lat="53.523395" lon="12.676615"><ele>68.0</ele></trkpt>
      <trkpt lat="53.523446" lon="12.676562"><ele>68.0</ele></trkpt>
      <trkpt lat="53.523567" lon="12.676449"><ele>68.0</ele></trkpt>
      <trkpt lat="53.523866" lon="12.676169"><ele>68.0</ele></trkpt>
      <trkpt lat="53.523903" lon="12.676134"><ele>67.8</ele></trkpt>
      <trkpt lat="53.523971" lon="12.676122"><ele>67.8</ele></trkpt>
      <trkpt lat="53.524023" lon="12.676086"><ele>68.0</ele></trkpt>
      <trkpt lat="53.523997" lon="12.676003"><ele>68.0</ele></trkpt>
      <trkpt lat="53.523981" lon="12.675953"><ele>68.0</ele></trkpt>
      <trkpt lat="53.524001" lon="12.675912"><ele>68.0</ele></trkpt>
      <trkpt lat="53.524027" lon="12.675786"><ele>68.0</ele></trkpt>
      <trkpt lat="53.524028" lon="12.675713"><ele>68.0</ele></trkpt>
      <trkpt lat="53.524053" lon="12.675688"><ele>68.0</ele></trkpt>
      <trkpt lat="53.524104" lon="12.675638"><ele>68.0</ele></trkpt>
      <trkpt lat="53.524139" lon="12.675603"><ele>68.0</ele></trkpt>
      <trkpt lat="53.524174" lon="12.675637"><ele>67.8</ele></trkpt>
      <trkpt lat="53.524249" lon="12.675679"><ele>67.5</ele></trkpt>
      <trkpt lat="53.524278" lon="12.675672"><ele>67.5</ele></trkpt>
      <trkpt lat="53.524332" lon="12.675622"><ele>67.2</ele></trkpt>
      <trkpt lat="53.524438" lon="12.675546"><ele>67.0</ele></trkpt>
      <trkpt lat="53.525172" lon="12.674883"><ele>67.0</ele></trkpt>
      <trkpt lat="53.525373" lon="12.674710"><ele>67.0</ele></trkpt>
      <trkpt lat="53.525525" lon="12.674571"><ele>67.0</ele></trkpt>
      <trkpt lat="53.525605" lon="12.674517"><ele>67.0</ele></trkpt>
      <trkpt lat="53.525662" lon="12.674509"><ele>67.0</ele></trkpt>
      <trkpt lat="53.525835" lon="12.674407"><ele>67.0</ele></trkpt>
      <trkpt lat="53.526307" lon="12.674185"><ele>67.0</ele></trkpt>
      <trkpt lat="53.526758" lon="12.673947"><ele>66.8</ele></trkpt>
      <trkpt lat="53.527706" lon="12.673376"><ele>66.8</ele></trkpt>
      <trkpt lat="53.527824" lon="12.673238"><ele>67.2</ele></trkpt>
      <trkpt lat="53.527929" lon="12.673091"><ele>67.8</ele></trkpt>
      <trkpt lat="53.528105" lon="12.672815"><ele>68.0</ele></trkpt>
      <trkpt lat="53.528389" lon="12.672286"><ele>69.8</ele></trkpt>
      <trkpt lat="53.528499" lon="12.672117"><ele>70.0</ele></trkpt>
      <trkpt lat="53.528629" lon="12.671926"><ele>70.0</ele></trkpt>
      <trkpt lat="53.528792" lon="12.671698"><ele>70.5</ele></trkpt>
      <trkpt lat="53.528956" lon="12.671469"><ele>71.0</ele></trkpt>
      <trkpt lat="53.529045" lon="12.671372"><ele>71.5</ele></trkpt>
      <trkpt lat="53.529480" lon="12.670970"><ele>72.0</ele></trkpt>
      <trkpt lat="53.529939" lon="12.670549"><ele>72.8</ele></trkpt>
      <trkpt lat="53.530539" lon="12.669995"><ele>74.0</ele></trkpt>
      <trkpt lat="53.530886" lon="12.669680"><ele>75.0</ele></trkpt>
      <trkpt lat="53.531331" lon="12.669275"><ele>76.8</ele></trkpt>
      <trkpt lat="53.531560" lon="12.669059"><ele>77.0</ele></trkpt>
      <trkpt lat="53.532017" lon="12.668610"><ele>77.0</ele></trkpt>
      <trkpt lat="53.532080" lon="12.668548"><ele>77.0</ele></trkpt>
      <trkpt lat="53.532190" lon="12.668410"><ele>77.0</ele></trkpt>
      <trkpt lat="53.532208" lon="12.668390"><ele>77.0</ele></trkpt>
      <trkpt lat="53.532447" lon="12.668145"><ele>77.0</ele></trkpt>
      <trkpt lat="53.532482" lon="12.668081"><ele>77.0</ele></trkpt>
      <trkpt lat="53.532570" lon="12.667990"><ele>77.0</ele></trkpt>
      <trkpt lat="53.532644" lon="12.667914"><ele>77.0</ele></trkpt>
      <trkpt lat="53.532734" lon="12.667826"><ele>77.0</ele></trkpt>
      <trkpt lat="53.532863" lon="12.667677"><ele>77.0</ele></trkpt>
      <trkpt lat="53.532904" lon="12.667574"><ele>77.0</ele></trkpt>
      <trkpt lat="53.533104" lon="12.667337"><ele>77.0</ele></trkpt>
      <trkpt lat="53.534227" lon="12.666212"><ele>76.2</ele></trkpt>
      <trkpt lat="53.534818" lon="12.665595"><ele>75.0</ele></trkpt>
      <trkpt lat="53.535964" lon="12.664399"><ele>75.0</ele></trkpt>
      <trkpt lat="53.537519" lon="12.662782"><ele>74.8</ele></trkpt>
      <trkpt lat="53.538585" lon="12.661709"><ele>74.0</ele></trkpt>
      <trkpt lat="53.538704" lon="12.661663"><ele>74.0</ele></trkpt>
      <trkpt lat="53.538913" lon="12.661446"><ele>73.8</ele></trkpt>
      <trkpt lat="53.538979" lon="12.661301"><ele>74.2</ele></trkpt>
      <trkpt lat="53.539073" lon="12.661178"><ele>74.8</ele></trkpt>
      <trkpt lat="53.539973" lon="12.660207"><ele>77.5</ele></trkpt>
      <trkpt lat="53.540074" lon="12.660201"><ele>78.5</ele></trkpt>
      <trkpt lat="53.540174" lon="12.660148"><ele>79.2</ele></trkpt>
      <trkpt lat="53.540676" lon="12.659681"><ele>82.8</ele></trkpt>
      <trkpt lat="53.541113" lon="12.659362"><ele>85.2</ele></trkpt>
      <trkpt lat="53.541172" lon="12.659268"><ele>85.8</ele></trkpt>
      <trkpt lat="53.541224" lon="12.659225"><ele>86.0</ele></trkpt>
      <trkpt lat="53.541284" lon="12.659187"><ele>86.5</ele></trkpt>
      <trkpt lat="53.541342" lon="12.659152"><ele>86.8</ele></trkpt>
      <trkpt lat="53.541418" lon="12.659152"><ele>86.8</ele></trkpt>
      <trkpt lat="53.542519" lon="12.658576"><ele>84.8</ele></trkpt>
      <trkpt lat="53.544124" lon="12.657780"><ele>80.0</ele></trkpt>
      <trkpt lat="53.544232" lon="12.657651"><ele>80.0</ele></trkpt>
      <trkpt lat="53.544926" lon="12.657278"><ele>80.0</ele></trkpt>
      <trkpt lat="53.545345" lon="12.657073"><ele>80.0</ele></trkpt>
      <trkpt lat="53.545402" lon="12.657083"><ele>80.0</ele></trkpt>
      <trkpt lat="53.545420" lon="12.657188"><ele>80.0</ele></trkpt>
      <trkpt lat="53.545866" lon="12.656963"><ele>80.0</ele></trkpt>
      <trkpt lat="53.546556" lon="12.656618"><ele>79.8</ele></trkpt>
      <trkpt lat="53.547331" lon="12.656232"><ele>77.0</ele></trkpt>
      <trkpt lat="53.547637" lon="12.656080"><ele>76.8</ele></trkpt>
      <trkpt lat="53.547623" lon="12.656010"><ele>76.8</ele></trkpt>
      <trkpt lat="53.547687" lon="12.655914"><ele>76.5</ele></trkpt>
      <trkpt lat="53.547772" lon="12.655849"><ele>76.0</ele></trkpt>
      <trkpt lat="53.547920" lon="12.655765"><ele>75.8</ele></trkpt>
      <trkpt lat="53.550778" lon="12.654298"><ele>72.2</ele></trkpt>
      <trkpt lat="53.551592" lon="12.653868"><ele>71.8</ele></trkpt>
      <trkpt lat="53.552121" lon="12.653451"><ele>72.0</ele></trkpt>
      <trkpt lat="53.553143" lon="12.652362"><ele>72.2</ele></trkpt>
      <trkpt lat="53.555156" lon="12.650217"><ele>77.0</ele></trkpt>
      <trkpt lat="53.555343" lon="12.650126"><ele>77.2</ele></trkpt>
      <trkpt lat="53.555481" lon="12.649991"><ele>78.2</ele></trkpt>
      <trkpt lat="53.555557" lon="12.649911"><ele>78.5</ele></trkpt>
      <trkpt lat="53.555638" lon="12.649825"><ele>78.5</ele></trkpt>
      <trkpt lat="53.555710" lon="12.649901"><ele>79.0</ele></trkpt>
      <trkpt lat="53.555788" lon="12.649988"><ele>79.8</ele></trkpt>
      <trkpt lat="53.555944" lon="12.649803"><ele>79.0</ele></trkpt>
      <trkpt lat="53.556134" lon="12.649662"><ele>78.8</ele></trkpt>
      <trkpt lat="53.557293" lon="12.648408"><ele>75.0</ele></trkpt>
      <trkpt lat="53.557373" lon="12.648207"><ele>74.8</ele></trkpt>
      <trkpt lat="53.557464" lon="12.648104"><ele>74.2</ele></trkpt>
      <trkpt lat="53.557581" lon="12.648009"><ele>74.0</ele></trkpt>
      <trkpt lat="53.557667" lon="12.648020"><ele>74.0</ele></trkpt>
      <trkpt lat="53.559340" lon="12.646255"><ele>75.0</ele></trkpt>
      <trkpt lat="53.559537" lon="12.646116"><ele>75.0</ele></trkpt>
      <trkpt lat="53.561500" lon="12.644040"><ele>74.2</ele></trkpt>
      <trkpt lat="53.561688" lon="12.643782"><ele>75.0</ele></trkpt>
      <trkpt lat="53.563236" lon="12.642157"><ele>75.5</ele></trkpt>
      <trkpt lat="53.563280" lon="12.642066"><ele>75.8</ele></trkpt>
      <trkpt lat="53.563317" lon="12.641968"><ele>75.8</ele></trkpt>
      <trkpt lat="53.563493" lon="12.641787"><ele>76.0</ele></trkpt>
      <trkpt lat="53.563555" lon="12.641953"><ele>76.0</ele></trkpt>
      <trkpt lat="53.563609" lon="12.642058"><ele>76.0</ele></trkpt>
      <trkpt lat="53.563647" lon="12.642086"><ele>76.0</ele></trkpt>
      <trkpt lat="53.563705" lon="12.642086"><ele>76.0</ele></trkpt>
      <trkpt lat="53.563922" lon="12.641991"><ele>76.0</ele></trkpt>
      <trkpt lat="53.563987" lon="12.641996"><ele>76.0</ele></trkpt>
      <trkpt lat="53.564034" lon="12.642024"><ele>76.0</ele></trkpt>
      <trkpt lat="53.564085" lon="12.642089"><ele>76.0</ele></trkpt>
      <trkpt lat="53.564913" lon="12.643635"><ele>77.0</ele></trkpt>
      <trkpt lat="53.565743" lon="12.645264"><ele>78.8</ele></trkpt>
      <trkpt lat="53.565864" lon="12.645478"><ele>78.8</ele></trkpt>
      <trkpt lat="53.567956" lon="12.649571"><ele>82.0</ele></trkpt>
      <trkpt lat="53.569989" lon="12.653481"><ele>84.0</ele></trkpt>
      <trkpt lat="53.570810" lon="12.655142"><ele>85.0</ele></trkpt>
      <trkpt lat="53.571596" lon="12.656470"><ele>86.8</ele></trkpt>
      <trkpt lat="53.571654" lon="12.656620"><ele>86.8</ele></trkpt>
      <trkpt lat="53.571754" lon="12.656584"><ele>87.0</ele></trkpt>
      <trkpt lat="53.571990" lon="12.656559"><ele>87.0</ele></trkpt>
      <trkpt lat="53.572177" lon="12.656563"><ele>87.0</ele></trkpt>
      <trkpt lat="53.572257" lon="12.656595"><ele>87.0</ele></trkpt>
      <trkpt lat="53.579694" lon="12.662391"><ele>96.8</ele></trkpt>
      <trkpt lat="53.580123" lon="12.662823"><ele>97.0</ele></trkpt>
      <trkpt lat="53.580337" lon="12.663017"><ele>97.0</ele></trkpt>
      <trkpt lat="53.580928" lon="12.663283"><ele>95.5</ele></trkpt>
      <trkpt lat="53.581165" lon="12.663466"><ele>94.2</ele></trkpt>
      <trkpt lat="53.581401" lon="12.663693"><ele>93.5</ele></trkpt>
      <trkpt lat="53.581541" lon="12.663821"><ele>93.5</ele></trkpt>
      <trkpt lat="53.582360" lon="12.664564"><ele>95.0</ele></trkpt>
      <trkpt lat="53.583274" lon="12.665317"><ele>95.0</ele></trkpt>
      <trkpt lat="53.584060" lon="12.665964"><ele>90.5</ele></trkpt>
      <trkpt lat="53.584710" lon="12.666561"><ele>90.5</ele></trkpt>
      <trkpt lat="53.584991" lon="12.666997"><ele>94.0</ele></trkpt>
      <trkpt lat="53.585254" lon="12.667436"><ele>94.8</ele></trkpt>
      <trkpt lat="53.585375" lon="12.667553"><ele>95.2</ele></trkpt>
      <trkpt lat="53.585384" lon="12.667561"><ele>95.2</ele></trkpt>
      <trkpt lat="53.585544" lon="12.667651"><ele>96.2</ele></trkpt>
      <trkpt lat="53.586256" lon="12.668001"><ele>101.0</ele></trkpt>
      <trkpt lat="53.586724" lon="12.667977"><ele>100.2</ele></trkpt>
      <trkpt lat="53.587952" lon="12.667849"><ele>97.0</ele></trkpt>
      <trkpt lat="53.588534" lon="12.667841"><ele>97.8</ele></trkpt>
      <trkpt lat="53.589363" lon="12.667962"><ele>102.2</ele></trkpt>
      <trkpt lat="53.589755" lon="12.668008"><ele>102.0</ele></trkpt>
      <trkpt lat="53.590004" lon="12.668046"><ele>102.0</ele></trkpt>
      <trkpt lat="53.590612" lon="12.668200"><ele>98.2</ele></trkpt>
      <trkpt lat="53.590818" lon="12.668379"><ele>95.0</ele></trkpt>
      <trkpt lat="53.591125" lon="12.668944"><ele>94.8</ele></trkpt>
      <trkpt lat="53.591269" lon="12.669875"><ele>95.5</ele></trkpt>
      <trkpt lat="53.591500" lon="12.671061"><ele>96.5</ele></trkpt>
      <trkpt lat="53.591630" lon="12.671302"><ele>98.5</ele></trkpt>
      <trkpt lat="53.591897" lon="12.671550"><ele>100.5</ele></trkpt>
      <trkpt lat="53.592030" lon="12.671630"><ele>101.5</ele></trkpt>
      <trkpt lat="53.592375" lon="12.671612"><ele>103.8</ele></trkpt>
      <trkpt lat="53.593247" lon="12.671475"><ele>103.5</ele></trkpt>
      <trkpt lat="53.593966" lon="12.671402"><ele>101.8</ele></trkpt>
      <trkpt lat="53.594088" lon="12.671435"><ele>101.2</ele></trkpt>
      <trkpt lat="53.594317" lon="12.671583"><ele>100.8</ele></trkpt>
      <trkpt lat="53.594772" lon="12.672086"><ele>100.0</ele></trkpt>
      <trkpt lat="53.595364" lon="12.672769"><ele>98.0</ele></trkpt>
      <trkpt lat="53.595883" lon="12.673282"><ele>98.0</ele></trkpt>
      <trkpt lat="53.596074" lon="12.673443"><ele>99.8</ele></trkpt>
      <trkpt lat="53.596329" lon="12.673561"><ele>101.5</ele></trkpt>
      <trkpt lat="53.596332" lon="12.673898"><ele>99.2</ele></trkpt>
      <trkpt lat="53.596396" lon="12.674198"><ele>98.8</ele></trkpt>
      <trkpt lat="53.597063" lon="12.675915"><ele>99.5</ele></trkpt>
      <trkpt lat="53.597530" lon="12.677329"><ele>100.0</ele></trkpt>
      <trkpt lat="53.598011" lon="12.678089"><ele>99.0</ele></trkpt>
      <trkpt lat="53.598306" lon="12.678594"><ele>99.8</ele></trkpt>
      <trkpt lat="53.598389" lon="12.678907"><ele>98.5</ele></trkpt>
      <trkpt lat="53.598414" lon="12.678998"><ele>98.2</ele></trkpt>
      <trkpt lat="53.598474" lon="12.679108"><ele>97.5</ele></trkpt>
      <trkpt lat="53.598658" lon="12.679281"><ele>96.8</ele></trkpt>
      <trkpt lat="53.598978" lon="12.679654"><ele>95.0</ele></trkpt>
      <trkpt lat="53.599099" lon="12.679844"><ele>94.0</ele></trkpt>
      <trkpt lat="53.599187" lon="12.679917"><ele>93.5</ele></trkpt>
      <trkpt lat="53.599293" lon="12.679957"><ele>94.0</ele></trkpt>
      <trkpt lat="53.599413" lon="12.680068"><ele>94.2</ele></trkpt>
      <trkpt lat="53.599547" lon="12.680267"><ele>94.0</ele></trkpt>
      <trkpt lat="53.599787" lon="12.680718"><ele>92.2</ele></trkpt>
      <trkpt lat="53.599957" lon="12.680992"><ele>92.0</ele></trkpt>
      <trkpt lat="53.600154" lon="12.681293"><ele>91.5</ele></trkpt>
      <trkpt lat="53.600302" lon="12.681500"><ele>92.2</ele></trkpt>
      <trkpt lat="53.600566" lon="12.681939"><ele>94.0</ele></trkpt>
      <trkpt lat="53.601013" lon="12.682656"><ele>96.0</ele></trkpt>
      <trkpt lat="53.601137" lon="12.682785"><ele>96.0</ele></trkpt>
      <trkpt lat="53.601372" lon="12.683053"><ele>95.8</ele></trkpt>
      <trkpt lat="53.601472" lon="12.683159"><ele>95.8</ele></trkpt>
      <trkpt lat="53.601565" lon="12.683258"><ele>95.8</ele></trkpt>
      <trkpt lat="53.602622" lon="12.684364"><ele>95.0</ele></trkpt>
      <trkpt lat="53.602812" lon="12.684626"><ele>94.8</ele></trkpt>
      <trkpt lat="53.602945" lon="12.684849"><ele>94.8</ele></trkpt>
      <trkpt lat="53.603018" lon="12.685012"><ele>94.8</ele></trkpt>
      <trkpt lat="53.603172" lon="12.685233"><ele>94.8</ele></trkpt>
      <trkpt lat="53.603456" lon="12.685701"><ele>95.0</ele></trkpt>
      <trkpt lat="53.603738" lon="12.686193"><ele>94.5</ele></trkpt>
      <trkpt lat="53.603843" lon="12.686417"><ele>94.0</ele></trkpt>
      <trkpt lat="53.604296" lon="12.687611"><ele>89.5</ele></trkpt>
      <trkpt lat="53.604436" lon="12.687999"><ele>89.8</ele></trkpt>
      <trkpt lat="53.604520" lon="12.688270"><ele>89.5</ele></trkpt>
      <trkpt lat="53.604581" lon="12.688544"><ele>89.8</ele></trkpt>
      <trkpt lat="53.604617" lon="12.688800"><ele>90.0</ele></trkpt>
      <trkpt lat="53.604722" lon="12.690033"><ele>86.8</ele></trkpt>
      <trkpt lat="53.604826" lon="12.690568"><ele>83.2</ele></trkpt>
      <trkpt lat="53.604995" lon="12.690952"><ele>82.0</ele></trkpt>
      <trkpt lat="53.605215" lon="12.691326"><ele>81.0</ele></trkpt>
      <trkpt lat="53.605252" lon="12.691389"><ele>81.0</ele></trkpt>
      <trkpt lat="53.605769" lon="12.691868"><ele>81.0</ele></trkpt>
      <trkpt lat="53.606864" lon="12.692806"><ele>80.2</ele></trkpt>
      <trkpt lat="53.607000" lon="12.692909"><ele>80.0</ele></trkpt>
      <trkpt lat="53.607320" lon="12.693025"><ele>80.0</ele></trkpt>
      <trkpt lat="53.607417" lon="12.693081"><ele>79.8</ele></trkpt>
      <trkpt lat="53.607913" lon="12.693697"><ele>77.0</ele></trkpt>
      <trkpt lat="53.608229" lon="12.694051"><ele>75.0</ele></trkpt>
      <trkpt lat="53.608505" lon="12.694259"><ele>74.2</ele></trkpt>
      <trkpt lat="53.608638" lon="12.694430"><ele>73.5</ele></trkpt>
      <trkpt lat="53.608736" lon="12.694636"><ele>71.8</ele></trkpt>
      <trkpt lat="53.608814" lon="12.694888"><ele>70.8</ele></trkpt>
      <trkpt lat="53.609103" lon="12.696176"><ele>75.2</ele></trkpt>
      <trkpt lat="53.609163" lon="12.696387"><ele>75.8</ele></trkpt>
      <trkpt lat="53.609239" lon="12.696576"><ele>75.8</ele></trkpt>
      <trkpt lat="53.609344" lon="12.696792"><ele>76.8</ele></trkpt>
      <trkpt lat="53.609529" lon="12.697017"><ele>78.0</ele></trkpt>
      <trkpt lat="53.610263" lon="12.697586"><ele>79.2</ele></trkpt>
      <trkpt lat="53.610680" lon="12.697882"><ele>79.2</ele></trkpt>
      <trkpt lat="53.610855" lon="12.698013"><ele>79.8</ele></trkpt>
      <trkpt lat="53.611191" lon="12.698264"><ele>80.5</ele></trkpt>
      <trkpt lat="53.611444" lon="12.698488"><ele>82.5</ele></trkpt>
      <trkpt lat="53.611551" lon="12.698567"><ele>83.5</ele></trkpt>
      <trkpt lat="53.611776" lon="12.698841"><ele>85.0</ele></trkpt>
      <trkpt lat="53.611937" lon="12.699066"><ele>85.0</ele></trkpt>
      <trkpt lat="53.612080" lon="12.699331"><ele>84.5</ele></trkpt>
      <trkpt lat="53.612169" lon="12.699529"><ele>84.0</ele></trkpt>
      <trkpt lat="53.612559" lon="12.699551"><ele>83.0</ele></trkpt>
      <trkpt lat="53.613140" lon="12.699650"><ele>85.0</ele></trkpt>
      <trkpt lat="53.613782" lon="12.699817"><ele>85.0</ele></trkpt>
      <trkpt lat="53.614686" lon="12.700076"><ele>84.0</ele></trkpt>
      <trkpt lat="53.614972" lon="12.700148"><ele>83.5</ele></trkpt>
      <trkpt lat="53.615394" lon="12.700232"><ele>84.8</ele></trkpt>
      <trkpt lat="53.615651" lon="12.700302"><ele>86.2</ele></trkpt>
      <trkpt lat="53.615880" lon="12.700424"><ele>87.0</ele></trkpt>
      <trkpt lat="53.616854" lon="12.701029"><ele>85.2</ele></trkpt>
      <trkpt lat="53.617966" lon="12.701747"><ele>77.5</ele></trkpt>
      <trkpt lat="53.618118" lon="12.701831"><ele>77.5</ele></trkpt>
      <trkpt lat="53.618257" lon="12.701894"><ele>77.8</ele></trkpt>
      <trkpt lat="53.618415" lon="12.701893"><ele>78.0</ele></trkpt>
      <trkpt lat="53.618561" lon="12.701845"><ele>78.5</ele></trkpt>
      <trkpt lat="53.619071" lon="12.701588"><ele>79.5</ele></trkpt>
      <trkpt lat="53.619557" lon="12.701367"><ele>78.5</ele></trkpt>
      <trkpt lat="53.620641" lon="12.700905"><ele>75.0</ele></trkpt>
      <trkpt lat="53.620870" lon="12.700814"><ele>75.0</ele></trkpt>
      <trkpt lat="53.620992" lon="12.700715"><ele>75.0</ele></trkpt>
      <trkpt lat="53.621176" lon="12.700529"><ele>75.8</ele></trkpt>
      <trkpt lat="53.621401" lon="12.700247"><ele>76.0</ele></trkpt>
      <trkpt lat="53.621686" lon="12.699909"><ele>77.0</ele></trkpt>
      <trkpt lat="53.622431" lon="12.699025"><ele>75.8</ele></trkpt>
      <trkpt lat="53.623777" lon="12.697284"><ele>73.8</ele></trkpt>
      <trkpt lat="53.623862" lon="12.697175"><ele>73.2</ele></trkpt>
      <trkpt lat="53.624191" lon="12.696913"><ele>72.0</ele></trkpt>
      <trkpt lat="53.624518" lon="12.696795"><ele>72.0</ele></trkpt>
      <trkpt lat="53.625262" lon="12.696763"><ele>70.2</ele></trkpt>
      <trkpt lat="53.625375" lon="12.696747"><ele>70.0</ele></trkpt>
      <trkpt lat="53.626045" lon="12.696655"><ele>70.0</ele></trkpt>
      <trkpt lat="53.626586" lon="12.696323"><ele>70.0</ele></trkpt>
      <trkpt lat="53.627095" lon="12.695915"><ele>68.8</ele></trkpt>
      <trkpt lat="53.627820" lon="12.695615"><ele>66.0</ele></trkpt>
      <trkpt lat="53.630224" lon="12.694745"><ele>67.0</ele></trkpt>
      <trkpt lat="53.630988" lon="12.694531"><ele>67.0</ele></trkpt>
      <trkpt lat="53.632643" lon="12.694134"><ele>69.2</ele></trkpt>
      <trkpt lat="53.634949" lon="12.693633"><ele>67.0</ele></trkpt>
      <trkpt lat="53.635868" lon="12.693376"><ele>66.8</ele></trkpt>
      <trkpt lat="53.636043" lon="12.693338"><ele>66.0</ele></trkpt>
      <trkpt lat="53.636928" lon="12.692102"><ele>64.2</ele></trkpt>
      <trkpt lat="53.640098" lon="12.687572"><ele>63.0</ele></trkpt>
      <trkpt lat="53.640290" lon="12.687303"><ele>63.0</ele></trkpt>
      <trkpt lat="53.640330" lon="12.687249"><ele>63.0</ele></trkpt>
      <trkpt lat="53.640666" lon="12.686776"><ele>62.5</ele></trkpt>
      <trkpt lat="53.640796" lon="12.686547"><ele>62.0</ele></trkpt>
      <trkpt lat="53.641023" lon="12.686042"><ele>61.8</ele></trkpt>
      <trkpt lat="53.640981" lon="12.685524"><ele>62.0</ele></trkpt>
      <trkpt lat="53.640758" lon="12.681440"><ele>60.2</ele></trkpt>
      <trkpt lat="53.640774" lon="12.681334"><ele>60.0</ele></trkpt>
      <trkpt lat="53.640818" lon="12.681198"><ele>60.0</ele></trkpt>
      <trkpt lat="53.640784" lon="12.681035"><ele>60.0</ele></trkpt>
      <trkpt lat="53.640770" lon="12.680895"><ele>60.0</ele></trkpt>
      <trkpt lat="53.640777" lon="12.680682"><ele>60.0</ele></trkpt>
      <trkpt lat="53.640788" lon="12.680551"><ele>60.0</ele></trkpt>
      <trkpt lat="53.640816" lon="12.680205"><ele>60.0</ele></trkpt>
      <trkpt lat="53.640825" lon="12.680087"><ele>60.0</ele></trkpt>
      <trkpt lat="53.640904" lon="12.680141"><ele>60.0</ele></trkpt>
      <trkpt lat="53.641031" lon="12.680141"><ele>60.0</ele></trkpt>
      <trkpt lat="53.642455" lon="12.679682"><ele>59.2</ele></trkpt>
      <trkpt lat="53.642767" lon="12.679626"><ele>58.0</ele></trkpt>
      <trkpt lat="53.643193" lon="12.679591"><ele>57.0</ele></trkpt>
      <trkpt lat="53.643428" lon="12.679601"><ele>57.0</ele></trkpt>
      <trkpt lat="53.643785" lon="12.679637"><ele>57.0</ele></trkpt>
      <trkpt lat="53.644174" lon="12.679727"><ele>58.0</ele></trkpt>
      <trkpt lat="53.644538" lon="12.679846"><ele>58.8</ele></trkpt>
      <trkpt lat="53.644853" lon="12.679984"><ele>59.8</ele></trkpt>
      <trkpt lat="53.645229" lon="12.680200"><ele>60.5</ele></trkpt>
      <trkpt lat="53.645569" lon="12.680444"><ele>60.8</ele></trkpt>
      <trkpt lat="53.645931" lon="12.680756"><ele>61.0</ele></trkpt>
      <trkpt lat="53.646870" lon="12.681793"><ele>59.2</ele></trkpt>
      <trkpt lat="53.647707" lon="12.682765"><ele>58.8</ele></trkpt>
      <trkpt lat="53.650393" lon="12.685845"><ele>57.0</ele></trkpt>
      <trkpt lat="53.653452" lon="12.689336"><ele>50.5</ele></trkpt>
      <trkpt lat="53.653881" lon="12.689845"><ele>49.0</ele></trkpt>
      <trkpt lat="53.656658" lon="12.693004"><ele>50.2</ele></trkpt>
      <trkpt lat="53.657651" lon="12.694158"><ele>51.0</ele></trkpt>
      <trkpt lat="53.658135" lon="12.694680"><ele>51.0</ele></trkpt>
      <trkpt lat="53.658630" lon="12.695108"><ele>50.5</ele></trkpt>
      <trkpt lat="53.659018" lon="12.695368"><ele>49.5</ele></trkpt>
      <trkpt lat="53.659335" lon="12.695543"><ele>50.0</ele></trkpt>
      <trkpt lat="53.659747" lon="12.695716"><ele>51.5</ele></trkpt>
      <trkpt lat="53.660757" lon="12.696054"><ele>54.0</ele></trkpt>
      <trkpt lat="53.661004" lon="12.696155"><ele>54.0</ele></trkpt>
      <trkpt lat="53.661346" lon="12.696326"><ele>54.0</ele></trkpt>
      <trkpt lat="53.661669" lon="12.696509"><ele>52.8</ele></trkpt>
      <trkpt lat="53.662028" lon="12.696784"><ele>50.5</ele></trkpt>
      <trkpt lat="53.662280" lon="12.697017"><ele>48.8</ele></trkpt>
      <trkpt lat="53.662450" lon="12.697190"><ele>48.0</ele></trkpt>
      <trkpt lat="53.662763" lon="12.697541"><ele>45.8</ele></trkpt>
      <trkpt lat="53.663180" lon="12.698064"><ele>45.2</ele></trkpt>
      <trkpt lat="53.664493" lon="12.699671"><ele>45.2</ele></trkpt>
      <trkpt lat="53.666234" lon="12.701934"><ele>45.0</ele></trkpt>
      <trkpt lat="53.666277" lon="12.701989"><ele>45.0</ele></trkpt>
      <trkpt lat="53.666255" lon="12.702086"><ele>45.0</ele></trkpt>
      <trkpt lat="53.666220" lon="12.702170"><ele>45.0</ele></trkpt>
      <trkpt lat="53.666458" lon="12.702498"><ele>45.0</ele></trkpt>
      <trkpt lat="53.666520" lon="12.702752"><ele>45.0</ele></trkpt>
      <trkpt lat="53.666565" lon="12.703083"><ele>45.0</ele></trkpt>
      <trkpt lat="53.666568" lon="12.703345"><ele>45.0</ele></trkpt>
      <trkpt lat="53.666563" lon="12.703667"><ele>45.0</ele></trkpt>
      <trkpt lat="53.666519" lon="12.705198"><ele>45.0</ele></trkpt>
      <trkpt lat="53.666455" lon="12.705782"><ele>45.0</ele></trkpt>
      <trkpt lat="53.666426" lon="12.706459"><ele>46.0</ele></trkpt>
      <trkpt lat="53.666409" lon="12.707412"><ele>47.5</ele></trkpt>
      <trkpt lat="53.666406" lon="12.707556"><ele>48.0</ele></trkpt>
      <trkpt lat="53.666328" lon="12.708742"><ele>50.5</ele></trkpt>
      <trkpt lat="53.666295" lon="12.709401"><ele>52.0</ele></trkpt>
      <trkpt lat="53.666307" lon="12.709813"><ele>52.0</ele></trkpt>
      <trkpt lat="53.666348" lon="12.710263"><ele>52.0</ele></trkpt>
      <trkpt lat="53.666626" lon="12.712134"><ele>52.0</ele></trkpt>
      <trkpt lat="53.667152" lon="12.715665"><ele>55.0</ele></trkpt>
      <trkpt lat="53.667537" lon="12.718316"><ele>55.0</ele></trkpt>
      <trkpt lat="53.667795" lon="12.720093"><ele>56.0</ele></trkpt>
      <trkpt lat="53.667978" lon="12.721464"><ele>56.5</ele></trkpt>
      <trkpt lat="53.668524" lon="12.725558"><ele>60.0</ele></trkpt>
      <trkpt lat="53.668734" lon="12.727174"><ele>60.0</ele></trkpt>
      <trkpt lat="53.668935" lon="12.728717"><ele>59.8</ele></trkpt>
      <trkpt lat="53.669062" lon="12.729689"><ele>60.2</ele></trkpt>
      <trkpt lat="53.669112" lon="12.730076"><ele>61.5</ele></trkpt>
      <trkpt lat="53.669270" lon="12.731106"><ele>64.8</ele></trkpt>
      <trkpt lat="53.669392" lon="12.732087"><ele>64.0</ele></trkpt>
      <trkpt lat="53.669557" lon="12.733241"><ele>62.0</ele></trkpt>
      <trkpt lat="53.669638" lon="12.733812"><ele>61.0</ele></trkpt>
      <trkpt lat="53.669664" lon="12.733723"><ele>61.0</ele></trkpt>
      <trkpt lat="53.669693" lon="12.733674"><ele>61.0</ele></trkpt>
      <trkpt lat="53.669856" lon="12.733559"><ele>60.5</ele></trkpt>
      <trkpt lat="53.670107" lon="12.733495"><ele>59.8</ele></trkpt>
      <trkpt lat="53.670838" lon="12.733360"><ele>57.0</ele></trkpt>
      <trkpt lat="53.672022" lon="12.733105"><ele>60.2</ele></trkpt>
      <trkpt lat="53.674106" lon="12.732596"><ele>65.0</ele></trkpt>
      <trkpt lat="53.676141" lon="12.732068"><ele>54.2</ele></trkpt>
      <trkpt lat="53.678541" lon="12.731398"><ele>51.0</ele></trkpt>
      <trkpt lat="53.679731" lon="12.731109"><ele>49.0</ele></trkpt>
      <trkpt lat="53.680841" lon="12.730852"><ele>51.0</ele></trkpt>
      <trkpt lat="53.681025" lon="12.730839"><ele>51.0</ele></trkpt>
      <trkpt lat="53.681264" lon="12.730897"><ele>51.0</ele></trkpt>
      <trkpt lat="53.682410" lon="12.731505"><ele>44.5</ele></trkpt>
      <trkpt lat="53.682689" lon="12.731580"><ele>43.5</ele></trkpt>
      <trkpt lat="53.682870" lon="12.731571"><ele>42.2</ele></trkpt>
      <trkpt lat="53.682999" lon="12.731514"><ele>41.0</ele></trkpt>
      <trkpt lat="53.683853" lon="12.730586"><ele>39.0</ele></trkpt>
      <trkpt lat="53.684405" lon="12.730140"><ele>37.0</ele></trkpt>
      <trkpt lat="53.685139" lon="12.729369"><ele>35.0</ele></trkpt>
      <trkpt lat="53.685166" lon="12.729316"><ele>35.0</ele></trkpt>
      <trkpt lat="53.685638" lon="12.729851"><ele>35.2</ele></trkpt>
      <trkpt lat="53.685759" lon="12.729822"><ele>35.0</ele></trkpt>
      <trkpt lat="53.686084" lon="12.729611"><ele>34.0</ele></trkpt>
      <trkpt lat="53.686108" lon="12.729596"><ele>34.0</ele></trkpt>
      <trkpt lat="53.686137" lon="12.729610"><ele>33.8</ele></trkpt>
      <trkpt lat="53.687299" lon="12.731364"><ele>31.2</ele></trkpt>
      <trkpt lat="53.687796" lon="12.732088"><ele>31.0</ele></trkpt>
      <trkpt lat="53.687911" lon="12.732201"><ele>31.5</ele></trkpt>
      <trkpt lat="53.688219" lon="12.732370"><ele>32.0</ele></trkpt>
      <trkpt lat="53.688550" lon="12.732671"><ele>32.0</ele></trkpt>
      <trkpt lat="53.689018" lon="12.733029"><ele>32.0</ele></trkpt>
      <trkpt lat="53.689143" lon="12.733094"><ele>31.8</ele></trkpt>
      <trkpt lat="53.689872" lon="12.733502"><ele>29.8</ele></trkpt>
      <trkpt lat="53.690069" lon="12.733697"><ele>28.5</ele></trkpt>
      <trkpt lat="53.690948" lon="12.735025"><ele>24.8</ele></trkpt>
      <trkpt lat="53.691314" lon="12.735544"><ele>24.8</ele></trkpt>
      <trkpt lat="53.692432" lon="12.737338"><ele>23.2</ele></trkpt>
      <trkpt lat="53.693202" lon="12.738446"><ele>23.5</ele></trkpt>
      <trkpt lat="53.693391" lon="12.738722"><ele>23.0</ele></trkpt>
      <trkpt lat="53.694006" lon="12.739612"><ele>22.5</ele></trkpt>
      <trkpt lat="53.694487" lon="12.740206"><ele>22.2</ele></trkpt>
      <trkpt lat="53.695051" lon="12.740531"><ele>23.2</ele></trkpt>
      <trkpt lat="53.696061" lon="12.740685"><ele>24.2</ele></trkpt>
      <trkpt lat="53.696189" lon="12.740737"><ele>24.5</ele></trkpt>
      <trkpt lat="53.696652" lon="12.741037"><ele>24.0</ele></trkpt>
      <trkpt lat="53.697310" lon="12.741420"><ele>22.8</ele></trkpt>
      <trkpt lat="53.697426" lon="12.741491"><ele>22.8</ele></trkpt>
      <trkpt lat="53.697457" lon="12.741511"><ele>22.8</ele></trkpt>
      <trkpt lat="53.697632" lon="12.741624"><ele>23.0</ele></trkpt>
      <trkpt lat="53.697741" lon="12.741757"><ele>22.5</ele></trkpt>
      <trkpt lat="53.697795" lon="12.741850"><ele>22.2</ele></trkpt>
      <trkpt lat="53.697837" lon="12.741956"><ele>22.0</ele></trkpt>
      <trkpt lat="53.697942" lon="12.741896"><ele>22.5</ele></trkpt>
      <trkpt lat="53.697998" lon="12.741882"><ele>22.8</ele></trkpt>
      <trkpt lat="53.698059" lon="12.741901"><ele>23.0</ele></trkpt>
      <trkpt lat="53.699495" lon="12.742658"><ele>19.2</ele></trkpt>
      <trkpt lat="53.699605" lon="12.742713"><ele>19.0</ele></trkpt>
      <trkpt lat="53.699638" lon="12.742731"><ele>19.0</ele></trkpt>
      <trkpt lat="53.699658" lon="12.742772"><ele>19.0</ele></trkpt>
      <trkpt lat="53.699715" lon="12.742859"><ele>19.0</ele></trkpt>
      <trkpt lat="53.699793" lon="12.742904"><ele>18.8</ele></trkpt>
      <trkpt lat="53.699931" lon="12.742894"><ele>18.5</ele></trkpt>
      <trkpt lat="53.701138" lon="12.743001"><ele>18.0</ele></trkpt>
      <trkpt lat="53.701430" lon="12.743083"><ele>18.0</ele></trkpt>
      <trkpt lat="53.701805" lon="12.743281"><ele>18.0</ele></trkpt>
      <trkpt lat="53.702598" lon="12.743877"><ele>20.2</ele></trkpt>
      <trkpt lat="53.703313" lon="12.744468"><ele>20.8</ele></trkpt>
      <trkpt lat="53.703754" lon="12.744878"><ele>22.0</ele></trkpt>
      <trkpt lat="53.704193" lon="12.745259"><ele>21.8</ele></trkpt>
      <trkpt lat="53.704610" lon="12.745623"><ele>20.0</ele></trkpt>
      <trkpt lat="53.705026" lon="12.746000"><ele>18.8</ele></trkpt>
      <trkpt lat="53.707251" lon="12.748056"><ele>27.8</ele></trkpt>
      <trkpt lat="53.710016" lon="12.750566"><ele>39.8</ele></trkpt>
      <trkpt lat="53.710113" lon="12.750681"><ele>38.5</ele></trkpt>
      <trkpt lat="53.711423" lon="12.753712"><ele>28.2</ele></trkpt>
      <trkpt lat="53.711944" lon="12.754785"><ele>27.0</ele></trkpt>
      <trkpt lat="53.712630" lon="12.755676"><ele>29.5</ele></trkpt>
      <trkpt lat="53.713252" lon="12.755944"><ele>31.5</ele></trkpt>
      <trkpt lat="53.713302" lon="12.760753"><ele>17.0</ele></trkpt>
      <trkpt lat="53.713313" lon="12.760854"><ele>16.5</ele></trkpt>
      <trkpt lat="53.713351" lon="12.760957"><ele>16.0</ele></trkpt>
      <trkpt lat="53.713550" lon="12.761276"><ele>14.5</ele></trkpt>
      <trkpt lat="53.713815" lon="12.761490"><ele>12.0</ele></trkpt>
      <trkpt lat="53.713885" lon="12.761576"><ele>10.8</ele></trkpt>
      <trkpt lat="53.714063" lon="12.761313"><ele>12.0</ele></trkpt>
      <trkpt lat="53.714249" lon="12.761153"><ele>12.5</ele></trkpt>
      <trkpt lat="53.714959" lon="12.760716"><ele>12.0</ele></trkpt>
      <trkpt lat="53.715418" lon="12.760479"><ele>10.2</ele></trkpt>
      <trkpt lat="53.715798" lon="12.760206"><ele>8.5</ele></trkpt>
      <trkpt lat="53.716201" lon="12.759933"><ele>6.8</ele></trkpt>
      <trkpt lat="53.716848" lon="12.759548"><ele>5.0</ele></trkpt>
      <trkpt lat="53.718118" lon="12.758989"><ele>5.8</ele></trkpt>
      <trkpt lat="53.719005" lon="12.758325"><ele>6.0</ele></trkpt>
      <trkpt lat="53.719164" lon="12.758170"><ele>5.5</ele></trkpt>
      <trkpt lat="53.719397" lon="12.758009"><ele>5.5</ele></trkpt>
      <trkpt lat="53.720195" lon="12.757650"><ele>5.2</ele></trkpt>
      <trkpt lat="53.720307" lon="12.757577"><ele>4.8</ele></trkpt>
      <trkpt lat="53.720498" lon="12.757487"><ele>5.0</ele></trkpt>
      <trkpt lat="53.721000" lon="12.757316"><ele>4.0</ele></trkpt>
      <trkpt lat="53.721522" lon="12.757268"><ele>4.0</ele></trkpt>
      <trkpt lat="53.721911" lon="12.757289"><ele>4.0</ele></trkpt>
      <trkpt lat="53.722960" lon="12.757466"><ele>3.0</ele></trkpt>
      <trkpt lat="53.723938" lon="12.757666"><ele>3.0</ele></trkpt>
      <trkpt lat="53.724121" lon="12.757685"><ele>3.0</ele></trkpt>
      <trkpt lat="53.724150" lon="12.757709"><ele>3.0</ele></trkpt>
      <trkpt lat="53.724181" lon="12.757774"><ele>3.0</ele></trkpt>
      <trkpt lat="53.724191" lon="12.757864"><ele>3.0</ele></trkpt>
      <trkpt lat="53.725431" lon="12.758065"><ele>6.5</ele></trkpt>
      <trkpt lat="53.725585" lon="12.758115"><ele>6.8</ele></trkpt>
      <trkpt lat="53.725742" lon="12.758179"><ele>7.5</ele></trkpt>
      <trkpt lat="53.726929" lon="12.758866"><ele>10.8</ele></trkpt>
      <trkpt lat="53.727163" lon="12.759028"><ele>11.2</ele></trkpt>
      <trkpt lat="53.727547" lon="12.759341"><ele>11.8</ele></trkpt>
      <trkpt lat="53.727957" lon="12.759701"><ele>10.2</ele></trkpt>
      <trkpt lat="53.728148" lon="12.759881"><ele>9.8</ele></trkpt>
      <trkpt lat="53.728305" lon="12.760014"><ele>9.0</ele></trkpt>
      <trkpt lat="53.728869" lon="12.760367"><ele>8.0</ele></trkpt>
      <trkpt lat="53.729184" lon="12.760530"><ele>7.0</ele></trkpt>
      <trkpt lat="53.729394" lon="12.760626"><ele>7.0</ele></trkpt>
      <trkpt lat="53.729496" lon="12.760663"><ele>6.8</ele></trkpt>
      <trkpt lat="53.729915" lon="12.760783"><ele>6.0</ele></trkpt>
      <trkpt lat="53.730278" lon="12.760876"><ele>5.0</ele></trkpt>
      <trkpt lat="53.730930" lon="12.760985"><ele>5.0</ele></trkpt>
      <trkpt lat="53.731168" lon="12.761042"><ele>5.0</ele></trkpt>
      <trkpt lat="53.731963" lon="12.761551"><ele>5.2</ele></trkpt>
      <trkpt lat="53.732317" lon="12.761739"><ele>5.8</ele></trkpt>
      <trkpt lat="53.732622" lon="12.761850"><ele>6.0</ele></trkpt>
      <trkpt lat="53.732872" lon="12.761896"><ele>6.0</ele></trkpt>
      <trkpt lat="53.732983" lon="12.761900"><ele>6.0</ele></trkpt>
      <trkpt lat="53.733187" lon="12.761875"><ele>6.0</ele></trkpt>
      <trkpt lat="53.733434" lon="12.761803"><ele>6.0</ele></trkpt>
      <trkpt lat="53.733639" lon="12.761771"><ele>6.0</ele></trkpt>
      <trkpt lat="53.733772" lon="12.761723"><ele>6.0</ele></trkpt>
      <trkpt lat="53.733915" lon="12.761704"><ele>6.0</ele></trkpt>
      <trkpt lat="53.734096" lon="12.761720"><ele>6.5</ele></trkpt>
      <trkpt lat="53.734355" lon="12.761768"><ele>6.5</ele></trkpt>
      <trkpt lat="53.734747" lon="12.761874"><ele>7.0</ele></trkpt>
      <trkpt lat="53.734808" lon="12.761878"><ele>7.0</ele></trkpt>
      <trkpt lat="53.734802" lon="12.761946"><ele>6.8</ele></trkpt>
      <trkpt lat="53.734959" lon="12.761986"><ele>6.8</ele></trkpt>
      <trkpt lat="53.735098" lon="12.762030"><ele>6.8</ele></trkpt>
      <trkpt lat="53.735485" lon="12.762232"><ele>6.8</ele></trkpt>
      <trkpt lat="53.735928" lon="12.762449"><ele>7.5</ele></trkpt>
      <trkpt lat="53.736118" lon="12.762544"><ele>7.8</ele></trkpt>
      <trkpt lat="53.736483" lon="12.762732"><ele>8.0</ele></trkpt>
      <trkpt lat="53.736501" lon="12.762586"><ele>8.2</ele></trkpt>
      <trkpt lat="53.736545" lon="12.762008"><ele>9.8</ele></trkpt>
      <trkpt lat="53.736643" lon="12.761004"><ele>11.2</ele></trkpt>
      <trkpt lat="53.736679" lon="12.760681"><ele>11.8</ele></trkpt>
      <trkpt lat="53.736728" lon="12.760323"><ele>12.8</ele></trkpt>
      <trkpt lat="53.736772" lon="12.760126"><ele>13.0</ele></trkpt>
      <trkpt lat="53.736827" lon="12.759942"><ele>13.0</ele></trkpt>
      <trkpt lat="53.736987" lon="12.759563"><ele>13.5</ele></trkpt>
      <trkpt lat="53.737148" lon="12.759261"><ele>14.0</ele></trkpt>
      <trkpt lat="53.737211" lon="12.759166"><ele>14.0</ele></trkpt>
      <trkpt lat="53.737573" lon="12.758732"><ele>14.5</ele></trkpt>
      <trkpt lat="53.738015" lon="12.758277"><ele>14.2</ele></trkpt>
      <trkpt lat="53.738468" lon="12.757782"><ele>13.5</ele></trkpt>
      <trkpt lat="53.738388" lon="12.757641"><ele>13.8</ele></trkpt>
      <trkpt lat="53.738335" lon="12.757548"><ele>13.8</ele></trkpt>
      <trkpt lat="53.738034" lon="12.757012"><ele>15.0</ele></trkpt>
      <trkpt lat="53.737297" lon="12.755715"><ele>17.8</ele></trkpt>
      <trkpt lat="53.737242" lon="12.755629"><ele>17.8</ele></trkpt>
      <trkpt lat="53.736846" lon="12.754931"><ele>20.0</ele></trkpt>
      <trkpt lat="53.736831" lon="12.754902"><ele>20.0</ele></trkpt>
      <trkpt lat="53.736624" lon="12.754535"><ele>20.0</ele></trkpt>
      <trkpt lat="53.736564" lon="12.754431"><ele>20.0</ele></trkpt>
      <trkpt lat="53.736422" lon="12.754187"><ele>20.0</ele></trkpt>
      <trkpt lat="53.736318" lon="12.754011"><ele>20.0</ele></trkpt>
      <trkpt lat="53.735977" lon="12.753433"><ele>20.0</ele></trkpt>
      <trkpt lat="53.735807" lon="12.753128"><ele>20.0</ele></trkpt>
      <trkpt lat="53.735788" lon="12.753093"><ele>20.0</ele></trkpt>
      <trkpt lat="53.735636" lon="12.752802"><ele>20.0</ele></trkpt>
      <trkpt lat="53.735373" lon="12.752260"><ele>20.0</ele></trkpt>
      <trkpt lat="53.735017" lon="12.751460"><ele>20.0</ele></trkpt>
      <trkpt lat="53.734927" lon="12.751258"><ele>20.0</ele></trkpt>
      <trkpt lat="53.734979" lon="12.751190"><ele>20.0</ele></trkpt>
      <trkpt lat="53.734333" lon="12.749701"><ele>18.0</ele></trkpt>
      <trkpt lat="53.734001" lon="12.748804"><ele>17.0</ele></trkpt>
      <trkpt lat="53.734017" lon="12.748717"><ele>17.0</ele></trkpt>
      <trkpt lat="53.734010" lon="12.748565"><ele>16.8</ele></trkpt>
      <trkpt lat="53.733980" lon="12.748406"><ele>16.8</ele></trkpt>
      <trkpt lat="53.733662" lon="12.747601"><ele>15.2</ele></trkpt>
      <trkpt lat="53.733588" lon="12.747542"><ele>15.0</ele></trkpt>
      <trkpt lat="53.733490" lon="12.747553"><ele>15.0</ele></trkpt>
      <trkpt lat="53.733182" lon="12.746903"><ele>13.8</ele></trkpt>
      <trkpt lat="53.732523" lon="12.745300"><ele>11.0</ele></trkpt>
      <trkpt lat="53.732401" lon="12.744924"><ele>10.8</ele></trkpt>
      <trkpt lat="53.732330" lon="12.744666"><ele>10.2</ele></trkpt>
      <trkpt lat="53.732307" lon="12.744574"><ele>10.0</ele></trkpt>
      <trkpt lat="53.731988" lon="12.742125"><ele>8.0</ele></trkpt>
      <trkpt lat="53.731895" lon="12.741657"><ele>8.0</ele></trkpt>
      <trkpt lat="53.731790" lon="12.741225"><ele>8.0</ele></trkpt>
      <trkpt lat="53.731712" lon="12.741025"><ele>8.0</ele></trkpt>
      <trkpt lat="53.730408" lon="12.736873"><ele>10.5</ele></trkpt>
      <trkpt lat="53.729249" lon="12.733303"><ele>14.5</ele></trkpt>
      <trkpt lat="53.729086" lon="12.732780"><ele>15.0</ele></trkpt>
      <trkpt lat="53.728998" lon="12.732610"><ele>15.0</ele></trkpt>
      <trkpt lat="53.728884" lon="12.732272"><ele>15.0</ele></trkpt>
      <trkpt lat="53.728854" lon="12.732077"><ele>15.0</ele></trkpt>
      <trkpt lat="53.728358" lon="12.730589"><ele>15.8</ele></trkpt>
      <trkpt lat="53.727488" lon="12.727826"><ele>19.0</ele></trkpt>
      <trkpt lat="53.726907" lon="12.725424"><ele>20.0</ele></trkpt>
      <trkpt lat="53.726447" lon="12.723390"><ele>21.0</ele></trkpt>
      <trkpt lat="53.726265" lon="12.722767"><ele>21.2</ele></trkpt>
      <trkpt lat="53.725452" lon="12.720778"><ele>22.0</ele></trkpt>
      <trkpt lat="53.725216" lon="12.720064"><ele>22.0</ele></trkpt>
      <trkpt lat="53.724822" lon="12.718632"><ele>22.0</ele></trkpt>
      <trkpt lat="53.724718" lon="12.718428"><ele>22.0</ele></trkpt>
      <trkpt lat="53.724636" lon="12.717882"><ele>22.0</ele></trkpt>
      <trkpt lat="53.724458" lon="12.717276"><ele>22.0</ele></trkpt>
      <trkpt lat="53.723801" lon="12.714817"><ele>24.2</ele></trkpt>
      <trkpt lat="53.723199" lon="12.712650"><ele>24.8</ele></trkpt>
      <trkpt lat="53.722775" lon="12.711341"><ele>25.0</ele></trkpt>
      <trkpt lat="53.722527" lon="12.710473"><ele>25.0</ele></trkpt>
      <trkpt lat="53.722390" lon="12.709945"><ele>23.5</ele></trkpt>
      <trkpt lat="53.722296" lon="12.709468"><ele>23.2</ele></trkpt>
      <trkpt lat="53.722026" lon="12.707479"><ele>19.0</ele></trkpt>
      <trkpt lat="53.721866" lon="12.706085"><ele>17.5</ele></trkpt>
      <trkpt lat="53.721710" lon="12.704731"><ele>16.0</ele></trkpt>
      <trkpt lat="53.721541" lon="12.703786"><ele>15.2</ele></trkpt>
      <trkpt lat="53.720502" lon="12.699127"><ele>17.0</ele></trkpt>
      <trkpt lat="53.720246" lon="12.698337"><ele>17.0</ele></trkpt>
      <trkpt lat="53.720086" lon="12.698021"><ele>17.5</ele></trkpt>
      <trkpt lat="53.719933" lon="12.697744"><ele>17.0</ele></trkpt>
      <trkpt lat="53.718629" lon="12.696413"><ele>19.8</ele></trkpt>
      <trkpt lat="53.716993" lon="12.694714"><ele>22.0</ele></trkpt>
      <trkpt lat="53.715976" lon="12.693704"><ele>23.0</ele></trkpt>
      <trkpt lat="53.715145" lon="12.692831"><ele>24.0</ele></trkpt>
      <trkpt lat="53.714919" lon="12.692482"><ele>24.2</ele></trkpt>
      <trkpt lat="53.714528" lon="12.691760"><ele>24.8</ele></trkpt>
      <trkpt lat="53.714543" lon="12.691739"><ele>24.5</ele></trkpt>
      <trkpt lat="53.717970" lon="12.687129"><ele>19.0</ele></trkpt>
      <trkpt lat="53.718780" lon="12.686090"><ele>17.0</ele></trkpt>
      <trkpt lat="53.719563" lon="12.685223"><ele>14.8</ele></trkpt>
      <trkpt lat="53.719987" lon="12.684860"><ele>14.0</ele></trkpt>
      <trkpt lat="53.720444" lon="12.684441"><ele>10.8</ele></trkpt>
      <trkpt lat="53.721129" lon="12.683785"><ele>4.5</ele></trkpt>
      <trkpt lat="53.721737" lon="12.683075"><ele>3.0</ele></trkpt>
      <trkpt lat="53.722699" lon="12.681900"><ele>2.0</ele></trkpt>
      <trkpt lat="53.723673" lon="12.680443"><ele>1.0</ele></trkpt>
      <trkpt lat="53.723741" lon="12.680340"><ele>1.0</ele></trkpt>
      <trkpt lat="53.724590" lon="12.678957"><ele>1.0</ele></trkpt>
      <trkpt lat="53.725153" lon="12.677850"><ele>1.0</ele></trkpt>
      <trkpt lat="53.725664" lon="12.676820"><ele>1.0</ele></trkpt>
      <trkpt lat="53.726582" lon="12.675095"><ele>1.0</ele></trkpt>
      <trkpt lat="53.726853" lon="12.674417"><ele>2.0</ele></trkpt>
      <trkpt lat="53.727057" lon="12.673823"><ele>2.0</ele></trkpt>
      <trkpt lat="53.727469" lon="12.672288"><ele>2.0</ele></trkpt>
      <trkpt lat="53.728075" lon="12.670751"><ele>2.0</ele></trkpt>
      <trkpt lat="53.728794" lon="12.668851"><ele>2.5</ele></trkpt>
      <trkpt lat="53.728899" lon="12.668658"><ele>3.0</ele></trkpt>
      <trkpt lat="53.729022" lon="12.668502"><ele>3.5</ele></trkpt>
      <trkpt lat="53.729041" lon="12.668473"><ele>3.8</ele></trkpt>
      <trkpt lat="53.729160" lon="12.668674"><ele>3.8</ele></trkpt>
      <trkpt lat="53.729289" lon="12.668860"><ele>4.0</ele></trkpt>
      <trkpt lat="53.729693" lon="12.669343"><ele>4.0</ele></trkpt>
      <trkpt lat="53.731298" lon="12.671159"><ele>3.8</ele></trkpt>
      <trkpt lat="53.733035" lon="12.673074"><ele>4.0</ele></trkpt>
      <trkpt lat="53.733703" lon="12.673857"><ele>4.0</ele></trkpt>
      <trkpt lat="53.734965" lon="12.675606"><ele>4.0</ele></trkpt>
      <trkpt lat="53.735837" lon="12.676794"><ele>3.0</ele></trkpt>
      <trkpt lat="53.736181" lon="12.677335"><ele>3.2</ele></trkpt>
      <trkpt lat="53.736514" lon="12.677908"><ele>3.2</ele></trkpt>
      <trkpt lat="53.736604" lon="12.678089"><ele>3.8</ele></trkpt>
      <trkpt lat="53.736859" lon="12.678604"><ele>3.5</ele></trkpt>
      <trkpt lat="53.737225" lon="12.679455"><ele>2.0</ele></trkpt>
      <trkpt lat="53.738183" lon="12.682182"><ele>2.8</ele></trkpt>
      <trkpt lat="53.738326" lon="12.682533"><ele>2.8</ele></trkpt>
      <trkpt lat="53.738486" lon="12.682834"><ele>2.2</ele></trkpt>
      <trkpt lat="53.738666" lon="12.683094"><ele>2.2</ele></trkpt>
      <trkpt lat="53.739042" lon="12.683484"><ele>3.0</ele></trkpt>
      <trkpt lat="53.739735" lon="12.684120"><ele>2.2</ele></trkpt>
      <trkpt lat="53.740227" lon="12.684453"><ele>1.8</ele></trkpt>
      <trkpt lat="53.740573" lon="12.684655"><ele>1.5</ele></trkpt>
      <trkpt lat="53.741292" lon="12.684913"><ele>1.8</ele></trkpt>
      <trkpt lat="53.742743" lon="12.685172"><ele>1.8</ele></trkpt>
      <trkpt lat="53.744428" lon="12.685473"><ele>4.0</ele></trkpt>
      <trkpt lat="53.745256" lon="12.685732"><ele>4.8</ele></trkpt>
      <trkpt lat="53.745579" lon="12.685760"><ele>5.0</ele></trkpt>
      <trkpt lat="53.746393" lon="12.685506"><ele>5.0</ele></trkpt>
      <trkpt lat="53.746451" lon="12.685487"><ele>5.0</ele></trkpt>
      <trkpt lat="53.746523" lon="12.685463"><ele>5.0</ele></trkpt>
      <trkpt lat="53.746688" lon="12.685528"><ele>5.0</ele></trkpt>
      <trkpt lat="53.746853" lon="12.685636"><ele>5.0</ele></trkpt>
      <trkpt lat="53.747849" lon="12.686470"><ele>5.0</ele></trkpt>
      <trkpt lat="53.747955" lon="12.686560"><ele>5.0</ele></trkpt>
      <trkpt lat="53.748047" lon="12.686669"><ele>5.0</ele></trkpt>
      <trkpt lat="53.748702" lon="12.687654"><ele>5.0</ele></trkpt>
      <trkpt lat="53.749204" lon="12.688416"><ele>5.0</ele></trkpt>
      <trkpt lat="53.749376" lon="12.688673"><ele>5.0</ele></trkpt>
      <trkpt lat="53.749949" lon="12.689569"><ele>5.0</ele></trkpt>
      <trkpt lat="53.750806" lon="12.690886"><ele>4.8</ele></trkpt>
      <trkpt lat="53.750783" lon="12.691108"><ele>4.8</ele></trkpt>
      <trkpt lat="53.750878" lon="12.691587"><ele>4.2</ele></trkpt>
      <trkpt lat="53.751734" lon="12.695420"><ele>5.0</ele></trkpt>
      <trkpt lat="53.752027" lon="12.695196"><ele>5.2</ele></trkpt>
      <trkpt lat="53.752513" lon="12.694823"><ele>6.0</ele></trkpt>
      <trkpt lat="53.752606" lon="12.694752"><ele>6.2</ele></trkpt>
      <trkpt lat="53.753017" lon="12.694478"><ele>7.0</ele></trkpt>
      <trkpt lat="53.753125" lon="12.694941"><ele>7.2</ele></trkpt>
      <trkpt lat="53.753475" lon="12.696444"><ele>8.0</ele></trkpt>
      <trkpt lat="53.754219" lon="12.696014"><ele>9.0</ele></trkpt>
      <trkpt lat="53.754448" lon="12.695869"><ele>9.0</ele></trkpt>
      <trkpt lat="53.754962" lon="12.695543"><ele>11.5</ele></trkpt>
      <trkpt lat="53.755386" lon="12.695207"><ele>13.2</ele></trkpt>
      <trkpt lat="53.756193" lon="12.694126"><ele>17.2</ele></trkpt>
      <trkpt lat="53.756569" lon="12.693542"><ele>19.5</ele></trkpt>
      <trkpt lat="53.756671" lon="12.693399"><ele>19.5</ele></trkpt>
      <trkpt lat="53.756802" lon="12.693044"><ele>19.8</ele></trkpt>
      <trkpt lat="53.756883" lon="12.692538"><ele>19.8</ele></trkpt>
      <trkpt lat="53.756965" lon="12.692375"><ele>20.5</ele></trkpt>
      <trkpt lat="53.757005" lon="12.692322"><ele>21.0</ele></trkpt>
      <trkpt lat="53.757065" lon="12.692301"><ele>21.5</ele></trkpt>
      <trkpt lat="53.757168" lon="12.692288"><ele>22.2</ele></trkpt>
      <trkpt lat="53.757373" lon="12.692346"><ele>23.2</ele></trkpt>
      <trkpt lat="53.758502" lon="12.690684"><ele>27.0</ele></trkpt>
      <trkpt lat="53.759091" lon="12.689834"><ele>27.0</ele></trkpt>
      <trkpt lat="53.759289" lon="12.689568"><ele>27.8</ele></trkpt>
      <trkpt lat="53.759811" lon="12.688805"><ele>31.2</ele></trkpt>
      <trkpt lat="53.760192" lon="12.688367"><ele>34.5</ele></trkpt>
      <trkpt lat="53.760608" lon="12.688161"><ele>37.8</ele></trkpt>
      <trkpt lat="53.760958" lon="12.688084"><ele>38.8</ele></trkpt>
      <trkpt lat="53.761344" lon="12.687895"><ele>38.2</ele></trkpt>
      <trkpt lat="53.761572" lon="12.687637"><ele>36.0</ele></trkpt>
      <trkpt lat="53.761846" lon="12.686865"><ele>36.2</ele></trkpt>
      <trkpt lat="53.762181" lon="12.686024"><ele>38.2</ele></trkpt>
      <trkpt lat="53.762541" lon="12.685371"><ele>39.8</ele></trkpt>
      <trkpt lat="53.762927" lon="12.685260"><ele>42.5</ele></trkpt>
      <trkpt lat="53.763353" lon="12.685388"><ele>46.8</ele></trkpt>
      <trkpt lat="53.763870" lon="12.685406"><ele>42.2</ele></trkpt>
      <trkpt lat="53.764311" lon="12.685339"><ele>44.8</ele></trkpt>
      <trkpt lat="53.764951" lon="12.685011"><ele>45.5</ele></trkpt>
      <trkpt lat="53.766053" lon="12.684505"><ele>46.2</ele></trkpt>
      <trkpt lat="53.766832" lon="12.684058"><ele>42.0</ele></trkpt>
      <trkpt lat="53.767559" lon="12.683273"><ele>40.0</ele></trkpt>
      <trkpt lat="53.768015" lon="12.682640"><ele>41.2</ele></trkpt>
      <trkpt lat="53.768560" lon="12.681791"><ele>40.8</ele></trkpt>
      <trkpt lat="53.769286" lon="12.680804"><ele>38.5</ele></trkpt>
      <trkpt lat="53.769596" lon="12.680421"><ele>38.5</ele></trkpt>
      <trkpt lat="53.769947" lon="12.680035"><ele>39.8</ele></trkpt>
      <trkpt lat="53.770749" lon="12.679217"><ele>46.2</ele></trkpt>
      <trkpt lat="53.771201" lon="12.679024"><ele>49.5</ele></trkpt>
      <trkpt lat="53.772006" lon="12.679043"><ele>49.2</ele></trkpt>
      <trkpt lat="53.772138" lon="12.679014"><ele>48.0</ele></trkpt>
      <trkpt lat="53.772256" lon="12.678958"><ele>47.2</ele></trkpt>
      <trkpt lat="53.772586" lon="12.678703"><ele>49.0</ele></trkpt>
      <trkpt lat="53.772766" lon="12.678609"><ele>49.0</ele></trkpt>
      <trkpt lat="53.773038" lon="12.678570"><ele>48.8</ele></trkpt>
      <trkpt lat="53.773321" lon="12.678617"><ele>48.0</ele></trkpt>
      <trkpt lat="53.773712" lon="12.678687"><ele>47.5</ele></trkpt>
      <trkpt lat="53.775076" lon="12.678829"><ele>49.2</ele></trkpt>
      <trkpt lat="53.775720" lon="12.678934"><ele>50.0</ele></trkpt>
      <trkpt lat="53.776158" lon="12.678971"><ele>50.2</ele></trkpt>
      <trkpt lat="53.776491" lon="12.678968"><ele>51.0</ele></trkpt>
      <trkpt lat="53.777394" lon="12.679097"><ele>52.2</ele></trkpt>
      <trkpt lat="53.779224" lon="12.679277"><ele>57.5</ele></trkpt>
      <trkpt lat="53.779777" lon="12.679367"><ele>58.0</ele></trkpt>
      <trkpt lat="53.780368" lon="12.679392"><ele>58.0</ele></trkpt>
      <trkpt lat="53.780586" lon="12.679313"><ele>58.0</ele></trkpt>
      <trkpt lat="53.781065" lon="12.677689"><ele>55.5</ele></trkpt>
      <trkpt lat="53.781279" lon="12.677187"><ele>55.2</ele></trkpt>
      <trkpt lat="53.781420" lon="12.676900"><ele>55.0</ele></trkpt>
      <trkpt lat="53.781549" lon="12.676712"><ele>55.0</ele></trkpt>
      <trkpt lat="53.782133" lon="12.676012"><ele>52.5</ele></trkpt>
      <trkpt lat="53.782342" lon="12.675709"><ele>51.8</ele></trkpt>
      <trkpt lat="53.782570" lon="12.675277"><ele>52.5</ele></trkpt>
      <trkpt lat="53.782614" lon="12.674960"><ele>51.8</ele></trkpt>
      <trkpt lat="53.783235" lon="12.673731"><ele>51.5</ele></trkpt>
      <trkpt lat="53.783328" lon="12.673552"><ele>51.0</ele></trkpt>
      <trkpt lat="53.783576" lon="12.673080"><ele>49.2</ele></trkpt>
      <trkpt lat="53.783892" lon="12.672542"><ele>48.0</ele></trkpt>
      <trkpt lat="53.783864" lon="12.672498"><ele>48.0</ele></trkpt>
      <trkpt lat="53.784144" lon="12.671930"><ele>47.0</ele></trkpt>
      <trkpt lat="53.784504" lon="12.671278"><ele>47.0</ele></trkpt>
      <trkpt lat="53.784787" lon="12.670548"><ele>49.0</ele></trkpt>
      <trkpt lat="53.785414" lon="12.670169"><ele>50.0</ele></trkpt>
      <trkpt lat="53.785266" lon="12.670009"><ele>50.0</ele></trkpt>
      <trkpt lat="53.785373" lon="12.669644"><ele>50.0</ele></trkpt>
      <trkpt lat="53.785488" lon="12.669129"><ele>50.0</ele></trkpt>
      <trkpt lat="53.785893" lon="12.667519"><ele>47.8</ele></trkpt>
      <trkpt lat="53.786443" lon="12.663686"><ele>42.0</ele></trkpt>
      <trkpt lat="53.786446" lon="12.663480"><ele>41.5</ele></trkpt>
      <trkpt lat="53.786169" lon="12.661313"><ele>36.8</ele></trkpt>
      <trkpt lat="53.786185" lon="12.659269"><ele>34.2</ele></trkpt>
      <trkpt lat="53.786252" lon="12.654823"><ele>31.5</ele></trkpt>
      <trkpt lat="53.786191" lon="12.653808"><ele>31.0</ele></trkpt>
      <trkpt lat="53.786223" lon="12.650064"><ele>29.2</ele></trkpt>
      <trkpt lat="53.786270" lon="12.648020"><ele>29.5</ele></trkpt>
      <trkpt lat="53.786351" lon="12.647513"><ele>29.5</ele></trkpt>
      <trkpt lat="53.786408" lon="12.644834"><ele>26.2</ele></trkpt>
      <trkpt lat="53.786408" lon="12.643828"><ele>28.2</ele></trkpt>
      <trkpt lat="53.786396" lon="12.642417"><ele>30.2</ele></trkpt>
      <trkpt lat="53.786407" lon="12.641684"><ele>31.0</ele></trkpt>
      <trkpt lat="53.786459" lon="12.640834"><ele>32.0</ele></trkpt>
      <trkpt lat="53.786499" lon="12.640495"><ele>32.0</ele></trkpt>
      <trkpt lat="53.786616" lon="12.639898"><ele>31.0</ele></trkpt>
      <trkpt lat="53.786945" lon="12.638940"><ele>28.0</ele></trkpt>
      <trkpt lat="53.787215" lon="12.638284"><ele>24.8</ele></trkpt>
      <trkpt lat="53.787327" lon="12.637927"><ele>22.5</ele></trkpt>
      <trkpt lat="53.787361" lon="12.637575"><ele>20.2</ele></trkpt>
      <trkpt lat="53.787316" lon="12.637098"><ele>17.8</ele></trkpt>
      <trkpt lat="53.787148" lon="12.636054"><ele>14.5</ele></trkpt>
      <trkpt lat="53.787094" lon="12.634703"><ele>11.0</ele></trkpt>
      <trkpt lat="53.787102" lon="12.634426"><ele>11.0</ele></trkpt>
      <trkpt lat="53.787222" lon="12.633574"><ele>10.0</ele></trkpt>
      <trkpt lat="53.787323" lon="12.633155"><ele>9.0</ele></trkpt>
      <trkpt lat="53.787354" lon="12.632970"><ele>9.0</ele></trkpt>
      <trkpt lat="53.787354" lon="12.632918"><ele>9.0</ele></trkpt>
      <trkpt lat="53.787269" lon="12.632457"><ele>8.8</ele></trkpt>
      <trkpt lat="53.787188" lon="12.631847"><ele>9.0</ele></trkpt>
      <trkpt lat="53.787069" lon="12.631111"><ele>8.5</ele></trkpt>
      <trkpt lat="53.786749" lon="12.628740"><ele>7.5</ele></trkpt>
      <trkpt lat="53.786624" lon="12.627901"><ele>7.0</ele></trkpt>
      <trkpt lat="53.786604" lon="12.627769"><ele>7.0</ele></trkpt>
      <trkpt lat="53.786570" lon="12.627552"><ele>7.0</ele></trkpt>
      <trkpt lat="53.786516" lon="12.627102"><ele>7.0</ele></trkpt>
      <trkpt lat="53.786471" lon="12.626811"><ele>6.5</ele></trkpt>
      <trkpt lat="53.785906" lon="12.627055"><ele>6.2</ele></trkpt>
      <trkpt lat="53.785634" lon="12.627161"><ele>5.2</ele></trkpt>
      <trkpt lat="53.785458" lon="12.627216"><ele>5.0</ele></trkpt>
      <trkpt lat="53.785390" lon="12.627189"><ele>5.0</ele></trkpt>
      <trkpt lat="53.785336" lon="12.627032"><ele>5.0</ele></trkpt>
      <trkpt lat="53.785301" lon="12.626694"><ele>5.0</ele></trkpt>
      <trkpt lat="53.785266" lon="12.625892"><ele>5.0</ele></trkpt>
      <trkpt lat="53.785318" lon="12.625413"><ele>5.0</ele></trkpt>
      <trkpt lat="53.785322" lon="12.625255"><ele>4.8</ele></trkpt>
      <trkpt lat="53.785272" lon="12.625103"><ele>4.2</ele></trkpt>
      <trkpt lat="53.785200" lon="12.624990"><ele>4.0</ele></trkpt>
      <trkpt lat="53.785003" lon="12.624697"><ele>4.0</ele></trkpt>
      <trkpt lat="53.784783" lon="12.624300"><ele>4.0</ele></trkpt>
      <trkpt lat="53.784976" lon="12.624008"><ele>4.0</ele></trkpt>
      <trkpt lat="53.785260" lon="12.623744"><ele>4.0</ele></trkpt>
      <trkpt lat="53.785506" lon="12.623599"><ele>4.0</ele></trkpt>
      <trkpt lat="53.785657" lon="12.623437"><ele>4.0</ele></trkpt>
      <trkpt lat="53.785555" lon="12.622624"><ele>4.0</ele></trkpt>
      <trkpt lat="53.785413" lon="12.621937"><ele>3.5</ele></trkpt>
      <trkpt lat="53.785347" lon="12.621165"><ele>4.2</ele></trkpt>
      <trkpt lat="53.785291" lon="12.619998"><ele>3.0</ele></trkpt>
      <trkpt lat="53.785230" lon="12.618470"><ele>3.0</ele></trkpt>
      <trkpt lat="53.785170" lon="12.617440"><ele>4.2</ele></trkpt>
      <trkpt lat="53.785023" lon="12.616530"><ele>4.0</ele></trkpt>
      <trkpt lat="53.784520" lon="12.613758"><ele>4.5</ele></trkpt>
      <trkpt lat="53.784424" lon="12.613423"><ele>4.2</ele></trkpt>
      <trkpt lat="53.784221" lon="12.613020"><ele>3.5</ele></trkpt>
      <trkpt lat="53.784024" lon="12.612539"><ele>3.5</ele></trkpt>
      <trkpt lat="53.783892" lon="12.612075"><ele>4.0</ele></trkpt>
      <trkpt lat="53.783871" lon="12.611586"><ele>3.8</ele></trkpt>
      <trkpt lat="53.783953" lon="12.610676"><ele>5.2</ele></trkpt>
      <trkpt lat="53.783958" lon="12.610333"><ele>6.2</ele></trkpt>
      <trkpt lat="53.783871" lon="12.610041"><ele>6.5</ele></trkpt>
      <trkpt lat="53.783729" lon="12.609835"><ele>5.5</ele></trkpt>
      <trkpt lat="53.783329" lon="12.609535"><ele>3.0</ele></trkpt>
      <trkpt lat="53.782877" lon="12.609252"><ele>3.0</ele></trkpt>
      <trkpt lat="53.782010" lon="12.608908"><ele>2.0</ele></trkpt>
      <trkpt lat="53.781833" lon="12.608762"><ele>2.0</ele></trkpt>
      <trkpt lat="53.781676" lon="12.608359"><ele>2.0</ele></trkpt>
      <trkpt lat="53.781381" lon="12.607483"><ele>2.0</ele></trkpt>
      <trkpt lat="53.781270" lon="12.607329"><ele>2.0</ele></trkpt>
      <trkpt lat="53.781087" lon="12.607432"><ele>2.0</ele></trkpt>
      <trkpt lat="53.780600" lon="12.607741"><ele>2.0</ele></trkpt>
      <trkpt lat="53.780049" lon="12.608043"><ele>2.0</ele></trkpt>
      <trkpt lat="53.778040" lon="12.609354"><ele>3.0</ele></trkpt>
      <trkpt lat="53.777393" lon="12.609808"><ele>4.0</ele></trkpt>
      <trkpt lat="53.776928" lon="12.610041"><ele>4.0</ele></trkpt>
      <trkpt lat="53.776303" lon="12.610183"><ele>4.0</ele></trkpt>
      <trkpt lat="53.775612" lon="12.610443"><ele>5.0</ele></trkpt>
      <trkpt lat="53.775580" lon="12.610241"><ele>4.8</ele></trkpt>
      <trkpt lat="53.775491" lon="12.610100"><ele>5.0</ele></trkpt>
      <trkpt lat="53.775457" lon="12.609965"><ele>5.2</ele></trkpt>
      <trkpt lat="53.775393" lon="12.609613"><ele>5.8</ele></trkpt>
      <trkpt lat="53.775136" lon="12.607829"><ele>8.2</ele></trkpt>
      <trkpt lat="53.774766" lon="12.605334"><ele>10.0</ele></trkpt>
      <trkpt lat="53.774677" lon="12.604839"><ele>10.0</ele></trkpt>
      <trkpt lat="53.774524" lon="12.604309"><ele>9.8</ele></trkpt>
      <trkpt lat="53.774344" lon="12.603848"><ele>9.8</ele></trkpt>
      <trkpt lat="53.773915" lon="12.602946"><ele>10.8</ele></trkpt>
      <trkpt lat="53.773640" lon="12.602276"><ele>12.0</ele></trkpt>
      <trkpt lat="53.773378" lon="12.601287"><ele>13.0</ele></trkpt>
      <trkpt lat="53.773333" lon="12.601036"><ele>13.0</ele></trkpt>
      <trkpt lat="53.773137" lon="12.599660"><ele>12.8</ele></trkpt>
      <trkpt lat="53.773204" lon="12.599466"><ele>11.8</ele></trkpt>
      <trkpt lat="53.773252" lon="12.599446"><ele>11.5</ele></trkpt>
      <trkpt lat="53.773252" lon="12.599355"><ele>11.5</ele></trkpt>
      <trkpt lat="53.773350" lon="12.597890"><ele>9.8</ele></trkpt>
      <trkpt lat="53.773515" lon="12.595172"><ele>8.0</ele></trkpt>
      <trkpt lat="53.773585" lon="12.594120"><ele>7.0</ele></trkpt>
      <trkpt lat="53.773745" lon="12.592386"><ele>7.2</ele></trkpt>
      <trkpt lat="53.773815" lon="12.591736"><ele>7.0</ele></trkpt>
      <trkpt lat="53.773867" lon="12.591385"><ele>7.0</ele></trkpt>
      <trkpt lat="53.774000" lon="12.590812"><ele>6.5</ele></trkpt>
      <trkpt lat="53.774463" lon="12.589082"><ele>5.8</ele></trkpt>
      <trkpt lat="53.775415" lon="12.585470"><ele>11.5</ele></trkpt>
      <trkpt lat="53.775827" lon="12.583770"><ele>7.5</ele></trkpt>
      <trkpt lat="53.775846" lon="12.583605"><ele>6.8</ele></trkpt>
      <trkpt lat="53.775855" lon="12.583435"><ele>6.0</ele></trkpt>
      <trkpt lat="53.775850" lon="12.583291"><ele>5.5</ele></trkpt>
      <trkpt lat="53.775832" lon="12.583150"><ele>5.2</ele></trkpt>
      <trkpt lat="53.775800" lon="12.583002"><ele>4.8</ele></trkpt>
      <trkpt lat="53.775753" lon="12.582880"><ele>4.5</ele></trkpt>
      <trkpt lat="53.775428" lon="12.582208"><ele>4.2</ele></trkpt>
      <trkpt lat="53.775363" lon="12.582058"><ele>4.0</ele></trkpt>
      <trkpt lat="53.775315" lon="12.581991"><ele>4.0</ele></trkpt>
      <trkpt lat="53.775250" lon="12.581924"><ele>4.0</ele></trkpt>
      <trkpt lat="53.775048" lon="12.581813"><ele>5.0</ele></trkpt>
      <trkpt lat="53.774516" lon="12.581579"><ele>7.2</ele></trkpt>
      <trkpt lat="53.774319" lon="12.581504"><ele>7.5</ele></trkpt>
      <trkpt lat="53.774335" lon="12.581318"><ele>7.0</ele></trkpt>
      <trkpt lat="53.774325" lon="12.581246"><ele>6.8</ele></trkpt>
      <trkpt lat="53.773914" lon="12.580035"><ele>5.8</ele></trkpt>
      <trkpt lat="53.773874" lon="12.579906"><ele>5.5</ele></trkpt>
      <trkpt lat="53.773867" lon="12.579837"><ele>5.5</ele></trkpt>
      <trkpt lat="53.773872" lon="12.579783"><ele>5.2</ele></trkpt>
      <trkpt lat="53.773889" lon="12.579723"><ele>5.0</ele></trkpt>
      <trkpt lat="53.773838" lon="12.579683"><ele>5.2</ele></trkpt>
      <trkpt lat="53.773791" lon="12.579611"><ele>5.5</ele></trkpt>
      <trkpt lat="53.773775" lon="12.579562"><ele>5.5</ele></trkpt>
      <trkpt lat="53.773766" lon="12.579512"><ele>5.5</ele></trkpt>
      <trkpt lat="53.773805" lon="12.578507"><ele>5.5</ele></trkpt>
      <trkpt lat="53.773796" lon="12.578111"><ele>6.2</ele></trkpt>
      <trkpt lat="53.774116" lon="12.577845"><ele>5.8</ele></trkpt>
      <trkpt lat="53.774290" lon="12.577671"><ele>6.0</ele></trkpt>
      <trkpt lat="53.774639" lon="12.577316"><ele>6.0</ele></trkpt>
      <trkpt lat="53.774777" lon="12.577085"><ele>6.0</ele></trkpt>
      <trkpt lat="53.774916" lon="12.576828"><ele>6.0</ele></trkpt>
      <trkpt lat="53.775001" lon="12.576584"><ele>6.0</ele></trkpt>
      <trkpt lat="53.775038" lon="12.576329"><ele>6.0</ele></trkpt>
      <trkpt lat="53.775053" lon="12.576134"><ele>6.0</ele></trkpt>
      <trkpt lat="53.775115" lon="12.575853"><ele>6.0</ele></trkpt>
      <trkpt lat="53.775150" lon="12.575586"><ele>6.2</ele></trkpt>
      <trkpt lat="53.775124" lon="12.574983"><ele>7.0</ele></trkpt>
    </trkseg>
  </trk>
</gpx>
