<?xml version="1.0" encoding="UTF-8"?>
<gpx version="1.1" creator="Gravel Kompass" xmlns="http://www.topografix.com/GPX/1/1">
  <metadata><name>Seenplatten-Runde: Müritz, Mecklenburgische Schweiz &amp; Heide – Etappe 1</name></metadata>
  <trk>
    <name>Etappe 1: Neustrelitz – Waren (Müritz)</name>
    <trkseg>
      <trkpt lat="53.362334" lon="13.063557"><ele>72.0</ele></trkpt>
      <trkpt lat="53.362753" lon="13.062856"><ele>72.0</ele></trkpt>
      <trkpt lat="53.362785" lon="13.062803"><ele>72.0</ele></trkpt>
      <trkpt lat="53.362880" lon="13.062642"><ele>72.0</ele></trkpt>
      <trkpt lat="53.362929" lon="13.062711"><ele>72.0</ele></trkpt>
      <trkpt lat="53.362985" lon="13.062763"><ele>72.0</ele></trkpt>
      <trkpt lat="53.363046" lon="13.062798"><ele>71.8</ele></trkpt>
      <trkpt lat="53.363109" lon="13.062813"><ele>72.0</ele></trkpt>
      <trkpt lat="53.363173" lon="13.062809"><ele>72.0</ele></trkpt>
      <trkpt lat="53.363232" lon="13.062788"><ele>72.0</ele></trkpt>
      <trkpt lat="53.363288" lon="13.062750"><ele>72.0</ele></trkpt>
      <trkpt lat="53.363339" lon="13.062696"><ele>72.0</ele></trkpt>
      <trkpt lat="53.363384" lon="13.062629"><ele>72.0</ele></trkpt>
      <trkpt lat="53.363417" lon="13.062561"><ele>72.0</ele></trkpt>
      <trkpt lat="53.363443" lon="13.062485"><ele>71.8</ele></trkpt>
      <trkpt lat="53.363463" lon="13.062403"><ele>71.8</ele></trkpt>
      <trkpt lat="53.363475" lon="13.062317"><ele>71.5</ele></trkpt>
      <trkpt lat="53.363479" lon="13.062229"><ele>71.2</ele></trkpt>
      <trkpt lat="53.363475" lon="13.062135"><ele>71.0</ele></trkpt>
      <trkpt lat="53.363461" lon="13.062042"><ele>70.8</ele></trkpt>
      <trkpt lat="53.363439" lon="13.061955"><ele>70.5</ele></trkpt>
      <trkpt lat="53.363409" lon="13.061874"><ele>70.2</ele></trkpt>
      <trkpt lat="53.363371" lon="13.061803"><ele>69.8</ele></trkpt>
      <trkpt lat="53.363503" lon="13.061580"><ele>69.0</ele></trkpt>
      <trkpt lat="53.363517" lon="13.061555"><ele>69.0</ele></trkpt>
      <trkpt lat="53.363664" lon="13.061303"><ele>68.5</ele></trkpt>
      <trkpt lat="53.364130" lon="13.060540"><ele>65.0</ele></trkpt>
      <trkpt lat="53.364188" lon="13.060442"><ele>64.8</ele></trkpt>
      <trkpt lat="53.364811" lon="13.059405"><ele>61.8</ele></trkpt>
      <trkpt lat="53.364954" lon="13.059168"><ele>61.0</ele></trkpt>
      <trkpt lat="53.364977" lon="13.059129"><ele>61.0</ele></trkpt>
      <trkpt lat="53.365416" lon="13.058487"><ele>61.0</ele></trkpt>
      <trkpt lat="53.365482" lon="13.058304"><ele>61.0</ele></trkpt>
      <trkpt lat="53.365583" lon="13.058192"><ele>61.0</ele></trkpt>
      <trkpt lat="53.365667" lon="13.058139"><ele>61.0</ele></trkpt>
      <trkpt lat="53.365723" lon="13.058107"><ele>61.0</ele></trkpt>
      <trkpt lat="53.366357" lon="13.057723"><ele>59.8</ele></trkpt>
      <trkpt lat="53.366648" lon="13.057545"><ele>60.0</ele></trkpt>
      <trkpt lat="53.366745" lon="13.057487"><ele>60.0</ele></trkpt>
      <trkpt lat="53.366866" lon="13.057414"><ele>60.0</ele></trkpt>
      <trkpt lat="53.366909" lon="13.057387"><ele>60.0</ele></trkpt>
      <trkpt lat="53.366974" lon="13.057349"><ele>60.0</ele></trkpt>
      <trkpt lat="53.367970" lon="13.056742"><ele>60.0</ele></trkpt>
      <trkpt lat="53.368777" lon="13.056253"><ele>60.5</ele></trkpt>
      <trkpt lat="53.369257" lon="13.055961"><ele>60.5</ele></trkpt>
      <trkpt lat="53.369410" lon="13.055872"><ele>60.8</ele></trkpt>
      <trkpt lat="53.369845" lon="13.055623"><ele>61.0</ele></trkpt>
      <trkpt lat="53.370268" lon="13.055412"><ele>60.8</ele></trkpt>
      <trkpt lat="53.370435" lon="13.055334"><ele>61.0</ele></trkpt>
      <trkpt lat="53.371041" lon="13.055045"><ele>61.0</ele></trkpt>
      <trkpt lat="53.371048" lon="13.055042"><ele>61.0</ele></trkpt>
      <trkpt lat="53.371313" lon="13.054916"><ele>61.0</ele></trkpt>
      <trkpt lat="53.371555" lon="13.054801"><ele>61.2</ele></trkpt>
      <trkpt lat="53.373025" lon="13.054102"><ele>62.0</ele></trkpt>
      <trkpt lat="53.373339" lon="13.053954"><ele>61.8</ele></trkpt>
      <trkpt lat="53.373488" lon="13.053883"><ele>62.0</ele></trkpt>
      <trkpt lat="53.374126" lon="13.053583"><ele>62.0</ele></trkpt>
      <trkpt lat="53.374162" lon="13.053567"><ele>62.0</ele></trkpt>
      <trkpt lat="53.374336" lon="13.053485"><ele>62.5</ele></trkpt>
      <trkpt lat="53.374380" lon="13.053463"><ele>62.8</ele></trkpt>
      <trkpt lat="53.374583" lon="13.053362"><ele>63.0</ele></trkpt>
      <trkpt lat="53.374718" lon="13.053355"><ele>63.0</ele></trkpt>
      <trkpt lat="53.374705" lon="13.053259"><ele>62.5</ele></trkpt>
      <trkpt lat="53.374705" lon="13.053164"><ele>62.2</ele></trkpt>
      <trkpt lat="53.374738" lon="13.053000"><ele>62.0</ele></trkpt>
      <trkpt lat="53.374801" lon="13.052918"><ele>62.2</ele></trkpt>
      <trkpt lat="53.374850" lon="13.052882"><ele>62.2</ele></trkpt>
      <trkpt lat="53.374777" lon="13.052689"><ele>62.0</ele></trkpt>
      <trkpt lat="53.374752" lon="13.052504"><ele>62.0</ele></trkpt>
      <trkpt lat="53.374751" lon="13.052358"><ele>62.0</ele></trkpt>
      <trkpt lat="53.374763" lon="13.052227"><ele>62.0</ele></trkpt>
      <trkpt lat="53.374812" lon="13.051917"><ele>62.2</ele></trkpt>
      <trkpt lat="53.374879" lon="13.051551"><ele>62.5</ele></trkpt>
      <trkpt lat="53.374969" lon="13.051062"><ele>62.5</ele></trkpt>
      <trkpt lat="53.375036" lon="13.050702"><ele>62.0</ele></trkpt>
      <trkpt lat="53.375247" lon="13.049559"><ele>62.8</ele></trkpt>
      <trkpt lat="53.375327" lon="13.049131"><ele>63.0</ele></trkpt>
      <trkpt lat="53.375457" lon="13.048440"><ele>63.0</ele></trkpt>
      <trkpt lat="53.375483" lon="13.048330"><ele>63.0</ele></trkpt>
      <trkpt lat="53.375514" lon="13.048232"><ele>63.0</ele></trkpt>
      <trkpt lat="53.375553" lon="13.048143"><ele>63.0</ele></trkpt>
      <trkpt lat="53.375642" lon="13.048016"><ele>63.2</ele></trkpt>
      <trkpt lat="53.376001" lon="13.047658"><ele>64.0</ele></trkpt>
      <trkpt lat="53.376236" lon="13.047430"><ele>64.5</ele></trkpt>
      <trkpt lat="53.376362" lon="13.047308"><ele>64.8</ele></trkpt>
      <trkpt lat="53.376542" lon="13.047133"><ele>65.0</ele></trkpt>
      <trkpt lat="53.376701" lon="13.046974"><ele>65.0</ele></trkpt>
      <trkpt lat="53.376767" lon="13.046902"><ele>65.0</ele></trkpt>
      <trkpt lat="53.376840" lon="13.046818"><ele>65.0</ele></trkpt>
      <trkpt lat="53.377170" lon="13.046333"><ele>65.0</ele></trkpt>
      <trkpt lat="53.377788" lon="13.045319"><ele>65.0</ele></trkpt>
      <trkpt lat="53.377925" lon="13.045130"><ele>65.0</ele></trkpt>
      <trkpt lat="53.377995" lon="13.045047"><ele>65.0</ele></trkpt>
      <trkpt lat="53.378104" lon="13.044943"><ele>65.0</ele></trkpt>
      <trkpt lat="53.378157" lon="13.044900"><ele>65.0</ele></trkpt>
      <trkpt lat="53.378432" lon="13.044711"><ele>65.0</ele></trkpt>
      <trkpt lat="53.378707" lon="13.044547"><ele>65.0</ele></trkpt>
      <trkpt lat="53.378942" lon="13.044377"><ele>65.0</ele></trkpt>
      <trkpt lat="53.379045" lon="13.044291"><ele>65.0</ele></trkpt>
      <trkpt lat="53.379208" lon="13.044118"><ele>65.0</ele></trkpt>
      <trkpt lat="53.379636" lon="13.043539"><ele>65.0</ele></trkpt>
      <trkpt lat="53.379933" lon="13.043131"><ele>65.0</ele></trkpt>
      <trkpt lat="53.380628" lon="13.042107"><ele>65.0</ele></trkpt>
      <trkpt lat="53.380656" lon="13.042043"><ele>65.0</ele></trkpt>
      <trkpt lat="53.380677" lon="13.041972"><ele>65.0</ele></trkpt>
      <trkpt lat="53.380689" lon="13.041894"><ele>65.0</ele></trkpt>
      <trkpt lat="53.380692" lon="13.041814"><ele>65.0</ele></trkpt>
      <trkpt lat="53.380655" lon="13.041150"><ele>65.0</ele></trkpt>
      <trkpt lat="53.380660" lon="13.040853"><ele>64.2</ele></trkpt>
      <trkpt lat="53.380670" lon="13.040704"><ele>64.2</ele></trkpt>
      <trkpt lat="53.380905" lon="13.039588"><ele>64.5</ele></trkpt>
      <trkpt lat="53.381015" lon="13.039144"><ele>65.2</ele></trkpt>
      <trkpt lat="53.381176" lon="13.038490"><ele>65.0</ele></trkpt>
      <trkpt lat="53.381390" lon="13.037569"><ele>66.0</ele></trkpt>
      <trkpt lat="53.381468" lon="13.036929"><ele>65.5</ele></trkpt>
      <trkpt lat="53.381501" lon="13.036420"><ele>65.2</ele></trkpt>
      <trkpt lat="53.381487" lon="13.036133"><ele>65.2</ele></trkpt>
      <trkpt lat="53.381462" lon="13.035977"><ele>64.8</ele></trkpt>
      <trkpt lat="53.381426" lon="13.035850"><ele>64.2</ele></trkpt>
      <trkpt lat="53.381392" lon="13.035770"><ele>64.0</ele></trkpt>
      <trkpt lat="53.381355" lon="13.035620"><ele>63.8</ele></trkpt>
      <trkpt lat="53.381337" lon="13.035511"><ele>63.8</ele></trkpt>
      <trkpt lat="53.381327" lon="13.035339"><ele>63.8</ele></trkpt>
      <trkpt lat="53.381298" lon="13.035156"><ele>63.8</ele></trkpt>
      <trkpt lat="53.381337" lon="13.035127"><ele>64.2</ele></trkpt>
      <trkpt lat="53.381379" lon="13.035065"><ele>64.5</ele></trkpt>
      <trkpt lat="53.381418" lon="13.034953"><ele>65.0</ele></trkpt>
      <trkpt lat="53.381424" lon="13.034841"><ele>65.2</ele></trkpt>
      <trkpt lat="53.381415" lon="13.034608"><ele>65.0</ele></trkpt>
      <trkpt lat="53.381441" lon="13.034398"><ele>65.5</ele></trkpt>
      <trkpt lat="53.381529" lon="13.033911"><ele>67.0</ele></trkpt>
      <trkpt lat="53.381858" lon="13.032277"><ele>69.5</ele></trkpt>
      <trkpt lat="53.381914" lon="13.031987"><ele>69.8</ele></trkpt>
      <trkpt lat="53.382062" lon="13.031402"><ele>70.0</ele></trkpt>
      <trkpt lat="53.382254" lon="13.030615"><ele>71.0</ele></trkpt>
      <trkpt lat="53.382316" lon="13.030397"><ele>71.2</ele></trkpt>
      <trkpt lat="53.382352" lon="13.030155"><ele>71.2</ele></trkpt>
      <trkpt lat="53.382643" lon="13.029153"><ele>72.0</ele></trkpt>
      <trkpt lat="53.382760" lon="13.028821"><ele>72.0</ele></trkpt>
      <trkpt lat="53.383098" lon="13.028089"><ele>72.0</ele></trkpt>
      <trkpt lat="53.383320" lon="13.027649"><ele>72.0</ele></trkpt>
      <trkpt lat="53.383492" lon="13.027247"><ele>71.2</ele></trkpt>
      <trkpt lat="53.383913" lon="13.025916"><ele>68.8</ele></trkpt>
      <trkpt lat="53.384019" lon="13.025560"><ele>68.0</ele></trkpt>
      <trkpt lat="53.384161" lon="13.025184"><ele>68.0</ele></trkpt>
      <trkpt lat="53.384301" lon="13.024753"><ele>68.2</ele></trkpt>
      <trkpt lat="53.384419" lon="13.024360"><ele>68.8</ele></trkpt>
      <trkpt lat="53.384539" lon="13.024029"><ele>69.5</ele></trkpt>
      <trkpt lat="53.384768" lon="13.023297"><ele>71.2</ele></trkpt>
      <trkpt lat="53.384944" lon="13.022649"><ele>73.0</ele></trkpt>
      <trkpt lat="53.385215" lon="13.021906"><ele>74.0</ele></trkpt>
      <trkpt lat="53.385333" lon="13.021532"><ele>74.5</ele></trkpt>
      <trkpt lat="53.385449" lon="13.021255"><ele>74.5</ele></trkpt>
      <trkpt lat="53.385574" lon="13.021001"><ele>75.0</ele></trkpt>
      <trkpt lat="53.385952" lon="13.020152"><ele>75.0</ele></trkpt>
      <trkpt lat="53.386043" lon="13.019810"><ele>74.8</ele></trkpt>
      <trkpt lat="53.386232" lon="13.019348"><ele>75.2</ele></trkpt>
      <trkpt lat="53.386331" lon="13.018985"><ele>75.0</ele></trkpt>
      <trkpt lat="53.387219" lon="13.016628"><ele>76.8</ele></trkpt>
      <trkpt lat="53.387400" lon="13.016257"><ele>77.2</ele></trkpt>
      <trkpt lat="53.387527" lon="13.016066"><ele>78.0</ele></trkpt>
      <trkpt lat="53.387755" lon="13.015759"><ele>78.8</ele></trkpt>
      <trkpt lat="53.387899" lon="13.015588"><ele>79.2</ele></trkpt>
      <trkpt lat="53.387991" lon="13.015478"><ele>79.5</ele></trkpt>
      <trkpt lat="53.388345" lon="13.015102"><ele>81.0</ele></trkpt>
      <trkpt lat="53.389282" lon="13.014046"><ele>83.5</ele></trkpt>
      <trkpt lat="53.389509" lon="13.013773"><ele>84.0</ele></trkpt>
      <trkpt lat="53.390650" lon="13.012439"><ele>84.0</ele></trkpt>
      <trkpt lat="53.390982" lon="13.011996"><ele>84.0</ele></trkpt>
      <trkpt lat="53.391551" lon="13.011296"><ele>84.5</ele></trkpt>
      <trkpt lat="53.391797" lon="13.010848"><ele>85.0</ele></trkpt>
      <trkpt lat="53.391934" lon="13.010669"><ele>85.0</ele></trkpt>
      <trkpt lat="53.392140" lon="13.010335"><ele>85.0</ele></trkpt>
      <trkpt lat="53.392218" lon="13.010133"><ele>85.0</ele></trkpt>
      <trkpt lat="53.392254" lon="13.009962"><ele>85.0</ele></trkpt>
      <trkpt lat="53.392292" lon="13.009872"><ele>85.0</ele></trkpt>
      <trkpt lat="53.392325" lon="13.009818"><ele>85.0</ele></trkpt>
      <trkpt lat="53.392376" lon="13.009765"><ele>85.0</ele></trkpt>
      <trkpt lat="53.392442" lon="13.009063"><ele>85.0</ele></trkpt>
      <trkpt lat="53.392470" lon="13.008607"><ele>85.0</ele></trkpt>
      <trkpt lat="53.392471" lon="13.008232"><ele>85.0</ele></trkpt>
      <trkpt lat="53.392412" lon="13.006908"><ele>85.0</ele></trkpt>
      <trkpt lat="53.392417" lon="13.006083"><ele>85.0</ele></trkpt>
      <trkpt lat="53.392461" lon="13.005272"><ele>85.0</ele></trkpt>
      <trkpt lat="53.392500" lon="13.003387"><ele>84.0</ele></trkpt>
      <trkpt lat="53.392512" lon="13.002682"><ele>84.2</ele></trkpt>
      <trkpt lat="53.392531" lon="13.002400"><ele>85.0</ele></trkpt>
      <trkpt lat="53.392658" lon="13.001452"><ele>85.0</ele></trkpt>
      <trkpt lat="53.392753" lon="13.000554"><ele>85.8</ele></trkpt>
      <trkpt lat="53.392799" lon="13.000281"><ele>85.0</ele></trkpt>
      <trkpt lat="53.392931" lon="12.999722"><ele>84.2</ele></trkpt>
      <trkpt lat="53.393231" lon="12.998521"><ele>82.0</ele></trkpt>
      <trkpt lat="53.393268" lon="12.998279"><ele>82.0</ele></trkpt>
      <trkpt lat="53.393262" lon="12.998241"><ele>82.0</ele></trkpt>
      <trkpt lat="53.393267" lon="12.998001"><ele>82.0</ele></trkpt>
      <trkpt lat="53.393238" lon="12.997630"><ele>83.0</ele></trkpt>
      <trkpt lat="53.393240" lon="12.997379"><ele>84.2</ele></trkpt>
      <trkpt lat="53.393286" lon="12.996433"><ele>85.0</ele></trkpt>
      <trkpt lat="53.393245" lon="12.995544"><ele>84.2</ele></trkpt>
      <trkpt lat="53.393238" lon="12.995080"><ele>84.2</ele></trkpt>
      <trkpt lat="53.393275" lon="12.994628"><ele>84.2</ele></trkpt>
      <trkpt lat="53.393324" lon="12.993703"><ele>83.8</ele></trkpt>
      <trkpt lat="53.393487" lon="12.992667"><ele>84.5</ele></trkpt>
      <trkpt lat="53.393538" lon="12.992089"><ele>85.0</ele></trkpt>
      <trkpt lat="53.393597" lon="12.990896"><ele>85.0</ele></trkpt>
      <trkpt lat="53.393644" lon="12.990308"><ele>85.8</ele></trkpt>
      <trkpt lat="53.393805" lon="12.989058"><ele>85.0</ele></trkpt>
      <trkpt lat="53.393884" lon="12.988157"><ele>83.2</ele></trkpt>
      <trkpt lat="53.393908" lon="12.987305"><ele>80.2</ele></trkpt>
      <trkpt lat="53.393990" lon="12.985147"><ele>76.5</ele></trkpt>
      <trkpt lat="53.394014" lon="12.984900"><ele>76.5</ele></trkpt>
      <trkpt lat="53.394024" lon="12.983707"><ele>77.0</ele></trkpt>
      <trkpt lat="53.393976" lon="12.982517"><ele>78.2</ele></trkpt>
      <trkpt lat="53.393983" lon="12.981864"><ele>77.0</ele></trkpt>
      <trkpt lat="53.393960" lon="12.981466"><ele>76.5</ele></trkpt>
      <trkpt lat="53.393858" lon="12.981006"><ele>76.0</ele></trkpt>
      <trkpt lat="53.393441" lon="12.978725"><ele>71.2</ele></trkpt>
      <trkpt lat="53.393207" lon="12.978131"><ele>71.2</ele></trkpt>
      <trkpt lat="53.392991" lon="12.977105"><ele>72.2</ele></trkpt>
      <trkpt lat="53.392784" lon="12.975737"><ele>74.0</ele></trkpt>
      <trkpt lat="53.392292" lon="12.972922"><ele>77.0</ele></trkpt>
      <trkpt lat="53.391500" lon="12.969728"><ele>77.0</ele></trkpt>
      <trkpt lat="53.391002" lon="12.967639"><ele>75.2</ele></trkpt>
      <trkpt lat="53.390796" lon="12.966570"><ele>77.8</ele></trkpt>
      <trkpt lat="53.390689" lon="12.966050"><ele>77.0</ele></trkpt>
      <trkpt lat="53.390088" lon="12.963123"><ele>72.0</ele></trkpt>
      <trkpt lat="53.390071" lon="12.963040"><ele>72.0</ele></trkpt>
      <trkpt lat="53.390228" lon="12.962676"><ele>72.2</ele></trkpt>
      <trkpt lat="53.390461" lon="12.962657"><ele>72.0</ele></trkpt>
      <trkpt lat="53.391103" lon="12.962644"><ele>72.0</ele></trkpt>
      <trkpt lat="53.391666" lon="12.962669"><ele>73.8</ele></trkpt>
      <trkpt lat="53.391791" lon="12.962686"><ele>74.5</ele></trkpt>
      <trkpt lat="53.392937" lon="12.962687"><ele>76.5</ele></trkpt>
      <trkpt lat="53.393878" lon="12.962742"><ele>78.8</ele></trkpt>
      <trkpt lat="53.394236" lon="12.962741"><ele>80.0</ele></trkpt>
      <trkpt lat="53.394723" lon="12.962774"><ele>79.8</ele></trkpt>
      <trkpt lat="53.397422" lon="12.962433"><ele>78.0</ele></trkpt>
      <trkpt lat="53.398214" lon="12.962337"><ele>76.5</ele></trkpt>
      <trkpt lat="53.399393" lon="12.962237"><ele>82.5</ele></trkpt>
      <trkpt lat="53.399976" lon="12.962187"><ele>85.0</ele></trkpt>
      <trkpt lat="53.400449" lon="12.962105"><ele>87.0</ele></trkpt>
      <trkpt lat="53.403241" lon="12.961800"><ele>85.8</ele></trkpt>
      <trkpt lat="53.405512" lon="12.961802"><ele>84.0</ele></trkpt>
      <trkpt lat="53.406358" lon="12.961867"><ele>85.8</ele></trkpt>
      <trkpt lat="53.408174" lon="12.962020"><ele>80.8</ele></trkpt>
      <trkpt lat="53.409212" lon="12.961709"><ele>73.2</ele></trkpt>
      <trkpt lat="53.410033" lon="12.961486"><ele>63.8</ele></trkpt>
      <trkpt lat="53.410760" lon="12.960680"><ele>65.5</ele></trkpt>
      <trkpt lat="53.411141" lon="12.960691"><ele>65.5</ele></trkpt>
      <trkpt lat="53.411675" lon="12.960916"><ele>64.8</ele></trkpt>
      <trkpt lat="53.412164" lon="12.961523"><ele>66.2</ele></trkpt>
      <trkpt lat="53.412435" lon="12.962494"><ele>65.2</ele></trkpt>
      <trkpt lat="53.412595" lon="12.963017"><ele>65.2</ele></trkpt>
      <trkpt lat="53.412653" lon="12.963123"><ele>65.2</ele></trkpt>
      <trkpt lat="53.412752" lon="12.963178"><ele>65.2</ele></trkpt>
      <trkpt lat="53.412928" lon="12.963198"><ele>66.2</ele></trkpt>
      <trkpt lat="53.413153" lon="12.963240"><ele>66.2</ele></trkpt>
      <trkpt lat="53.413249" lon="12.963314"><ele>65.2</ele></trkpt>
      <trkpt lat="53.413316" lon="12.963422"><ele>65.0</ele></trkpt>
      <trkpt lat="53.413358" lon="12.963600"><ele>65.0</ele></trkpt>
      <trkpt lat="53.413378" lon="12.963867"><ele>65.0</ele></trkpt>
      <trkpt lat="53.413409" lon="12.964113"><ele>65.2</ele></trkpt>
      <trkpt lat="53.413476" lon="12.964347"><ele>66.5</ele></trkpt>
      <trkpt lat="53.413814" lon="12.965199"><ele>70.8</ele></trkpt>
      <trkpt lat="53.414381" lon="12.966373"><ele>72.0</ele></trkpt>
      <trkpt lat="53.414580" lon="12.966954"><ele>72.0</ele></trkpt>
      <trkpt lat="53.414874" lon="12.967607"><ele>72.0</ele></trkpt>
      <trkpt lat="53.414997" lon="12.967776"><ele>72.0</ele></trkpt>
      <trkpt lat="53.415124" lon="12.967865"><ele>72.5</ele></trkpt>
      <trkpt lat="53.415185" lon="12.967954"><ele>73.0</ele></trkpt>
      <trkpt lat="53.415220" lon="12.967821"><ele>72.8</ele></trkpt>
      <trkpt lat="53.415550" lon="12.966736"><ele>72.0</ele></trkpt>
      <trkpt lat="53.415637" lon="12.966413"><ele>72.2</ele></trkpt>
      <trkpt lat="53.415899" lon="12.965769"><ele>71.0</ele></trkpt>
      <trkpt lat="53.416296" lon="12.964472"><ele>70.0</ele></trkpt>
      <trkpt lat="53.416355" lon="12.964013"><ele>70.5</ele></trkpt>
      <trkpt lat="53.416380" lon="12.963726"><ele>71.5</ele></trkpt>
      <trkpt lat="53.416426" lon="12.963462"><ele>73.0</ele></trkpt>
      <trkpt lat="53.416523" lon="12.963269"><ele>73.5</ele></trkpt>
      <trkpt lat="53.416761" lon="12.962863"><ele>73.8</ele></trkpt>
      <trkpt lat="53.417099" lon="12.960448"><ele>75.0</ele></trkpt>
      <trkpt lat="53.417311" lon="12.958988"><ele>75.0</ele></trkpt>
      <trkpt lat="53.417388" lon="12.958613"><ele>74.0</ele></trkpt>
      <trkpt lat="53.417657" lon="12.957282"><ele>70.5</ele></trkpt>
      <trkpt lat="53.417743" lon="12.956989"><ele>72.0</ele></trkpt>
      <trkpt lat="53.417887" lon="12.956543"><ele>73.2</ele></trkpt>
      <trkpt lat="53.418317" lon="12.955466"><ele>75.0</ele></trkpt>
      <trkpt lat="53.418451" lon="12.955231"><ele>75.2</ele></trkpt>
      <trkpt lat="53.418569" lon="12.955081"><ele>74.5</ele></trkpt>
      <trkpt lat="53.418897" lon="12.954567"><ele>73.0</ele></trkpt>
      <trkpt lat="53.419365" lon="12.953905"><ele>71.8</ele></trkpt>
      <trkpt lat="53.419514" lon="12.953728"><ele>71.2</ele></trkpt>
      <trkpt lat="53.419811" lon="12.953414"><ele>70.0</ele></trkpt>
      <trkpt lat="53.420015" lon="12.953224"><ele>69.2</ele></trkpt>
      <trkpt lat="53.420201" lon="12.953072"><ele>68.8</ele></trkpt>
      <trkpt lat="53.420645" lon="12.952766"><ele>68.5</ele></trkpt>
      <trkpt lat="53.420883" lon="12.952628"><ele>69.0</ele></trkpt>
      <trkpt lat="53.421069" lon="12.952547"><ele>69.2</ele></trkpt>
      <trkpt lat="53.421346" lon="12.952485"><ele>70.5</ele></trkpt>
      <trkpt lat="53.421717" lon="12.952288"><ele>70.8</ele></trkpt>
      <trkpt lat="53.422203" lon="12.952070"><ele>69.8</ele></trkpt>
      <trkpt lat="53.422893" lon="12.951852"><ele>69.5</ele></trkpt>
      <trkpt lat="53.423081" lon="12.951770"><ele>69.8</ele></trkpt>
      <trkpt lat="53.423963" lon="12.951310"><ele>69.5</ele></trkpt>
      <trkpt lat="53.424280" lon="12.951058"><ele>68.2</ele></trkpt>
      <trkpt lat="53.424533" lon="12.950778"><ele>67.0</ele></trkpt>
      <trkpt lat="53.424797" lon="12.950613"><ele>67.0</ele></trkpt>
      <trkpt lat="53.424855" lon="12.950618"><ele>67.0</ele></trkpt>
      <trkpt lat="53.424917" lon="12.950667"><ele>67.0</ele></trkpt>
      <trkpt lat="53.425377" lon="12.950948"><ele>67.0</ele></trkpt>
      <trkpt lat="53.425520" lon="12.951035"><ele>67.0</ele></trkpt>
      <trkpt lat="53.425746" lon="12.951158"><ele>67.0</ele></trkpt>
      <trkpt lat="53.425818" lon="12.951185"><ele>67.2</ele></trkpt>
      <trkpt lat="53.425889" lon="12.951195"><ele>67.2</ele></trkpt>
      <trkpt lat="53.425976" lon="12.951181"><ele>67.2</ele></trkpt>
      <trkpt lat="53.426038" lon="12.951157"><ele>67.0</ele></trkpt>
      <trkpt lat="53.426159" lon="12.951070"><ele>66.8</ele></trkpt>
      <trkpt lat="53.426244" lon="12.950997"><ele>66.8</ele></trkpt>
      <trkpt lat="53.426399" lon="12.950845"><ele>66.0</ele></trkpt>
      <trkpt lat="53.426361" lon="12.950720"><ele>65.5</ele></trkpt>
      <trkpt lat="53.426323" lon="12.950664"><ele>65.5</ele></trkpt>
      <trkpt lat="53.426126" lon="12.950543"><ele>65.8</ele></trkpt>
      <trkpt lat="53.426075" lon="12.950499"><ele>65.8</ele></trkpt>
      <trkpt lat="53.426018" lon="12.950427"><ele>65.5</ele></trkpt>
      <trkpt lat="53.425949" lon="12.950295"><ele>65.0</ele></trkpt>
      <trkpt lat="53.425922" lon="12.950181"><ele>64.8</ele></trkpt>
      <trkpt lat="53.425920" lon="12.950065"><ele>64.8</ele></trkpt>
      <trkpt lat="53.425931" lon="12.949973"><ele>64.5</ele></trkpt>
      <trkpt lat="53.426023" lon="12.949509"><ele>64.2</ele></trkpt>
      <trkpt lat="53.426091" lon="12.949104"><ele>64.8</ele></trkpt>
      <trkpt lat="53.426189" lon="12.948670"><ele>64.5</ele></trkpt>
      <trkpt lat="53.426212" lon="12.948530"><ele>64.5</ele></trkpt>
      <trkpt lat="53.426264" lon="12.948346"><ele>64.2</ele></trkpt>
      <trkpt lat="53.426374" lon="12.947898"><ele>64.5</ele></trkpt>
      <trkpt lat="53.426565" lon="12.947083"><ele>64.5</ele></trkpt>
      <trkpt lat="53.426849" lon="12.945920"><ele>64.2</ele></trkpt>
      <trkpt lat="53.427070" lon="12.945045"><ele>64.5</ele></trkpt>
      <trkpt lat="53.427122" lon="12.944805"><ele>64.2</ele></trkpt>
      <trkpt lat="53.427207" lon="12.944486"><ele>64.8</ele></trkpt>
      <trkpt lat="53.427257" lon="12.944359"><ele>64.8</ele></trkpt>
      <trkpt lat="53.427281" lon="12.944279"><ele>64.8</ele></trkpt>
      <trkpt lat="53.427365" lon="12.943905"><ele>64.8</ele></trkpt>
      <trkpt lat="53.427406" lon="12.943655"><ele>65.0</ele></trkpt>
      <trkpt lat="53.427553" lon="12.943153"><ele>64.8</ele></trkpt>
      <trkpt lat="53.427631" lon="12.942848"><ele>64.0</ele></trkpt>
      <trkpt lat="53.427705" lon="12.942611"><ele>63.2</ele></trkpt>
      <trkpt lat="53.427747" lon="12.942499"><ele>63.0</ele></trkpt>
      <trkpt lat="53.427817" lon="12.942386"><ele>63.0</ele></trkpt>
      <trkpt lat="53.427887" lon="12.942250"><ele>63.0</ele></trkpt>
      <trkpt lat="53.428007" lon="12.941752"><ele>64.8</ele></trkpt>
      <trkpt lat="53.428042" lon="12.941644"><ele>65.0</ele></trkpt>
      <trkpt lat="53.428115" lon="12.941475"><ele>65.2</ele></trkpt>
      <trkpt lat="53.428153" lon="12.941410"><ele>65.0</ele></trkpt>
      <trkpt lat="53.428280" lon="12.941285"><ele>64.2</ele></trkpt>
      <trkpt lat="53.428401" lon="12.941188"><ele>64.0</ele></trkpt>
      <trkpt lat="53.428747" lon="12.940944"><ele>65.2</ele></trkpt>
      <trkpt lat="53.428803" lon="12.940900"><ele>65.5</ele></trkpt>
      <trkpt lat="53.428673" lon="12.940372"><ele>65.0</ele></trkpt>
      <trkpt lat="53.428582" lon="12.939974"><ele>65.0</ele></trkpt>
      <trkpt lat="53.428655" lon="12.939926"><ele>65.0</ele></trkpt>
      <trkpt lat="53.428704" lon="12.939905"><ele>65.0</ele></trkpt>
      <trkpt lat="53.428978" lon="12.939816"><ele>65.2</ele></trkpt>
      <trkpt lat="53.429027" lon="12.939801"><ele>65.2</ele></trkpt>
      <trkpt lat="53.429156" lon="12.939773"><ele>65.0</ele></trkpt>
      <trkpt lat="53.429657" lon="12.939735"><ele>66.0</ele></trkpt>
      <trkpt lat="53.429702" lon="12.939716"><ele>65.8</ele></trkpt>
      <trkpt lat="53.429642" lon="12.939421"><ele>64.8</ele></trkpt>
      <trkpt lat="53.429565" lon="12.938964"><ele>64.5</ele></trkpt>
      <trkpt lat="53.429486" lon="12.938280"><ele>66.2</ele></trkpt>
      <trkpt lat="53.429451" lon="12.938112"><ele>67.5</ele></trkpt>
      <trkpt lat="53.429431" lon="12.938061"><ele>67.8</ele></trkpt>
      <trkpt lat="53.429377" lon="12.937986"><ele>67.8</ele></trkpt>
      <trkpt lat="53.429193" lon="12.937990"><ele>67.0</ele></trkpt>
      <trkpt lat="53.429132" lon="12.937910"><ele>67.0</ele></trkpt>
      <trkpt lat="53.429110" lon="12.937855"><ele>67.0</ele></trkpt>
      <trkpt lat="53.429074" lon="12.937723"><ele>66.8</ele></trkpt>
      <trkpt lat="53.429045" lon="12.937536"><ele>66.5</ele></trkpt>
      <trkpt lat="53.429105" lon="12.937512"><ele>66.8</ele></trkpt>
      <trkpt lat="53.429130" lon="12.937490"><ele>66.8</ele></trkpt>
      <trkpt lat="53.429488" lon="12.936896"><ele>66.0</ele></trkpt>
      <trkpt lat="53.429556" lon="12.936785"><ele>66.2</ele></trkpt>
      <trkpt lat="53.429786" lon="12.936425"><ele>67.0</ele></trkpt>
      <trkpt lat="53.430657" lon="12.935110"><ele>66.5</ele></trkpt>
      <trkpt lat="53.430966" lon="12.934687"><ele>65.2</ele></trkpt>
      <trkpt lat="53.431127" lon="12.934507"><ele>65.2</ele></trkpt>
      <trkpt lat="53.431249" lon="12.934304"><ele>65.5</ele></trkpt>
      <trkpt lat="53.431469" lon="12.933894"><ele>66.2</ele></trkpt>
      <trkpt lat="53.433249" lon="12.930476"><ele>70.0</ele></trkpt>
      <trkpt lat="53.435791" lon="12.925444"><ele>72.2</ele></trkpt>
      <trkpt lat="53.438541" lon="12.920091"><ele>75.0</ele></trkpt>
      <trkpt lat="53.438632" lon="12.919911"><ele>75.0</ele></trkpt>
      <trkpt lat="53.440207" lon="12.916812"><ele>80.0</ele></trkpt>
      <trkpt lat="53.441889" lon="12.914563"><ele>82.0</ele></trkpt>
      <trkpt lat="53.442804" lon="12.913413"><ele>85.0</ele></trkpt>
      <trkpt lat="53.445447" lon="12.911456"><ele>84.0</ele></trkpt>
      <trkpt lat="53.449699" lon="12.908585"><ele>84.8</ele></trkpt>
      <trkpt lat="53.452179" lon="12.907113"><ele>86.8</ele></trkpt>
      <trkpt lat="53.455568" lon="12.905122"><ele>85.0</ele></trkpt>
      <trkpt lat="53.458936" lon="12.902873"><ele>85.0</ele></trkpt>
      <trkpt lat="53.463117" lon="12.899304"><ele>87.0</ele></trkpt>
      <trkpt lat="53.463291" lon="12.899180"><ele>86.8</ele></trkpt>
      <trkpt lat="53.463714" lon="12.898752"><ele>87.0</ele></trkpt>
      <trkpt lat="53.464424" lon="12.897803"><ele>86.0</ele></trkpt>
      <trkpt lat="53.465676" lon="12.893569"><ele>89.5</ele></trkpt>
      <trkpt lat="53.466534" lon="12.888874"><ele>89.2</ele></trkpt>
      <trkpt lat="53.468321" lon="12.883585"><ele>87.8</ele></trkpt>
      <trkpt lat="53.469273" lon="12.881417"><ele>87.2</ele></trkpt>
      <trkpt lat="53.469950" lon="12.879988"><ele>89.0</ele></trkpt>
      <trkpt lat="53.471904" lon="12.877561"><ele>89.0</ele></trkpt>
      <trkpt lat="53.473282" lon="12.876236"><ele>90.0</ele></trkpt>
      <trkpt lat="53.474111" lon="12.875257"><ele>88.0</ele></trkpt>
      <trkpt lat="53.474936" lon="12.874166"><ele>84.8</ele></trkpt>
      <trkpt lat="53.475073" lon="12.873986"><ele>84.2</ele></trkpt>
      <trkpt lat="53.475272" lon="12.873756"><ele>83.8</ele></trkpt>
      <trkpt lat="53.475378" lon="12.873703"><ele>84.2</ele></trkpt>
      <trkpt lat="53.475478" lon="12.873694"><ele>84.5</ele></trkpt>
      <trkpt lat="53.475535" lon="12.873659"><ele>84.8</ele></trkpt>
      <trkpt lat="53.475705" lon="12.872110"><ele>84.2</ele></trkpt>
      <trkpt lat="53.475803" lon="12.871796"><ele>84.0</ele></trkpt>
      <trkpt lat="53.475886" lon="12.870902"><ele>84.8</ele></trkpt>
      <trkpt lat="53.475888" lon="12.870877"><ele>84.8</ele></trkpt>
      <trkpt lat="53.476147" lon="12.867881"><ele>90.0</ele></trkpt>
      <trkpt lat="53.476238" lon="12.866676"><ele>89.0</ele></trkpt>
      <trkpt lat="53.476931" lon="12.860515"><ele>85.8</ele></trkpt>
      <trkpt lat="53.477567" lon="12.856717"><ele>84.8</ele></trkpt>
      <trkpt lat="53.478220" lon="12.853182"><ele>83.5</ele></trkpt>
      <trkpt lat="53.478587" lon="12.850811"><ele>82.0</ele></trkpt>
      <trkpt lat="53.479330" lon="12.845562"><ele>84.5</ele></trkpt>
      <trkpt lat="53.480399" lon="12.837510"><ele>84.0</ele></trkpt>
      <trkpt lat="53.481489" lon="12.829207"><ele>82.8</ele></trkpt>
      <trkpt lat="53.481972" lon="12.825599"><ele>83.0</ele></trkpt>
      <trkpt lat="53.482524" lon="12.822546"><ele>88.0</ele></trkpt>
      <trkpt lat="53.486553" lon="12.821850"><ele>93.2</ele></trkpt>
      <trkpt lat="53.486761" lon="12.821872"><ele>93.8</ele></trkpt>
      <trkpt lat="53.488143" lon="12.821659"><ele>93.0</ele></trkpt>
      <trkpt lat="53.491182" lon="12.821264"><ele>87.0</ele></trkpt>
      <trkpt lat="53.491652" lon="12.821059"><ele>86.0</ele></trkpt>
      <trkpt lat="53.492673" lon="12.820839"><ele>87.0</ele></trkpt>
      <trkpt lat="53.493329" lon="12.820766"><ele>84.8</ele></trkpt>
      <trkpt lat="53.494292" lon="12.820797"><ele>82.5</ele></trkpt>
      <trkpt lat="53.497665" lon="12.820221"><ele>78.5</ele></trkpt>
      <trkpt lat="53.498930" lon="12.820083"><ele>81.0</ele></trkpt>
      <trkpt lat="53.499181" lon="12.820131"><ele>81.2</ele></trkpt>
      <trkpt lat="53.499468" lon="12.820286"><ele>82.0</ele></trkpt>
      <trkpt lat="53.499563" lon="12.820275"><ele>81.8</ele></trkpt>
      <trkpt lat="53.499871" lon="12.820222"><ele>82.0</ele></trkpt>
      <trkpt lat="53.500239" lon="12.820104"><ele>82.5</ele></trkpt>
      <trkpt lat="53.500793" lon="12.819799"><ele>83.0</ele></trkpt>
      <trkpt lat="53.501213" lon="12.819504"><ele>84.2</ele></trkpt>
      <trkpt lat="53.501359" lon="12.819521"><ele>84.5</ele></trkpt>
      <trkpt lat="53.501432" lon="12.819616"><ele>84.2</ele></trkpt>
      <trkpt lat="53.501067" lon="12.812898"><ele>83.0</ele></trkpt>
      <trkpt lat="53.500952" lon="12.810873"><ele>82.5</ele></trkpt>
      <trkpt lat="53.500859" lon="12.808763"><ele>80.5</ele></trkpt>
      <trkpt lat="53.500868" lon="12.808368"><ele>79.8</ele></trkpt>
      <trkpt lat="53.500922" lon="12.807715"><ele>77.5</ele></trkpt>
      <trkpt lat="53.500950" lon="12.806705"><ele>76.5</ele></trkpt>
      <trkpt lat="53.500949" lon="12.805950"><ele>75.5</ele></trkpt>
      <trkpt lat="53.500978" lon="12.804468"><ele>71.5</ele></trkpt>
      <trkpt lat="53.501124" lon="12.802818"><ele>70.8</ele></trkpt>
      <trkpt lat="53.501132" lon="12.802629"><ele>71.5</ele></trkpt>
      <trkpt lat="53.501571" lon="12.800391"><ele>79.5</ele></trkpt>
      <trkpt lat="53.501981" lon="12.798971"><ele>83.0</ele></trkpt>
      <trkpt lat="53.502650" lon="12.797894"><ele>87.0</ele></trkpt>
      <trkpt lat="53.503094" lon="12.796380"><ele>80.0</ele></trkpt>
      <trkpt lat="53.504141" lon="12.794764"><ele>82.8</ele></trkpt>
      <trkpt lat="53.506365" lon="12.791871"><ele>78.0</ele></trkpt>
      <trkpt lat="53.507262" lon="12.790665"><ele>77.0</ele></trkpt>
      <trkpt lat="53.507265" lon="12.790347"><ele>77.0</ele></trkpt>
      <trkpt lat="53.504020" lon="12.782510"><ele>70.0</ele></trkpt>
      <trkpt lat="53.503662" lon="12.781970"><ele>70.0</ele></trkpt>
      <trkpt lat="53.503203" lon="12.781599"><ele>70.2</ele></trkpt>
      <trkpt lat="53.503016" lon="12.781310"><ele>70.0</ele></trkpt>
      <trkpt lat="53.502986" lon="12.781167"><ele>70.0</ele></trkpt>
      <trkpt lat="53.503073" lon="12.780967"><ele>70.0</ele></trkpt>
      <trkpt lat="53.503154" lon="12.781203"><ele>70.0</ele></trkpt>
      <trkpt lat="53.503248" lon="12.781412"><ele>70.0</ele></trkpt>
      <trkpt lat="53.503402" lon="12.781603"><ele>70.0</ele></trkpt>
      <trkpt lat="53.503548" lon="12.781714"><ele>70.0</ele></trkpt>
      <trkpt lat="53.503660" lon="12.781781"><ele>70.0</ele></trkpt>
      <trkpt lat="53.503796" lon="12.781837"><ele>70.0</ele></trkpt>
      <trkpt lat="53.504038" lon="12.781916"><ele>70.0</ele></trkpt>
      <trkpt lat="53.504045" lon="12.781805"><ele>70.0</ele></trkpt>
      <trkpt lat="53.504024" lon="12.780172"><ele>70.0</ele></trkpt>
      <trkpt lat="53.504025" lon="12.779164"><ele>69.2</ele></trkpt>
      <trkpt lat="53.503975" lon="12.778481"><ele>68.5</ele></trkpt>
      <trkpt lat="53.503898" lon="12.777941"><ele>68.0</ele></trkpt>
      <trkpt lat="53.503760" lon="12.777487"><ele>68.0</ele></trkpt>
      <trkpt lat="53.503743" lon="12.777321"><ele>68.0</ele></trkpt>
      <trkpt lat="53.503756" lon="12.777234"><ele>68.0</ele></trkpt>
      <trkpt lat="53.503654" lon="12.777099"><ele>67.5</ele></trkpt>
      <trkpt lat="53.503713" lon="12.776890"><ele>67.0</ele></trkpt>
      <trkpt lat="53.503886" lon="12.775928"><ele>67.0</ele></trkpt>
      <trkpt lat="53.503978" lon="12.775175"><ele>68.5</ele></trkpt>
      <trkpt lat="53.504040" lon="12.774807"><ele>69.0</ele></trkpt>
      <trkpt lat="53.504166" lon="12.774324"><ele>69.5</ele></trkpt>
      <trkpt lat="53.504425" lon="12.773543"><ele>69.5</ele></trkpt>
      <trkpt lat="53.504550" lon="12.773291"><ele>69.0</ele></trkpt>
      <trkpt lat="53.504831" lon="12.772976"><ele>69.0</ele></trkpt>
      <trkpt lat="53.504932" lon="12.772805"><ele>69.0</ele></trkpt>
      <trkpt lat="53.504982" lon="12.772660"><ele>68.8</ele></trkpt>
      <trkpt lat="53.505019" lon="12.772464"><ele>69.0</ele></trkpt>
      <trkpt lat="53.505037" lon="12.772265"><ele>69.2</ele></trkpt>
      <trkpt lat="53.504852" lon="12.771743"><ele>68.2</ele></trkpt>
      <trkpt lat="53.504080" lon="12.770642"><ele>66.0</ele></trkpt>
      <trkpt lat="53.505109" lon="12.768148"><ele>72.2</ele></trkpt>
      <trkpt lat="53.505962" lon="12.763880"><ele>69.8</ele></trkpt>
      <trkpt lat="53.506071" lon="12.762635"><ele>68.5</ele></trkpt>
      <trkpt lat="53.506208" lon="12.761891"><ele>69.2</ele></trkpt>
      <trkpt lat="53.506286" lon="12.761388"><ele>70.2</ele></trkpt>
      <trkpt lat="53.506310" lon="12.761205"><ele>70.5</ele></trkpt>
      <trkpt lat="53.506316" lon="12.760990"><ele>71.0</ele></trkpt>
      <trkpt lat="53.506955" lon="12.761106"><ele>73.0</ele></trkpt>
      <trkpt lat="53.507451" lon="12.761359"><ele>73.8</ele></trkpt>
      <trkpt lat="53.507484" lon="12.761367"><ele>73.8</ele></trkpt>
      <trkpt lat="53.507520" lon="12.761335"><ele>74.0</ele></trkpt>
      <trkpt lat="53.507831" lon="12.760734"><ele>73.5</ele></trkpt>
      <trkpt lat="53.508048" lon="12.760230"><ele>73.8</ele></trkpt>
      <trkpt lat="53.508588" lon="12.759104"><ele>70.5</ele></trkpt>
      <trkpt lat="53.508661" lon="12.758974"><ele>70.2</ele></trkpt>
      <trkpt lat="53.508948" lon="12.758422"><ele>69.5</ele></trkpt>
      <trkpt lat="53.510399" lon="12.753724"><ele>74.8</ele></trkpt>
      <trkpt lat="53.511241" lon="12.751154"><ele>74.0</ele></trkpt>
      <trkpt lat="53.512016" lon="12.748597"><ele>69.8</ele></trkpt>
      <trkpt lat="53.512004" lon="12.746188"><ele>68.5</ele></trkpt>
      <trkpt lat="53.511825" lon="12.740865"><ele>67.5</ele></trkpt>
      <trkpt lat="53.511788" lon="12.739766"><ele>66.8</ele></trkpt>
      <trkpt lat="53.511771" lon="12.736493"><ele>67.0</ele></trkpt>
      <trkpt lat="53.511865" lon="12.735014"><ele>69.0</ele></trkpt>
      <trkpt lat="53.511905" lon="12.734494"><ele>68.5</ele></trkpt>
      <trkpt lat="53.511981" lon="12.733885"><ele>67.2</ele></trkpt>
      <trkpt lat="53.512028" lon="12.733384"><ele>68.0</ele></trkpt>
      <trkpt lat="53.512069" lon="12.732742"><ele>70.0</ele></trkpt>
      <trkpt lat="53.512127" lon="12.732008"><ele>71.5</ele></trkpt>
      <trkpt lat="53.512172" lon="12.731275"><ele>73.5</ele></trkpt>
      <trkpt lat="53.512421" lon="12.728513"><ele>71.5</ele></trkpt>
      <trkpt lat="53.512517" lon="12.727248"><ele>72.0</ele></trkpt>
      <trkpt lat="53.512625" lon="12.726016"><ele>71.8</ele></trkpt>
      <trkpt lat="53.512676" lon="12.725565"><ele>70.8</ele></trkpt>
      <trkpt lat="53.512768" lon="12.724884"><ele>69.0</ele></trkpt>
      <trkpt lat="53.512790" lon="12.724646"><ele>69.0</ele></trkpt>
      <trkpt lat="53.512796" lon="12.724318"><ele>69.8</ele></trkpt>
      <trkpt lat="53.512807" lon="12.724138"><ele>69.5</ele></trkpt>
      <trkpt lat="53.512853" lon="12.723833"><ele>69.0</ele></trkpt>
      <trkpt lat="53.512893" lon="12.723306"><ele>68.8</ele></trkpt>
      <trkpt lat="53.512900" lon="12.723000"><ele>68.5</ele></trkpt>
      <trkpt lat="53.512880" lon="12.722221"><ele>67.8</ele></trkpt>
      <trkpt lat="53.512680" lon="12.716958"><ele>66.2</ele></trkpt>
      <trkpt lat="53.512718" lon="12.715387"><ele>66.2</ele></trkpt>
      <trkpt lat="53.512624" lon="12.714244"><ele>65.2</ele></trkpt>
      <trkpt lat="53.512268" lon="12.712806"><ele>64.0</ele></trkpt>
      <trkpt lat="53.512370" lon="12.712581"><ele>64.8</ele></trkpt>
      <trkpt lat="53.512152" lon="12.712187"><ele>64.8</ele></trkpt>
      <trkpt lat="53.512039" lon="12.712059"><ele>65.5</ele></trkpt>
      <trkpt lat="53.511883" lon="12.711957"><ele>66.8</ele></trkpt>
      <trkpt lat="53.511430" lon="12.711789"><ele>67.2</ele></trkpt>
      <trkpt lat="53.510712" lon="12.711549"><ele>67.5</ele></trkpt>
      <trkpt lat="53.510606" lon="12.711495"><ele>68.0</ele></trkpt>
      <trkpt lat="53.510533" lon="12.711445"><ele>68.5</ele></trkpt>
      <trkpt lat="53.510460" lon="12.711381"><ele>69.2</ele></trkpt>
      <trkpt lat="53.510349" lon="12.711258"><ele>69.8</ele></trkpt>
      <trkpt lat="53.510259" lon="12.711128"><ele>70.0</ele></trkpt>
      <trkpt lat="53.510142" lon="12.710911"><ele>71.2</ele></trkpt>
      <trkpt lat="53.510068" lon="12.710732"><ele>71.8</ele></trkpt>
      <trkpt lat="53.510042" lon="12.710652"><ele>71.8</ele></trkpt>
      <trkpt lat="53.509984" lon="12.710474"><ele>72.2</ele></trkpt>
      <trkpt lat="53.509930" lon="12.710249"><ele>73.2</ele></trkpt>
      <trkpt lat="53.509887" lon="12.710002"><ele>73.8</ele></trkpt>
      <trkpt lat="53.509859" lon="12.709747"><ele>74.2</ele></trkpt>
      <trkpt lat="53.509846" lon="12.709504"><ele>75.8</ele></trkpt>
      <trkpt lat="53.509846" lon="12.709248"><ele>77.0</ele></trkpt>
      <trkpt lat="53.509864" lon="12.708892"><ele>78.8</ele></trkpt>
      <trkpt lat="53.509899" lon="12.708477"><ele>80.5</ele></trkpt>
      <trkpt lat="53.509932" lon="12.707970"><ele>82.0</ele></trkpt>
      <trkpt lat="53.509942" lon="12.707674"><ele>82.0</ele></trkpt>
      <trkpt lat="53.509940" lon="12.707503"><ele>82.0</ele></trkpt>
      <trkpt lat="53.509918" lon="12.707127"><ele>82.0</ele></trkpt>
      <trkpt lat="53.509900" lon="12.706893"><ele>81.8</ele></trkpt>
      <trkpt lat="53.509870" lon="12.706634"><ele>81.5</ele></trkpt>
      <trkpt lat="53.509738" lon="12.705743"><ele>80.0</ele></trkpt>
      <trkpt lat="53.509700" lon="12.705417"><ele>80.0</ele></trkpt>
      <trkpt lat="53.509669" lon="12.704953"><ele>80.0</ele></trkpt>
      <trkpt lat="53.509663" lon="12.704705"><ele>80.0</ele></trkpt>
      <trkpt lat="53.509665" lon="12.704359"><ele>80.0</ele></trkpt>
      <trkpt lat="53.509666" lon="12.704184"><ele>80.0</ele></trkpt>
      <trkpt lat="53.509667" lon="12.703980"><ele>80.0</ele></trkpt>
      <trkpt lat="53.509671" lon="12.703077"><ele>80.0</ele></trkpt>
      <trkpt lat="53.509671" lon="12.702482"><ele>80.0</ele></trkpt>
      <trkpt lat="53.509669" lon="12.702355"><ele>80.0</ele></trkpt>
      <trkpt lat="53.509722" lon="12.702328"><ele>80.0</ele></trkpt>
      <trkpt lat="53.509759" lon="12.702274"><ele>80.0</ele></trkpt>
      <trkpt lat="53.509780" lon="12.702196"><ele>80.0</ele></trkpt>
      <trkpt lat="53.509782" lon="12.702148"><ele>80.0</ele></trkpt>
      <trkpt lat="53.509776" lon="12.702086"><ele>80.0</ele></trkpt>
      <trkpt lat="53.509758" lon="12.702031"><ele>80.0</ele></trkpt>
      <trkpt lat="53.509731" lon="12.701987"><ele>80.0</ele></trkpt>
      <trkpt lat="53.509697" lon="12.701959"><ele>80.0</ele></trkpt>
      <trkpt lat="53.509660" lon="12.701951"><ele>80.0</ele></trkpt>
      <trkpt lat="53.509659" lon="12.701810"><ele>80.0</ele></trkpt>
      <trkpt lat="53.509653" lon="12.700914"><ele>80.0</ele></trkpt>
      <trkpt lat="53.509671" lon="12.699588"><ele>80.0</ele></trkpt>
      <trkpt lat="53.509679" lon="12.698938"><ele>80.0</ele></trkpt>
      <trkpt lat="53.509670" lon="12.698535"><ele>79.8</ele></trkpt>
      <trkpt lat="53.509641" lon="12.698144"><ele>78.0</ele></trkpt>
      <trkpt lat="53.509609" lon="12.697924"><ele>77.0</ele></trkpt>
      <trkpt lat="53.509572" lon="12.697725"><ele>76.2</ele></trkpt>
      <trkpt lat="53.509503" lon="12.697432"><ele>75.0</ele></trkpt>
      <trkpt lat="53.509550" lon="12.697403"><ele>74.8</ele></trkpt>
      <trkpt lat="53.509647" lon="12.697359"><ele>74.2</ele></trkpt>
      <trkpt lat="53.509690" lon="12.697329"><ele>74.0</ele></trkpt>
      <trkpt lat="53.509717" lon="12.697271"><ele>74.0</ele></trkpt>
      <trkpt lat="53.509745" lon="12.697006"><ele>73.0</ele></trkpt>
      <trkpt lat="53.509783" lon="12.696463"><ele>72.0</ele></trkpt>
      <trkpt lat="53.509784" lon="12.696411"><ele>72.0</ele></trkpt>
      <trkpt lat="53.509788" lon="12.696045"><ele>71.0</ele></trkpt>
      <trkpt lat="53.509789" lon="12.695965"><ele>71.0</ele></trkpt>
      <trkpt lat="53.509815" lon="12.695604"><ele>70.5</ele></trkpt>
      <trkpt lat="53.509765" lon="12.695531"><ele>70.8</ele></trkpt>
      <trkpt lat="53.509742" lon="12.695529"><ele>70.8</ele></trkpt>
      <trkpt lat="53.509741" lon="12.695487"><ele>70.5</ele></trkpt>
      <trkpt lat="53.509741" lon="12.695417"><ele>70.2</ele></trkpt>
      <trkpt lat="53.509734" lon="12.695387"><ele>70.2</ele></trkpt>
      <trkpt lat="53.509748" lon="12.695347"><ele>70.0</ele></trkpt>
      <trkpt lat="53.509890" lon="12.694707"><ele>68.8</ele></trkpt>
      <trkpt lat="53.509914" lon="12.694638"><ele>68.5</ele></trkpt>
      <trkpt lat="53.509934" lon="12.694565"><ele>68.2</ele></trkpt>
      <trkpt lat="53.510122" lon="12.693884"><ele>67.2</ele></trkpt>
      <trkpt lat="53.510276" lon="12.693337"><ele>66.0</ele></trkpt>
      <trkpt lat="53.510402" lon="12.692914"><ele>65.2</ele></trkpt>
      <trkpt lat="53.510533" lon="12.692462"><ele>64.0</ele></trkpt>
      <trkpt lat="53.510625" lon="12.692149"><ele>64.0</ele></trkpt>
      <trkpt lat="53.510720" lon="12.691824"><ele>64.0</ele></trkpt>
      <trkpt lat="53.510732" lon="12.691752"><ele>64.0</ele></trkpt>
      <trkpt lat="53.510818" lon="12.691718"><ele>64.0</ele></trkpt>
      <trkpt lat="53.510947" lon="12.691630"><ele>63.2</ele></trkpt>
      <trkpt lat="53.511227" lon="12.691452"><ele>62.5</ele></trkpt>
      <trkpt lat="53.511211" lon="12.691377"><ele>62.2</ele></trkpt>
      <trkpt lat="53.511226" lon="12.691320"><ele>62.2</ele></trkpt>
      <trkpt lat="53.511231" lon="12.691122"><ele>62.0</ele></trkpt>
      <trkpt lat="53.511238" lon="12.691081"><ele>62.0</ele></trkpt>
      <trkpt lat="53.511780" lon="12.690664"><ele>62.0</ele></trkpt>
      <trkpt lat="53.512108" lon="12.690417"><ele>62.0</ele></trkpt>
      <trkpt lat="53.512309" lon="12.690263"><ele>62.0</ele></trkpt>
      <trkpt lat="53.512391" lon="12.690200"><ele>62.0</ele></trkpt>
      <trkpt lat="53.512431" lon="12.690152"><ele>62.0</ele></trkpt>
      <trkpt lat="53.512438" lon="12.689942"><ele>62.0</ele></trkpt>
      <trkpt lat="53.512412" lon="12.689791"><ele>62.0</ele></trkpt>
      <trkpt lat="53.512358" lon="12.689553"><ele>62.0</ele></trkpt>
      <trkpt lat="53.512303" lon="12.689317"><ele>62.0</ele></trkpt>
      <trkpt lat="53.512253" lon="12.689109"><ele>62.0</ele></trkpt>
      <trkpt lat="53.512205" lon="12.688917"><ele>62.0</ele></trkpt>
      <trkpt lat="53.512149" lon="12.688726"><ele>62.0</ele></trkpt>
      <trkpt lat="53.512102" lon="12.688565"><ele>62.0</ele></trkpt>
      <trkpt lat="53.512033" lon="12.688332"><ele>62.0</ele></trkpt>
      <trkpt lat="53.512030" lon="12.688231"><ele>62.0</ele></trkpt>
      <trkpt lat="53.512039" lon="12.688147"><ele>62.0</ele></trkpt>
      <trkpt lat="53.512069" lon="12.688013"><ele>62.2</ele></trkpt>
      <trkpt lat="53.512085" lon="12.687955"><ele>62.5</ele></trkpt>
      <trkpt lat="53.512116" lon="12.687840"><ele>62.5</ele></trkpt>
      <trkpt lat="53.512134" lon="12.687790"><ele>62.5</ele></trkpt>
      <trkpt lat="53.512171" lon="12.687577"><ele>62.8</ele></trkpt>
      <trkpt lat="53.512173" lon="12.687144"><ele>63.8</ele></trkpt>
      <trkpt lat="53.512180" lon="12.686988"><ele>63.8</ele></trkpt>
      <trkpt lat="53.512203" lon="12.686733"><ele>63.8</ele></trkpt>
      <trkpt lat="53.512245" lon="12.686407"><ele>64.0</ele></trkpt>
      <trkpt lat="53.512312" lon="12.686031"><ele>64.2</ele></trkpt>
      <trkpt lat="53.512361" lon="12.685820"><ele>63.8</ele></trkpt>
      <trkpt lat="53.512449" lon="12.685497"><ele>63.5</ele></trkpt>
      <trkpt lat="53.512495" lon="12.685354"><ele>63.2</ele></trkpt>
      <trkpt lat="53.512653" lon="12.684955"><ele>64.2</ele></trkpt>
      <trkpt lat="53.512855" lon="12.684615"><ele>64.5</ele></trkpt>
      <trkpt lat="53.513033" lon="12.684386"><ele>64.2</ele></trkpt>
      <trkpt lat="53.513178" lon="12.684239"><ele>64.0</ele></trkpt>
      <trkpt lat="53.513257" lon="12.684191"><ele>63.8</ele></trkpt>
      <trkpt lat="53.513322" lon="12.684130"><ele>63.8</ele></trkpt>
      <trkpt lat="53.513379" lon="12.684074"><ele>63.5</ele></trkpt>
      <trkpt lat="53.513598" lon="12.683813"><ele>62.5</ele></trkpt>
      <trkpt lat="53.513843" lon="12.683605"><ele>62.8</ele></trkpt>
      <trkpt lat="53.513876" lon="12.683573"><ele>62.8</ele></trkpt>
      <trkpt lat="53.513934" lon="12.683518"><ele>62.5</ele></trkpt>
      <trkpt lat="53.514119" lon="12.683045"><ele>61.8</ele></trkpt>
      <trkpt lat="53.514161" lon="12.682969"><ele>62.0</ele></trkpt>
      <trkpt lat="53.514197" lon="12.682929"><ele>62.0</ele></trkpt>
      <trkpt lat="53.514299" lon="12.682860"><ele>62.0</ele></trkpt>
      <trkpt lat="53.514335" lon="12.682813"><ele>62.0</ele></trkpt>
      <trkpt lat="53.514362" lon="12.682754"><ele>62.0</ele></trkpt>
      <trkpt lat="53.514376" lon="12.682692"><ele>62.0</ele></trkpt>
      <trkpt lat="53.514378" lon="12.682627"><ele>62.0</ele></trkpt>
      <trkpt lat="53.514348" lon="12.681994"><ele>62.0</ele></trkpt>
      <trkpt lat="53.514327" lon="12.681665"><ele>62.0</ele></trkpt>
      <trkpt lat="53.514370" lon="12.681644"><ele>62.0</ele></trkpt>
      <trkpt lat="53.514436" lon="12.681613"><ele>62.0</ele></trkpt>
      <trkpt lat="53.514660" lon="12.681520"><ele>62.0</ele></trkpt>
      <trkpt lat="53.514785" lon="12.681469"><ele>62.0</ele></trkpt>
      <trkpt lat="53.515062" lon="12.681357"><ele>62.0</ele></trkpt>
      <trkpt lat="53.515108" lon="12.681341"><ele>62.0</ele></trkpt>
      <trkpt lat="53.515149" lon="12.681323"><ele>62.0</ele></trkpt>
      <trkpt lat="53.515308" lon="12.681253"><ele>62.0</ele></trkpt>
      <trkpt lat="53.515440" lon="12.681195"><ele>62.0</ele></trkpt>
      <trkpt lat="53.515729" lon="12.681073"><ele>62.0</ele></trkpt>
      <trkpt lat="53.515912" lon="12.680996"><ele>62.0</ele></trkpt>
      <trkpt lat="53.515931" lon="12.680988"><ele>62.0</ele></trkpt>
      <trkpt lat="53.515970" lon="12.680972"><ele>62.0</ele></trkpt>
      <trkpt lat="53.516044" lon="12.680942"><ele>62.0</ele></trkpt>
      <trkpt lat="53.516307" lon="12.680844"><ele>62.0</ele></trkpt>
      <trkpt lat="53.516446" lon="12.680788"><ele>62.0</ele></trkpt>
      <trkpt lat="53.516526" lon="12.680749"><ele>62.0</ele></trkpt>
      <trkpt lat="53.516622" lon="12.680673"><ele>62.0</ele></trkpt>
      <trkpt lat="53.516678" lon="12.680643"><ele>62.0</ele></trkpt>
      <trkpt lat="53.516665" lon="12.680523"><ele>62.0</ele></trkpt>
      <trkpt lat="53.516627" lon="12.680218"><ele>62.0</ele></trkpt>
      <trkpt lat="53.516654" lon="12.680206"><ele>62.0</ele></trkpt>
      <trkpt lat="53.516689" lon="12.680191"><ele>62.0</ele></trkpt>
      <trkpt lat="53.516789" lon="12.680147"><ele>62.0</ele></trkpt>
    </trkseg>
  </trk>
</gpx>
