<?xml version="1.0" encoding="UTF-8"?>
<gpx version="1.1" creator="Gravel Kompass" xmlns="http://www.topografix.com/GPX/1/1">
  <metadata><name>Seenplatten-Runde: Müritz, Mecklenburgische Schweiz &amp; Heide – Etappe 3</name></metadata>
  <trk>
    <name>Etappe 3: Teterow – Krakow am See</name>
    <trkseg>
      <trkpt lat="53.775124" lon="12.574983"><ele>6.8</ele></trkpt>
      <trkpt lat="53.775122" lon="12.574935"><ele>7.0</ele></trkpt>
      <trkpt lat="53.775094" lon="12.574707"><ele>7.0</ele></trkpt>
      <trkpt lat="53.775049" lon="12.574468"><ele>7.0</ele></trkpt>
      <trkpt lat="53.774958" lon="12.574155"><ele>7.0</ele></trkpt>
      <trkpt lat="53.774998" lon="12.574130"><ele>7.0</ele></trkpt>
      <trkpt lat="53.775052" lon="12.574095"><ele>7.2</ele></trkpt>
      <trkpt lat="53.775281" lon="12.573947"><ele>7.8</ele></trkpt>
      <trkpt lat="53.775417" lon="12.573909"><ele>7.2</ele></trkpt>
      <trkpt lat="53.775505" lon="12.573959"><ele>7.0</ele></trkpt>
      <trkpt lat="53.775593" lon="12.573975"><ele>7.0</ele></trkpt>
      <trkpt lat="53.775665" lon="12.573960"><ele>7.0</ele></trkpt>
      <trkpt lat="53.775762" lon="12.573951"><ele>6.8</ele></trkpt>
      <trkpt lat="53.775741" lon="12.573750"><ele>7.5</ele></trkpt>
      <trkpt lat="53.775514" lon="12.572909"><ele>8.5</ele></trkpt>
      <trkpt lat="53.775570" lon="12.572741"><ele>8.8</ele></trkpt>
      <trkpt lat="53.775728" lon="12.572357"><ele>9.0</ele></trkpt>
      <trkpt lat="53.775792" lon="12.572065"><ele>9.0</ele></trkpt>
      <trkpt lat="53.775840" lon="12.572031"><ele>9.0</ele></trkpt>
      <trkpt lat="53.776117" lon="12.571426"><ele>9.8</ele></trkpt>
      <trkpt lat="53.775999" lon="12.571258"><ele>10.2</ele></trkpt>
      <trkpt lat="53.775497" lon="12.570651"><ele>11.5</ele></trkpt>
      <trkpt lat="53.775312" lon="12.570277"><ele>12.0</ele></trkpt>
      <trkpt lat="53.775258" lon="12.570102"><ele>11.8</ele></trkpt>
      <trkpt lat="53.775026" lon="12.569406"><ele>12.0</ele></trkpt>
      <trkpt lat="53.774967" lon="12.569274"><ele>12.5</ele></trkpt>
      <trkpt lat="53.774911" lon="12.569146"><ele>12.5</ele></trkpt>
      <trkpt lat="53.774794" lon="12.568917"><ele>12.2</ele></trkpt>
      <trkpt lat="53.774742" lon="12.568823"><ele>12.2</ele></trkpt>
      <trkpt lat="53.774663" lon="12.568694"><ele>12.2</ele></trkpt>
      <trkpt lat="53.774562" lon="12.568541"><ele>12.5</ele></trkpt>
      <trkpt lat="53.774422" lon="12.568300"><ele>11.8</ele></trkpt>
      <trkpt lat="53.774358" lon="12.568183"><ele>11.8</ele></trkpt>
      <trkpt lat="53.774281" lon="12.568038"><ele>11.8</ele></trkpt>
      <trkpt lat="53.774118" lon="12.567778"><ele>11.5</ele></trkpt>
      <trkpt lat="53.773500" lon="12.566728"><ele>13.2</ele></trkpt>
      <trkpt lat="53.773089" lon="12.566032"><ele>14.2</ele></trkpt>
      <trkpt lat="53.772854" lon="12.565650"><ele>14.0</ele></trkpt>
      <trkpt lat="53.772547" lon="12.564941"><ele>14.5</ele></trkpt>
      <trkpt lat="53.772206" lon="12.564323"><ele>13.2</ele></trkpt>
      <trkpt lat="53.772167" lon="12.564253"><ele>13.2</ele></trkpt>
      <trkpt lat="53.771787" lon="12.563555"><ele>12.8</ele></trkpt>
      <trkpt lat="53.771637" lon="12.563327"><ele>12.8</ele></trkpt>
      <trkpt lat="53.771371" lon="12.563002"><ele>13.2</ele></trkpt>
      <trkpt lat="53.770655" lon="12.562113"><ele>14.2</ele></trkpt>
      <trkpt lat="53.770483" lon="12.561893"><ele>13.8</ele></trkpt>
      <trkpt lat="53.770033" lon="12.561262"><ele>12.5</ele></trkpt>
      <trkpt lat="53.769749" lon="12.560846"><ele>11.0</ele></trkpt>
      <trkpt lat="53.769650" lon="12.560714"><ele>10.5</ele></trkpt>
      <trkpt lat="53.769568" lon="12.560550"><ele>10.2</ele></trkpt>
      <trkpt lat="53.769556" lon="12.560507"><ele>10.2</ele></trkpt>
      <trkpt lat="53.769475" lon="12.560176"><ele>10.0</ele></trkpt>
      <trkpt lat="53.769217" lon="12.558922"><ele>12.0</ele></trkpt>
      <trkpt lat="53.768965" lon="12.558089"><ele>12.2</ele></trkpt>
      <trkpt lat="53.768522" lon="12.556869"><ele>10.8</ele></trkpt>
      <trkpt lat="53.768296" lon="12.556251"><ele>10.2</ele></trkpt>
      <trkpt lat="53.768279" lon="12.556204"><ele>10.5</ele></trkpt>
      <trkpt lat="53.768262" lon="12.556175"><ele>10.5</ele></trkpt>
      <trkpt lat="53.767635" lon="12.555118"><ele>10.2</ele></trkpt>
      <trkpt lat="53.767543" lon="12.554946"><ele>10.2</ele></trkpt>
      <trkpt lat="53.767197" lon="12.554304"><ele>11.2</ele></trkpt>
      <trkpt lat="53.766512" lon="12.553031"><ele>12.5</ele></trkpt>
      <trkpt lat="53.766272" lon="12.552251"><ele>13.0</ele></trkpt>
      <trkpt lat="53.766578" lon="12.549949"><ele>19.8</ele></trkpt>
      <trkpt lat="53.766616" lon="12.548983"><ele>25.5</ele></trkpt>
      <trkpt lat="53.766319" lon="12.547061"><ele>36.2</ele></trkpt>
      <trkpt lat="53.766265" lon="12.545797"><ele>44.5</ele></trkpt>
      <trkpt lat="53.765326" lon="12.543341"><ele>50.0</ele></trkpt>
      <trkpt lat="53.764527" lon="12.541633"><ele>51.2</ele></trkpt>
      <trkpt lat="53.763131" lon="12.539176"><ele>52.8</ele></trkpt>
      <trkpt lat="53.762316" lon="12.537965"><ele>54.2</ele></trkpt>
      <trkpt lat="53.762166" lon="12.537687"><ele>54.2</ele></trkpt>
      <trkpt lat="53.762075" lon="12.537327"><ele>55.5</ele></trkpt>
      <trkpt lat="53.761871" lon="12.537218"><ele>55.5</ele></trkpt>
      <trkpt lat="53.761652" lon="12.537272"><ele>55.0</ele></trkpt>
      <trkpt lat="53.761777" lon="12.537071"><ele>55.5</ele></trkpt>
      <trkpt lat="53.762032" lon="12.536469"><ele>57.0</ele></trkpt>
      <trkpt lat="53.762062" lon="12.536198"><ele>57.8</ele></trkpt>
      <trkpt lat="53.762341" lon="12.535511"><ele>58.5</ele></trkpt>
      <trkpt lat="53.762618" lon="12.534933"><ele>57.5</ele></trkpt>
      <trkpt lat="53.762721" lon="12.534717"><ele>57.0</ele></trkpt>
      <trkpt lat="53.762781" lon="12.534360"><ele>57.0</ele></trkpt>
      <trkpt lat="53.762886" lon="12.533730"><ele>57.0</ele></trkpt>
      <trkpt lat="53.762931" lon="12.532550"><ele>57.5</ele></trkpt>
      <trkpt lat="53.762937" lon="12.532379"><ele>57.2</ele></trkpt>
      <trkpt lat="53.762797" lon="12.529782"><ele>57.0</ele></trkpt>
      <trkpt lat="53.762774" lon="12.528410"><ele>58.0</ele></trkpt>
      <trkpt lat="53.762772" lon="12.528280"><ele>57.8</ele></trkpt>
      <trkpt lat="53.762950" lon="12.527272"><ele>55.0</ele></trkpt>
      <trkpt lat="53.763292" lon="12.526156"><ele>55.0</ele></trkpt>
      <trkpt lat="53.764028" lon="12.524804"><ele>53.0</ele></trkpt>
      <trkpt lat="53.764383" lon="12.524375"><ele>54.0</ele></trkpt>
      <trkpt lat="53.764538" lon="12.523632"><ele>53.2</ele></trkpt>
      <trkpt lat="53.764675" lon="12.522980"><ele>52.0</ele></trkpt>
      <trkpt lat="53.765245" lon="12.522293"><ele>50.0</ele></trkpt>
      <trkpt lat="53.765575" lon="12.520791"><ele>47.5</ele></trkpt>
      <trkpt lat="53.764827" lon="12.519869"><ele>51.0</ele></trkpt>
      <trkpt lat="53.764040" lon="12.518710"><ele>51.0</ele></trkpt>
      <trkpt lat="53.763127" lon="12.517530"><ele>47.2</ele></trkpt>
      <trkpt lat="53.762024" lon="12.516006"><ele>41.2</ele></trkpt>
      <trkpt lat="53.762303" lon="12.515341"><ele>40.8</ele></trkpt>
      <trkpt lat="53.762518" lon="12.515084"><ele>40.5</ele></trkpt>
      <trkpt lat="53.762374" lon="12.514779"><ele>40.0</ele></trkpt>
      <trkpt lat="53.762191" lon="12.514394"><ele>40.0</ele></trkpt>
      <trkpt lat="53.761188" lon="12.511968"><ele>48.0</ele></trkpt>
      <trkpt lat="53.760617" lon="12.510649"><ele>49.8</ele></trkpt>
      <trkpt lat="53.760554" lon="12.510434"><ele>49.8</ele></trkpt>
      <trkpt lat="53.760624" lon="12.510402"><ele>49.8</ele></trkpt>
      <trkpt lat="53.761514" lon="12.508179"><ele>49.5</ele></trkpt>
      <trkpt lat="53.762083" lon="12.506722"><ele>49.8</ele></trkpt>
      <trkpt lat="53.761543" lon="12.505359"><ele>48.0</ele></trkpt>
      <trkpt lat="53.761169" lon="12.504533"><ele>47.0</ele></trkpt>
      <trkpt lat="53.760976" lon="12.503943"><ele>47.0</ele></trkpt>
      <trkpt lat="53.760319" lon="12.501937"><ele>47.0</ele></trkpt>
      <trkpt lat="53.760275" lon="12.501583"><ele>47.0</ele></trkpt>
      <trkpt lat="53.760283" lon="12.500477"><ele>47.0</ele></trkpt>
      <trkpt lat="53.760256" lon="12.500469"><ele>47.0</ele></trkpt>
      <trkpt lat="53.760246" lon="12.500450"><ele>47.0</ele></trkpt>
      <trkpt lat="53.760240" lon="12.500291"><ele>47.0</ele></trkpt>
      <trkpt lat="53.760225" lon="12.500258"><ele>47.0</ele></trkpt>
      <trkpt lat="53.760211" lon="12.500238"><ele>47.0</ele></trkpt>
      <trkpt lat="53.760109" lon="12.500209"><ele>47.0</ele></trkpt>
      <trkpt lat="53.759728" lon="12.500197"><ele>47.0</ele></trkpt>
      <trkpt lat="53.759114" lon="12.500185"><ele>47.0</ele></trkpt>
      <trkpt lat="53.758981" lon="12.500175"><ele>47.0</ele></trkpt>
      <trkpt lat="53.758840" lon="12.500115"><ele>47.0</ele></trkpt>
      <trkpt lat="53.758669" lon="12.500005"><ele>47.0</ele></trkpt>
      <trkpt lat="53.758435" lon="12.499662"><ele>47.8</ele></trkpt>
      <trkpt lat="53.758236" lon="12.499437"><ele>47.0</ele></trkpt>
      <trkpt lat="53.758043" lon="12.499262"><ele>47.0</ele></trkpt>
      <trkpt lat="53.757628" lon="12.498948"><ele>47.0</ele></trkpt>
      <trkpt lat="53.757450" lon="12.498803"><ele>47.0</ele></trkpt>
      <trkpt lat="53.757395" lon="12.498788"><ele>47.2</ele></trkpt>
      <trkpt lat="53.757318" lon="12.498766"><ele>47.5</ele></trkpt>
      <trkpt lat="53.755760" lon="12.497564"><ele>51.5</ele></trkpt>
      <trkpt lat="53.755704" lon="12.497494"><ele>51.5</ele></trkpt>
      <trkpt lat="53.755544" lon="12.497250"><ele>50.8</ele></trkpt>
      <trkpt lat="53.755554" lon="12.497224"><ele>50.8</ele></trkpt>
      <trkpt lat="53.755485" lon="12.497138"><ele>50.5</ele></trkpt>
      <trkpt lat="53.755451" lon="12.497081"><ele>50.5</ele></trkpt>
      <trkpt lat="53.754723" lon="12.496227"><ele>50.0</ele></trkpt>
      <trkpt lat="53.754643" lon="12.496107"><ele>50.0</ele></trkpt>
      <trkpt lat="53.753913" lon="12.494989"><ele>51.0</ele></trkpt>
      <trkpt lat="53.753860" lon="12.494908"><ele>51.2</ele></trkpt>
      <trkpt lat="53.753556" lon="12.494422"><ele>51.0</ele></trkpt>
      <trkpt lat="53.753258" lon="12.493948"><ele>51.0</ele></trkpt>
      <trkpt lat="53.752758" lon="12.493192"><ele>49.0</ele></trkpt>
      <trkpt lat="53.752782" lon="12.493122"><ele>49.0</ele></trkpt>
      <trkpt lat="53.753073" lon="12.492291"><ele>48.2</ele></trkpt>
      <trkpt lat="53.753154" lon="12.492014"><ele>48.0</ele></trkpt>
      <trkpt lat="53.753197" lon="12.491861"><ele>48.0</ele></trkpt>
      <trkpt lat="53.753234" lon="12.491641"><ele>47.8</ele></trkpt>
      <trkpt lat="53.753233" lon="12.491509"><ele>47.2</ele></trkpt>
      <trkpt lat="53.753224" lon="12.491378"><ele>47.0</ele></trkpt>
      <trkpt lat="53.753075" lon="12.489693"><ele>46.0</ele></trkpt>
      <trkpt lat="53.753060" lon="12.489522"><ele>46.0</ele></trkpt>
      <trkpt lat="53.752919" lon="12.488010"><ele>45.0</ele></trkpt>
      <trkpt lat="53.752907" lon="12.487621"><ele>44.5</ele></trkpt>
      <trkpt lat="53.752926" lon="12.487246"><ele>44.5</ele></trkpt>
      <trkpt lat="53.753014" lon="12.486386"><ele>43.8</ele></trkpt>
      <trkpt lat="53.753252" lon="12.484220"><ele>44.2</ele></trkpt>
      <trkpt lat="53.753544" lon="12.482651"><ele>39.5</ele></trkpt>
      <trkpt lat="53.753608" lon="12.482388"><ele>39.0</ele></trkpt>
      <trkpt lat="53.753731" lon="12.482073"><ele>39.0</ele></trkpt>
      <trkpt lat="53.755120" lon="12.478894"><ele>34.0</ele></trkpt>
      <trkpt lat="53.755590" lon="12.477741"><ele>35.0</ele></trkpt>
      <trkpt lat="53.755672" lon="12.477511"><ele>35.0</ele></trkpt>
      <trkpt lat="53.755707" lon="12.477384"><ele>35.0</ele></trkpt>
      <trkpt lat="53.755807" lon="12.477030"><ele>34.2</ele></trkpt>
      <trkpt lat="53.755826" lon="12.476909"><ele>34.0</ele></trkpt>
      <trkpt lat="53.755879" lon="12.476917"><ele>34.0</ele></trkpt>
      <trkpt lat="53.755955" lon="12.476991"><ele>34.5</ele></trkpt>
      <trkpt lat="53.756141" lon="12.477173"><ele>35.0</ele></trkpt>
      <trkpt lat="53.756295" lon="12.477324"><ele>35.8</ele></trkpt>
      <trkpt lat="53.756408" lon="12.477421"><ele>36.0</ele></trkpt>
      <trkpt lat="53.756438" lon="12.477427"><ele>36.0</ele></trkpt>
      <trkpt lat="53.756468" lon="12.477434"><ele>36.0</ele></trkpt>
      <trkpt lat="53.756644" lon="12.477408"><ele>36.5</ele></trkpt>
      <trkpt lat="53.756683" lon="12.477403"><ele>36.5</ele></trkpt>
      <trkpt lat="53.756867" lon="12.477378"><ele>36.5</ele></trkpt>
      <trkpt lat="53.757168" lon="12.477337"><ele>36.2</ele></trkpt>
      <trkpt lat="53.757357" lon="12.477323"><ele>36.0</ele></trkpt>
      <trkpt lat="53.757883" lon="12.477387"><ele>35.5</ele></trkpt>
      <trkpt lat="53.757957" lon="12.477338"><ele>35.2</ele></trkpt>
      <trkpt lat="53.758032" lon="12.477203"><ele>35.0</ele></trkpt>
      <trkpt lat="53.758453" lon="12.476162"><ele>35.0</ele></trkpt>
      <trkpt lat="53.758528" lon="12.476021"><ele>34.8</ele></trkpt>
      <trkpt lat="53.758571" lon="12.475969"><ele>34.8</ele></trkpt>
      <trkpt lat="53.758618" lon="12.475933"><ele>35.0</ele></trkpt>
      <trkpt lat="53.758712" lon="12.475908"><ele>35.0</ele></trkpt>
      <trkpt lat="53.758818" lon="12.475900"><ele>35.0</ele></trkpt>
      <trkpt lat="53.758986" lon="12.475856"><ele>35.2</ele></trkpt>
      <trkpt lat="53.759118" lon="12.475826"><ele>35.8</ele></trkpt>
      <trkpt lat="53.759172" lon="12.475835"><ele>36.0</ele></trkpt>
      <trkpt lat="53.759397" lon="12.475648"><ele>35.2</ele></trkpt>
      <trkpt lat="53.760065" lon="12.474978"><ele>35.0</ele></trkpt>
      <trkpt lat="53.762235" lon="12.472841"><ele>34.5</ele></trkpt>
      <trkpt lat="53.762812" lon="12.472090"><ele>31.2</ele></trkpt>
      <trkpt lat="53.762960" lon="12.471911"><ele>30.5</ele></trkpt>
      <trkpt lat="53.762071" lon="12.469190"><ele>34.5</ele></trkpt>
      <trkpt lat="53.761873" lon="12.468517"><ele>34.8</ele></trkpt>
      <trkpt lat="53.761826" lon="12.468287"><ele>35.2</ele></trkpt>
      <trkpt lat="53.761795" lon="12.468023"><ele>35.5</ele></trkpt>
      <trkpt lat="53.761775" lon="12.467763"><ele>35.0</ele></trkpt>
      <trkpt lat="53.761685" lon="12.465969"><ele>33.2</ele></trkpt>
      <trkpt lat="53.761659" lon="12.464714"><ele>32.0</ele></trkpt>
      <trkpt lat="53.761583" lon="12.463304"><ele>31.2</ele></trkpt>
      <trkpt lat="53.761502" lon="12.461697"><ele>29.5</ele></trkpt>
      <trkpt lat="53.761506" lon="12.461654"><ele>29.5</ele></trkpt>
      <trkpt lat="53.761533" lon="12.461585"><ele>29.2</ele></trkpt>
      <trkpt lat="53.761537" lon="12.461537"><ele>29.0</ele></trkpt>
      <trkpt lat="53.761499" lon="12.459894"><ele>30.0</ele></trkpt>
      <trkpt lat="53.761457" lon="12.459152"><ele>29.0</ele></trkpt>
      <trkpt lat="53.761270" lon="12.458112"><ele>29.2</ele></trkpt>
      <trkpt lat="53.761208" lon="12.456638"><ele>29.0</ele></trkpt>
      <trkpt lat="53.761235" lon="12.456427"><ele>29.0</ele></trkpt>
      <trkpt lat="53.761256" lon="12.456133"><ele>29.0</ele></trkpt>
      <trkpt lat="53.761242" lon="12.455312"><ele>29.2</ele></trkpt>
      <trkpt lat="53.761188" lon="12.454094"><ele>33.8</ele></trkpt>
      <trkpt lat="53.760335" lon="12.436684"><ele>27.8</ele></trkpt>
      <trkpt lat="53.760240" lon="12.435028"><ele>30.0</ele></trkpt>
      <trkpt lat="53.760211" lon="12.434442"><ele>31.0</ele></trkpt>
      <trkpt lat="53.760207" lon="12.434006"><ele>31.0</ele></trkpt>
      <trkpt lat="53.760197" lon="12.433644"><ele>31.2</ele></trkpt>
      <trkpt lat="53.760199" lon="12.433102"><ele>31.2</ele></trkpt>
      <trkpt lat="53.760186" lon="12.432974"><ele>31.2</ele></trkpt>
      <trkpt lat="53.760178" lon="12.432881"><ele>31.2</ele></trkpt>
      <trkpt lat="53.760250" lon="12.431487"><ele>31.0</ele></trkpt>
      <trkpt lat="53.760306" lon="12.430447"><ele>29.8</ele></trkpt>
      <trkpt lat="53.760331" lon="12.430323"><ele>29.8</ele></trkpt>
      <trkpt lat="53.760357" lon="12.429844"><ele>28.8</ele></trkpt>
      <trkpt lat="53.760921" lon="12.419359"><ele>35.0</ele></trkpt>
      <trkpt lat="53.761080" lon="12.416503"><ele>33.0</ele></trkpt>
      <trkpt lat="53.761109" lon="12.415985"><ele>32.0</ele></trkpt>
      <trkpt lat="53.761188" lon="12.414520"><ele>32.0</ele></trkpt>
      <trkpt lat="53.761239" lon="12.413391"><ele>33.0</ele></trkpt>
      <trkpt lat="53.761230" lon="12.413261"><ele>33.0</ele></trkpt>
      <trkpt lat="53.761248" lon="12.412960"><ele>33.0</ele></trkpt>
      <trkpt lat="53.761268" lon="12.412848"><ele>33.0</ele></trkpt>
      <trkpt lat="53.761327" lon="12.411692"><ele>34.0</ele></trkpt>
      <trkpt lat="53.761294" lon="12.411291"><ele>33.8</ele></trkpt>
      <trkpt lat="53.761317" lon="12.410777"><ele>33.0</ele></trkpt>
      <trkpt lat="53.761382" lon="12.410704"><ele>33.0</ele></trkpt>
      <trkpt lat="53.761423" lon="12.409831"><ele>32.2</ele></trkpt>
      <trkpt lat="53.761430" lon="12.409688"><ele>32.0</ele></trkpt>
      <trkpt lat="53.761387" lon="12.409412"><ele>32.0</ele></trkpt>
      <trkpt lat="53.761534" lon="12.406739"><ele>30.0</ele></trkpt>
      <trkpt lat="53.761570" lon="12.405824"><ele>30.0</ele></trkpt>
      <trkpt lat="53.761599" lon="12.405701"><ele>30.0</ele></trkpt>
      <trkpt lat="53.761609" lon="12.405553"><ele>30.0</ele></trkpt>
      <trkpt lat="53.761590" lon="12.405308"><ele>30.0</ele></trkpt>
      <trkpt lat="53.760844" lon="12.398138"><ele>32.0</ele></trkpt>
      <trkpt lat="53.760839" lon="12.397991"><ele>32.2</ele></trkpt>
      <trkpt lat="53.760835" lon="12.397874"><ele>32.5</ele></trkpt>
      <trkpt lat="53.760881" lon="12.397793"><ele>33.0</ele></trkpt>
      <trkpt lat="53.760830" lon="12.397262"><ele>32.8</ele></trkpt>
      <trkpt lat="53.760826" lon="12.397226"><ele>32.8</ele></trkpt>
      <trkpt lat="53.760769" lon="12.397211"><ele>32.8</ele></trkpt>
      <trkpt lat="53.760742" lon="12.397067"><ele>32.5</ele></trkpt>
      <trkpt lat="53.760733" lon="12.397022"><ele>32.5</ele></trkpt>
      <trkpt lat="53.760656" lon="12.396321"><ele>33.0</ele></trkpt>
      <trkpt lat="53.760622" lon="12.396141"><ele>32.8</ele></trkpt>
      <trkpt lat="53.760554" lon="12.395541"><ele>33.8</ele></trkpt>
      <trkpt lat="53.760540" lon="12.395241"><ele>33.8</ele></trkpt>
      <trkpt lat="53.760162" lon="12.391622"><ele>40.5</ele></trkpt>
      <trkpt lat="53.760146" lon="12.391505"><ele>40.5</ele></trkpt>
      <trkpt lat="53.760108" lon="12.391307"><ele>40.2</ele></trkpt>
      <trkpt lat="53.760057" lon="12.391165"><ele>40.0</ele></trkpt>
      <trkpt lat="53.759972" lon="12.390349"><ele>40.0</ele></trkpt>
      <trkpt lat="53.759895" lon="12.389708"><ele>40.0</ele></trkpt>
      <trkpt lat="53.759848" lon="12.389314"><ele>39.8</ele></trkpt>
      <trkpt lat="53.759614" lon="12.387040"><ele>35.8</ele></trkpt>
      <trkpt lat="53.759616" lon="12.386968"><ele>35.5</ele></trkpt>
      <trkpt lat="53.759606" lon="12.386883"><ele>35.5</ele></trkpt>
      <trkpt lat="53.759593" lon="12.386770"><ele>35.5</ele></trkpt>
      <trkpt lat="53.759630" lon="12.386685"><ele>35.5</ele></trkpt>
      <trkpt lat="53.759633" lon="12.386631"><ele>35.5</ele></trkpt>
      <trkpt lat="53.759552" lon="12.385637"><ele>33.8</ele></trkpt>
      <trkpt lat="53.759428" lon="12.384446"><ele>32.8</ele></trkpt>
      <trkpt lat="53.759006" lon="12.380601"><ele>29.5</ele></trkpt>
      <trkpt lat="53.758980" lon="12.380154"><ele>29.5</ele></trkpt>
      <trkpt lat="53.758993" lon="12.379750"><ele>29.8</ele></trkpt>
      <trkpt lat="53.759099" lon="12.379070"><ele>30.0</ele></trkpt>
      <trkpt lat="53.759259" lon="12.378212"><ele>30.0</ele></trkpt>
      <trkpt lat="53.759271" lon="12.378108"><ele>30.0</ele></trkpt>
      <trkpt lat="53.759266" lon="12.378005"><ele>30.0</ele></trkpt>
      <trkpt lat="53.759233" lon="12.377919"><ele>30.0</ele></trkpt>
      <trkpt lat="53.759252" lon="12.377840"><ele>30.0</ele></trkpt>
      <trkpt lat="53.759270" lon="12.377736"><ele>30.0</ele></trkpt>
      <trkpt lat="53.759338" lon="12.377551"><ele>30.0</ele></trkpt>
      <trkpt lat="53.759468" lon="12.377000"><ele>29.8</ele></trkpt>
      <trkpt lat="53.759691" lon="12.376126"><ele>30.0</ele></trkpt>
      <trkpt lat="53.760871" lon="12.369929"><ele>27.0</ele></trkpt>
      <trkpt lat="53.761350" lon="12.367444"><ele>27.0</ele></trkpt>
      <trkpt lat="53.762861" lon="12.359420"><ele>33.0</ele></trkpt>
      <trkpt lat="53.763154" lon="12.357895"><ele>34.0</ele></trkpt>
      <trkpt lat="53.763366" lon="12.356908"><ele>35.0</ele></trkpt>
      <trkpt lat="53.763698" lon="12.355044"><ele>37.0</ele></trkpt>
      <trkpt lat="53.763948" lon="12.353718"><ele>36.0</ele></trkpt>
      <trkpt lat="53.764218" lon="12.352373"><ele>37.2</ele></trkpt>
      <trkpt lat="53.764283" lon="12.352034"><ele>37.8</ele></trkpt>
      <trkpt lat="53.764345" lon="12.352066"><ele>37.5</ele></trkpt>
      <trkpt lat="53.764361" lon="12.351986"><ele>37.8</ele></trkpt>
      <trkpt lat="53.764386" lon="12.351854"><ele>38.2</ele></trkpt>
      <trkpt lat="53.764431" lon="12.351613"><ele>39.0</ele></trkpt>
      <trkpt lat="53.764553" lon="12.350974"><ele>40.0</ele></trkpt>
      <trkpt lat="53.764567" lon="12.350898"><ele>40.0</ele></trkpt>
      <trkpt lat="53.764525" lon="12.350872"><ele>40.0</ele></trkpt>
      <trkpt lat="53.764640" lon="12.350246"><ele>40.5</ele></trkpt>
      <trkpt lat="53.764798" lon="12.349454"><ele>41.2</ele></trkpt>
      <trkpt lat="53.764991" lon="12.348562"><ele>39.8</ele></trkpt>
      <trkpt lat="53.764993" lon="12.348453"><ele>39.2</ele></trkpt>
      <trkpt lat="53.765096" lon="12.347808"><ele>36.2</ele></trkpt>
      <trkpt lat="53.765264" lon="12.347101"><ele>34.0</ele></trkpt>
      <trkpt lat="53.765306" lon="12.346857"><ele>34.0</ele></trkpt>
      <trkpt lat="53.765528" lon="12.345575"><ele>33.0</ele></trkpt>
      <trkpt lat="53.765642" lon="12.344971"><ele>33.0</ele></trkpt>
      <trkpt lat="53.765915" lon="12.344057"><ele>33.0</ele></trkpt>
      <trkpt lat="53.765936" lon="12.343978"><ele>33.0</ele></trkpt>
      <trkpt lat="53.766248" lon="12.342544"><ele>34.0</ele></trkpt>
      <trkpt lat="53.766265" lon="12.342484"><ele>34.0</ele></trkpt>
      <trkpt lat="53.766354" lon="12.342269"><ele>34.0</ele></trkpt>
      <trkpt lat="53.766879" lon="12.341305"><ele>33.0</ele></trkpt>
      <trkpt lat="53.767313" lon="12.340748"><ele>33.0</ele></trkpt>
      <trkpt lat="53.767339" lon="12.340746"><ele>33.0</ele></trkpt>
      <trkpt lat="53.767363" lon="12.340757"><ele>33.0</ele></trkpt>
      <trkpt lat="53.767410" lon="12.340827"><ele>33.0</ele></trkpt>
      <trkpt lat="53.767430" lon="12.340843"><ele>32.8</ele></trkpt>
      <trkpt lat="53.767460" lon="12.340834"><ele>32.8</ele></trkpt>
      <trkpt lat="53.767561" lon="12.340718"><ele>33.0</ele></trkpt>
      <trkpt lat="53.768399" lon="12.339811"><ele>34.5</ele></trkpt>
      <trkpt lat="53.768509" lon="12.339710"><ele>34.2</ele></trkpt>
      <trkpt lat="53.769478" lon="12.338671"><ele>40.8</ele></trkpt>
      <trkpt lat="53.769705" lon="12.338422"><ele>42.5</ele></trkpt>
      <trkpt lat="53.769781" lon="12.338263"><ele>43.5</ele></trkpt>
      <trkpt lat="53.769852" lon="12.338254"><ele>43.8</ele></trkpt>
      <trkpt lat="53.769944" lon="12.337879"><ele>44.5</ele></trkpt>
      <trkpt lat="53.770021" lon="12.337494"><ele>43.8</ele></trkpt>
      <trkpt lat="53.769954" lon="12.337392"><ele>44.0</ele></trkpt>
      <trkpt lat="53.770396" lon="12.334759"><ele>42.2</ele></trkpt>
      <trkpt lat="53.770667" lon="12.333149"><ele>38.8</ele></trkpt>
      <trkpt lat="53.770662" lon="12.333091"><ele>38.5</ele></trkpt>
      <trkpt lat="53.770638" lon="12.333010"><ele>38.5</ele></trkpt>
      <trkpt lat="53.770638" lon="12.332966"><ele>38.2</ele></trkpt>
      <trkpt lat="53.770652" lon="12.332905"><ele>38.2</ele></trkpt>
      <trkpt lat="53.770790" lon="12.332920"><ele>38.0</ele></trkpt>
      <trkpt lat="53.770876" lon="12.332917"><ele>37.8</ele></trkpt>
      <trkpt lat="53.770937" lon="12.332911"><ele>37.5</ele></trkpt>
      <trkpt lat="53.771016" lon="12.332883"><ele>37.2</ele></trkpt>
      <trkpt lat="53.772700" lon="12.332102"><ele>33.5</ele></trkpt>
      <trkpt lat="53.773085" lon="12.331931"><ele>33.0</ele></trkpt>
      <trkpt lat="53.778161" lon="12.329766"><ele>30.8</ele></trkpt>
      <trkpt lat="53.779566" lon="12.329251"><ele>30.8</ele></trkpt>
      <trkpt lat="53.780248" lon="12.328877"><ele>31.0</ele></trkpt>
      <trkpt lat="53.780555" lon="12.328710"><ele>30.0</ele></trkpt>
      <trkpt lat="53.781315" lon="12.328133"><ele>27.8</ele></trkpt>
      <trkpt lat="53.781658" lon="12.327684"><ele>26.0</ele></trkpt>
      <trkpt lat="53.781709" lon="12.326918"><ele>25.0</ele></trkpt>
      <trkpt lat="53.781786" lon="12.326015"><ele>25.0</ele></trkpt>
      <trkpt lat="53.781771" lon="12.325525"><ele>24.0</ele></trkpt>
      <trkpt lat="53.781780" lon="12.325286"><ele>24.0</ele></trkpt>
      <trkpt lat="53.781844" lon="12.325170"><ele>23.5</ele></trkpt>
      <trkpt lat="53.782271" lon="12.324849"><ele>21.2</ele></trkpt>
      <trkpt lat="53.782456" lon="12.324657"><ele>20.8</ele></trkpt>
      <trkpt lat="53.782689" lon="12.324332"><ele>20.0</ele></trkpt>
      <trkpt lat="53.782738" lon="12.324251"><ele>20.0</ele></trkpt>
      <trkpt lat="53.783438" lon="12.323161"><ele>22.8</ele></trkpt>
      <trkpt lat="53.783651" lon="12.322829"><ele>23.8</ele></trkpt>
      <trkpt lat="53.784281" lon="12.322034"><ele>27.0</ele></trkpt>
      <trkpt lat="53.786376" lon="12.319422"><ele>27.0</ele></trkpt>
      <trkpt lat="53.786601" lon="12.319146"><ele>27.0</ele></trkpt>
      <trkpt lat="53.787058" lon="12.318584"><ele>28.0</ele></trkpt>
      <trkpt lat="53.787112" lon="12.318410"><ele>28.0</ele></trkpt>
      <trkpt lat="53.787110" lon="12.318261"><ele>28.0</ele></trkpt>
      <trkpt lat="53.787474" lon="12.318463"><ele>29.8</ele></trkpt>
      <trkpt lat="53.787648" lon="12.318520"><ele>30.5</ele></trkpt>
      <trkpt lat="53.788086" lon="12.318666"><ele>31.8</ele></trkpt>
      <trkpt lat="53.788745" lon="12.318623"><ele>32.0</ele></trkpt>
      <trkpt lat="53.789546" lon="12.318365"><ele>31.2</ele></trkpt>
      <trkpt lat="53.789726" lon="12.318291"><ele>30.0</ele></trkpt>
      <trkpt lat="53.790058" lon="12.318151"><ele>30.0</ele></trkpt>
      <trkpt lat="53.790517" lon="12.319436"><ele>30.0</ele></trkpt>
      <trkpt lat="53.790697" lon="12.319910"><ele>30.2</ele></trkpt>
      <trkpt lat="53.790683" lon="12.319984"><ele>30.5</ele></trkpt>
      <trkpt lat="53.791052" lon="12.319997"><ele>30.8</ele></trkpt>
      <trkpt lat="53.791453" lon="12.319903"><ele>31.8</ele></trkpt>
      <trkpt lat="53.791781" lon="12.319796"><ele>30.0</ele></trkpt>
      <trkpt lat="53.791986" lon="12.319672"><ele>29.0</ele></trkpt>
      <trkpt lat="53.792199" lon="12.319457"><ele>29.0</ele></trkpt>
      <trkpt lat="53.792459" lon="12.319385"><ele>28.0</ele></trkpt>
      <trkpt lat="53.792883" lon="12.319483"><ele>27.0</ele></trkpt>
      <trkpt lat="53.793301" lon="12.319761"><ele>27.0</ele></trkpt>
      <trkpt lat="53.794144" lon="12.320180"><ele>26.2</ele></trkpt>
      <trkpt lat="53.794484" lon="12.320297"><ele>25.0</ele></trkpt>
      <trkpt lat="53.794634" lon="12.320311"><ele>25.0</ele></trkpt>
      <trkpt lat="53.795572" lon="12.320528"><ele>28.8</ele></trkpt>
      <trkpt lat="53.796395" lon="12.320715"><ele>31.5</ele></trkpt>
      <trkpt lat="53.797132" lon="12.320719"><ele>34.0</ele></trkpt>
      <trkpt lat="53.797821" lon="12.320703"><ele>35.0</ele></trkpt>
      <trkpt lat="53.798205" lon="12.320670"><ele>35.2</ele></trkpt>
      <trkpt lat="53.798544" lon="12.320629"><ele>35.0</ele></trkpt>
      <trkpt lat="53.799385" lon="12.320168"><ele>36.8</ele></trkpt>
      <trkpt lat="53.799673" lon="12.320050"><ele>37.0</ele></trkpt>
      <trkpt lat="53.800412" lon="12.320084"><ele>37.0</ele></trkpt>
      <trkpt lat="53.802041" lon="12.320419"><ele>37.2</ele></trkpt>
      <trkpt lat="53.802394" lon="12.320479"><ele>36.2</ele></trkpt>
      <trkpt lat="53.802609" lon="12.320358"><ele>36.0</ele></trkpt>
      <trkpt lat="53.802952" lon="12.320083"><ele>36.5</ele></trkpt>
      <trkpt lat="53.804017" lon="12.318405"><ele>38.0</ele></trkpt>
      <trkpt lat="53.804701" lon="12.317877"><ele>39.8</ele></trkpt>
      <trkpt lat="53.806705" lon="12.316799"><ele>37.0</ele></trkpt>
      <trkpt lat="53.807274" lon="12.316401"><ele>38.0</ele></trkpt>
      <trkpt lat="53.807839" lon="12.315886"><ele>38.5</ele></trkpt>
      <trkpt lat="53.807911" lon="12.315352"><ele>38.0</ele></trkpt>
      <trkpt lat="53.808003" lon="12.314349"><ele>39.0</ele></trkpt>
      <trkpt lat="53.808120" lon="12.313548"><ele>39.8</ele></trkpt>
      <trkpt lat="53.808085" lon="12.312807"><ele>38.8</ele></trkpt>
      <trkpt lat="53.808100" lon="12.312200"><ele>36.5</ele></trkpt>
      <trkpt lat="53.808175" lon="12.311636"><ele>34.0</ele></trkpt>
      <trkpt lat="53.808329" lon="12.311278"><ele>31.5</ele></trkpt>
      <trkpt lat="53.808752" lon="12.310544"><ele>27.8</ele></trkpt>
      <trkpt lat="53.808966" lon="12.310073"><ele>27.0</ele></trkpt>
      <trkpt lat="53.809269" lon="12.309108"><ele>27.0</ele></trkpt>
      <trkpt lat="53.809381" lon="12.308291"><ele>27.2</ele></trkpt>
      <trkpt lat="53.809564" lon="12.307700"><ele>27.5</ele></trkpt>
      <trkpt lat="53.809618" lon="12.307549"><ele>27.8</ele></trkpt>
      <trkpt lat="53.809948" lon="12.306999"><ele>30.5</ele></trkpt>
      <trkpt lat="53.810485" lon="12.306286"><ele>32.2</ele></trkpt>
      <trkpt lat="53.810689" lon="12.306124"><ele>33.2</ele></trkpt>
      <trkpt lat="53.811485" lon="12.305870"><ele>37.5</ele></trkpt>
      <trkpt lat="53.813152" lon="12.305445"><ele>36.2</ele></trkpt>
      <trkpt lat="53.813720" lon="12.305330"><ele>35.0</ele></trkpt>
      <trkpt lat="53.813985" lon="12.305391"><ele>35.0</ele></trkpt>
      <trkpt lat="53.814301" lon="12.305608"><ele>34.2</ele></trkpt>
      <trkpt lat="53.815234" lon="12.306391"><ele>27.0</ele></trkpt>
      <trkpt lat="53.815358" lon="12.306505"><ele>26.8</ele></trkpt>
      <trkpt lat="53.815590" lon="12.306619"><ele>27.0</ele></trkpt>
      <trkpt lat="53.815759" lon="12.306632"><ele>27.0</ele></trkpt>
      <trkpt lat="53.815939" lon="12.306517"><ele>27.0</ele></trkpt>
      <trkpt lat="53.816099" lon="12.306280"><ele>26.5</ele></trkpt>
      <trkpt lat="53.816187" lon="12.306010"><ele>26.2</ele></trkpt>
      <trkpt lat="53.816608" lon="12.303871"><ele>23.8</ele></trkpt>
      <trkpt lat="53.816820" lon="12.303144"><ele>23.2</ele></trkpt>
      <trkpt lat="53.816971" lon="12.302803"><ele>23.0</ele></trkpt>
      <trkpt lat="53.817169" lon="12.302427"><ele>22.0</ele></trkpt>
      <trkpt lat="53.817789" lon="12.301559"><ele>21.0</ele></trkpt>
      <trkpt lat="53.818084" lon="12.301191"><ele>21.8</ele></trkpt>
      <trkpt lat="53.818193" lon="12.300989"><ele>22.8</ele></trkpt>
      <trkpt lat="53.818297" lon="12.300702"><ele>23.5</ele></trkpt>
      <trkpt lat="53.818311" lon="12.300420"><ele>23.8</ele></trkpt>
      <trkpt lat="53.818302" lon="12.300221"><ele>23.5</ele></trkpt>
      <trkpt lat="53.818281" lon="12.299971"><ele>23.2</ele></trkpt>
      <trkpt lat="53.817576" lon="12.296775"><ele>19.2</ele></trkpt>
      <trkpt lat="53.817465" lon="12.296465"><ele>18.8</ele></trkpt>
      <trkpt lat="53.817048" lon="12.295691"><ele>18.0</ele></trkpt>
      <trkpt lat="53.817048" lon="12.295386"><ele>18.0</ele></trkpt>
      <trkpt lat="53.817109" lon="12.295227"><ele>18.0</ele></trkpt>
      <trkpt lat="53.816996" lon="12.295271"><ele>18.0</ele></trkpt>
      <trkpt lat="53.816989" lon="12.295274"><ele>18.0</ele></trkpt>
      <trkpt lat="53.816845" lon="12.295356"><ele>17.5</ele></trkpt>
      <trkpt lat="53.816504" lon="12.295886"><ele>17.0</ele></trkpt>
      <trkpt lat="53.816355" lon="12.296159"><ele>18.0</ele></trkpt>
      <trkpt lat="53.815842" lon="12.297056"><ele>19.0</ele></trkpt>
      <trkpt lat="53.815621" lon="12.297402"><ele>19.0</ele></trkpt>
      <trkpt lat="53.815191" lon="12.298113"><ele>19.0</ele></trkpt>
      <trkpt lat="53.815055" lon="12.298319"><ele>19.8</ele></trkpt>
      <trkpt lat="53.814994" lon="12.298385"><ele>20.0</ele></trkpt>
      <trkpt lat="53.814934" lon="12.298401"><ele>20.0</ele></trkpt>
      <trkpt lat="53.814516" lon="12.298337"><ele>20.0</ele></trkpt>
      <trkpt lat="53.814118" lon="12.298245"><ele>21.8</ele></trkpt>
      <trkpt lat="53.814033" lon="12.298235"><ele>22.2</ele></trkpt>
      <trkpt lat="53.813706" lon="12.298096"><ele>23.5</ele></trkpt>
      <trkpt lat="53.813552" lon="12.298041"><ele>24.0</ele></trkpt>
      <trkpt lat="53.813178" lon="12.297985"><ele>23.2</ele></trkpt>
      <trkpt lat="53.812947" lon="12.297937"><ele>21.5</ele></trkpt>
      <trkpt lat="53.812688" lon="12.297867"><ele>20.2</ele></trkpt>
      <trkpt lat="53.811972" lon="12.297730"><ele>22.0</ele></trkpt>
      <trkpt lat="53.811500" lon="12.297679"><ele>20.5</ele></trkpt>
      <trkpt lat="53.811387" lon="12.297649"><ele>19.8</ele></trkpt>
      <trkpt lat="53.811219" lon="12.297582"><ele>19.2</ele></trkpt>
      <trkpt lat="53.810856" lon="12.297594"><ele>19.0</ele></trkpt>
      <trkpt lat="53.810520" lon="12.297565"><ele>19.2</ele></trkpt>
      <trkpt lat="53.810202" lon="12.297509"><ele>21.2</ele></trkpt>
      <trkpt lat="53.809880" lon="12.297482"><ele>21.5</ele></trkpt>
      <trkpt lat="53.809755" lon="12.297492"><ele>21.0</ele></trkpt>
      <trkpt lat="53.809622" lon="12.297470"><ele>20.8</ele></trkpt>
      <trkpt lat="53.809375" lon="12.297486"><ele>20.5</ele></trkpt>
      <trkpt lat="53.808747" lon="12.297449"><ele>19.8</ele></trkpt>
      <trkpt lat="53.808035" lon="12.297290"><ele>22.8</ele></trkpt>
      <trkpt lat="53.807096" lon="12.297352"><ele>22.2</ele></trkpt>
      <trkpt lat="53.806667" lon="12.297456"><ele>22.0</ele></trkpt>
      <trkpt lat="53.806000" lon="12.297487"><ele>18.8</ele></trkpt>
      <trkpt lat="53.805964" lon="12.296359"><ele>17.2</ele></trkpt>
      <trkpt lat="53.805858" lon="12.295574"><ele>17.0</ele></trkpt>
      <trkpt lat="53.805596" lon="12.294366"><ele>17.0</ele></trkpt>
      <trkpt lat="53.805287" lon="12.293677"><ele>16.8</ele></trkpt>
      <trkpt lat="53.805230" lon="12.293323"><ele>16.8</ele></trkpt>
      <trkpt lat="53.805308" lon="12.292690"><ele>15.8</ele></trkpt>
      <trkpt lat="53.805335" lon="12.292094"><ele>15.2</ele></trkpt>
      <trkpt lat="53.805313" lon="12.290716"><ele>15.0</ele></trkpt>
      <trkpt lat="53.805070" lon="12.289259"><ele>15.0</ele></trkpt>
      <trkpt lat="53.805075" lon="12.288664"><ele>15.0</ele></trkpt>
      <trkpt lat="53.805037" lon="12.288412"><ele>15.0</ele></trkpt>
      <trkpt lat="53.804749" lon="12.287148"><ele>17.0</ele></trkpt>
      <trkpt lat="53.804340" lon="12.284732"><ele>15.5</ele></trkpt>
      <trkpt lat="53.804121" lon="12.283670"><ele>13.8</ele></trkpt>
      <trkpt lat="53.804109" lon="12.283305"><ele>13.5</ele></trkpt>
      <trkpt lat="53.804084" lon="12.282956"><ele>13.2</ele></trkpt>
      <trkpt lat="53.803942" lon="12.282436"><ele>12.2</ele></trkpt>
      <trkpt lat="53.803745" lon="12.282050"><ele>12.0</ele></trkpt>
      <trkpt lat="53.803395" lon="12.281529"><ele>12.0</ele></trkpt>
      <trkpt lat="53.803255" lon="12.281169"><ele>12.0</ele></trkpt>
      <trkpt lat="53.803046" lon="12.281298"><ele>12.0</ele></trkpt>
      <trkpt lat="53.802854" lon="12.280797"><ele>12.0</ele></trkpt>
      <trkpt lat="53.801530" lon="12.277436"><ele>11.0</ele></trkpt>
      <trkpt lat="53.801052" lon="12.276219"><ele>12.0</ele></trkpt>
      <trkpt lat="53.800961" lon="12.275962"><ele>12.0</ele></trkpt>
      <trkpt lat="53.800858" lon="12.275676"><ele>12.0</ele></trkpt>
      <trkpt lat="53.800241" lon="12.274163"><ele>12.0</ele></trkpt>
      <trkpt lat="53.800133" lon="12.273799"><ele>12.0</ele></trkpt>
      <trkpt lat="53.800056" lon="12.273420"><ele>12.0</ele></trkpt>
      <trkpt lat="53.799898" lon="12.272277"><ele>12.0</ele></trkpt>
      <trkpt lat="53.799586" lon="12.271020"><ele>12.0</ele></trkpt>
      <trkpt lat="53.798598" lon="12.267651"><ele>12.0</ele></trkpt>
      <trkpt lat="53.798458" lon="12.266407"><ele>12.0</ele></trkpt>
      <trkpt lat="53.798476" lon="12.264611"><ele>11.5</ele></trkpt>
      <trkpt lat="53.798509" lon="12.263295"><ele>10.8</ele></trkpt>
      <trkpt lat="53.798522" lon="12.261879"><ele>10.0</ele></trkpt>
      <trkpt lat="53.798724" lon="12.261273"><ele>10.0</ele></trkpt>
      <trkpt lat="53.798813" lon="12.261029"><ele>10.0</ele></trkpt>
      <trkpt lat="53.799003" lon="12.260506"><ele>10.0</ele></trkpt>
      <trkpt lat="53.799662" lon="12.258896"><ele>11.0</ele></trkpt>
      <trkpt lat="53.800435" lon="12.257330"><ele>12.0</ele></trkpt>
      <trkpt lat="53.800631" lon="12.256906"><ele>12.0</ele></trkpt>
      <trkpt lat="53.800684" lon="12.256801"><ele>12.0</ele></trkpt>
      <trkpt lat="53.800890" lon="12.256523"><ele>12.0</ele></trkpt>
      <trkpt lat="53.801343" lon="12.256083"><ele>12.0</ele></trkpt>
      <trkpt lat="53.802275" lon="12.255282"><ele>11.8</ele></trkpt>
      <trkpt lat="53.801932" lon="12.252452"><ele>11.0</ele></trkpt>
      <trkpt lat="53.801751" lon="12.251130"><ele>12.0</ele></trkpt>
      <trkpt lat="53.801551" lon="12.249742"><ele>12.0</ele></trkpt>
      <trkpt lat="53.800993" lon="12.245624"><ele>11.0</ele></trkpt>
      <trkpt lat="53.800955" lon="12.245376"><ele>11.0</ele></trkpt>
      <trkpt lat="53.800842" lon="12.245415"><ele>11.0</ele></trkpt>
      <trkpt lat="53.800838" lon="12.245352"><ele>11.0</ele></trkpt>
      <trkpt lat="53.800796" lon="12.245241"><ele>11.0</ele></trkpt>
      <trkpt lat="53.800772" lon="12.245118"><ele>11.0</ele></trkpt>
      <trkpt lat="53.800774" lon="12.244925"><ele>10.5</ele></trkpt>
      <trkpt lat="53.800732" lon="12.244324"><ele>10.0</ele></trkpt>
      <trkpt lat="53.800616" lon="12.243494"><ele>11.0</ele></trkpt>
      <trkpt lat="53.800553" lon="12.243268"><ele>11.0</ele></trkpt>
      <trkpt lat="53.800514" lon="12.242994"><ele>11.0</ele></trkpt>
      <trkpt lat="53.800477" lon="12.242519"><ele>11.0</ele></trkpt>
      <trkpt lat="53.800371" lon="12.241721"><ele>11.0</ele></trkpt>
      <trkpt lat="53.799998" lon="12.239223"><ele>11.0</ele></trkpt>
      <trkpt lat="53.799720" lon="12.237218"><ele>10.8</ele></trkpt>
      <trkpt lat="53.799698" lon="12.236939"><ele>11.0</ele></trkpt>
      <trkpt lat="53.798528" lon="12.228686"><ele>11.5</ele></trkpt>
      <trkpt lat="53.798381" lon="12.227534"><ele>11.8</ele></trkpt>
      <trkpt lat="53.798368" lon="12.227482"><ele>12.0</ele></trkpt>
      <trkpt lat="53.798344" lon="12.227431"><ele>12.0</ele></trkpt>
      <trkpt lat="53.798290" lon="12.227399"><ele>12.0</ele></trkpt>
      <trkpt lat="53.798272" lon="12.227291"><ele>12.0</ele></trkpt>
      <trkpt lat="53.798315" lon="12.226929"><ele>12.0</ele></trkpt>
      <trkpt lat="53.798360" lon="12.226036"><ele>12.0</ele></trkpt>
      <trkpt lat="53.798384" lon="12.225551"><ele>12.0</ele></trkpt>
      <trkpt lat="53.798377" lon="12.225480"><ele>12.0</ele></trkpt>
      <trkpt lat="53.798378" lon="12.225256"><ele>12.0</ele></trkpt>
      <trkpt lat="53.798666" lon="12.222038"><ele>12.0</ele></trkpt>
      <trkpt lat="53.798737" lon="12.221242"><ele>12.0</ele></trkpt>
      <trkpt lat="53.798822" lon="12.220179"><ele>12.0</ele></trkpt>
      <trkpt lat="53.798913" lon="12.219267"><ele>12.0</ele></trkpt>
      <trkpt lat="53.799000" lon="12.218262"><ele>12.0</ele></trkpt>
      <trkpt lat="53.799174" lon="12.216299"><ele>12.0</ele></trkpt>
      <trkpt lat="53.799376" lon="12.214079"><ele>12.0</ele></trkpt>
      <trkpt lat="53.799754" lon="12.209865"><ele>12.2</ele></trkpt>
      <trkpt lat="53.800075" lon="12.206305"><ele>13.0</ele></trkpt>
      <trkpt lat="53.800302" lon="12.203605"><ele>13.0</ele></trkpt>
      <trkpt lat="53.800482" lon="12.201874"><ele>12.8</ele></trkpt>
      <trkpt lat="53.800475" lon="12.201807"><ele>12.5</ele></trkpt>
      <trkpt lat="53.800455" lon="12.201743"><ele>12.5</ele></trkpt>
      <trkpt lat="53.800429" lon="12.201702"><ele>12.5</ele></trkpt>
      <trkpt lat="53.800422" lon="12.201596"><ele>12.2</ele></trkpt>
      <trkpt lat="53.800417" lon="12.201496"><ele>12.2</ele></trkpt>
      <trkpt lat="53.800472" lon="12.201452"><ele>12.2</ele></trkpt>
      <trkpt lat="53.800534" lon="12.201354"><ele>12.0</ele></trkpt>
      <trkpt lat="53.800557" lon="12.201282"><ele>12.0</ele></trkpt>
      <trkpt lat="53.800567" lon="12.201220"><ele>12.0</ele></trkpt>
      <trkpt lat="53.800598" lon="12.200887"><ele>12.0</ele></trkpt>
      <trkpt lat="53.800720" lon="12.199567"><ele>12.0</ele></trkpt>
      <trkpt lat="53.800851" lon="12.198147"><ele>12.0</ele></trkpt>
      <trkpt lat="53.800860" lon="12.197950"><ele>12.0</ele></trkpt>
      <trkpt lat="53.800860" lon="12.197731"><ele>11.8</ele></trkpt>
      <trkpt lat="53.800775" lon="12.196430"><ele>10.8</ele></trkpt>
      <trkpt lat="53.800734" lon="12.195764"><ele>9.5</ele></trkpt>
      <trkpt lat="53.800627" lon="12.194011"><ele>8.2</ele></trkpt>
      <trkpt lat="53.800556" lon="12.193683"><ele>8.0</ele></trkpt>
      <trkpt lat="53.799516" lon="12.190410"><ele>8.0</ele></trkpt>
      <trkpt lat="53.799473" lon="12.189890"><ele>8.0</ele></trkpt>
      <trkpt lat="53.799322" lon="12.188998"><ele>8.0</ele></trkpt>
      <trkpt lat="53.799174" lon="12.188188"><ele>8.0</ele></trkpt>
      <trkpt lat="53.799206" lon="12.188109"><ele>8.0</ele></trkpt>
      <trkpt lat="53.799088" lon="12.187927"><ele>8.0</ele></trkpt>
      <trkpt lat="53.799031" lon="12.187819"><ele>8.0</ele></trkpt>
      <trkpt lat="53.798839" lon="12.187329"><ele>7.2</ele></trkpt>
      <trkpt lat="53.798686" lon="12.186912"><ele>7.0</ele></trkpt>
      <trkpt lat="53.798546" lon="12.186547"><ele>7.0</ele></trkpt>
      <trkpt lat="53.798218" lon="12.185675"><ele>7.0</ele></trkpt>
      <trkpt lat="53.797958" lon="12.184996"><ele>7.0</ele></trkpt>
      <trkpt lat="53.797722" lon="12.184376"><ele>6.8</ele></trkpt>
      <trkpt lat="53.797410" lon="12.183532"><ele>7.0</ele></trkpt>
      <trkpt lat="53.797350" lon="12.183373"><ele>6.8</ele></trkpt>
      <trkpt lat="53.797208" lon="12.182992"><ele>7.0</ele></trkpt>
      <trkpt lat="53.797172" lon="12.182940"><ele>7.0</ele></trkpt>
      <trkpt lat="53.797047" lon="12.182813"><ele>7.0</ele></trkpt>
      <trkpt lat="53.797005" lon="12.182746"><ele>7.0</ele></trkpt>
      <trkpt lat="53.796964" lon="12.182629"><ele>7.0</ele></trkpt>
      <trkpt lat="53.796870" lon="12.182066"><ele>7.0</ele></trkpt>
      <trkpt lat="53.796843" lon="12.181936"><ele>7.0</ele></trkpt>
      <trkpt lat="53.796821" lon="12.181796"><ele>7.0</ele></trkpt>
      <trkpt lat="53.796814" lon="12.181665"><ele>7.0</ele></trkpt>
      <trkpt lat="53.796820" lon="12.181471"><ele>7.0</ele></trkpt>
      <trkpt lat="53.796918" lon="12.180586"><ele>7.0</ele></trkpt>
      <trkpt lat="53.796853" lon="12.180557"><ele>7.0</ele></trkpt>
      <trkpt lat="53.796777" lon="12.180529"><ele>7.0</ele></trkpt>
      <trkpt lat="53.796734" lon="12.180513"><ele>7.0</ele></trkpt>
      <trkpt lat="53.796734" lon="12.180445"><ele>7.0</ele></trkpt>
      <trkpt lat="53.796649" lon="12.180442"><ele>7.0</ele></trkpt>
      <trkpt lat="53.796560" lon="12.180440"><ele>7.0</ele></trkpt>
      <trkpt lat="53.796235" lon="12.180417"><ele>7.0</ele></trkpt>
      <trkpt lat="53.796070" lon="12.180406"><ele>7.0</ele></trkpt>
      <trkpt lat="53.795866" lon="12.180392"><ele>7.0</ele></trkpt>
      <trkpt lat="53.795722" lon="12.180382"><ele>7.2</ele></trkpt>
      <trkpt lat="53.795372" lon="12.180315"><ele>8.0</ele></trkpt>
      <trkpt lat="53.795230" lon="12.180277"><ele>8.0</ele></trkpt>
      <trkpt lat="53.795061" lon="12.180230"><ele>8.0</ele></trkpt>
      <trkpt lat="53.795058" lon="12.180287"><ele>8.0</ele></trkpt>
      <trkpt lat="53.795040" lon="12.180562"><ele>7.8</ele></trkpt>
      <trkpt lat="53.795038" lon="12.180711"><ele>7.8</ele></trkpt>
      <trkpt lat="53.795005" lon="12.180787"><ele>7.8</ele></trkpt>
      <trkpt lat="53.794852" lon="12.181073"><ele>8.0</ele></trkpt>
      <trkpt lat="53.794686" lon="12.181320"><ele>8.0</ele></trkpt>
      <trkpt lat="53.794570" lon="12.181435"><ele>7.8</ele></trkpt>
      <trkpt lat="53.794380" lon="12.181468"><ele>7.8</ele></trkpt>
      <trkpt lat="53.794020" lon="12.181479"><ele>8.0</ele></trkpt>
      <trkpt lat="53.793886" lon="12.181502"><ele>8.0</ele></trkpt>
      <trkpt lat="53.793807" lon="12.181534"><ele>8.0</ele></trkpt>
      <trkpt lat="53.793757" lon="12.181566"><ele>8.0</ele></trkpt>
      <trkpt lat="53.793663" lon="12.181626"><ele>8.0</ele></trkpt>
      <trkpt lat="53.793593" lon="12.181690"><ele>8.0</ele></trkpt>
      <trkpt lat="53.793484" lon="12.181974"><ele>8.0</ele></trkpt>
      <trkpt lat="53.793431" lon="12.182066"><ele>7.8</ele></trkpt>
      <trkpt lat="53.793372" lon="12.182106"><ele>8.0</ele></trkpt>
      <trkpt lat="53.793148" lon="12.182104"><ele>8.0</ele></trkpt>
      <trkpt lat="53.792716" lon="12.182100"><ele>8.0</ele></trkpt>
      <trkpt lat="53.792703" lon="12.182092"><ele>8.0</ele></trkpt>
      <trkpt lat="53.792648" lon="12.182061"><ele>8.0</ele></trkpt>
      <trkpt lat="53.792498" lon="12.181865"><ele>8.0</ele></trkpt>
      <trkpt lat="53.792427" lon="12.181796"><ele>8.0</ele></trkpt>
      <trkpt lat="53.792330" lon="12.181726"><ele>8.0</ele></trkpt>
      <trkpt lat="53.792068" lon="12.181584"><ele>8.0</ele></trkpt>
      <trkpt lat="53.791891" lon="12.181368"><ele>7.8</ele></trkpt>
      <trkpt lat="53.791658" lon="12.181066"><ele>7.8</ele></trkpt>
      <trkpt lat="53.791254" lon="12.180097"><ele>7.8</ele></trkpt>
      <trkpt lat="53.791228" lon="12.180030"><ele>7.8</ele></trkpt>
      <trkpt lat="53.791191" lon="12.180019"><ele>7.8</ele></trkpt>
      <trkpt lat="53.791137" lon="12.179985"><ele>8.0</ele></trkpt>
      <trkpt lat="53.791075" lon="12.179806"><ele>8.0</ele></trkpt>
      <trkpt lat="53.791017" lon="12.179580"><ele>8.0</ele></trkpt>
      <trkpt lat="53.790962" lon="12.179327"><ele>7.8</ele></trkpt>
      <trkpt lat="53.790951" lon="12.179286"><ele>7.5</ele></trkpt>
      <trkpt lat="53.790409" lon="12.179683"><ele>7.0</ele></trkpt>
      <trkpt lat="53.790069" lon="12.179945"><ele>7.0</ele></trkpt>
      <trkpt lat="53.789815" lon="12.180184"><ele>7.5</ele></trkpt>
      <trkpt lat="53.788828" lon="12.177830"><ele>7.0</ele></trkpt>
      <trkpt lat="53.788975" lon="12.177676"><ele>7.0</ele></trkpt>
      <trkpt lat="53.789633" lon="12.177028"><ele>7.0</ele></trkpt>
      <trkpt lat="53.789735" lon="12.176927"><ele>7.0</ele></trkpt>
      <trkpt lat="53.790066" lon="12.176627"><ele>7.8</ele></trkpt>
      <trkpt lat="53.790530" lon="12.176206"><ele>12.2</ele></trkpt>
      <trkpt lat="53.790558" lon="12.176278"><ele>12.2</ele></trkpt>
      <trkpt lat="53.790591" lon="12.176361"><ele>12.0</ele></trkpt>
      <trkpt lat="53.790687" lon="12.176610"><ele>11.5</ele></trkpt>
      <trkpt lat="53.790809" lon="12.176904"><ele>11.0</ele></trkpt>
      <trkpt lat="53.790836" lon="12.176971"><ele>11.0</ele></trkpt>
      <trkpt lat="53.790809" lon="12.176904"><ele>11.0</ele></trkpt>
      <trkpt lat="53.790687" lon="12.176610"><ele>11.5</ele></trkpt>
      <trkpt lat="53.790591" lon="12.176361"><ele>12.0</ele></trkpt>
      <trkpt lat="53.790558" lon="12.176278"><ele>12.2</ele></trkpt>
      <trkpt lat="53.790530" lon="12.176206"><ele>12.2</ele></trkpt>
      <trkpt lat="53.790066" lon="12.176627"><ele>7.8</ele></trkpt>
      <trkpt lat="53.789735" lon="12.176927"><ele>7.0</ele></trkpt>
      <trkpt lat="53.789633" lon="12.177028"><ele>7.0</ele></trkpt>
      <trkpt lat="53.788975" lon="12.177676"><ele>7.0</ele></trkpt>
      <trkpt lat="53.788828" lon="12.177830"><ele>7.0</ele></trkpt>
      <trkpt lat="53.789815" lon="12.180184"><ele>7.5</ele></trkpt>
      <trkpt lat="53.789757" lon="12.180240"><ele>7.8</ele></trkpt>
      <trkpt lat="53.789480" lon="12.180532"><ele>8.8</ele></trkpt>
      <trkpt lat="53.789265" lon="12.180758"><ele>9.5</ele></trkpt>
      <trkpt lat="53.788731" lon="12.181313"><ele>10.0</ele></trkpt>
      <trkpt lat="53.788646" lon="12.181406"><ele>10.0</ele></trkpt>
      <trkpt lat="53.788291" lon="12.181790"><ele>11.0</ele></trkpt>
      <trkpt lat="53.788334" lon="12.181902"><ele>11.0</ele></trkpt>
      <trkpt lat="53.788322" lon="12.181940"><ele>11.0</ele></trkpt>
      <trkpt lat="53.788317" lon="12.181993"><ele>11.0</ele></trkpt>
      <trkpt lat="53.788334" lon="12.182098"><ele>11.0</ele></trkpt>
      <trkpt lat="53.788293" lon="12.182231"><ele>11.0</ele></trkpt>
      <trkpt lat="53.788265" lon="12.182323"><ele>11.0</ele></trkpt>
      <trkpt lat="53.788833" lon="12.182789"><ele>10.0</ele></trkpt>
      <trkpt lat="53.788926" lon="12.182848"><ele>9.8</ele></trkpt>
      <trkpt lat="53.789515" lon="12.183346"><ele>7.0</ele></trkpt>
      <trkpt lat="53.789543" lon="12.183389"><ele>7.0</ele></trkpt>
      <trkpt lat="53.789607" lon="12.183446"><ele>7.0</ele></trkpt>
      <trkpt lat="53.789480" lon="12.183885"><ele>7.0</ele></trkpt>
      <trkpt lat="53.789431" lon="12.184052"><ele>7.0</ele></trkpt>
      <trkpt lat="53.789375" lon="12.184201"><ele>7.2</ele></trkpt>
      <trkpt lat="53.789298" lon="12.184345"><ele>8.0</ele></trkpt>
      <trkpt lat="53.788652" lon="12.185177"><ele>10.8</ele></trkpt>
      <trkpt lat="53.788482" lon="12.185412"><ele>11.2</ele></trkpt>
      <trkpt lat="53.788159" lon="12.185888"><ele>11.8</ele></trkpt>
      <trkpt lat="53.787479" lon="12.186980"><ele>12.0</ele></trkpt>
      <trkpt lat="53.786864" lon="12.187682"><ele>12.0</ele></trkpt>
      <trkpt lat="53.786588" lon="12.187741"><ele>12.0</ele></trkpt>
      <trkpt lat="53.786458" lon="12.187740"><ele>12.0</ele></trkpt>
      <trkpt lat="53.786164" lon="12.187693"><ele>12.0</ele></trkpt>
      <trkpt lat="53.785712" lon="12.187618"><ele>12.0</ele></trkpt>
      <trkpt lat="53.785096" lon="12.187631"><ele>12.5</ele></trkpt>
      <trkpt lat="53.785018" lon="12.187623"><ele>12.5</ele></trkpt>
      <trkpt lat="53.784914" lon="12.187598"><ele>12.5</ele></trkpt>
      <trkpt lat="53.784624" lon="12.187482"><ele>13.0</ele></trkpt>
      <trkpt lat="53.784561" lon="12.187458"><ele>13.0</ele></trkpt>
      <trkpt lat="53.784505" lon="12.187435"><ele>13.0</ele></trkpt>
      <trkpt lat="53.784439" lon="12.187500"><ele>12.8</ele></trkpt>
      <trkpt lat="53.784406" lon="12.187602"><ele>12.2</ele></trkpt>
      <trkpt lat="53.784372" lon="12.188004"><ele>11.5</ele></trkpt>
      <trkpt lat="53.784386" lon="12.188235"><ele>11.8</ele></trkpt>
      <trkpt lat="53.784407" lon="12.188322"><ele>11.8</ele></trkpt>
      <trkpt lat="53.784423" lon="12.188387"><ele>11.5</ele></trkpt>
      <trkpt lat="53.784501" lon="12.190953"><ele>11.5</ele></trkpt>
      <trkpt lat="53.784521" lon="12.191599"><ele>11.2</ele></trkpt>
      <trkpt lat="53.784529" lon="12.191875"><ele>11.2</ele></trkpt>
      <trkpt lat="53.784549" lon="12.192524"><ele>11.0</ele></trkpt>
      <trkpt lat="53.784574" lon="12.193367"><ele>11.0</ele></trkpt>
      <trkpt lat="53.784575" lon="12.193391"><ele>11.0</ele></trkpt>
      <trkpt lat="53.784597" lon="12.194112"><ele>11.8</ele></trkpt>
      <trkpt lat="53.784610" lon="12.194537"><ele>12.0</ele></trkpt>
      <trkpt lat="53.784663" lon="12.196285"><ele>14.0</ele></trkpt>
      <trkpt lat="53.784683" lon="12.196942"><ele>15.0</ele></trkpt>
      <trkpt lat="53.784693" lon="12.197258"><ele>15.0</ele></trkpt>
      <trkpt lat="53.784728" lon="12.198408"><ele>17.0</ele></trkpt>
      <trkpt lat="53.784747" lon="12.199045"><ele>18.0</ele></trkpt>
      <trkpt lat="53.784782" lon="12.200205"><ele>19.0</ele></trkpt>
      <trkpt lat="53.784885" lon="12.203580"><ele>20.5</ele></trkpt>
      <trkpt lat="53.784957" lon="12.205950"><ele>18.8</ele></trkpt>
      <trkpt lat="53.785073" lon="12.209789"><ele>16.0</ele></trkpt>
      <trkpt lat="53.785127" lon="12.210656"><ele>15.8</ele></trkpt>
      <trkpt lat="53.785296" lon="12.211872"><ele>15.0</ele></trkpt>
      <trkpt lat="53.785367" lon="12.212205"><ele>14.2</ele></trkpt>
      <trkpt lat="53.785445" lon="12.212534"><ele>14.5</ele></trkpt>
      <trkpt lat="53.785513" lon="12.212819"><ele>14.8</ele></trkpt>
      <trkpt lat="53.785305" lon="12.212919"><ele>14.0</ele></trkpt>
      <trkpt lat="53.785183" lon="12.212980"><ele>14.0</ele></trkpt>
      <trkpt lat="53.785030" lon="12.213003"><ele>14.0</ele></trkpt>
      <trkpt lat="53.784587" lon="12.212760"><ele>13.2</ele></trkpt>
      <trkpt lat="53.784388" lon="12.213589"><ele>14.0</ele></trkpt>
      <trkpt lat="53.783823" lon="12.213328"><ele>13.0</ele></trkpt>
      <trkpt lat="53.783667" lon="12.213292"><ele>13.5</ele></trkpt>
      <trkpt lat="53.783502" lon="12.213282"><ele>13.8</ele></trkpt>
      <trkpt lat="53.783212" lon="12.213301"><ele>13.8</ele></trkpt>
      <trkpt lat="53.782559" lon="12.213375"><ele>13.5</ele></trkpt>
      <trkpt lat="53.782524" lon="12.213439"><ele>14.0</ele></trkpt>
      <trkpt lat="53.782448" lon="12.213471"><ele>14.2</ele></trkpt>
      <trkpt lat="53.782350" lon="12.213494"><ele>14.2</ele></trkpt>
      <trkpt lat="53.781911" lon="12.213533"><ele>14.2</ele></trkpt>
      <trkpt lat="53.781779" lon="12.213599"><ele>14.8</ele></trkpt>
      <trkpt lat="53.781612" lon="12.213580"><ele>14.8</ele></trkpt>
      <trkpt lat="53.781340" lon="12.213432"><ele>14.0</ele></trkpt>
      <trkpt lat="53.780783" lon="12.213316"><ele>12.8</ele></trkpt>
      <trkpt lat="53.780663" lon="12.213018"><ele>12.0</ele></trkpt>
      <trkpt lat="53.780577" lon="12.213152"><ele>12.2</ele></trkpt>
      <trkpt lat="53.780130" lon="12.213208"><ele>12.5</ele></trkpt>
      <trkpt lat="53.779916" lon="12.213194"><ele>12.5</ele></trkpt>
      <trkpt lat="53.779254" lon="12.212776"><ele>12.5</ele></trkpt>
      <trkpt lat="53.779159" lon="12.212594"><ele>12.2</ele></trkpt>
      <trkpt lat="53.778801" lon="12.211524"><ele>11.8</ele></trkpt>
      <trkpt lat="53.778734" lon="12.211405"><ele>11.5</ele></trkpt>
      <trkpt lat="53.778450" lon="12.211321"><ele>12.2</ele></trkpt>
      <trkpt lat="53.778391" lon="12.211258"><ele>12.2</ele></trkpt>
      <trkpt lat="53.778362" lon="12.211178"><ele>12.0</ele></trkpt>
      <trkpt lat="53.778281" lon="12.211114"><ele>12.0</ele></trkpt>
      <trkpt lat="53.778101" lon="12.211021"><ele>11.5</ele></trkpt>
      <trkpt lat="53.777636" lon="12.210997"><ele>11.5</ele></trkpt>
      <trkpt lat="53.777392" lon="12.210933"><ele>11.2</ele></trkpt>
      <trkpt lat="53.777289" lon="12.210896"><ele>11.0</ele></trkpt>
      <trkpt lat="53.777174" lon="12.210888"><ele>11.2</ele></trkpt>
      <trkpt lat="53.777019" lon="12.210913"><ele>11.8</ele></trkpt>
      <trkpt lat="53.776943" lon="12.210913"><ele>12.0</ele></trkpt>
      <trkpt lat="53.776788" lon="12.210863"><ele>12.0</ele></trkpt>
      <trkpt lat="53.776410" lon="12.210592"><ele>11.8</ele></trkpt>
      <trkpt lat="53.776324" lon="12.210564"><ele>12.0</ele></trkpt>
      <trkpt lat="53.776301" lon="12.210578"><ele>12.0</ele></trkpt>
      <trkpt lat="53.776262" lon="12.210625"><ele>12.0</ele></trkpt>
      <trkpt lat="53.776172" lon="12.210551"><ele>11.8</ele></trkpt>
      <trkpt lat="53.775302" lon="12.210281"><ele>12.0</ele></trkpt>
      <trkpt lat="53.774269" lon="12.209602"><ele>12.2</ele></trkpt>
      <trkpt lat="53.773920" lon="12.209448"><ele>12.8</ele></trkpt>
      <trkpt lat="53.773370" lon="12.209657"><ele>13.8</ele></trkpt>
      <trkpt lat="53.772764" lon="12.210116"><ele>15.2</ele></trkpt>
      <trkpt lat="53.772522" lon="12.210223"><ele>15.8</ele></trkpt>
      <trkpt lat="53.772070" lon="12.210427"><ele>16.5</ele></trkpt>
      <trkpt lat="53.771417" lon="12.210775"><ele>16.8</ele></trkpt>
      <trkpt lat="53.771112" lon="12.211011"><ele>17.0</ele></trkpt>
      <trkpt lat="53.770715" lon="12.211352"><ele>15.5</ele></trkpt>
      <trkpt lat="53.770628" lon="12.211449"><ele>15.2</ele></trkpt>
      <trkpt lat="53.770593" lon="12.211543"><ele>15.5</ele></trkpt>
      <trkpt lat="53.770556" lon="12.211656"><ele>15.8</ele></trkpt>
      <trkpt lat="53.770518" lon="12.211903"><ele>15.8</ele></trkpt>
      <trkpt lat="53.770428" lon="12.212087"><ele>15.5</ele></trkpt>
      <trkpt lat="53.770315" lon="12.212369"><ele>15.0</ele></trkpt>
      <trkpt lat="53.770228" lon="12.212526"><ele>14.8</ele></trkpt>
      <trkpt lat="53.770128" lon="12.212592"><ele>14.2</ele></trkpt>
      <trkpt lat="53.769993" lon="12.212628"><ele>14.0</ele></trkpt>
      <trkpt lat="53.769699" lon="12.212647"><ele>13.8</ele></trkpt>
      <trkpt lat="53.769605" lon="12.212692"><ele>13.5</ele></trkpt>
      <trkpt lat="53.769385" lon="12.212939"><ele>13.5</ele></trkpt>
      <trkpt lat="53.769222" lon="12.213058"><ele>14.0</ele></trkpt>
      <trkpt lat="53.769128" lon="12.213150"><ele>14.2</ele></trkpt>
      <trkpt lat="53.769085" lon="12.213271"><ele>14.5</ele></trkpt>
      <trkpt lat="53.768921" lon="12.213197"><ele>15.8</ele></trkpt>
      <trkpt lat="53.768887" lon="12.213161"><ele>16.0</ele></trkpt>
      <trkpt lat="53.768860" lon="12.213066"><ele>16.0</ele></trkpt>
      <trkpt lat="53.768831" lon="12.212323"><ele>14.5</ele></trkpt>
      <trkpt lat="53.768812" lon="12.212154"><ele>14.2</ele></trkpt>
      <trkpt lat="53.768782" lon="12.212013"><ele>14.2</ele></trkpt>
      <trkpt lat="53.768724" lon="12.211937"><ele>14.5</ele></trkpt>
      <trkpt lat="53.768650" lon="12.211915"><ele>14.8</ele></trkpt>
      <trkpt lat="53.768380" lon="12.211893"><ele>15.5</ele></trkpt>
      <trkpt lat="53.768229" lon="12.211917"><ele>16.2</ele></trkpt>
      <trkpt lat="53.767774" lon="12.212173"><ele>17.8</ele></trkpt>
      <trkpt lat="53.767418" lon="12.212292"><ele>16.2</ele></trkpt>
      <trkpt lat="53.767375" lon="12.212293"><ele>16.0</ele></trkpt>
      <trkpt lat="53.767323" lon="12.212259"><ele>15.8</ele></trkpt>
      <trkpt lat="53.767236" lon="12.212287"><ele>15.2</ele></trkpt>
      <trkpt lat="53.766804" lon="12.212509"><ele>15.5</ele></trkpt>
      <trkpt lat="53.766289" lon="12.212788"><ele>15.5</ele></trkpt>
      <trkpt lat="53.766180" lon="12.212873"><ele>15.2</ele></trkpt>
      <trkpt lat="53.766122" lon="12.212930"><ele>15.0</ele></trkpt>
      <trkpt lat="53.766041" lon="12.212966"><ele>15.0</ele></trkpt>
      <trkpt lat="53.765922" lon="12.212982"><ele>15.5</ele></trkpt>
      <trkpt lat="53.765773" lon="12.212975"><ele>15.8</ele></trkpt>
      <trkpt lat="53.765434" lon="12.213016"><ele>16.0</ele></trkpt>
      <trkpt lat="53.765132" lon="12.213087"><ele>16.0</ele></trkpt>
      <trkpt lat="53.764982" lon="12.213104"><ele>15.8</ele></trkpt>
      <trkpt lat="53.764411" lon="12.213293"><ele>14.0</ele></trkpt>
      <trkpt lat="53.763822" lon="12.213622"><ele>14.2</ele></trkpt>
      <trkpt lat="53.763773" lon="12.213620"><ele>14.2</ele></trkpt>
      <trkpt lat="53.763742" lon="12.213614"><ele>14.5</ele></trkpt>
      <trkpt lat="53.763682" lon="12.213582"><ele>14.8</ele></trkpt>
      <trkpt lat="53.763641" lon="12.213547"><ele>14.8</ele></trkpt>
      <trkpt lat="53.763419" lon="12.213258"><ele>15.0</ele></trkpt>
      <trkpt lat="53.763346" lon="12.213268"><ele>15.0</ele></trkpt>
      <trkpt lat="53.763297" lon="12.213093"><ele>15.0</ele></trkpt>
      <trkpt lat="53.763267" lon="12.213127"><ele>15.0</ele></trkpt>
      <trkpt lat="53.763212" lon="12.213160"><ele>15.0</ele></trkpt>
      <trkpt lat="53.763195" lon="12.213171"><ele>15.0</ele></trkpt>
      <trkpt lat="53.763067" lon="12.213173"><ele>15.0</ele></trkpt>
      <trkpt lat="53.762467" lon="12.213644"><ele>16.0</ele></trkpt>
      <trkpt lat="53.762667" lon="12.214392"><ele>16.0</ele></trkpt>
      <trkpt lat="53.762861" lon="12.215119"><ele>16.2</ele></trkpt>
      <trkpt lat="53.762967" lon="12.215514"><ele>16.8</ele></trkpt>
      <trkpt lat="53.762979" lon="12.215594"><ele>17.0</ele></trkpt>
      <trkpt lat="53.762996" lon="12.215697"><ele>17.0</ele></trkpt>
      <trkpt lat="53.763160" lon="12.216299"><ele>17.5</ele></trkpt>
      <trkpt lat="53.763171" lon="12.216340"><ele>17.8</ele></trkpt>
      <trkpt lat="53.763196" lon="12.216433"><ele>18.0</ele></trkpt>
      <trkpt lat="53.762057" lon="12.216773"><ele>18.0</ele></trkpt>
      <trkpt lat="53.761297" lon="12.217041"><ele>17.2</ele></trkpt>
      <trkpt lat="53.761228" lon="12.217086"><ele>17.5</ele></trkpt>
      <trkpt lat="53.761190" lon="12.217126"><ele>17.5</ele></trkpt>
      <trkpt lat="53.761164" lon="12.217141"><ele>17.8</ele></trkpt>
      <trkpt lat="53.761142" lon="12.217112"><ele>17.8</ele></trkpt>
      <trkpt lat="53.761122" lon="12.217103"><ele>17.8</ele></trkpt>
      <trkpt lat="53.761083" lon="12.217119"><ele>18.0</ele></trkpt>
      <trkpt lat="53.761068" lon="12.217142"><ele>18.2</ele></trkpt>
      <trkpt lat="53.761054" lon="12.217206"><ele>18.2</ele></trkpt>
      <trkpt lat="53.761057" lon="12.217240"><ele>18.2</ele></trkpt>
      <trkpt lat="53.761081" lon="12.217294"><ele>18.2</ele></trkpt>
      <trkpt lat="53.761029" lon="12.217366"><ele>19.0</ele></trkpt>
      <trkpt lat="53.759246" lon="12.220471"><ele>35.2</ele></trkpt>
      <trkpt lat="53.758956" lon="12.221456"><ele>34.8</ele></trkpt>
      <trkpt lat="53.758431" lon="12.222665"><ele>33.5</ele></trkpt>
      <trkpt lat="53.757523" lon="12.224001"><ele>30.5</ele></trkpt>
      <trkpt lat="53.756359" lon="12.225426"><ele>22.0</ele></trkpt>
      <trkpt lat="53.754282" lon="12.228245"><ele>19.0</ele></trkpt>
      <trkpt lat="53.753542" lon="12.228818"><ele>17.8</ele></trkpt>
      <trkpt lat="53.752904" lon="12.229127"><ele>18.0</ele></trkpt>
      <trkpt lat="53.752444" lon="12.229142"><ele>20.2</ele></trkpt>
      <trkpt lat="53.751053" lon="12.228412"><ele>27.0</ele></trkpt>
      <trkpt lat="53.750669" lon="12.228222"><ele>27.0</ele></trkpt>
      <trkpt lat="53.750546" lon="12.228244"><ele>27.0</ele></trkpt>
      <trkpt lat="53.750357" lon="12.228277"><ele>27.0</ele></trkpt>
      <trkpt lat="53.750243" lon="12.228410"><ele>26.8</ele></trkpt>
      <trkpt lat="53.750080" lon="12.228657"><ele>26.0</ele></trkpt>
      <trkpt lat="53.750028" lon="12.228927"><ele>24.8</ele></trkpt>
      <trkpt lat="53.749976" lon="12.229250"><ele>23.5</ele></trkpt>
      <trkpt lat="53.749917" lon="12.229528"><ele>22.0</ele></trkpt>
      <trkpt lat="53.749767" lon="12.230117"><ele>19.5</ele></trkpt>
      <trkpt lat="53.749362" lon="12.231153"><ele>13.8</ele></trkpt>
      <trkpt lat="53.749336" lon="12.231279"><ele>13.5</ele></trkpt>
      <trkpt lat="53.749179" lon="12.232376"><ele>19.0</ele></trkpt>
      <trkpt lat="53.749046" lon="12.232578"><ele>19.2</ele></trkpt>
      <trkpt lat="53.748865" lon="12.232792"><ele>21.0</ele></trkpt>
      <trkpt lat="53.748257" lon="12.233277"><ele>22.0</ele></trkpt>
      <trkpt lat="53.748164" lon="12.233321"><ele>22.0</ele></trkpt>
      <trkpt lat="53.747259" lon="12.233667"><ele>22.0</ele></trkpt>
      <trkpt lat="53.746347" lon="12.234115"><ele>22.0</ele></trkpt>
      <trkpt lat="53.745412" lon="12.234552"><ele>24.2</ele></trkpt>
      <trkpt lat="53.745329" lon="12.234617"><ele>24.5</ele></trkpt>
      <trkpt lat="53.745141" lon="12.234767"><ele>24.2</ele></trkpt>
      <trkpt lat="53.744596" lon="12.234850"><ele>24.2</ele></trkpt>
      <trkpt lat="53.744156" lon="12.234966"><ele>26.8</ele></trkpt>
      <trkpt lat="53.743636" lon="12.235123"><ele>27.2</ele></trkpt>
      <trkpt lat="53.742702" lon="12.235322"><ele>26.0</ele></trkpt>
      <trkpt lat="53.741395" lon="12.235649"><ele>21.2</ele></trkpt>
      <trkpt lat="53.740262" lon="12.235731"><ele>24.5</ele></trkpt>
      <trkpt lat="53.739672" lon="12.235747"><ele>26.0</ele></trkpt>
      <trkpt lat="53.738965" lon="12.235977"><ele>31.8</ele></trkpt>
      <trkpt lat="53.738317" lon="12.236369"><ele>30.0</ele></trkpt>
      <trkpt lat="53.737562" lon="12.236942"><ele>30.0</ele></trkpt>
      <trkpt lat="53.736990" lon="12.237270"><ele>32.0</ele></trkpt>
      <trkpt lat="53.736080" lon="12.238022"><ele>36.8</ele></trkpt>
      <trkpt lat="53.734580" lon="12.239217"><ele>42.5</ele></trkpt>
      <trkpt lat="53.732363" lon="12.240428"><ele>46.5</ele></trkpt>
      <trkpt lat="53.731627" lon="12.240788"><ele>43.5</ele></trkpt>
      <trkpt lat="53.730678" lon="12.241525"><ele>40.8</ele></trkpt>
      <trkpt lat="53.729003" lon="12.242916"><ele>40.5</ele></trkpt>
      <trkpt lat="53.728025" lon="12.243833"><ele>37.0</ele></trkpt>
      <trkpt lat="53.726950" lon="12.244733"><ele>35.0</ele></trkpt>
      <trkpt lat="53.726650" lon="12.245109"><ele>34.8</ele></trkpt>
      <trkpt lat="53.726166" lon="12.246059"><ele>34.8</ele></trkpt>
      <trkpt lat="53.725420" lon="12.247581"><ele>35.0</ele></trkpt>
      <trkpt lat="53.725013" lon="12.248383"><ele>35.0</ele></trkpt>
      <trkpt lat="53.724645" lon="12.248907"><ele>35.8</ele></trkpt>
      <trkpt lat="53.724200" lon="12.249381"><ele>35.8</ele></trkpt>
      <trkpt lat="53.723628" lon="12.249659"><ele>35.0</ele></trkpt>
      <trkpt lat="53.722873" lon="12.250052"><ele>37.0</ele></trkpt>
      <trkpt lat="53.722476" lon="12.250378"><ele>36.8</ele></trkpt>
      <trkpt lat="53.722308" lon="12.250619"><ele>36.5</ele></trkpt>
      <trkpt lat="53.722099" lon="12.250827"><ele>36.0</ele></trkpt>
      <trkpt lat="53.721516" lon="12.252081"><ele>37.0</ele></trkpt>
      <trkpt lat="53.721374" lon="12.252296"><ele>36.0</ele></trkpt>
      <trkpt lat="53.721211" lon="12.252711"><ele>36.0</ele></trkpt>
      <trkpt lat="53.720842" lon="12.253973"><ele>37.2</ele></trkpt>
      <trkpt lat="53.720370" lon="12.255698"><ele>37.2</ele></trkpt>
      <trkpt lat="53.720197" lon="12.256714"><ele>37.5</ele></trkpt>
      <trkpt lat="53.719891" lon="12.258351"><ele>37.5</ele></trkpt>
      <trkpt lat="53.719701" lon="12.259562"><ele>33.5</ele></trkpt>
      <trkpt lat="53.719630" lon="12.260065"><ele>32.8</ele></trkpt>
      <trkpt lat="53.719456" lon="12.260317"><ele>34.0</ele></trkpt>
      <trkpt lat="53.719060" lon="12.260527"><ele>35.0</ele></trkpt>
      <trkpt lat="53.718793" lon="12.260653"><ele>34.0</ele></trkpt>
      <trkpt lat="53.718679" lon="12.260567"><ele>33.2</ele></trkpt>
      <trkpt lat="53.718443" lon="12.260462"><ele>32.8</ele></trkpt>
      <trkpt lat="53.718012" lon="12.260378"><ele>32.5</ele></trkpt>
      <trkpt lat="53.717697" lon="12.260286"><ele>32.8</ele></trkpt>
      <trkpt lat="53.717294" lon="12.260143"><ele>32.5</ele></trkpt>
      <trkpt lat="53.716837" lon="12.259872"><ele>34.0</ele></trkpt>
      <trkpt lat="53.716413" lon="12.259558"><ele>37.0</ele></trkpt>
      <trkpt lat="53.716045" lon="12.259338"><ele>40.5</ele></trkpt>
      <trkpt lat="53.715732" lon="12.259175"><ele>41.8</ele></trkpt>
      <trkpt lat="53.715522" lon="12.259044"><ele>42.0</ele></trkpt>
      <trkpt lat="53.714626" lon="12.258735"><ele>42.5</ele></trkpt>
      <trkpt lat="53.713282" lon="12.257938"><ele>41.5</ele></trkpt>
      <trkpt lat="53.712627" lon="12.257631"><ele>41.8</ele></trkpt>
      <trkpt lat="53.712262" lon="12.257412"><ele>43.0</ele></trkpt>
      <trkpt lat="53.712039" lon="12.257170"><ele>45.5</ele></trkpt>
      <trkpt lat="53.711833" lon="12.256839"><ele>47.2</ele></trkpt>
      <trkpt lat="53.711526" lon="12.256297"><ele>50.5</ele></trkpt>
      <trkpt lat="53.711389" lon="12.256096"><ele>52.0</ele></trkpt>
      <trkpt lat="53.711217" lon="12.255939"><ele>52.5</ele></trkpt>
      <trkpt lat="53.711005" lon="12.255819"><ele>53.0</ele></trkpt>
      <trkpt lat="53.709867" lon="12.254921"><ele>48.5</ele></trkpt>
      <trkpt lat="53.709484" lon="12.254556"><ele>47.0</ele></trkpt>
      <trkpt lat="53.709108" lon="12.254103"><ele>46.8</ele></trkpt>
      <trkpt lat="53.705683" lon="12.249523"><ele>51.5</ele></trkpt>
      <trkpt lat="53.704648" lon="12.251188"><ele>51.8</ele></trkpt>
      <trkpt lat="53.704082" lon="12.252483"><ele>55.0</ele></trkpt>
      <trkpt lat="53.703135" lon="12.254712"><ele>53.0</ele></trkpt>
      <trkpt lat="53.702136" lon="12.257296"><ele>47.5</ele></trkpt>
      <trkpt lat="53.701982" lon="12.257714"><ele>47.0</ele></trkpt>
      <trkpt lat="53.701965" lon="12.257817"><ele>46.8</ele></trkpt>
      <trkpt lat="53.701956" lon="12.257919"><ele>46.2</ele></trkpt>
      <trkpt lat="53.701935" lon="12.258167"><ele>45.5</ele></trkpt>
      <trkpt lat="53.701876" lon="12.258254"><ele>45.2</ele></trkpt>
      <trkpt lat="53.700388" lon="12.259556"><ele>45.0</ele></trkpt>
      <trkpt lat="53.700125" lon="12.259997"><ele>45.0</ele></trkpt>
      <trkpt lat="53.699943" lon="12.260743"><ele>45.0</ele></trkpt>
      <trkpt lat="53.699929" lon="12.261399"><ele>45.0</ele></trkpt>
      <trkpt lat="53.699940" lon="12.262856"><ele>47.5</ele></trkpt>
      <trkpt lat="53.699935" lon="12.264850"><ele>48.0</ele></trkpt>
      <trkpt lat="53.699938" lon="12.265764"><ele>48.8</ele></trkpt>
      <trkpt lat="53.699959" lon="12.266259"><ele>48.2</ele></trkpt>
      <trkpt lat="53.699943" lon="12.266964"><ele>48.0</ele></trkpt>
      <trkpt lat="53.699934" lon="12.267341"><ele>47.5</ele></trkpt>
      <trkpt lat="53.699775" lon="12.268179"><ele>47.0</ele></trkpt>
      <trkpt lat="53.699489" lon="12.269803"><ele>46.0</ele></trkpt>
      <trkpt lat="53.699311" lon="12.270658"><ele>45.2</ele></trkpt>
      <trkpt lat="53.698660" lon="12.272271"><ele>41.8</ele></trkpt>
      <trkpt lat="53.698474" lon="12.272423"><ele>42.0</ele></trkpt>
      <trkpt lat="53.698144" lon="12.272504"><ele>41.2</ele></trkpt>
      <trkpt lat="53.697314" lon="12.272933"><ele>41.0</ele></trkpt>
      <trkpt lat="53.697008" lon="12.273082"><ele>41.0</ele></trkpt>
      <trkpt lat="53.696870" lon="12.273139"><ele>41.2</ele></trkpt>
      <trkpt lat="53.696676" lon="12.273131"><ele>42.0</ele></trkpt>
      <trkpt lat="53.696543" lon="12.273171"><ele>43.0</ele></trkpt>
      <trkpt lat="53.696437" lon="12.273255"><ele>43.8</ele></trkpt>
      <trkpt lat="53.696006" lon="12.274034"><ele>45.0</ele></trkpt>
      <trkpt lat="53.695886" lon="12.274103"><ele>45.0</ele></trkpt>
      <trkpt lat="53.695869" lon="12.274113"><ele>45.0</ele></trkpt>
      <trkpt lat="53.695779" lon="12.274164"><ele>45.0</ele></trkpt>
      <trkpt lat="53.695745" lon="12.274226"><ele>45.0</ele></trkpt>
      <trkpt lat="53.695650" lon="12.274104"><ele>45.0</ele></trkpt>
      <trkpt lat="53.695291" lon="12.273623"><ele>44.0</ele></trkpt>
      <trkpt lat="53.695141" lon="12.273420"><ele>43.8</ele></trkpt>
      <trkpt lat="53.695037" lon="12.273281"><ele>44.0</ele></trkpt>
      <trkpt lat="53.694931" lon="12.273135"><ele>43.8</ele></trkpt>
      <trkpt lat="53.694495" lon="12.272536"><ele>44.0</ele></trkpt>
      <trkpt lat="53.694518" lon="12.272435"><ele>44.2</ele></trkpt>
      <trkpt lat="53.694485" lon="12.272324"><ele>44.5</ele></trkpt>
      <trkpt lat="53.693650" lon="12.271133"><ele>46.0</ele></trkpt>
      <trkpt lat="53.693464" lon="12.270896"><ele>45.2</ele></trkpt>
      <trkpt lat="53.693159" lon="12.270484"><ele>45.0</ele></trkpt>
      <trkpt lat="53.692790" lon="12.270041"><ele>45.0</ele></trkpt>
      <trkpt lat="53.692671" lon="12.269815"><ele>45.0</ele></trkpt>
      <trkpt lat="53.692477" lon="12.269644"><ele>45.0</ele></trkpt>
      <trkpt lat="53.692131" lon="12.269369"><ele>45.5</ele></trkpt>
      <trkpt lat="53.691961" lon="12.269284"><ele>46.5</ele></trkpt>
      <trkpt lat="53.691583" lon="12.269171"><ele>46.2</ele></trkpt>
      <trkpt lat="53.691286" lon="12.269139"><ele>47.2</ele></trkpt>
      <trkpt lat="53.690542" lon="12.268905"><ele>45.8</ele></trkpt>
      <trkpt lat="53.690054" lon="12.268890"><ele>46.8</ele></trkpt>
      <trkpt lat="53.689749" lon="12.268832"><ele>48.0</ele></trkpt>
      <trkpt lat="53.689338" lon="12.268663"><ele>50.5</ele></trkpt>
      <trkpt lat="53.688919" lon="12.268682"><ele>50.0</ele></trkpt>
      <trkpt lat="53.688674" lon="12.268737"><ele>50.0</ele></trkpt>
      <trkpt lat="53.686790" lon="12.268803"><ele>49.8</ele></trkpt>
      <trkpt lat="53.686637" lon="12.268789"><ele>50.0</ele></trkpt>
      <trkpt lat="53.686503" lon="12.268778"><ele>50.0</ele></trkpt>
      <trkpt lat="53.686287" lon="12.268735"><ele>50.5</ele></trkpt>
      <trkpt lat="53.686115" lon="12.268673"><ele>50.8</ele></trkpt>
      <trkpt lat="53.685947" lon="12.268626"><ele>51.5</ele></trkpt>
      <trkpt lat="53.685421" lon="12.268349"><ele>52.0</ele></trkpt>
      <trkpt lat="53.685314" lon="12.268330"><ele>52.0</ele></trkpt>
      <trkpt lat="53.684982" lon="12.268127"><ele>51.8</ele></trkpt>
      <trkpt lat="53.684840" lon="12.268123"><ele>52.0</ele></trkpt>
      <trkpt lat="53.684266" lon="12.267810"><ele>52.2</ele></trkpt>
      <trkpt lat="53.683952" lon="12.267659"><ele>52.2</ele></trkpt>
      <trkpt lat="53.683652" lon="12.267612"><ele>52.0</ele></trkpt>
      <trkpt lat="53.681573" lon="12.267751"><ele>53.0</ele></trkpt>
      <trkpt lat="53.678315" lon="12.267992"><ele>52.0</ele></trkpt>
      <trkpt lat="53.677913" lon="12.268158"><ele>54.0</ele></trkpt>
      <trkpt lat="53.677044" lon="12.268567"><ele>52.8</ele></trkpt>
      <trkpt lat="53.676278" lon="12.268779"><ele>52.0</ele></trkpt>
      <trkpt lat="53.675643" lon="12.268745"><ele>52.2</ele></trkpt>
      <trkpt lat="53.673267" lon="12.267918"><ele>56.0</ele></trkpt>
      <trkpt lat="53.672692" lon="12.267832"><ele>56.8</ele></trkpt>
      <trkpt lat="53.672539" lon="12.267828"><ele>56.2</ele></trkpt>
      <trkpt lat="53.670726" lon="12.267915"><ele>55.2</ele></trkpt>
      <trkpt lat="53.668354" lon="12.268043"><ele>54.0</ele></trkpt>
      <trkpt lat="53.668306" lon="12.268015"><ele>53.8</ele></trkpt>
      <trkpt lat="53.668251" lon="12.268013"><ele>53.5</ele></trkpt>
      <trkpt lat="53.668183" lon="12.268016"><ele>53.5</ele></trkpt>
      <trkpt lat="53.668102" lon="12.268016"><ele>53.2</ele></trkpt>
      <trkpt lat="53.668070" lon="12.268055"><ele>53.0</ele></trkpt>
      <trkpt lat="53.668006" lon="12.268093"><ele>52.8</ele></trkpt>
      <trkpt lat="53.667917" lon="12.268092"><ele>52.8</ele></trkpt>
      <trkpt lat="53.667917" lon="12.268145"><ele>52.8</ele></trkpt>
      <trkpt lat="53.667917" lon="12.268175"><ele>52.8</ele></trkpt>
      <trkpt lat="53.667917" lon="12.268210"><ele>52.5</ele></trkpt>
      <trkpt lat="53.667917" lon="12.268232"><ele>52.5</ele></trkpt>
      <trkpt lat="53.667917" lon="12.268289"><ele>52.5</ele></trkpt>
      <trkpt lat="53.667547" lon="12.268275"><ele>51.2</ele></trkpt>
      <trkpt lat="53.666208" lon="12.268340"><ele>50.5</ele></trkpt>
      <trkpt lat="53.665174" lon="12.268414"><ele>52.2</ele></trkpt>
      <trkpt lat="53.664372" lon="12.268429"><ele>53.2</ele></trkpt>
      <trkpt lat="53.661923" lon="12.268077"><ele>54.8</ele></trkpt>
      <trkpt lat="53.661164" lon="12.267978"><ele>51.5</ele></trkpt>
      <trkpt lat="53.660845" lon="12.267919"><ele>52.2</ele></trkpt>
      <trkpt lat="53.660691" lon="12.267904"><ele>52.5</ele></trkpt>
      <trkpt lat="53.660083" lon="12.267803"><ele>52.0</ele></trkpt>
      <trkpt lat="53.659329" lon="12.267773"><ele>51.5</ele></trkpt>
      <trkpt lat="53.659329" lon="12.267929"><ele>51.0</ele></trkpt>
      <trkpt lat="53.659330" lon="12.268205"><ele>50.2</ele></trkpt>
      <trkpt lat="53.659331" lon="12.268298"><ele>50.0</ele></trkpt>
      <trkpt lat="53.659264" lon="12.269154"><ele>49.0</ele></trkpt>
      <trkpt lat="53.659226" lon="12.269513"><ele>49.0</ele></trkpt>
      <trkpt lat="53.659213" lon="12.269637"><ele>49.0</ele></trkpt>
      <trkpt lat="53.659131" lon="12.270420"><ele>49.0</ele></trkpt>
      <trkpt lat="53.659114" lon="12.270563"><ele>48.8</ele></trkpt>
      <trkpt lat="53.659096" lon="12.270706"><ele>48.5</ele></trkpt>
      <trkpt lat="53.659037" lon="12.270967"><ele>48.5</ele></trkpt>
      <trkpt lat="53.658920" lon="12.271266"><ele>49.0</ele></trkpt>
      <trkpt lat="53.658807" lon="12.271554"><ele>49.5</ele></trkpt>
      <trkpt lat="53.658664" lon="12.271934"><ele>50.0</ele></trkpt>
      <trkpt lat="53.658568" lon="12.272187"><ele>50.0</ele></trkpt>
      <trkpt lat="53.658492" lon="12.272388"><ele>50.0</ele></trkpt>
      <trkpt lat="53.658440" lon="12.272442"><ele>50.0</ele></trkpt>
      <trkpt lat="53.658216" lon="12.272590"><ele>49.5</ele></trkpt>
      <trkpt lat="53.657963" lon="12.272757"><ele>48.5</ele></trkpt>
      <trkpt lat="53.657889" lon="12.272631"><ele>48.2</ele></trkpt>
      <trkpt lat="53.657802" lon="12.272240"><ele>49.0</ele></trkpt>
      <trkpt lat="53.657715" lon="12.271970"><ele>48.8</ele></trkpt>
      <trkpt lat="53.657665" lon="12.271880"><ele>48.8</ele></trkpt>
      <trkpt lat="53.657613" lon="12.271821"><ele>48.8</ele></trkpt>
      <trkpt lat="53.657497" lon="12.271739"><ele>48.5</ele></trkpt>
      <trkpt lat="53.657422" lon="12.271694"><ele>48.5</ele></trkpt>
      <trkpt lat="53.657339" lon="12.271682"><ele>48.2</ele></trkpt>
      <trkpt lat="53.657160" lon="12.271694"><ele>48.0</ele></trkpt>
      <trkpt lat="53.656908" lon="12.271657"><ele>48.0</ele></trkpt>
      <trkpt lat="53.656690" lon="12.271602"><ele>48.0</ele></trkpt>
      <trkpt lat="53.656438" lon="12.271446"><ele>48.0</ele></trkpt>
      <trkpt lat="53.656330" lon="12.271316"><ele>48.0</ele></trkpt>
      <trkpt lat="53.656264" lon="12.271181"><ele>48.0</ele></trkpt>
      <trkpt lat="53.656185" lon="12.270915"><ele>48.0</ele></trkpt>
      <trkpt lat="53.656145" lon="12.270818"><ele>48.0</ele></trkpt>
      <trkpt lat="53.655946" lon="12.270641"><ele>48.0</ele></trkpt>
      <trkpt lat="53.655819" lon="12.270568"><ele>48.0</ele></trkpt>
      <trkpt lat="53.655687" lon="12.270539"><ele>48.0</ele></trkpt>
      <trkpt lat="53.655589" lon="12.270540"><ele>48.0</ele></trkpt>
      <trkpt lat="53.655318" lon="12.270607"><ele>48.0</ele></trkpt>
      <trkpt lat="53.655212" lon="12.270601"><ele>48.0</ele></trkpt>
      <trkpt lat="53.654945" lon="12.270518"><ele>48.0</ele></trkpt>
      <trkpt lat="53.654848" lon="12.270485"><ele>48.0</ele></trkpt>
      <trkpt lat="53.654804" lon="12.270510"><ele>48.0</ele></trkpt>
      <trkpt lat="53.654730" lon="12.270521"><ele>48.0</ele></trkpt>
      <trkpt lat="53.654455" lon="12.270473"><ele>48.0</ele></trkpt>
      <trkpt lat="53.654405" lon="12.270468"><ele>48.0</ele></trkpt>
      <trkpt lat="53.654142" lon="12.270434"><ele>48.0</ele></trkpt>
      <trkpt lat="53.654079" lon="12.270446"><ele>48.0</ele></trkpt>
      <trkpt lat="53.653784" lon="12.270737"><ele>48.0</ele></trkpt>
      <trkpt lat="53.653580" lon="12.270951"><ele>48.0</ele></trkpt>
      <trkpt lat="53.653220" lon="12.271344"><ele>48.2</ele></trkpt>
      <trkpt lat="53.653169" lon="12.271230"><ele>48.5</ele></trkpt>
      <trkpt lat="53.652843" lon="12.270354"><ele>50.0</ele></trkpt>
      <trkpt lat="53.652772" lon="12.270352"><ele>50.0</ele></trkpt>
      <trkpt lat="53.653040" lon="12.270153"><ele>50.0</ele></trkpt>
    </trkseg>
  </trk>
</gpx>
