<?xml version="1.0" encoding="UTF-8"?>
<gpx version="1.1" creator="Gravel Kompass" xmlns="http://www.topografix.com/GPX/1/1">
  <metadata><name>Nördlingen–Ries-Runde: Kraterbecken, Klosterschenke und Fürstlicher Biergarten</name></metadata>
  <trk>
    <name>Nördlingen–Ries-Runde: Kraterbecken, Klosterschenke und Fürstlicher Biergarten (komplett)</name>
    <trkseg>
      <trkpt lat="48.851706" lon="10.488623"><ele>432.5</ele></trkpt>
      <trkpt lat="48.851932" lon="10.488480"><ele>432.5</ele></trkpt>
      <trkpt lat="48.851906" lon="10.488321"><ele>431.8</ele></trkpt>
      <trkpt lat="48.851869" lon="10.488098"><ele>430.5</ele></trkpt>
      <trkpt lat="48.851925" lon="10.488047"><ele>430.0</ele></trkpt>
      <trkpt lat="48.852087" lon="10.487923"><ele>430.2</ele></trkpt>
      <trkpt lat="48.852222" lon="10.487803"><ele>429.2</ele></trkpt>
      <trkpt lat="48.852380" lon="10.487693"><ele>428.8</ele></trkpt>
      <trkpt lat="48.852537" lon="10.487587"><ele>428.2</ele></trkpt>
      <trkpt lat="48.852563" lon="10.487562"><ele>428.0</ele></trkpt>
      <trkpt lat="48.852665" lon="10.487455"><ele>427.8</ele></trkpt>
      <trkpt lat="48.852726" lon="10.487303"><ele>427.2</ele></trkpt>
      <trkpt lat="48.852879" lon="10.487009"><ele>427.0</ele></trkpt>
      <trkpt lat="48.852898" lon="10.486956"><ele>427.0</ele></trkpt>
      <trkpt lat="48.852933" lon="10.486844"><ele>427.0</ele></trkpt>
      <trkpt lat="48.852986" lon="10.486729"><ele>427.0</ele></trkpt>
      <trkpt lat="48.853000" lon="10.486698"><ele>427.0</ele></trkpt>
      <trkpt lat="48.853170" lon="10.486331"><ele>427.2</ele></trkpt>
      <trkpt lat="48.853532" lon="10.485421"><ele>427.8</ele></trkpt>
      <trkpt lat="48.853627" lon="10.485328"><ele>427.8</ele></trkpt>
      <trkpt lat="48.853642" lon="10.485290"><ele>427.8</ele></trkpt>
      <trkpt lat="48.853736" lon="10.485119"><ele>427.5</ele></trkpt>
      <trkpt lat="48.853838" lon="10.484908"><ele>428.0</ele></trkpt>
      <trkpt lat="48.853858" lon="10.484781"><ele>428.0</ele></trkpt>
      <trkpt lat="48.853884" lon="10.484740"><ele>428.0</ele></trkpt>
      <trkpt lat="48.853927" lon="10.484657"><ele>427.2</ele></trkpt>
      <trkpt lat="48.853975" lon="10.484560"><ele>426.5</ele></trkpt>
      <trkpt lat="48.854100" lon="10.484296"><ele>426.8</ele></trkpt>
      <trkpt lat="48.854136" lon="10.484216"><ele>428.0</ele></trkpt>
      <trkpt lat="48.854270" lon="10.483929"><ele>428.2</ele></trkpt>
      <trkpt lat="48.854284" lon="10.483884"><ele>428.2</ele></trkpt>
      <trkpt lat="48.854364" lon="10.483731"><ele>428.2</ele></trkpt>
      <trkpt lat="48.854439" lon="10.483571"><ele>428.0</ele></trkpt>
      <trkpt lat="48.854472" lon="10.483500"><ele>427.8</ele></trkpt>
      <trkpt lat="48.854660" lon="10.483108"><ele>428.0</ele></trkpt>
      <trkpt lat="48.854718" lon="10.482988"><ele>428.0</ele></trkpt>
      <trkpt lat="48.854810" lon="10.482786"><ele>427.5</ele></trkpt>
      <trkpt lat="48.854880" lon="10.482619"><ele>427.8</ele></trkpt>
      <trkpt lat="48.854932" lon="10.482486"><ele>428.0</ele></trkpt>
      <trkpt lat="48.855443" lon="10.481250"><ele>427.5</ele></trkpt>
      <trkpt lat="48.855473" lon="10.481199"><ele>427.2</ele></trkpt>
      <trkpt lat="48.855477" lon="10.481148"><ele>427.2</ele></trkpt>
      <trkpt lat="48.855773" lon="10.480433"><ele>428.0</ele></trkpt>
      <trkpt lat="48.855840" lon="10.480272"><ele>427.8</ele></trkpt>
      <trkpt lat="48.855840" lon="10.480228"><ele>427.8</ele></trkpt>
      <trkpt lat="48.855857" lon="10.480166"><ele>427.8</ele></trkpt>
      <trkpt lat="48.856082" lon="10.479641"><ele>427.8</ele></trkpt>
      <trkpt lat="48.856294" lon="10.479162"><ele>428.0</ele></trkpt>
      <trkpt lat="48.856439" lon="10.478816"><ele>428.0</ele></trkpt>
      <trkpt lat="48.856539" lon="10.478570"><ele>428.0</ele></trkpt>
      <trkpt lat="48.856614" lon="10.478377"><ele>428.0</ele></trkpt>
      <trkpt lat="48.856766" lon="10.477980"><ele>427.8</ele></trkpt>
      <trkpt lat="48.856779" lon="10.477952"><ele>427.8</ele></trkpt>
      <trkpt lat="48.857017" lon="10.477402"><ele>427.5</ele></trkpt>
      <trkpt lat="48.857086" lon="10.477244"><ele>427.2</ele></trkpt>
      <trkpt lat="48.857141" lon="10.477129"><ele>427.0</ele></trkpt>
      <trkpt lat="48.857459" lon="10.476470"><ele>427.0</ele></trkpt>
      <trkpt lat="48.857821" lon="10.475755"><ele>426.8</ele></trkpt>
      <trkpt lat="48.858010" lon="10.475467"><ele>427.0</ele></trkpt>
      <trkpt lat="48.858052" lon="10.475400"><ele>427.0</ele></trkpt>
      <trkpt lat="48.858233" lon="10.475168"><ele>427.8</ele></trkpt>
      <trkpt lat="48.858367" lon="10.474990"><ele>428.0</ele></trkpt>
      <trkpt lat="48.858466" lon="10.474838"><ele>428.0</ele></trkpt>
      <trkpt lat="48.858567" lon="10.474668"><ele>428.0</ele></trkpt>
      <trkpt lat="48.858646" lon="10.474538"><ele>428.0</ele></trkpt>
      <trkpt lat="48.858868" lon="10.474105"><ele>428.8</ele></trkpt>
      <trkpt lat="48.858889" lon="10.474067"><ele>429.0</ele></trkpt>
      <trkpt lat="48.858937" lon="10.473981"><ele>429.0</ele></trkpt>
      <trkpt lat="48.858964" lon="10.473928"><ele>429.0</ele></trkpt>
      <trkpt lat="48.859023" lon="10.473835"><ele>429.0</ele></trkpt>
      <trkpt lat="48.859070" lon="10.473763"><ele>429.0</ele></trkpt>
      <trkpt lat="48.859124" lon="10.473687"><ele>429.0</ele></trkpt>
      <trkpt lat="48.859149" lon="10.473657"><ele>429.0</ele></trkpt>
      <trkpt lat="48.859157" lon="10.473648"><ele>429.0</ele></trkpt>
      <trkpt lat="48.859277" lon="10.473506"><ele>429.0</ele></trkpt>
      <trkpt lat="48.859437" lon="10.473328"><ele>429.0</ele></trkpt>
      <trkpt lat="48.859651" lon="10.473049"><ele>430.0</ele></trkpt>
      <trkpt lat="48.859899" lon="10.472631"><ele>430.0</ele></trkpt>
      <trkpt lat="48.860095" lon="10.472287"><ele>430.2</ele></trkpt>
      <trkpt lat="48.860286" lon="10.472008"><ele>430.2</ele></trkpt>
      <trkpt lat="48.860573" lon="10.471625"><ele>430.0</ele></trkpt>
      <trkpt lat="48.860614" lon="10.471573"><ele>430.2</ele></trkpt>
      <trkpt lat="48.860695" lon="10.471460"><ele>430.8</ele></trkpt>
      <trkpt lat="48.861064" lon="10.470977"><ele>431.0</ele></trkpt>
      <trkpt lat="48.861202" lon="10.470805"><ele>431.2</ele></trkpt>
      <trkpt lat="48.861376" lon="10.470617"><ele>431.8</ele></trkpt>
      <trkpt lat="48.861645" lon="10.470212"><ele>431.8</ele></trkpt>
      <trkpt lat="48.861736" lon="10.470051"><ele>432.0</ele></trkpt>
      <trkpt lat="48.861791" lon="10.469951"><ele>432.0</ele></trkpt>
      <trkpt lat="48.861873" lon="10.469800"><ele>432.5</ele></trkpt>
      <trkpt lat="48.862212" lon="10.469316"><ele>433.8</ele></trkpt>
      <trkpt lat="48.865264" lon="10.464822"><ele>434.8</ele></trkpt>
      <trkpt lat="48.865582" lon="10.464343"><ele>434.5</ele></trkpt>
      <trkpt lat="48.868855" lon="10.459607"><ele>436.8</ele></trkpt>
      <trkpt lat="48.869922" lon="10.459914"><ele>436.0</ele></trkpt>
      <trkpt lat="48.871396" lon="10.460349"><ele>435.0</ele></trkpt>
      <trkpt lat="48.871597" lon="10.459176"><ele>435.8</ele></trkpt>
      <trkpt lat="48.871874" lon="10.458040"><ele>436.2</ele></trkpt>
      <trkpt lat="48.872045" lon="10.457513"><ele>436.0</ele></trkpt>
      <trkpt lat="48.872369" lon="10.456722"><ele>437.0</ele></trkpt>
      <trkpt lat="48.872571" lon="10.456276"><ele>436.5</ele></trkpt>
      <trkpt lat="48.872772" lon="10.455930"><ele>437.2</ele></trkpt>
      <trkpt lat="48.873147" lon="10.455323"><ele>437.5</ele></trkpt>
      <trkpt lat="48.873720" lon="10.454613"><ele>438.0</ele></trkpt>
      <trkpt lat="48.874201" lon="10.454183"><ele>438.2</ele></trkpt>
      <trkpt lat="48.874334" lon="10.454071"><ele>438.8</ele></trkpt>
      <trkpt lat="48.874574" lon="10.453893"><ele>438.8</ele></trkpt>
      <trkpt lat="48.875255" lon="10.453490"><ele>440.0</ele></trkpt>
      <trkpt lat="48.875645" lon="10.453306"><ele>439.5</ele></trkpt>
      <trkpt lat="48.876068" lon="10.453172"><ele>440.2</ele></trkpt>
      <trkpt lat="48.876510" lon="10.453102"><ele>440.0</ele></trkpt>
      <trkpt lat="48.877026" lon="10.453075"><ele>440.0</ele></trkpt>
      <trkpt lat="48.877797" lon="10.453218"><ele>439.8</ele></trkpt>
      <trkpt lat="48.878529" lon="10.453421"><ele>439.0</ele></trkpt>
      <trkpt lat="48.879268" lon="10.453700"><ele>438.0</ele></trkpt>
      <trkpt lat="48.880542" lon="10.454050"><ele>436.8</ele></trkpt>
      <trkpt lat="48.880912" lon="10.454175"><ele>435.0</ele></trkpt>
      <trkpt lat="48.880831" lon="10.454619"><ele>434.2</ele></trkpt>
      <trkpt lat="48.880800" lon="10.454696"><ele>434.0</ele></trkpt>
      <trkpt lat="48.880765" lon="10.454734"><ele>433.8</ele></trkpt>
      <trkpt lat="48.880549" lon="10.454689"><ele>434.5</ele></trkpt>
      <trkpt lat="48.880349" lon="10.454594"><ele>435.8</ele></trkpt>
      <trkpt lat="48.880138" lon="10.455175"><ele>434.0</ele></trkpt>
      <trkpt lat="48.879930" lon="10.456353"><ele>433.2</ele></trkpt>
      <trkpt lat="48.879755" lon="10.457283"><ele>433.8</ele></trkpt>
      <trkpt lat="48.879486" lon="10.459286"><ele>432.8</ele></trkpt>
      <trkpt lat="48.879318" lon="10.459829"><ele>432.8</ele></trkpt>
      <trkpt lat="48.878612" lon="10.461932"><ele>431.8</ele></trkpt>
      <trkpt lat="48.878300" lon="10.463154"><ele>431.5</ele></trkpt>
      <trkpt lat="48.879203" lon="10.463575"><ele>432.0</ele></trkpt>
      <trkpt lat="48.878557" lon="10.465846"><ele>430.8</ele></trkpt>
      <trkpt lat="48.878297" lon="10.466612"><ele>430.5</ele></trkpt>
      <trkpt lat="48.878056" lon="10.467383"><ele>430.5</ele></trkpt>
      <trkpt lat="48.877958" lon="10.467745"><ele>430.5</ele></trkpt>
      <trkpt lat="48.877921" lon="10.467856"><ele>430.5</ele></trkpt>
      <trkpt lat="48.877835" lon="10.468153"><ele>430.5</ele></trkpt>
      <trkpt lat="48.877671" lon="10.468578"><ele>430.5</ele></trkpt>
      <trkpt lat="48.877427" lon="10.469152"><ele>430.5</ele></trkpt>
      <trkpt lat="48.877293" lon="10.469427"><ele>430.2</ele></trkpt>
      <trkpt lat="48.877192" lon="10.469764"><ele>429.8</ele></trkpt>
      <trkpt lat="48.877775" lon="10.470017"><ele>432.8</ele></trkpt>
      <trkpt lat="48.878042" lon="10.470128"><ele>433.8</ele></trkpt>
      <trkpt lat="48.878548" lon="10.470368"><ele>435.8</ele></trkpt>
      <trkpt lat="48.878645" lon="10.470414"><ele>436.0</ele></trkpt>
      <trkpt lat="48.878761" lon="10.470472"><ele>436.0</ele></trkpt>
      <trkpt lat="48.878949" lon="10.470547"><ele>436.0</ele></trkpt>
      <trkpt lat="48.879009" lon="10.470569"><ele>436.2</ele></trkpt>
      <trkpt lat="48.879162" lon="10.470687"><ele>436.0</ele></trkpt>
      <trkpt lat="48.879370" lon="10.470874"><ele>435.5</ele></trkpt>
      <trkpt lat="48.879488" lon="10.470980"><ele>435.2</ele></trkpt>
      <trkpt lat="48.879554" lon="10.471017"><ele>435.2</ele></trkpt>
      <trkpt lat="48.879593" lon="10.471023"><ele>435.2</ele></trkpt>
      <trkpt lat="48.879643" lon="10.471003"><ele>435.2</ele></trkpt>
      <trkpt lat="48.879688" lon="10.470935"><ele>435.5</ele></trkpt>
      <trkpt lat="48.879713" lon="10.470866"><ele>435.8</ele></trkpt>
      <trkpt lat="48.880051" lon="10.471013"><ele>435.8</ele></trkpt>
      <trkpt lat="48.881091" lon="10.471467"><ele>434.0</ele></trkpt>
      <trkpt lat="48.881849" lon="10.471834"><ele>433.0</ele></trkpt>
      <trkpt lat="48.883471" lon="10.472840"><ele>431.0</ele></trkpt>
      <trkpt lat="48.884160" lon="10.473492"><ele>432.5</ele></trkpt>
      <trkpt lat="48.884390" lon="10.473592"><ele>432.8</ele></trkpt>
      <trkpt lat="48.884916" lon="10.473834"><ele>435.8</ele></trkpt>
      <trkpt lat="48.885099" lon="10.473900"><ele>436.5</ele></trkpt>
      <trkpt lat="48.885248" lon="10.473935"><ele>437.8</ele></trkpt>
      <trkpt lat="48.885279" lon="10.473942"><ele>438.0</ele></trkpt>
      <trkpt lat="48.885483" lon="10.474047"><ele>438.5</ele></trkpt>
      <trkpt lat="48.885574" lon="10.473652"><ele>439.0</ele></trkpt>
      <trkpt lat="48.885710" lon="10.473095"><ele>439.0</ele></trkpt>
      <trkpt lat="48.885722" lon="10.473105"><ele>439.0</ele></trkpt>
      <trkpt lat="48.885776" lon="10.473151"><ele>439.5</ele></trkpt>
      <trkpt lat="48.885832" lon="10.473206"><ele>439.8</ele></trkpt>
      <trkpt lat="48.885869" lon="10.473242"><ele>440.0</ele></trkpt>
      <trkpt lat="48.885853" lon="10.473312"><ele>440.0</ele></trkpt>
      <trkpt lat="48.885809" lon="10.473540"><ele>439.8</ele></trkpt>
      <trkpt lat="48.886326" lon="10.473647"><ele>440.8</ele></trkpt>
      <trkpt lat="48.886595" lon="10.473681"><ele>442.5</ele></trkpt>
      <trkpt lat="48.886697" lon="10.473694"><ele>443.0</ele></trkpt>
      <trkpt lat="48.886758" lon="10.473701"><ele>443.2</ele></trkpt>
      <trkpt lat="48.886860" lon="10.473714"><ele>443.8</ele></trkpt>
      <trkpt lat="48.886937" lon="10.473728"><ele>444.2</ele></trkpt>
      <trkpt lat="48.887080" lon="10.473753"><ele>445.5</ele></trkpt>
      <trkpt lat="48.887191" lon="10.473773"><ele>446.5</ele></trkpt>
      <trkpt lat="48.887277" lon="10.473789"><ele>447.2</ele></trkpt>
      <trkpt lat="48.887403" lon="10.473811"><ele>448.2</ele></trkpt>
      <trkpt lat="48.887468" lon="10.473823"><ele>448.8</ele></trkpt>
      <trkpt lat="48.887600" lon="10.473862"><ele>449.8</ele></trkpt>
      <trkpt lat="48.887916" lon="10.473961"><ele>453.0</ele></trkpt>
      <trkpt lat="48.888072" lon="10.474010"><ele>455.2</ele></trkpt>
      <trkpt lat="48.888196" lon="10.474066"><ele>457.8</ele></trkpt>
      <trkpt lat="48.888218" lon="10.473999"><ele>460.0</ele></trkpt>
      <trkpt lat="48.888533" lon="10.473082"><ele>460.0</ele></trkpt>
      <trkpt lat="48.888645" lon="10.472914"><ele>461.5</ele></trkpt>
      <trkpt lat="48.888807" lon="10.472901"><ele>462.5</ele></trkpt>
      <trkpt lat="48.888972" lon="10.472826"><ele>463.5</ele></trkpt>
      <trkpt lat="48.889109" lon="10.472781"><ele>463.8</ele></trkpt>
      <trkpt lat="48.889329" lon="10.472821"><ele>462.0</ele></trkpt>
      <trkpt lat="48.889550" lon="10.472814"><ele>459.8</ele></trkpt>
      <trkpt lat="48.889719" lon="10.472797"><ele>458.0</ele></trkpt>
      <trkpt lat="48.889779" lon="10.472743"><ele>457.2</ele></trkpt>
      <trkpt lat="48.889824" lon="10.472760"><ele>457.0</ele></trkpt>
      <trkpt lat="48.889870" lon="10.472789"><ele>456.8</ele></trkpt>
      <trkpt lat="48.889898" lon="10.472844"><ele>456.5</ele></trkpt>
      <trkpt lat="48.889991" lon="10.472738"><ele>456.0</ele></trkpt>
      <trkpt lat="48.890174" lon="10.471590"><ele>453.2</ele></trkpt>
      <trkpt lat="48.890260" lon="10.471156"><ele>452.0</ele></trkpt>
      <trkpt lat="48.890746" lon="10.471258"><ele>450.2</ele></trkpt>
      <trkpt lat="48.890800" lon="10.471270"><ele>450.0</ele></trkpt>
      <trkpt lat="48.890846" lon="10.471280"><ele>450.0</ele></trkpt>
      <trkpt lat="48.891073" lon="10.471330"><ele>450.0</ele></trkpt>
      <trkpt lat="48.892181" lon="10.471739"><ele>447.0</ele></trkpt>
      <trkpt lat="48.893105" lon="10.472048"><ele>445.8</ele></trkpt>
      <trkpt lat="48.893166" lon="10.472059"><ele>445.5</ele></trkpt>
      <trkpt lat="48.893780" lon="10.472211"><ele>444.2</ele></trkpt>
      <trkpt lat="48.894344" lon="10.472332"><ele>442.0</ele></trkpt>
      <trkpt lat="48.894965" lon="10.472471"><ele>440.0</ele></trkpt>
      <trkpt lat="48.895211" lon="10.472517"><ele>439.0</ele></trkpt>
      <trkpt lat="48.895521" lon="10.472523"><ele>438.8</ele></trkpt>
      <trkpt lat="48.895463" lon="10.473835"><ele>437.2</ele></trkpt>
      <trkpt lat="48.895409" lon="10.474777"><ele>437.5</ele></trkpt>
      <trkpt lat="48.895384" lon="10.475356"><ele>436.8</ele></trkpt>
      <trkpt lat="48.895253" lon="10.477898"><ele>434.0</ele></trkpt>
      <trkpt lat="48.895572" lon="10.477905"><ele>432.8</ele></trkpt>
      <trkpt lat="48.897106" lon="10.477877"><ele>428.5</ele></trkpt>
      <trkpt lat="48.897298" lon="10.477917"><ele>428.2</ele></trkpt>
      <trkpt lat="48.897420" lon="10.477971"><ele>428.0</ele></trkpt>
      <trkpt lat="48.897546" lon="10.478054"><ele>427.8</ele></trkpt>
      <trkpt lat="48.897630" lon="10.478136"><ele>427.5</ele></trkpt>
      <trkpt lat="48.897777" lon="10.478337"><ele>428.0</ele></trkpt>
      <trkpt lat="48.897867" lon="10.478575"><ele>428.0</ele></trkpt>
      <trkpt lat="48.897902" lon="10.478715"><ele>429.0</ele></trkpt>
      <trkpt lat="48.897860" lon="10.478781"><ele>429.5</ele></trkpt>
      <trkpt lat="48.897895" lon="10.479030"><ele>429.2</ele></trkpt>
      <trkpt lat="48.897909" lon="10.479183"><ele>428.0</ele></trkpt>
      <trkpt lat="48.898056" lon="10.479208"><ele>427.0</ele></trkpt>
      <trkpt lat="48.898187" lon="10.479195"><ele>427.2</ele></trkpt>
      <trkpt lat="48.898427" lon="10.479155"><ele>428.0</ele></trkpt>
      <trkpt lat="48.898501" lon="10.479183"><ele>427.8</ele></trkpt>
      <trkpt lat="48.898567" lon="10.479252"><ele>427.8</ele></trkpt>
      <trkpt lat="48.898622" lon="10.479365"><ele>427.8</ele></trkpt>
      <trkpt lat="48.898667" lon="10.479537"><ele>427.5</ele></trkpt>
      <trkpt lat="48.898941" lon="10.481466"><ele>427.8</ele></trkpt>
      <trkpt lat="48.899038" lon="10.482346"><ele>427.5</ele></trkpt>
      <trkpt lat="48.899181" lon="10.483892"><ele>427.0</ele></trkpt>
      <trkpt lat="48.899239" lon="10.485178"><ele>427.2</ele></trkpt>
      <trkpt lat="48.899252" lon="10.485512"><ele>427.2</ele></trkpt>
      <trkpt lat="48.899260" lon="10.485738"><ele>427.8</ele></trkpt>
      <trkpt lat="48.899266" lon="10.485861"><ele>427.8</ele></trkpt>
      <trkpt lat="48.899278" lon="10.486082"><ele>427.2</ele></trkpt>
      <trkpt lat="48.899308" lon="10.486657"><ele>427.8</ele></trkpt>
      <trkpt lat="48.899330" lon="10.487161"><ele>428.0</ele></trkpt>
      <trkpt lat="48.899329" lon="10.487365"><ele>428.2</ele></trkpt>
      <trkpt lat="48.899329" lon="10.487551"><ele>428.5</ele></trkpt>
      <trkpt lat="48.899329" lon="10.487666"><ele>428.5</ele></trkpt>
      <trkpt lat="48.899329" lon="10.487865"><ele>428.5</ele></trkpt>
      <trkpt lat="48.899328" lon="10.488192"><ele>428.8</ele></trkpt>
      <trkpt lat="48.899328" lon="10.488264"><ele>429.0</ele></trkpt>
      <trkpt lat="48.899327" lon="10.488596"><ele>428.5</ele></trkpt>
      <trkpt lat="48.899327" lon="10.488708"><ele>428.8</ele></trkpt>
      <trkpt lat="48.899554" lon="10.488713"><ele>430.0</ele></trkpt>
      <trkpt lat="48.899733" lon="10.488733"><ele>431.0</ele></trkpt>
      <trkpt lat="48.899816" lon="10.488751"><ele>431.2</ele></trkpt>
      <trkpt lat="48.899910" lon="10.488773"><ele>431.5</ele></trkpt>
      <trkpt lat="48.900052" lon="10.488794"><ele>432.2</ele></trkpt>
      <trkpt lat="48.900099" lon="10.488806"><ele>432.5</ele></trkpt>
      <trkpt lat="48.900270" lon="10.488846"><ele>433.8</ele></trkpt>
      <trkpt lat="48.900302" lon="10.488853"><ele>434.0</ele></trkpt>
      <trkpt lat="48.900484" lon="10.488922"><ele>434.5</ele></trkpt>
      <trkpt lat="48.900691" lon="10.488982"><ele>435.2</ele></trkpt>
      <trkpt lat="48.900746" lon="10.488860"><ele>435.5</ele></trkpt>
      <trkpt lat="48.900873" lon="10.488884"><ele>436.0</ele></trkpt>
      <trkpt lat="48.901043" lon="10.488874"><ele>436.0</ele></trkpt>
      <trkpt lat="48.901025" lon="10.489568"><ele>435.8</ele></trkpt>
      <trkpt lat="48.901018" lon="10.490390"><ele>435.5</ele></trkpt>
      <trkpt lat="48.900994" lon="10.492246"><ele>435.0</ele></trkpt>
      <trkpt lat="48.900990" lon="10.492539"><ele>434.8</ele></trkpt>
      <trkpt lat="48.900978" lon="10.492722"><ele>434.5</ele></trkpt>
      <trkpt lat="48.900962" lon="10.493335"><ele>435.0</ele></trkpt>
      <trkpt lat="48.900947" lon="10.494065"><ele>435.0</ele></trkpt>
      <trkpt lat="48.900894" lon="10.496491"><ele>435.0</ele></trkpt>
      <trkpt lat="48.900890" lon="10.496541"><ele>435.0</ele></trkpt>
      <trkpt lat="48.900874" lon="10.496584"><ele>434.8</ele></trkpt>
      <trkpt lat="48.900846" lon="10.496617"><ele>435.0</ele></trkpt>
      <trkpt lat="48.900805" lon="10.496634"><ele>435.0</ele></trkpt>
      <trkpt lat="48.900284" lon="10.496627"><ele>435.0</ele></trkpt>
      <trkpt lat="48.900316" lon="10.496865"><ele>435.0</ele></trkpt>
      <trkpt lat="48.900792" lon="10.500063"><ele>434.8</ele></trkpt>
      <trkpt lat="48.900853" lon="10.500207"><ele>434.8</ele></trkpt>
      <trkpt lat="48.900922" lon="10.500318"><ele>434.5</ele></trkpt>
      <trkpt lat="48.901033" lon="10.500393"><ele>434.2</ele></trkpt>
      <trkpt lat="48.901176" lon="10.500408"><ele>434.0</ele></trkpt>
      <trkpt lat="48.902863" lon="10.500412"><ele>431.5</ele></trkpt>
      <trkpt lat="48.902999" lon="10.500427"><ele>431.0</ele></trkpt>
      <trkpt lat="48.903142" lon="10.500405"><ele>431.0</ele></trkpt>
      <trkpt lat="48.904026" lon="10.500329"><ele>430.0</ele></trkpt>
      <trkpt lat="48.906368" lon="10.500213"><ele>431.8</ele></trkpt>
      <trkpt lat="48.907102" lon="10.500166"><ele>431.0</ele></trkpt>
      <trkpt lat="48.908971" lon="10.499969"><ele>429.5</ele></trkpt>
      <trkpt lat="48.909307" lon="10.499934"><ele>429.0</ele></trkpt>
      <trkpt lat="48.911000" lon="10.499831"><ele>427.2</ele></trkpt>
      <trkpt lat="48.911637" lon="10.499761"><ele>426.8</ele></trkpt>
      <trkpt lat="48.917150" lon="10.499460"><ele>425.5</ele></trkpt>
      <trkpt lat="48.918145" lon="10.499566"><ele>428.0</ele></trkpt>
      <trkpt lat="48.918127" lon="10.499648"><ele>427.5</ele></trkpt>
      <trkpt lat="48.917982" lon="10.500329"><ele>427.5</ele></trkpt>
      <trkpt lat="48.917590" lon="10.501909"><ele>425.8</ele></trkpt>
      <trkpt lat="48.917403" lon="10.502983"><ele>425.0</ele></trkpt>
      <trkpt lat="48.917312" lon="10.503948"><ele>425.0</ele></trkpt>
      <trkpt lat="48.917301" lon="10.504686"><ele>425.0</ele></trkpt>
      <trkpt lat="48.913648" lon="10.504965"><ele>423.8</ele></trkpt>
      <trkpt lat="48.911337" lon="10.505123"><ele>429.0</ele></trkpt>
      <trkpt lat="48.909073" lon="10.505323"><ele>427.5</ele></trkpt>
      <trkpt lat="48.909158" lon="10.511380"><ele>425.0</ele></trkpt>
      <trkpt lat="48.909186" lon="10.513920"><ele>422.8</ele></trkpt>
      <trkpt lat="48.909130" lon="10.514451"><ele>422.8</ele></trkpt>
      <trkpt lat="48.909054" lon="10.514709"><ele>422.2</ele></trkpt>
      <trkpt lat="48.908742" lon="10.515589"><ele>422.0</ele></trkpt>
      <trkpt lat="48.907545" lon="10.518957"><ele>421.5</ele></trkpt>
      <trkpt lat="48.906724" lon="10.520909"><ele>421.0</ele></trkpt>
      <trkpt lat="48.906545" lon="10.521253"><ele>421.0</ele></trkpt>
      <trkpt lat="48.906017" lon="10.521885"><ele>421.2</ele></trkpt>
      <trkpt lat="48.905706" lon="10.522287"><ele>421.0</ele></trkpt>
      <trkpt lat="48.905409" lon="10.522689"><ele>421.0</ele></trkpt>
      <trkpt lat="48.905329" lon="10.522858"><ele>420.8</ele></trkpt>
      <trkpt lat="48.905266" lon="10.523046"><ele>420.8</ele></trkpt>
      <trkpt lat="48.905202" lon="10.523135"><ele>421.0</ele></trkpt>
      <trkpt lat="48.904914" lon="10.523019"><ele>421.2</ele></trkpt>
      <trkpt lat="48.904697" lon="10.522983"><ele>422.0</ele></trkpt>
      <trkpt lat="48.904694" lon="10.525225"><ele>421.0</ele></trkpt>
      <trkpt lat="48.904618" lon="10.525466"><ele>421.0</ele></trkpt>
      <trkpt lat="48.903064" lon="10.527613"><ele>420.5</ele></trkpt>
      <trkpt lat="48.901675" lon="10.529886"><ele>420.2</ele></trkpt>
      <trkpt lat="48.900479" lon="10.531688"><ele>420.0</ele></trkpt>
      <trkpt lat="48.900163" lon="10.532246"><ele>420.0</ele></trkpt>
      <trkpt lat="48.899769" lon="10.533050"><ele>420.0</ele></trkpt>
      <trkpt lat="48.899432" lon="10.533573"><ele>420.0</ele></trkpt>
      <trkpt lat="48.898270" lon="10.535096"><ele>420.0</ele></trkpt>
      <trkpt lat="48.897668" lon="10.535909"><ele>419.8</ele></trkpt>
      <trkpt lat="48.896398" lon="10.537274"><ele>420.2</ele></trkpt>
      <trkpt lat="48.896699" lon="10.537594"><ele>419.8</ele></trkpt>
      <trkpt lat="48.896921" lon="10.537814"><ele>419.0</ele></trkpt>
      <trkpt lat="48.896953" lon="10.537908"><ele>418.8</ele></trkpt>
      <trkpt lat="48.896949" lon="10.537989"><ele>419.0</ele></trkpt>
      <trkpt lat="48.896870" lon="10.538179"><ele>418.8</ele></trkpt>
      <trkpt lat="48.896835" lon="10.538209"><ele>418.8</ele></trkpt>
      <trkpt lat="48.896814" lon="10.538227"><ele>418.8</ele></trkpt>
      <trkpt lat="48.896762" lon="10.538238"><ele>418.8</ele></trkpt>
      <trkpt lat="48.896653" lon="10.538134"><ele>419.5</ele></trkpt>
      <trkpt lat="48.896083" lon="10.537490"><ele>420.0</ele></trkpt>
      <trkpt lat="48.896015" lon="10.537434"><ele>420.2</ele></trkpt>
      <trkpt lat="48.895962" lon="10.537442"><ele>420.0</ele></trkpt>
      <trkpt lat="48.895889" lon="10.537498"><ele>420.0</ele></trkpt>
      <trkpt lat="48.894744" lon="10.539409"><ele>418.8</ele></trkpt>
      <trkpt lat="48.894044" lon="10.540501"><ele>418.5</ele></trkpt>
      <trkpt lat="48.892372" lon="10.537754"><ele>424.0</ele></trkpt>
      <trkpt lat="48.892304" lon="10.537658"><ele>424.2</ele></trkpt>
      <trkpt lat="48.890249" lon="10.535493"><ele>424.0</ele></trkpt>
      <trkpt lat="48.890212" lon="10.535395"><ele>424.0</ele></trkpt>
      <trkpt lat="48.890101" lon="10.535318"><ele>424.0</ele></trkpt>
      <trkpt lat="48.888465" lon="10.533554"><ele>419.8</ele></trkpt>
      <trkpt lat="48.887866" lon="10.533032"><ele>418.8</ele></trkpt>
      <trkpt lat="48.887585" lon="10.532834"><ele>418.8</ele></trkpt>
      <trkpt lat="48.887247" lon="10.532614"><ele>418.2</ele></trkpt>
      <trkpt lat="48.886393" lon="10.532140"><ele>418.0</ele></trkpt>
      <trkpt lat="48.885927" lon="10.531955"><ele>418.8</ele></trkpt>
      <trkpt lat="48.885439" lon="10.531843"><ele>418.5</ele></trkpt>
      <trkpt lat="48.885143" lon="10.531796"><ele>418.0</ele></trkpt>
      <trkpt lat="48.884784" lon="10.531810"><ele>417.8</ele></trkpt>
      <trkpt lat="48.884662" lon="10.531840"><ele>417.8</ele></trkpt>
      <trkpt lat="48.884389" lon="10.532008"><ele>417.8</ele></trkpt>
      <trkpt lat="48.884279" lon="10.532104"><ele>417.5</ele></trkpt>
      <trkpt lat="48.884187" lon="10.532248"><ele>418.0</ele></trkpt>
      <trkpt lat="48.884084" lon="10.532517"><ele>417.5</ele></trkpt>
      <trkpt lat="48.884046" lon="10.532723"><ele>417.8</ele></trkpt>
      <trkpt lat="48.883607" lon="10.536169"><ele>417.8</ele></trkpt>
      <trkpt lat="48.883357" lon="10.538075"><ele>417.0</ele></trkpt>
      <trkpt lat="48.883253" lon="10.538727"><ele>417.5</ele></trkpt>
      <trkpt lat="48.883238" lon="10.538778"><ele>417.5</ele></trkpt>
      <trkpt lat="48.883205" lon="10.538825"><ele>417.5</ele></trkpt>
      <trkpt lat="48.883161" lon="10.538864"><ele>417.2</ele></trkpt>
      <trkpt lat="48.883093" lon="10.538897"><ele>417.0</ele></trkpt>
      <trkpt lat="48.882872" lon="10.538883"><ele>417.0</ele></trkpt>
      <trkpt lat="48.882219" lon="10.538819"><ele>417.0</ele></trkpt>
      <trkpt lat="48.882068" lon="10.538806"><ele>417.0</ele></trkpt>
      <trkpt lat="48.881557" lon="10.538746"><ele>417.5</ele></trkpt>
      <trkpt lat="48.881137" lon="10.538667"><ele>417.8</ele></trkpt>
      <trkpt lat="48.880971" lon="10.538646"><ele>417.8</ele></trkpt>
      <trkpt lat="48.880936" lon="10.538635"><ele>417.8</ele></trkpt>
      <trkpt lat="48.880502" lon="10.538549"><ele>418.0</ele></trkpt>
      <trkpt lat="48.880183" lon="10.538491"><ele>418.0</ele></trkpt>
      <trkpt lat="48.879601" lon="10.538364"><ele>418.0</ele></trkpt>
      <trkpt lat="48.879336" lon="10.538298"><ele>418.0</ele></trkpt>
      <trkpt lat="48.879275" lon="10.538282"><ele>418.0</ele></trkpt>
      <trkpt lat="48.878840" lon="10.538136"><ele>418.2</ele></trkpt>
      <trkpt lat="48.878695" lon="10.538085"><ele>418.5</ele></trkpt>
      <trkpt lat="48.878626" lon="10.538115"><ele>418.8</ele></trkpt>
      <trkpt lat="48.878548" lon="10.538003"><ele>418.8</ele></trkpt>
      <trkpt lat="48.878494" lon="10.537915"><ele>418.8</ele></trkpt>
      <trkpt lat="48.878003" lon="10.537086"><ele>419.0</ele></trkpt>
      <trkpt lat="48.877973" lon="10.537028"><ele>419.0</ele></trkpt>
      <trkpt lat="48.877925" lon="10.536941"><ele>419.0</ele></trkpt>
      <trkpt lat="48.877836" lon="10.536783"><ele>419.0</ele></trkpt>
      <trkpt lat="48.877721" lon="10.536569"><ele>418.8</ele></trkpt>
      <trkpt lat="48.877661" lon="10.536450"><ele>418.5</ele></trkpt>
      <trkpt lat="48.877604" lon="10.536325"><ele>418.2</ele></trkpt>
      <trkpt lat="48.877511" lon="10.536075"><ele>418.0</ele></trkpt>
      <trkpt lat="48.877445" lon="10.535891"><ele>418.0</ele></trkpt>
      <trkpt lat="48.877384" lon="10.535691"><ele>418.0</ele></trkpt>
      <trkpt lat="48.877252" lon="10.535303"><ele>418.0</ele></trkpt>
      <trkpt lat="48.877226" lon="10.535219"><ele>418.0</ele></trkpt>
      <trkpt lat="48.877113" lon="10.534859"><ele>418.0</ele></trkpt>
      <trkpt lat="48.876995" lon="10.534752"><ele>418.0</ele></trkpt>
      <trkpt lat="48.876888" lon="10.534734"><ele>417.8</ele></trkpt>
      <trkpt lat="48.876748" lon="10.534736"><ele>417.2</ele></trkpt>
      <trkpt lat="48.876645" lon="10.534742"><ele>417.0</ele></trkpt>
      <trkpt lat="48.876391" lon="10.534730"><ele>417.0</ele></trkpt>
      <trkpt lat="48.876351" lon="10.534732"><ele>417.0</ele></trkpt>
      <trkpt lat="48.876071" lon="10.534720"><ele>417.0</ele></trkpt>
      <trkpt lat="48.875928" lon="10.534718"><ele>417.0</ele></trkpt>
      <trkpt lat="48.875678" lon="10.534746"><ele>417.0</ele></trkpt>
      <trkpt lat="48.875582" lon="10.534796"><ele>417.0</ele></trkpt>
      <trkpt lat="48.875470" lon="10.534895"><ele>417.0</ele></trkpt>
      <trkpt lat="48.875416" lon="10.534997"><ele>417.2</ele></trkpt>
      <trkpt lat="48.875374" lon="10.535096"><ele>417.5</ele></trkpt>
      <trkpt lat="48.875299" lon="10.535353"><ele>417.8</ele></trkpt>
      <trkpt lat="48.875215" lon="10.535586"><ele>417.2</ele></trkpt>
      <trkpt lat="48.875014" lon="10.536103"><ele>417.8</ele></trkpt>
      <trkpt lat="48.874842" lon="10.536384"><ele>417.0</ele></trkpt>
      <trkpt lat="48.874693" lon="10.536656"><ele>417.0</ele></trkpt>
      <trkpt lat="48.874680" lon="10.536689"><ele>417.0</ele></trkpt>
      <trkpt lat="48.874541" lon="10.536902"><ele>417.0</ele></trkpt>
      <trkpt lat="48.874323" lon="10.537221"><ele>417.0</ele></trkpt>
      <trkpt lat="48.874245" lon="10.537323"><ele>417.0</ele></trkpt>
      <trkpt lat="48.874175" lon="10.537457"><ele>417.0</ele></trkpt>
      <trkpt lat="48.874089" lon="10.537591"><ele>417.0</ele></trkpt>
      <trkpt lat="48.873812" lon="10.537916"><ele>417.0</ele></trkpt>
      <trkpt lat="48.873745" lon="10.537971"><ele>417.0</ele></trkpt>
      <trkpt lat="48.873521" lon="10.538196"><ele>417.0</ele></trkpt>
      <trkpt lat="48.873496" lon="10.538227"><ele>417.0</ele></trkpt>
      <trkpt lat="48.873402" lon="10.538303"><ele>417.0</ele></trkpt>
      <trkpt lat="48.873197" lon="10.538443"><ele>417.0</ele></trkpt>
      <trkpt lat="48.873123" lon="10.538526"><ele>417.0</ele></trkpt>
      <trkpt lat="48.872959" lon="10.538658"><ele>417.0</ele></trkpt>
      <trkpt lat="48.872808" lon="10.538784"><ele>417.0</ele></trkpt>
      <trkpt lat="48.872744" lon="10.538841"><ele>417.0</ele></trkpt>
      <trkpt lat="48.872295" lon="10.539199"><ele>416.8</ele></trkpt>
      <trkpt lat="48.872193" lon="10.539289"><ele>416.5</ele></trkpt>
      <trkpt lat="48.872139" lon="10.539284"><ele>416.8</ele></trkpt>
      <trkpt lat="48.871754" lon="10.539552"><ele>417.8</ele></trkpt>
      <trkpt lat="48.871605" lon="10.539689"><ele>417.5</ele></trkpt>
      <trkpt lat="48.871452" lon="10.539878"><ele>417.0</ele></trkpt>
      <trkpt lat="48.871431" lon="10.539950"><ele>417.5</ele></trkpt>
      <trkpt lat="48.871343" lon="10.540065"><ele>417.2</ele></trkpt>
      <trkpt lat="48.871271" lon="10.540198"><ele>416.5</ele></trkpt>
      <trkpt lat="48.871103" lon="10.540619"><ele>416.0</ele></trkpt>
      <trkpt lat="48.870958" lon="10.540963"><ele>416.0</ele></trkpt>
      <trkpt lat="48.870779" lon="10.541238"><ele>416.0</ele></trkpt>
      <trkpt lat="48.870603" lon="10.541417"><ele>416.0</ele></trkpt>
      <trkpt lat="48.870404" lon="10.541566"><ele>416.5</ele></trkpt>
      <trkpt lat="48.869442" lon="10.542058"><ele>416.5</ele></trkpt>
      <trkpt lat="48.869216" lon="10.542140"><ele>416.5</ele></trkpt>
      <trkpt lat="48.869130" lon="10.542233"><ele>416.8</ele></trkpt>
      <trkpt lat="48.869036" lon="10.542358"><ele>416.5</ele></trkpt>
      <trkpt lat="48.868503" lon="10.543359"><ele>416.5</ele></trkpt>
      <trkpt lat="48.868403" lon="10.543532"><ele>416.5</ele></trkpt>
      <trkpt lat="48.868320" lon="10.543609"><ele>416.8</ele></trkpt>
      <trkpt lat="48.868217" lon="10.543660"><ele>416.8</ele></trkpt>
      <trkpt lat="48.866040" lon="10.544047"><ele>421.0</ele></trkpt>
      <trkpt lat="48.865755" lon="10.544150"><ele>421.0</ele></trkpt>
      <trkpt lat="48.864181" lon="10.544929"><ele>422.8</ele></trkpt>
      <trkpt lat="48.864202" lon="10.545042"><ele>422.8</ele></trkpt>
      <trkpt lat="48.864175" lon="10.545565"><ele>422.0</ele></trkpt>
      <trkpt lat="48.864363" lon="10.546682"><ele>421.0</ele></trkpt>
      <trkpt lat="48.864440" lon="10.547273"><ele>421.0</ele></trkpt>
      <trkpt lat="48.864516" lon="10.548231"><ele>420.0</ele></trkpt>
      <trkpt lat="48.864573" lon="10.549330"><ele>419.0</ele></trkpt>
      <trkpt lat="48.864624" lon="10.554660"><ele>416.2</ele></trkpt>
      <trkpt lat="48.864621" lon="10.555179"><ele>416.2</ele></trkpt>
      <trkpt lat="48.864604" lon="10.555551"><ele>416.2</ele></trkpt>
      <trkpt lat="48.864567" lon="10.555921"><ele>416.0</ele></trkpt>
      <trkpt lat="48.864492" lon="10.556380"><ele>416.0</ele></trkpt>
      <trkpt lat="48.864390" lon="10.556863"><ele>416.0</ele></trkpt>
      <trkpt lat="48.864217" lon="10.557469"><ele>416.0</ele></trkpt>
      <trkpt lat="48.864186" lon="10.557574"><ele>415.5</ele></trkpt>
      <trkpt lat="48.863358" lon="10.559417"><ele>414.0</ele></trkpt>
      <trkpt lat="48.862375" lon="10.561538"><ele>414.2</ele></trkpt>
      <trkpt lat="48.862274" lon="10.561800"><ele>414.8</ele></trkpt>
      <trkpt lat="48.862209" lon="10.562092"><ele>414.2</ele></trkpt>
      <trkpt lat="48.862186" lon="10.562131"><ele>414.2</ele></trkpt>
      <trkpt lat="48.862148" lon="10.562150"><ele>414.2</ele></trkpt>
      <trkpt lat="48.862091" lon="10.562143"><ele>414.5</ele></trkpt>
      <trkpt lat="48.862001" lon="10.562319"><ele>414.2</ele></trkpt>
      <trkpt lat="48.861961" lon="10.562411"><ele>414.2</ele></trkpt>
      <trkpt lat="48.861891" lon="10.562774"><ele>413.8</ele></trkpt>
      <trkpt lat="48.861908" lon="10.562986"><ele>414.0</ele></trkpt>
      <trkpt lat="48.861889" lon="10.563480"><ele>414.0</ele></trkpt>
      <trkpt lat="48.861900" lon="10.563897"><ele>414.0</ele></trkpt>
      <trkpt lat="48.861943" lon="10.564271"><ele>414.0</ele></trkpt>
      <trkpt lat="48.862014" lon="10.564691"><ele>414.5</ele></trkpt>
      <trkpt lat="48.862024" lon="10.564856"><ele>414.5</ele></trkpt>
      <trkpt lat="48.861991" lon="10.564969"><ele>414.5</ele></trkpt>
      <trkpt lat="48.862152" lon="10.565592"><ele>414.5</ele></trkpt>
      <trkpt lat="48.862298" lon="10.566188"><ele>414.2</ele></trkpt>
      <trkpt lat="48.862425" lon="10.566685"><ele>415.5</ele></trkpt>
      <trkpt lat="48.862505" lon="10.567044"><ele>415.8</ele></trkpt>
      <trkpt lat="48.862562" lon="10.567390"><ele>416.0</ele></trkpt>
      <trkpt lat="48.862603" lon="10.567578"><ele>416.0</ele></trkpt>
      <trkpt lat="48.862718" lon="10.568035"><ele>416.8</ele></trkpt>
      <trkpt lat="48.862811" lon="10.568408"><ele>417.5</ele></trkpt>
      <trkpt lat="48.862879" lon="10.568714"><ele>418.8</ele></trkpt>
      <trkpt lat="48.862926" lon="10.568984"><ele>419.0</ele></trkpt>
      <trkpt lat="48.862946" lon="10.569129"><ele>419.0</ele></trkpt>
      <trkpt lat="48.862949" lon="10.569153"><ele>419.0</ele></trkpt>
      <trkpt lat="48.863003" lon="10.569552"><ele>419.0</ele></trkpt>
      <trkpt lat="48.863013" lon="10.569651"><ele>419.0</ele></trkpt>
      <trkpt lat="48.863029" lon="10.569841"><ele>419.2</ele></trkpt>
      <trkpt lat="48.863052" lon="10.570043"><ele>420.0</ele></trkpt>
      <trkpt lat="48.863054" lon="10.570061"><ele>420.0</ele></trkpt>
      <trkpt lat="48.862928" lon="10.570080"><ele>420.0</ele></trkpt>
      <trkpt lat="48.862750" lon="10.570131"><ele>420.0</ele></trkpt>
      <trkpt lat="48.862508" lon="10.570224"><ele>420.0</ele></trkpt>
      <trkpt lat="48.862543" lon="10.570565"><ele>420.0</ele></trkpt>
      <trkpt lat="48.862508" lon="10.570224"><ele>420.0</ele></trkpt>
      <trkpt lat="48.862330" lon="10.570270"><ele>420.0</ele></trkpt>
      <trkpt lat="48.862027" lon="10.570363"><ele>420.0</ele></trkpt>
      <trkpt lat="48.862024" lon="10.570566"><ele>420.0</ele></trkpt>
      <trkpt lat="48.861880" lon="10.570556"><ele>420.0</ele></trkpt>
      <trkpt lat="48.861308" lon="10.570548"><ele>420.0</ele></trkpt>
      <trkpt lat="48.861248" lon="10.570547"><ele>420.0</ele></trkpt>
      <trkpt lat="48.861103" lon="10.570418"><ele>420.0</ele></trkpt>
      <trkpt lat="48.861066" lon="10.570608"><ele>420.0</ele></trkpt>
      <trkpt lat="48.861033" lon="10.570876"><ele>420.0</ele></trkpt>
      <trkpt lat="48.860980" lon="10.571099"><ele>420.5</ele></trkpt>
      <trkpt lat="48.860919" lon="10.571276"><ele>420.0</ele></trkpt>
      <trkpt lat="48.860837" lon="10.571428"><ele>420.0</ele></trkpt>
      <trkpt lat="48.860757" lon="10.571557"><ele>420.5</ele></trkpt>
      <trkpt lat="48.860767" lon="10.571896"><ele>421.0</ele></trkpt>
      <trkpt lat="48.860851" lon="10.572255"><ele>421.8</ele></trkpt>
      <trkpt lat="48.860940" lon="10.572590"><ele>421.5</ele></trkpt>
      <trkpt lat="48.861000" lon="10.572918"><ele>422.0</ele></trkpt>
      <trkpt lat="48.861067" lon="10.573371"><ele>421.8</ele></trkpt>
      <trkpt lat="48.860841" lon="10.573471"><ele>422.0</ele></trkpt>
      <trkpt lat="48.860001" lon="10.573847"><ele>422.0</ele></trkpt>
      <trkpt lat="48.859724" lon="10.573979"><ele>422.5</ele></trkpt>
      <trkpt lat="48.859805" lon="10.574672"><ele>422.0</ele></trkpt>
      <trkpt lat="48.859846" lon="10.574967"><ele>422.0</ele></trkpt>
      <trkpt lat="48.859889" lon="10.575284"><ele>422.0</ele></trkpt>
      <trkpt lat="48.859623" lon="10.575478"><ele>422.0</ele></trkpt>
      <trkpt lat="48.859142" lon="10.575900"><ele>422.0</ele></trkpt>
      <trkpt lat="48.859107" lon="10.575900"><ele>422.0</ele></trkpt>
      <trkpt lat="48.859076" lon="10.575888"><ele>422.0</ele></trkpt>
      <trkpt lat="48.858825" lon="10.575340"><ele>422.0</ele></trkpt>
      <trkpt lat="48.858730" lon="10.575455"><ele>422.0</ele></trkpt>
      <trkpt lat="48.858750" lon="10.576104"><ele>422.0</ele></trkpt>
      <trkpt lat="48.858820" lon="10.576614"><ele>421.0</ele></trkpt>
      <trkpt lat="48.858856" lon="10.577008"><ele>421.0</ele></trkpt>
      <trkpt lat="48.858881" lon="10.577367"><ele>421.0</ele></trkpt>
      <trkpt lat="48.858896" lon="10.577730"><ele>421.0</ele></trkpt>
      <trkpt lat="48.858894" lon="10.578151"><ele>421.0</ele></trkpt>
      <trkpt lat="48.858866" lon="10.578348"><ele>420.8</ele></trkpt>
      <trkpt lat="48.858816" lon="10.578556"><ele>420.8</ele></trkpt>
      <trkpt lat="48.858763" lon="10.578728"><ele>420.8</ele></trkpt>
      <trkpt lat="48.858584" lon="10.579074"><ele>420.5</ele></trkpt>
      <trkpt lat="48.858436" lon="10.579308"><ele>420.2</ele></trkpt>
      <trkpt lat="48.858284" lon="10.579514"><ele>420.0</ele></trkpt>
      <trkpt lat="48.858078" lon="10.579773"><ele>420.0</ele></trkpt>
      <trkpt lat="48.857954" lon="10.579966"><ele>420.0</ele></trkpt>
      <trkpt lat="48.857149" lon="10.582039"><ele>419.0</ele></trkpt>
      <trkpt lat="48.856798" lon="10.582770"><ele>419.0</ele></trkpt>
      <trkpt lat="48.856654" lon="10.583044"><ele>418.0</ele></trkpt>
      <trkpt lat="48.856585" lon="10.583216"><ele>418.5</ele></trkpt>
      <trkpt lat="48.856536" lon="10.583411"><ele>418.5</ele></trkpt>
      <trkpt lat="48.856515" lon="10.583656"><ele>418.0</ele></trkpt>
      <trkpt lat="48.856472" lon="10.585549"><ele>417.2</ele></trkpt>
      <trkpt lat="48.856337" lon="10.588073"><ele>416.0</ele></trkpt>
      <trkpt lat="48.854526" lon="10.588619"><ele>414.0</ele></trkpt>
      <trkpt lat="48.852893" lon="10.589093"><ele>415.0</ele></trkpt>
      <trkpt lat="48.853295" lon="10.591456"><ele>414.0</ele></trkpt>
      <trkpt lat="48.853363" lon="10.596674"><ele>410.8</ele></trkpt>
      <trkpt lat="48.850626" lon="10.597019"><ele>411.5</ele></trkpt>
      <trkpt lat="48.850716" lon="10.596508"><ele>411.8</ele></trkpt>
      <trkpt lat="48.850566" lon="10.596505"><ele>411.8</ele></trkpt>
      <trkpt lat="48.848344" lon="10.596577"><ele>413.8</ele></trkpt>
      <trkpt lat="48.845979" lon="10.596636"><ele>416.5</ele></trkpt>
      <trkpt lat="48.845816" lon="10.604844"><ele>415.0</ele></trkpt>
      <trkpt lat="48.845750" lon="10.609837"><ele>412.5</ele></trkpt>
      <trkpt lat="48.845195" lon="10.613924"><ele>412.0</ele></trkpt>
      <trkpt lat="48.845174" lon="10.614148"><ele>412.0</ele></trkpt>
      <trkpt lat="48.845141" lon="10.614407"><ele>411.5</ele></trkpt>
      <trkpt lat="48.845079" lon="10.614589"><ele>411.5</ele></trkpt>
      <trkpt lat="48.845025" lon="10.614706"><ele>411.8</ele></trkpt>
      <trkpt lat="48.844862" lon="10.615060"><ele>411.2</ele></trkpt>
      <trkpt lat="48.844798" lon="10.615241"><ele>411.5</ele></trkpt>
      <trkpt lat="48.844736" lon="10.615447"><ele>411.2</ele></trkpt>
      <trkpt lat="48.844553" lon="10.616111"><ele>411.5</ele></trkpt>
      <trkpt lat="48.844529" lon="10.616187"><ele>411.8</ele></trkpt>
      <trkpt lat="48.844518" lon="10.616228"><ele>411.8</ele></trkpt>
      <trkpt lat="48.844420" lon="10.616610"><ele>412.0</ele></trkpt>
      <trkpt lat="48.844337" lon="10.616992"><ele>412.0</ele></trkpt>
      <trkpt lat="48.844189" lon="10.616955"><ele>412.0</ele></trkpt>
      <trkpt lat="48.844082" lon="10.616928"><ele>412.0</ele></trkpt>
      <trkpt lat="48.844012" lon="10.616903"><ele>412.0</ele></trkpt>
      <trkpt lat="48.843836" lon="10.616838"><ele>412.0</ele></trkpt>
      <trkpt lat="48.843560" lon="10.616731"><ele>411.8</ele></trkpt>
      <trkpt lat="48.843460" lon="10.616685"><ele>412.0</ele></trkpt>
      <trkpt lat="48.843026" lon="10.616417"><ele>412.8</ele></trkpt>
      <trkpt lat="48.842780" lon="10.616213"><ele>413.0</ele></trkpt>
      <trkpt lat="48.842675" lon="10.616126"><ele>412.8</ele></trkpt>
      <trkpt lat="48.841391" lon="10.615827"><ele>412.0</ele></trkpt>
      <trkpt lat="48.841001" lon="10.615760"><ele>412.2</ele></trkpt>
      <trkpt lat="48.840588" lon="10.615725"><ele>412.8</ele></trkpt>
      <trkpt lat="48.840427" lon="10.615713"><ele>412.5</ele></trkpt>
      <trkpt lat="48.840233" lon="10.615643"><ele>411.8</ele></trkpt>
      <trkpt lat="48.840093" lon="10.615551"><ele>412.0</ele></trkpt>
      <trkpt lat="48.839917" lon="10.615357"><ele>412.0</ele></trkpt>
      <trkpt lat="48.839740" lon="10.615065"><ele>412.5</ele></trkpt>
      <trkpt lat="48.839479" lon="10.614581"><ele>412.0</ele></trkpt>
      <trkpt lat="48.838871" lon="10.613660"><ele>412.8</ele></trkpt>
      <trkpt lat="48.838733" lon="10.613484"><ele>412.5</ele></trkpt>
      <trkpt lat="48.838587" lon="10.613353"><ele>412.8</ele></trkpt>
      <trkpt lat="48.838331" lon="10.613245"><ele>413.0</ele></trkpt>
      <trkpt lat="48.838201" lon="10.613154"><ele>413.0</ele></trkpt>
      <trkpt lat="48.837698" lon="10.612931"><ele>413.0</ele></trkpt>
      <trkpt lat="48.837457" lon="10.612737"><ele>413.0</ele></trkpt>
      <trkpt lat="48.836324" lon="10.611309"><ele>412.8</ele></trkpt>
      <trkpt lat="48.835542" lon="10.610740"><ele>412.0</ele></trkpt>
      <trkpt lat="48.835446" lon="10.610655"><ele>412.0</ele></trkpt>
      <trkpt lat="48.835225" lon="10.610473"><ele>412.0</ele></trkpt>
      <trkpt lat="48.835043" lon="10.610267"><ele>412.0</ele></trkpt>
      <trkpt lat="48.834956" lon="10.610123"><ele>412.0</ele></trkpt>
      <trkpt lat="48.834918" lon="10.610014"><ele>412.0</ele></trkpt>
      <trkpt lat="48.834877" lon="10.609862"><ele>412.0</ele></trkpt>
      <trkpt lat="48.834304" lon="10.606378"><ele>411.8</ele></trkpt>
      <trkpt lat="48.833212" lon="10.606591"><ele>411.0</ele></trkpt>
      <trkpt lat="48.832660" lon="10.606721"><ele>411.0</ele></trkpt>
      <trkpt lat="48.830959" lon="10.607204"><ele>411.8</ele></trkpt>
      <trkpt lat="48.830574" lon="10.607262"><ele>411.8</ele></trkpt>
      <trkpt lat="48.829822" lon="10.607104"><ele>412.0</ele></trkpt>
      <trkpt lat="48.829463" lon="10.607042"><ele>412.0</ele></trkpt>
      <trkpt lat="48.829056" lon="10.606968"><ele>412.8</ele></trkpt>
      <trkpt lat="48.828705" lon="10.606856"><ele>413.0</ele></trkpt>
      <trkpt lat="48.828472" lon="10.606770"><ele>413.0</ele></trkpt>
      <trkpt lat="48.827310" lon="10.606219"><ele>414.8</ele></trkpt>
      <trkpt lat="48.826777" lon="10.605960"><ele>416.0</ele></trkpt>
      <trkpt lat="48.826549" lon="10.605817"><ele>416.0</ele></trkpt>
      <trkpt lat="48.826236" lon="10.605713"><ele>416.5</ele></trkpt>
      <trkpt lat="48.825925" lon="10.605734"><ele>417.2</ele></trkpt>
      <trkpt lat="48.825140" lon="10.605918"><ele>419.8</ele></trkpt>
      <trkpt lat="48.823438" lon="10.606287"><ele>430.0</ele></trkpt>
      <trkpt lat="48.823052" lon="10.606330"><ele>430.8</ele></trkpt>
      <trkpt lat="48.821289" lon="10.606781"><ele>422.2</ele></trkpt>
      <trkpt lat="48.821341" lon="10.606326"><ele>422.2</ele></trkpt>
      <trkpt lat="48.821291" lon="10.605596"><ele>420.5</ele></trkpt>
      <trkpt lat="48.821211" lon="10.605124"><ele>419.2</ele></trkpt>
      <trkpt lat="48.820842" lon="10.603759"><ele>416.0</ele></trkpt>
      <trkpt lat="48.820584" lon="10.602875"><ele>414.0</ele></trkpt>
      <trkpt lat="48.820279" lon="10.601931"><ele>411.8</ele></trkpt>
      <trkpt lat="48.819945" lon="10.600997"><ele>410.2</ele></trkpt>
      <trkpt lat="48.820289" lon="10.600410"><ele>411.5</ele></trkpt>
      <trkpt lat="48.820298" lon="10.600285"><ele>411.0</ele></trkpt>
      <trkpt lat="48.820326" lon="10.600077"><ele>411.2</ele></trkpt>
      <trkpt lat="48.820318" lon="10.599922"><ele>411.5</ele></trkpt>
      <trkpt lat="48.820220" lon="10.599052"><ele>411.2</ele></trkpt>
      <trkpt lat="48.820163" lon="10.598797"><ele>411.0</ele></trkpt>
      <trkpt lat="48.820115" lon="10.598640"><ele>411.0</ele></trkpt>
      <trkpt lat="48.820035" lon="10.598468"><ele>411.2</ele></trkpt>
      <trkpt lat="48.819880" lon="10.598233"><ele>411.0</ele></trkpt>
      <trkpt lat="48.819726" lon="10.598054"><ele>411.0</ele></trkpt>
      <trkpt lat="48.819578" lon="10.597856"><ele>410.2</ele></trkpt>
      <trkpt lat="48.819273" lon="10.597315"><ele>409.5</ele></trkpt>
      <trkpt lat="48.818962" lon="10.596301"><ele>410.2</ele></trkpt>
      <trkpt lat="48.818895" lon="10.595941"><ele>410.5</ele></trkpt>
      <trkpt lat="48.818708" lon="10.594936"><ele>409.8</ele></trkpt>
      <trkpt lat="48.818465" lon="10.593700"><ele>409.2</ele></trkpt>
      <trkpt lat="48.818447" lon="10.593082"><ele>409.0</ele></trkpt>
      <trkpt lat="48.818397" lon="10.591348"><ele>409.5</ele></trkpt>
      <trkpt lat="48.818448" lon="10.590610"><ele>409.8</ele></trkpt>
      <trkpt lat="48.818685" lon="10.589400"><ele>409.8</ele></trkpt>
      <trkpt lat="48.818877" lon="10.588662"><ele>410.0</ele></trkpt>
      <trkpt lat="48.819256" lon="10.587649"><ele>410.5</ele></trkpt>
      <trkpt lat="48.819408" lon="10.587409"><ele>410.5</ele></trkpt>
      <trkpt lat="48.819555" lon="10.587178"><ele>410.8</ele></trkpt>
      <trkpt lat="48.820052" lon="10.586818"><ele>411.2</ele></trkpt>
      <trkpt lat="48.820465" lon="10.586698"><ele>411.5</ele></trkpt>
      <trkpt lat="48.820740" lon="10.586688"><ele>411.0</ele></trkpt>
      <trkpt lat="48.820851" lon="10.586635"><ele>409.8</ele></trkpt>
      <trkpt lat="48.820945" lon="10.586558"><ele>409.8</ele></trkpt>
      <trkpt lat="48.821124" lon="10.586283"><ele>409.8</ele></trkpt>
      <trkpt lat="48.821075" lon="10.586114"><ele>409.8</ele></trkpt>
      <trkpt lat="48.821140" lon="10.586082"><ele>409.0</ele></trkpt>
      <trkpt lat="48.821450" lon="10.585932"><ele>409.0</ele></trkpt>
      <trkpt lat="48.822331" lon="10.585448"><ele>409.2</ele></trkpt>
      <trkpt lat="48.822407" lon="10.585339"><ele>409.8</ele></trkpt>
      <trkpt lat="48.822434" lon="10.585212"><ele>410.0</ele></trkpt>
      <trkpt lat="48.822315" lon="10.583891"><ele>410.0</ele></trkpt>
      <trkpt lat="48.822334" lon="10.583759"><ele>410.0</ele></trkpt>
      <trkpt lat="48.822373" lon="10.583666"><ele>410.0</ele></trkpt>
      <trkpt lat="48.822473" lon="10.583597"><ele>410.0</ele></trkpt>
      <trkpt lat="48.823408" lon="10.583216"><ele>410.0</ele></trkpt>
      <trkpt lat="48.824789" lon="10.582530"><ele>410.0</ele></trkpt>
      <trkpt lat="48.825234" lon="10.582215"><ele>410.0</ele></trkpt>
      <trkpt lat="48.828954" lon="10.578011"><ele>410.0</ele></trkpt>
      <trkpt lat="48.829029" lon="10.577901"><ele>410.0</ele></trkpt>
      <trkpt lat="48.828271" lon="10.576227"><ele>410.8</ele></trkpt>
      <trkpt lat="48.827977" lon="10.575693"><ele>411.0</ele></trkpt>
      <trkpt lat="48.827937" lon="10.575622"><ele>410.8</ele></trkpt>
      <trkpt lat="48.827776" lon="10.575316"><ele>411.5</ele></trkpt>
      <trkpt lat="48.827689" lon="10.575119"><ele>411.5</ele></trkpt>
      <trkpt lat="48.827703" lon="10.574868"><ele>411.5</ele></trkpt>
      <trkpt lat="48.827819" lon="10.574343"><ele>412.0</ele></trkpt>
      <trkpt lat="48.827967" lon="10.573472"><ele>415.0</ele></trkpt>
      <trkpt lat="48.828061" lon="10.572938"><ele>415.8</ele></trkpt>
      <trkpt lat="48.828063" lon="10.572832"><ele>415.8</ele></trkpt>
      <trkpt lat="48.828025" lon="10.572721"><ele>416.2</ele></trkpt>
      <trkpt lat="48.828074" lon="10.572630"><ele>416.5</ele></trkpt>
      <trkpt lat="48.828194" lon="10.572356"><ele>417.2</ele></trkpt>
      <trkpt lat="48.828262" lon="10.572160"><ele>417.2</ele></trkpt>
      <trkpt lat="48.828346" lon="10.571921"><ele>417.0</ele></trkpt>
      <trkpt lat="48.828363" lon="10.571858"><ele>417.2</ele></trkpt>
      <trkpt lat="48.828432" lon="10.571604"><ele>417.5</ele></trkpt>
      <trkpt lat="48.828502" lon="10.571342"><ele>417.2</ele></trkpt>
      <trkpt lat="48.828536" lon="10.571237"><ele>417.5</ele></trkpt>
      <trkpt lat="48.828588" lon="10.571072"><ele>418.0</ele></trkpt>
      <trkpt lat="48.828646" lon="10.570913"><ele>417.8</ele></trkpt>
      <trkpt lat="48.828674" lon="10.570858"><ele>417.8</ele></trkpt>
      <trkpt lat="48.828718" lon="10.570773"><ele>417.5</ele></trkpt>
      <trkpt lat="48.828722" lon="10.570652"><ele>417.5</ele></trkpt>
      <trkpt lat="48.828781" lon="10.570435"><ele>417.5</ele></trkpt>
      <trkpt lat="48.828805" lon="10.570344"><ele>417.8</ele></trkpt>
      <trkpt lat="48.829074" lon="10.569656"><ele>418.0</ele></trkpt>
      <trkpt lat="48.829819" lon="10.567848"><ele>417.5</ele></trkpt>
      <trkpt lat="48.830003" lon="10.567345"><ele>417.8</ele></trkpt>
      <trkpt lat="48.830303" lon="10.565852"><ele>418.8</ele></trkpt>
      <trkpt lat="48.830603" lon="10.563737"><ele>419.8</ele></trkpt>
      <trkpt lat="48.832435" lon="10.559917"><ele>418.0</ele></trkpt>
      <trkpt lat="48.832456" lon="10.559867"><ele>418.0</ele></trkpt>
      <trkpt lat="48.831960" lon="10.559437"><ele>419.8</ele></trkpt>
      <trkpt lat="48.834008" lon="10.554154"><ele>428.5</ele></trkpt>
      <trkpt lat="48.836011" lon="10.548979"><ele>427.0</ele></trkpt>
      <trkpt lat="48.838911" lon="10.541541"><ele>418.0</ele></trkpt>
      <trkpt lat="48.839825" lon="10.538465"><ele>422.0</ele></trkpt>
      <trkpt lat="48.840426" lon="10.536163"><ele>424.5</ele></trkpt>
      <trkpt lat="48.840619" lon="10.531692"><ele>426.0</ele></trkpt>
      <trkpt lat="48.840723" lon="10.528893"><ele>426.0</ele></trkpt>
      <trkpt lat="48.841433" lon="10.523761"><ele>425.5</ele></trkpt>
      <trkpt lat="48.841724" lon="10.522682"><ele>426.0</ele></trkpt>
      <trkpt lat="48.842452" lon="10.520286"><ele>426.0</ele></trkpt>
      <trkpt lat="48.842962" lon="10.518746"><ele>426.5</ele></trkpt>
      <trkpt lat="48.843125" lon="10.518318"><ele>427.5</ele></trkpt>
      <trkpt lat="48.843175" lon="10.518166"><ele>430.0</ele></trkpt>
      <trkpt lat="48.843237" lon="10.517968"><ele>430.0</ele></trkpt>
      <trkpt lat="48.843329" lon="10.517666"><ele>427.0</ele></trkpt>
      <trkpt lat="48.843756" lon="10.516325"><ele>427.0</ele></trkpt>
      <trkpt lat="48.844268" lon="10.514558"><ele>427.0</ele></trkpt>
      <trkpt lat="48.844589" lon="10.513473"><ele>427.5</ele></trkpt>
      <trkpt lat="48.844961" lon="10.511962"><ele>427.8</ele></trkpt>
      <trkpt lat="48.845001" lon="10.511702"><ele>428.0</ele></trkpt>
      <trkpt lat="48.845342" lon="10.510040"><ele>429.0</ele></trkpt>
      <trkpt lat="48.845574" lon="10.508949"><ele>429.8</ele></trkpt>
      <trkpt lat="48.845588" lon="10.508874"><ele>430.0</ele></trkpt>
      <trkpt lat="48.845730" lon="10.508428"><ele>430.0</ele></trkpt>
      <trkpt lat="48.845865" lon="10.507950"><ele>430.0</ele></trkpt>
      <trkpt lat="48.845930" lon="10.507688"><ele>430.5</ele></trkpt>
      <trkpt lat="48.846065" lon="10.507039"><ele>431.0</ele></trkpt>
      <trkpt lat="48.846228" lon="10.506158"><ele>430.8</ele></trkpt>
      <trkpt lat="48.846271" lon="10.505828"><ele>431.5</ele></trkpt>
      <trkpt lat="48.846303" lon="10.505734"><ele>432.2</ele></trkpt>
      <trkpt lat="48.846374" lon="10.505537"><ele>433.0</ele></trkpt>
      <trkpt lat="48.846479" lon="10.505264"><ele>432.5</ele></trkpt>
      <trkpt lat="48.846679" lon="10.504816"><ele>432.0</ele></trkpt>
      <trkpt lat="48.846774" lon="10.504673"><ele>431.8</ele></trkpt>
      <trkpt lat="48.846803" lon="10.504618"><ele>431.8</ele></trkpt>
      <trkpt lat="48.846962" lon="10.504212"><ele>431.0</ele></trkpt>
      <trkpt lat="48.846503" lon="10.503808"><ele>431.0</ele></trkpt>
      <trkpt lat="48.846266" lon="10.503594"><ele>430.5</ele></trkpt>
      <trkpt lat="48.846837" lon="10.502171"><ele>431.5</ele></trkpt>
      <trkpt lat="48.846865" lon="10.502057"><ele>431.8</ele></trkpt>
      <trkpt lat="48.846868" lon="10.501931"><ele>431.8</ele></trkpt>
      <trkpt lat="48.846857" lon="10.501634"><ele>431.5</ele></trkpt>
      <trkpt lat="48.846872" lon="10.501495"><ele>431.5</ele></trkpt>
      <trkpt lat="48.846887" lon="10.501373"><ele>431.5</ele></trkpt>
      <trkpt lat="48.846913" lon="10.501276"><ele>431.8</ele></trkpt>
      <trkpt lat="48.847043" lon="10.501073"><ele>431.8</ele></trkpt>
      <trkpt lat="48.847123" lon="10.500962"><ele>431.5</ele></trkpt>
      <trkpt lat="48.847340" lon="10.500693"><ele>431.5</ele></trkpt>
      <trkpt lat="48.847605" lon="10.500399"><ele>432.0</ele></trkpt>
      <trkpt lat="48.847983" lon="10.500116"><ele>432.2</ele></trkpt>
      <trkpt lat="48.848593" lon="10.499678"><ele>434.5</ele></trkpt>
      <trkpt lat="48.848544" lon="10.499494"><ele>432.5</ele></trkpt>
      <trkpt lat="48.848078" lon="10.497878"><ele>433.0</ele></trkpt>
      <trkpt lat="48.848052" lon="10.497789"><ele>433.8</ele></trkpt>
      <trkpt lat="48.848042" lon="10.497727"><ele>433.8</ele></trkpt>
      <trkpt lat="48.848049" lon="10.497681"><ele>433.5</ele></trkpt>
      <trkpt lat="48.848082" lon="10.497598"><ele>433.2</ele></trkpt>
      <trkpt lat="48.848079" lon="10.497383"><ele>433.0</ele></trkpt>
      <trkpt lat="48.848164" lon="10.497355"><ele>433.0</ele></trkpt>
      <trkpt lat="48.848314" lon="10.497297"><ele>433.2</ele></trkpt>
      <trkpt lat="48.848226" lon="10.496576"><ele>433.5</ele></trkpt>
      <trkpt lat="48.848227" lon="10.496307"><ele>434.0</ele></trkpt>
      <trkpt lat="48.848228" lon="10.495947"><ele>434.0</ele></trkpt>
      <trkpt lat="48.848228" lon="10.495824"><ele>434.0</ele></trkpt>
      <trkpt lat="48.848270" lon="10.495453"><ele>434.0</ele></trkpt>
      <trkpt lat="48.848334" lon="10.495385"><ele>434.0</ele></trkpt>
      <trkpt lat="48.849163" lon="10.495078"><ele>433.5</ele></trkpt>
      <trkpt lat="48.849122" lon="10.494833"><ele>434.0</ele></trkpt>
      <trkpt lat="48.849680" lon="10.494588"><ele>434.0</ele></trkpt>
      <trkpt lat="48.849996" lon="10.494469"><ele>433.0</ele></trkpt>
      <trkpt lat="48.850072" lon="10.494708"><ele>433.5</ele></trkpt>
      <trkpt lat="48.850208" lon="10.494702"><ele>433.0</ele></trkpt>
      <trkpt lat="48.850372" lon="10.494589"><ele>431.8</ele></trkpt>
      <trkpt lat="48.850621" lon="10.494365"><ele>431.8</ele></trkpt>
      <trkpt lat="48.850717" lon="10.494328"><ele>431.0</ele></trkpt>
      <trkpt lat="48.850810" lon="10.494358"><ele>431.0</ele></trkpt>
      <trkpt lat="48.851356" lon="10.494642"><ele>430.5</ele></trkpt>
      <trkpt lat="48.851510" lon="10.494740"><ele>430.5</ele></trkpt>
      <trkpt lat="48.851589" lon="10.494849"><ele>430.5</ele></trkpt>
      <trkpt lat="48.851775" lon="10.495206"><ele>430.0</ele></trkpt>
      <trkpt lat="48.851943" lon="10.495420"><ele>429.8</ele></trkpt>
      <trkpt lat="48.852034" lon="10.495486"><ele>430.0</ele></trkpt>
      <trkpt lat="48.852084" lon="10.495488"><ele>430.0</ele></trkpt>
      <trkpt lat="48.852165" lon="10.495459"><ele>430.0</ele></trkpt>
      <trkpt lat="48.852203" lon="10.495435"><ele>430.0</ele></trkpt>
      <trkpt lat="48.852165" lon="10.495306"><ele>430.0</ele></trkpt>
      <trkpt lat="48.852099" lon="10.495080"><ele>430.0</ele></trkpt>
      <trkpt lat="48.851942" lon="10.494555"><ele>429.2</ele></trkpt>
      <trkpt lat="48.851906" lon="10.494420"><ele>429.0</ele></trkpt>
      <trkpt lat="48.851850" lon="10.494187"><ele>429.0</ele></trkpt>
      <trkpt lat="48.851822" lon="10.494045"><ele>429.0</ele></trkpt>
      <trkpt lat="48.851815" lon="10.494022"><ele>429.0</ele></trkpt>
      <trkpt lat="48.851781" lon="10.493881"><ele>429.0</ele></trkpt>
      <trkpt lat="48.851712" lon="10.493623"><ele>429.0</ele></trkpt>
      <trkpt lat="48.851697" lon="10.493562"><ele>429.0</ele></trkpt>
      <trkpt lat="48.851610" lon="10.493230"><ele>429.5</ele></trkpt>
      <trkpt lat="48.851582" lon="10.493131"><ele>429.8</ele></trkpt>
      <trkpt lat="48.851505" lon="10.492840"><ele>429.5</ele></trkpt>
      <trkpt lat="48.851455" lon="10.492658"><ele>429.8</ele></trkpt>
      <trkpt lat="48.851345" lon="10.492144"><ele>430.0</ele></trkpt>
      <trkpt lat="48.851334" lon="10.492099"><ele>430.0</ele></trkpt>
      <trkpt lat="48.851279" lon="10.491809"><ele>430.0</ele></trkpt>
      <trkpt lat="48.851237" lon="10.491513"><ele>430.8</ele></trkpt>
      <trkpt lat="48.851227" lon="10.491365"><ele>431.0</ele></trkpt>
      <trkpt lat="48.851275" lon="10.491346"><ele>431.0</ele></trkpt>
      <trkpt lat="48.851503" lon="10.491302"><ele>430.5</ele></trkpt>
      <trkpt lat="48.851839" lon="10.491215"><ele>430.0</ele></trkpt>
      <trkpt lat="48.851941" lon="10.491192"><ele>430.0</ele></trkpt>
      <trkpt lat="48.852512" lon="10.490974"><ele>429.8</ele></trkpt>
      <trkpt lat="48.852633" lon="10.490916"><ele>429.5</ele></trkpt>
      <trkpt lat="48.852778" lon="10.490826"><ele>429.0</ele></trkpt>
      <trkpt lat="48.853214" lon="10.490479"><ele>429.0</ele></trkpt>
      <trkpt lat="48.853460" lon="10.490261"><ele>429.0</ele></trkpt>
      <trkpt lat="48.853437" lon="10.490214"><ele>429.0</ele></trkpt>
      <trkpt lat="48.853392" lon="10.490143"><ele>429.0</ele></trkpt>
      <trkpt lat="48.853143" lon="10.489674"><ele>429.8</ele></trkpt>
      <trkpt lat="48.853253" lon="10.489452"><ele>429.2</ele></trkpt>
      <trkpt lat="48.853003" lon="10.489020"><ele>430.2</ele></trkpt>
      <trkpt lat="48.852866" lon="10.488645"><ele>430.8</ele></trkpt>
      <trkpt lat="48.852753" lon="10.488560"><ele>430.8</ele></trkpt>
      <trkpt lat="48.852757" lon="10.488486"><ele>430.5</ele></trkpt>
      <trkpt lat="48.852653" lon="10.487943"><ele>429.0</ele></trkpt>
      <trkpt lat="48.852563" lon="10.487562"><ele>428.0</ele></trkpt>
      <trkpt lat="48.852537" lon="10.487587"><ele>428.2</ele></trkpt>
      <trkpt lat="48.852380" lon="10.487693"><ele>428.8</ele></trkpt>
      <trkpt lat="48.852222" lon="10.487803"><ele>429.2</ele></trkpt>
      <trkpt lat="48.852087" lon="10.487923"><ele>430.2</ele></trkpt>
      <trkpt lat="48.851925" lon="10.488047"><ele>430.0</ele></trkpt>
      <trkpt lat="48.851869" lon="10.488098"><ele>430.5</ele></trkpt>
      <trkpt lat="48.851906" lon="10.488321"><ele>431.8</ele></trkpt>
      <trkpt lat="48.851932" lon="10.488480"><ele>432.5</ele></trkpt>
      <trkpt lat="48.851706" lon="10.488623"><ele>432.8</ele></trkpt>
    </trkseg>
  </trk>
</gpx>
